{"type":"FeatureCollection","crs":{"type":"name","properties":{"name":"urn:ogc:def:crs:EPSG::4326"}},"features":[{"type":"Feature","properties":{"region_id":16,"name":"Tolna","name_hu":"Tolnai borvidék","region_group":"Dél-Dunántúl (South Transdanubia)","area_ha_approx":2500,"notable_grapes":"Kékfrankos, Kadarka, Chardonnay, Cabernet Franc","notes":"Central south; loess soils; growing red wine reputation"},"geometry":{"type":"Polygon","coordinates":[[[18.4479685,46.61246],[18.44796,46.6132223],[18.4473855,46.614744],[18.4462623,46.6162628],[18.4462454,46.6177812],[18.4451221,46.6193],[18.4450965,46.6215869],[18.4411604,46.6276586],[18.4322786,46.6310384],[18.4289244,46.6348258],[18.4151099,46.6343716],[18.4068105,46.6347032],[18.4062572,46.6350843],[18.4057039,46.6346969],[18.4049261,46.635664],[18.403919,46.6374945],[18.4034426,46.6391207],[18.4037251,46.6417722],[18.4039576,46.6423045],[18.395703,46.6388299],[18.3951403,46.6399671],[18.393494,46.6391953],[18.3923781,46.6399512],[18.3912853,46.6388044],[18.3896161,46.6391729],[18.3879606,46.6391633],[18.3874071,46.6395443],[18.3873977,46.6403066],[18.3868305,46.6410657],[18.386277,46.6414406],[18.3840682,46.6410496],[18.3840636,46.6414277],[18.3835147,46.6414245],[18.3834913,46.6433271],[18.3840308,46.6440926],[18.3829005,46.6459888],[18.3812259,46.6475038],[18.3767795,46.6490023],[18.3751095,46.6501329],[18.3723563,46.6493542],[18.3701664,46.6474384],[18.36905,46.6481941],[18.3684818,46.6497154],[18.3723229,46.6520192],[18.3723181,46.6524034],[18.371192,46.6539215],[18.3684386,46.6531427],[18.3667833,46.6523704],[18.3662343,46.6523671],[18.3552717,46.6446834],[18.3492185,46.6423592],[18.3558785,46.6408814],[18.3564323,46.6405005],[18.3569901,46.6405039],[18.3603887,46.6336694],[18.3643729,46.6245575],[18.3665953,46.6238085],[18.3649789,46.6207493],[18.358307,46.6233742],[18.3566812,46.6210834],[18.352799,46.6222002],[18.3494849,46.6218018],[18.347825,46.6221696],[18.347306,46.6198793],[18.3473208,46.618739],[18.3406833,46.6186978],[18.3423721,46.6168055],[18.3423771,46.6164213],[18.3407232,46.6156548],[18.3412808,46.6156583],[18.3396561,46.613361],[18.3385599,46.6125918],[18.3379974,46.6129664],[18.3330394,46.6117949],[18.3060655,46.6047667],[18.307182,46.6040116],[18.3083087,46.6025004],[18.3100361,46.5971751],[18.3122892,46.5941464],[18.3134119,46.5922509],[18.3139952,46.5903456],[18.315137,46.5876878],[18.3151474,46.5869255],[18.3157163,46.5854106],[18.315737,46.583886],[18.3168632,46.5823685],[18.3174255,46.5819941],[18.3191153,46.5793397],[18.3059219,46.57468],[18.3127095,46.563301],[18.3167328,46.5515196],[18.3134337,46.5503578],[18.3034729,46.5521957],[18.3018253,46.5518068],[18.2984789,46.5540718],[18.2934474,46.5586065],[18.2911947,46.5616348],[18.2900879,46.5623898],[18.2889667,46.563529],[18.2889507,46.5646693],[18.2832577,46.5764386],[18.2799669,46.5752697],[18.273373,46.5725597],[18.2733675,46.5729439],[18.2722712,46.5729365],[18.2722384,46.5752172],[18.2716264,46.5790248],[18.2699234,46.5824408],[18.2704607,46.5832006],[18.2709795,46.5858756],[18.2709467,46.5881563],[18.270362,46.5900551],[18.270318,46.5931043],[18.2697312,46.5957655],[18.2708205,46.5969135],[18.270793,46.5988223],[18.2724145,46.6011143],[18.2723816,46.6034012],[18.2729137,46.6045453],[18.2723652,46.6045416],[18.2718222,46.6041598],[18.2718441,46.6026352],[18.2707437,46.6022495],[18.267426,46.6022268],[18.2674205,46.6026048],[18.2663035,46.6033595],[18.2657551,46.6033558],[18.2668555,46.6037414],[18.2668445,46.6045037],[18.2673874,46.6048917],[18.2673654,46.6064101],[18.2668169,46.6064064],[18.2662539,46.6067868],[18.2645496,46.6102026],[18.2645385,46.6109649],[18.265628,46.6121129],[18.2650705,46.6121091],[18.2628472,46.6128561],[18.2606606,46.6117005],[18.2579055,46.6112971],[18.2567994,46.6112894],[18.2562362,46.6116697],[18.2501571,46.6116272],[18.2500727,46.6173351],[18.2445506,46.6172962],[18.2305806,46.6274793],[18.2343739,46.6324589],[18.2359833,46.6355137],[18.2381678,46.6374384],[18.233089,46.6442511],[18.2325401,46.6442471],[18.2314218,46.6450015],[18.2285957,46.6491711],[18.2274772,46.6499254],[18.2257807,46.6525784],[18.2252228,46.6525744],[18.2218086,46.6586424],[18.2267568,46.6605811],[18.2278754,46.659833],[18.2465986,46.665297],[18.2460043,46.6683361],[18.2454348,46.6690945],[18.245429,46.6694787],[18.2448743,46.6698529],[18.2442934,46.6713735],[18.2481566,46.6725412],[18.2492831,46.6706463],[18.250943,46.6710361],[18.2509486,46.670658],[18.2515034,46.6702776],[18.2520616,46.6702815],[18.2514245,46.6756137],[18.2475701,46.67444],[18.2458739,46.6770932],[18.2464174,46.6774813],[18.24303,46.6824098],[18.2407579,46.6861993],[18.2395874,46.690381],[18.2268971,46.688003],[18.2246527,46.6898896],[18.2207919,46.6890992],[18.2191232,46.6898494],[18.2190938,46.6917582],[18.2140427,46.6962894],[18.2123469,46.6981798],[18.2106482,46.7008325],[18.2078413,46.7034771],[18.2078353,46.7038613],[18.205052,46.7049812],[18.2022566,46.7068633],[18.2022505,46.7072475],[18.1994819,46.7068426],[18.1966922,46.7083465],[18.1933317,46.7106085],[18.1933257,46.7109865],[18.192758,46.7121227],[18.1904931,46.7151552],[18.1888231,46.715905],[18.1882553,46.7170412],[18.1865518,46.7193154],[18.1848389,46.7227301],[18.1814586,46.726132],[18.1786613,46.7280135],[18.1786552,46.7283916],[18.1769723,46.7299035],[18.1758329,46.7317976],[18.1746996,46.7333137],[18.1741065,46.7359743],[18.1735353,46.7367323],[18.1740941,46.7367366],[18.174088,46.7371147],[18.1746255,46.7378812],[18.1728988,46.7420579],[18.1722903,46.7451028],[18.1721291,46.7550001],[18.1709766,46.7576564],[18.1698488,46.7587944],[18.1687176,46.7606885],[18.1675835,46.7622045],[18.1664369,46.7644766],[18.1663932,46.7671415],[18.1674962,46.7675343],[18.1746189,46.7721573],[18.1796251,46.7710551],[18.1812937,46.7710678],[18.1824153,46.7703139],[18.1868437,46.7703475],[18.1989234,46.7776715],[18.2000269,46.778064],[18.202231,46.7784585],[18.206681,46.777729],[18.2083408,46.7777413],[18.2094443,46.7781337],[18.210779,46.778241],[18.2082515,46.7834553],[18.2065677,46.7849677],[18.2048421,46.7891387],[18.2048241,46.7902852],[18.2036845,46.7921796],[18.2036247,46.7959848],[18.2041571,46.7971355],[18.2041392,46.7982758],[18.2046867,46.7990422],[18.2046689,46.8001825],[18.2040915,46.8013187],[18.2040795,46.802081],[18.2029276,46.8047377],[18.2029215,46.8051219],[18.201213,46.8081526],[18.2011949,46.8092991],[18.2000547,46.8111935],[18.1983638,46.8130837],[18.1988844,46.8149904],[18.1988603,46.816515],[18.1993718,46.8195683],[18.1993597,46.8203306],[18.1987941,46.8207045],[18.1993417,46.8214709],[18.200374,46.8264309],[18.2014516,46.8279575],[18.2008947,46.8283376],[18.2025381,46.8294903],[18.2046876,46.8340742],[18.2046696,46.8352208],[18.2051786,46.8378897],[18.2051607,46.8390301],[18.2039872,46.8435894],[18.2039213,46.8477789],[18.2033673,46.8473967],[18.2022263,46.8492911],[18.2010733,46.8519477],[18.1982218,46.8568788],[18.1975501,46.8644914],[18.2062088,46.8673624],[18.2093519,46.8656833],[18.2115629,46.8649276],[18.21731,46.8618187],[18.226445,46.8592201],[18.2304066,46.8578764],[18.2425372,46.8629088],[18.2424915,46.8659579],[18.2457459,46.8713112],[18.2428804,46.8773838],[18.2605861,46.8816972],[18.2617202,46.8801803],[18.2611654,46.8797984],[18.2617369,46.87904],[18.2633998,46.8790514],[18.2645669,46.8752538],[18.2685469,46.868804],[18.2690926,46.8691858],[18.2713098,46.8695852],[18.2718646,46.8699671],[18.277942,46.871533],[18.2901107,46.875042],[18.2901161,46.8746639],[18.2906763,46.8746676],[18.2978559,46.8769959],[18.296129,46.8815587],[18.2999994,46.8827246],[18.29382,46.8876362],[18.3109715,46.8926942],[18.3103952,46.8938372],[18.3137206,46.8946209],[18.3275451,46.8992769],[18.3359214,46.8962801],[18.3375898,46.8959124],[18.350369,46.8956069],[18.3732807,46.8847059],[18.4058408,46.902031],[18.4167097,46.9068445],[18.4174359,46.9059007],[18.4179435,46.9049132],[18.4200829,46.9021686],[18.4210526,46.9014374],[18.4220716,46.901924],[18.4233802,46.902102],[18.4265879,46.902073],[18.4300855,46.9028758],[18.4372513,46.9036003],[18.4394313,46.9042214],[18.4507429,46.9102699],[18.4551626,46.9129581],[18.4595821,46.9148837],[18.4607028,46.9141271],[18.4639736,46.9202364],[18.4639777,46.9198584],[18.4695065,46.9221673],[18.4841446,46.9047252],[18.505721,46.9135872],[18.5057171,46.9139715],[18.5156817,46.9178238],[18.523978,46.9212896],[18.5234188,46.9220494],[18.52786,46.9220697],[18.5278563,46.9224477],[18.5256106,46.9254868],[18.5244868,46.9266221],[18.5211078,46.9307963],[18.5210966,46.9319367],[18.5199726,46.9330781],[18.5271678,46.9365385],[18.5317725,46.9286025],[18.5322443,46.9289444],[18.5356478,46.9221048],[18.5395949,46.9160299],[18.5401573,46.914892],[18.5407145,46.9152726],[18.5418142,46.9156617],[18.5540102,46.9191363],[18.5618403,46.9134616],[18.5701548,46.9161617],[18.5817786,46.9211618],[18.5795303,46.9238177],[18.5761615,46.9283717],[18.5755973,46.9287474],[18.5761582,46.9287497],[18.5772742,46.9283763],[18.5783845,46.9276185],[18.5789453,46.9276208],[18.5800546,46.9280096],[18.582261,46.929159],[18.5828153,46.9299236],[18.5866889,46.931842],[18.5883567,46.9314707],[18.5972433,46.9322622],[18.5972369,46.9330245],[18.5977946,46.9334109],[18.5983464,46.9334131],[18.5989265,46.9311284],[18.6144682,46.9334754],[18.6189803,46.9247348],[18.62287,46.9258898],[18.6239645,46.9270342],[18.6250502,46.9304656],[18.6250442,46.9312279],[18.626148,46.9323724],[18.6272368,46.9354258],[18.6283318,46.9377168],[18.6283288,46.9380948],[18.6294269,46.9400016],[18.6294209,46.9407639],[18.6310562,46.9445815],[18.6310503,46.9453376],[18.6321634,46.9453417],[18.6506073,46.9317039],[18.664465,46.9370813],[18.6761298,46.9394005],[18.7059967,46.9473536],[18.7079124,46.9440818],[18.7096651,46.9391663],[18.7101204,46.9339804],[18.7107535,46.9306158],[18.7112956,46.9255291],[18.7116472,46.923801],[18.7116494,46.9221206],[18.711285,46.920457],[18.7107982,46.9187958],[18.7100943,46.9171499],[18.7097418,46.9154605],[18.7097573,46.9120654],[18.708993,46.905988],[18.7090694,46.9047042],[18.7086597,46.8999628],[18.7086516,46.8980599],[18.7361583,46.9090043],[18.7597371,46.8809145],[18.7871231,46.891652],[18.7899037,46.888237],[18.7949791,46.8873871],[18.796071,46.8879868],[18.7969011,46.8887486],[18.7975022,46.8880975],[18.7985392,46.8891496],[18.7985345,46.8880543],[18.7990806,46.8872028],[18.8010463,46.8854421],[18.8021676,46.8841517],[18.8019716,46.8840538],[18.8023832,46.8835578],[18.80487,46.8808177],[18.805104,46.8807606],[18.8054443,46.8803766],[18.8053216,46.8803259],[18.8073261,46.8781081],[18.8074802,46.8781707],[18.8075738,46.8780598],[18.8074435,46.8780048],[18.8078721,46.8775172],[18.8150491,46.8696503],[18.8157539,46.8685924],[18.8166813,46.8660951],[18.8268559,46.8700128],[18.8292054,46.867506],[18.829029,46.8669147],[18.8388186,46.8587488],[18.8442198,46.8615467],[18.8425983,46.8643467],[18.8406864,46.8681489],[18.8394864,46.87294],[18.8387002,46.877666],[18.8397205,46.8811472],[18.8408911,46.8836399],[18.8498044,46.8880512],[18.8501168,46.8877455],[18.8626285,46.8944188],[18.865143,46.8914512],[18.8694578,46.886826],[18.8726871,46.8838712],[18.8740411,46.8821706],[18.8761238,46.8790329],[18.8804493,46.8718928],[18.8825751,46.869344],[18.8840354,46.8665794],[18.884977,46.8666949],[18.8853724,46.865212],[18.8844234,46.8650998],[18.8845389,46.863211],[18.8847538,46.8623409],[18.8858624,46.8596336],[18.889007,46.855006],[18.901033,46.8566036],[18.9024307,46.8562515],[18.9041359,46.8569053],[18.9026057,46.8598716],[18.9041163,46.8601133],[18.9059473,46.8583769],[18.9136541,46.8592136],[18.9136402,46.859102],[18.9173346,46.8594598],[18.9176495,46.8570804],[18.9250892,46.8571724],[18.9242645,46.854259],[18.9248337,46.8462644],[18.9248623,46.8336953],[18.9254175,46.8317932],[18.9248736,46.8287495],[18.9243332,46.8241749],[18.92489,46.8215105],[18.9265598,46.8177068],[18.9287873,46.8146598],[18.9321248,46.8116201],[18.9354522,46.8089583],[18.9404474,46.8070604],[18.9443322,46.805155],[18.9471142,46.8040171],[18.9498877,46.8024948],[18.9537711,46.8009796],[18.9498946,46.7986894],[18.9526704,46.7956424],[18.9537817,46.794881],[18.9554505,46.7899365],[18.956568,46.7853634],[18.957679,46.7846081],[18.9587887,46.784609],[18.9604506,46.7834637],[18.9604512,46.7830856],[18.9615621,46.7823241],[18.9621149,46.7807998],[18.9660021,46.7754725],[18.9660027,46.7750945],[18.9671133,46.7743329],[18.9704527,46.7667181],[18.9710061,46.7644315],[18.9715674,46.7629072],[18.9715711,46.7602421],[18.9704619,46.7602414],[18.9704614,46.7606256],[18.968239,46.7632892],[18.9665751,46.7663312],[18.9643529,46.7686166],[18.9638015,46.7693785],[18.9084209,46.755615],[18.9001133,46.7533175],[18.9078855,46.7464725],[18.9067785,46.745715],[18.9056796,46.7453294],[18.9051217,46.7449506],[18.9045717,46.7449499],[18.8984847,46.7422771],[18.9001486,46.7403703],[18.8984931,46.7392277],[18.9023744,46.73733],[18.9045899,46.7380951],[18.9073642,46.7354335],[18.9029355,46.733141],[18.9007179,46.7365655],[18.8990514,46.7361853],[18.8962766,46.7388468],[18.8957267,46.738846],[18.8946126,46.7407473],[18.8957192,46.7415111],[18.890174,46.7418817],[18.8857477,46.7418755],[18.8879552,46.745306],[18.8680561,46.7323291],[18.8614463,46.7201335],[18.8581342,46.7189877],[18.8564788,46.7182226],[18.8553773,46.716318],[18.856491,46.7147952],[18.8598267,46.7090863],[18.8692667,46.7014843],[18.8870242,46.6855202],[18.8914481,46.684764],[18.898657,46.6798215],[18.900871,46.6802087],[18.9014296,46.676782],[18.9019889,46.6763984],[18.9025401,46.6756368],[18.9025422,46.6748806],[18.9036516,46.6741197],[18.9030945,46.6737347],[18.9025452,46.673734],[18.9019981,46.672971],[18.9003356,46.6718285],[18.8981292,46.6687824],[18.8970404,46.6653536],[18.898146,46.66269],[18.8992574,46.6611667],[18.9026065,46.6508888],[18.9037195,46.6486032],[18.907602,46.6436559],[18.9081519,46.6432785],[18.9114752,46.6421421],[18.9170019,46.6413862],[18.9170075,46.6390992],[18.917569,46.6375752],[18.9114867,46.6375681],[18.9098302,46.6379504],[18.8888199,46.6383011],[18.8855032,46.6371561],[18.8827422,46.636774],[18.8805359,46.6344838],[18.8777859,46.6306681],[18.8755788,46.628762],[18.8722819,46.6245672],[18.8689752,46.6207566],[18.8623618,46.6161782],[18.8612622,46.6142736],[18.8590763,46.6066528],[18.8596457,46.6032264],[18.8613094,46.600564],[18.8629716,46.5982797],[18.8640852,46.5959945],[18.8668567,46.5925715],[18.8712922,46.5887729],[18.8735085,46.5872517],[18.8779364,46.5826905],[18.8812659,46.5785057],[18.8845825,46.5754673],[18.8895702,46.5693818],[18.8901328,46.5674737],[18.8934493,46.5640508],[18.8956714,46.5598702],[18.89736,46.5503463],[18.8973663,46.5480655],[18.8962731,46.5438743],[18.8957302,46.5389215],[18.8968486,46.5339771],[18.8957494,46.5320666],[18.8907846,46.5316818],[18.8830666,46.5301463],[18.8626744,46.5247848],[18.862119,46.5244058],[18.8621164,46.5251619],[18.8632195,46.525548],[18.8643213,46.5263121],[18.864878,46.526313],[18.8659837,46.5259305],[18.8670778,46.5263165],[18.867632,46.5270797],[18.8676295,46.5278359],[18.8681759,46.528221],[18.8720358,46.5286051],[18.8742434,46.5289927],[18.8775532,46.5301382],[18.8764451,46.5312769],[18.8714756,46.5324159],[18.8637452,46.5346845],[18.8620838,46.5346818],[18.8587764,46.5354387],[18.8576692,46.5361992],[18.8571187,46.5369606],[18.8571066,46.540388],[18.8554491,46.5392448],[18.8543459,46.5388587],[18.8537994,46.5384797],[18.8532426,46.5384787],[18.8504826,46.5392363],[18.849378,46.5392344],[18.8455033,46.542655],[18.8421837,46.5464546],[18.8394128,46.5475899],[18.8372121,46.5475859],[18.8366537,46.5479691],[18.8360998,46.5494928],[18.8344425,46.5506301],[18.8305693,46.5510008],[18.8195462,46.5490765],[18.8184446,46.5483119],[18.8156984,46.5456413],[18.8151415,46.5456401],[18.8151399,46.5460244],[18.8129286,46.5463979],[18.8107246,46.5471557],[18.8101677,46.5471545],[18.8101661,46.5475326],[18.8112659,46.5486815],[18.8090528,46.5494392],[18.8062866,46.5513361],[18.8040666,46.5536122],[18.8018518,46.5566568],[18.7974123,46.5608369],[18.795179,46.5657841],[18.7946273,46.566539],[18.7940684,46.566922],[18.7940613,46.5684467],[18.7929614,46.5692066],[18.7907364,46.5722447],[18.7885166,46.5741424],[18.7797146,46.5676514],[18.7813793,46.5653683],[18.76598,46.5546708],[18.766543,46.5535256],[18.7637781,46.5531406],[18.7621312,46.5519961],[18.7593941,46.5523783],[18.7593988,46.5542699],[18.7528683,46.5680532],[18.7504872,46.5677871],[18.7504425,46.5702437],[18.7509844,46.5713856],[18.7520897,46.5713884],[18.752073,46.5744378],[18.7526281,46.5748173],[18.7526094,46.5782447],[18.7536997,46.5793879],[18.7542507,46.580536],[18.7564576,46.581304],[18.7581033,46.5828267],[18.7603083,46.5839789],[18.7608566,46.5839803],[18.76363,46.5813221],[18.7647435,46.5798002],[18.7680699,46.5779057],[18.771948,46.5752501],[18.7736036,46.5748698],[18.7763588,46.5756388],[18.7791249,46.5760234],[18.7807785,46.5760273],[18.7829875,46.5764167],[18.7857429,46.5771854],[18.7879446,46.5790933],[18.789041,46.5809985],[18.7923377,46.583293],[18.7967494,46.5855836],[18.7967476,46.5859679],[18.7956367,46.5871058],[18.7961832,46.5874913],[18.7972695,46.5916835],[18.79837,46.5928263],[18.7789185,46.6175364],[18.7700323,46.6262727],[18.7600245,46.6372863],[18.7556102,46.6349942],[18.7512073,46.6323178],[18.750107,46.6311683],[18.7479003,46.6300221],[18.7462556,46.628115],[18.7445999,46.6265859],[18.7440555,46.6258221],[18.7429662,46.622776],[18.7385781,46.617812],[18.7374827,46.6159063],[18.7347281,46.6132336],[18.7319761,46.6117014],[18.7314387,46.6097971],[18.7297907,46.6086459],[18.7292399,46.6075039],[18.7275944,46.6059746],[18.7275966,46.6055966],[18.7204281,46.602911],[18.7182185,46.6025204],[18.7171102,46.6029014],[18.7138013,46.6028918],[18.7071818,46.6017255],[18.7049747,46.6009627],[18.6865571,46.6283191],[18.6826528,46.6336369],[18.6670173,46.6564374],[18.660922,46.6579415],[18.6575925,46.6590706],[18.6537165,46.6598196],[18.6514973,46.6617146],[18.6481673,46.6628434],[18.6439137,46.6610042],[18.6409895,46.6609152],[18.6387812,46.6612915],[18.6376741,46.6612821],[18.6376828,46.660141],[18.6382319,46.660143],[18.6387957,46.6593826],[18.6398909,46.6597708],[18.6399255,46.6552031],[18.6393967,46.6525299],[18.6394024,46.6517737],[18.6416192,46.6513974],[18.6410641,46.6510174],[18.6410698,46.650255],[18.6405238,46.6498688],[18.6405295,46.6491127],[18.6399802,46.6479641],[18.6394341,46.647584],[18.639437,46.6471998],[18.6388939,46.6464355],[18.6377928,46.6456754],[18.6317038,46.6464094],[18.6300361,46.6467876],[18.6294901,46.6464013],[18.6289589,46.6441185],[18.6278669,46.6422117],[18.6273239,46.6403007],[18.626232,46.6383939],[18.6256951,46.6368672],[18.6284987,46.6315474],[18.6301687,46.6296507],[18.62962,46.6296487],[18.6285164,46.6292666],[18.6274099,46.6292625],[18.6263094,46.6284961],[18.6257666,46.6277317],[18.6235567,46.6273392],[18.6213497,46.6265748],[18.620804,46.6261885],[18.6197006,46.6258063],[18.6191519,46.6258042],[18.6180334,46.6273185],[18.6163782,46.6273122],[18.6158296,46.6261697],[18.6158387,46.6250293],[18.6169512,46.6242712],[18.6169603,46.6231308],[18.6164147,46.6227445],[18.6147537,46.6223601],[18.6131048,46.6215914],[18.6120046,46.6208249],[18.6125625,46.6196866],[18.6125686,46.6189242],[18.6114929,46.616255],[18.6109352,46.6162529],[18.6098846,46.6093939],[18.6098908,46.6086316],[18.6121061,46.6082558],[18.6132152,46.607882],[18.6143304,46.6067458],[18.6154395,46.6063658],[18.6159911,46.6059898],[18.6182031,46.6059982],[18.6193152,46.60524],[18.6198727,46.6041017],[18.6209787,46.6041058],[18.6209817,46.6037216],[18.6215332,46.6033456],[18.6215363,46.6029613],[18.6209878,46.6029593],[18.6204514,46.6014325],[18.6198939,46.6014304],[18.618794,46.6006701],[18.6176881,46.600666],[18.6160429,46.5995131],[18.6144008,46.5979822],[18.6144038,46.5976041],[18.6127436,46.5972197],[18.6111048,46.5953044],[18.6116652,46.5949285],[18.6116714,46.5941662],[18.611114,46.594164],[18.6105748,46.5930215],[18.6122321,46.5926436],[18.6133378,46.5926479],[18.613347,46.5915075],[18.6127927,46.5911273],[18.6122412,46.5915032],[18.6116929,46.5915011],[18.6111386,46.5911209],[18.6111417,46.5907367],[18.6128049,46.5896026],[18.6133745,46.5880801],[18.6144802,46.5880843],[18.6144832,46.5877063],[18.613929,46.5873199],[18.612275,46.5873135],[18.610618,46.5876914],[18.6095154,46.5873029],[18.6084098,46.5872987],[18.6078587,46.5865342],[18.6078618,46.5861561],[18.6089736,46.5853981],[18.6084284,46.5850117],[18.6073197,46.5853917],[18.6067683,46.5857676],[18.606211,46.5857654],[18.6051116,46.5849988],[18.6051147,46.5846207],[18.6056751,46.5842448],[18.6056783,46.5838606],[18.6040154,46.5838541],[18.602922,46.5834717],[18.6029251,46.5830875],[18.604028,46.5823295],[18.6040311,46.5819514],[18.6029376,46.581569],[18.6023867,46.5808045],[18.6023898,46.5804203],[18.6029502,46.5800444],[18.601851,46.5792777],[18.6024087,46.5781395],[18.6024181,46.5769929],[18.6013095,46.5773728],[18.6013064,46.5777509],[18.6007582,46.5777487],[18.6001978,46.5781308],[18.5990892,46.5785045],[18.5968936,46.5777335],[18.5957882,46.5777291],[18.5946859,46.5773466],[18.5935869,46.5765799],[18.5930451,46.5758153],[18.5913921,46.5746683],[18.5908439,46.5746661],[18.5908536,46.5735195],[18.5914179,46.571619],[18.5919815,46.5708589],[18.5925489,46.5685803],[18.5903384,46.5685714],[18.58757,46.5697007],[18.5870186,46.5700765],[18.5864647,46.5696962],[18.5859166,46.569694],[18.5842534,46.5708276],[18.5836962,46.5708253],[18.5820264,46.5727213],[18.580363,46.5738611],[18.5786806,46.576135],[18.5792246,46.5776619],[18.5786607,46.578422],[18.5781092,46.5787977],[18.5770071,46.5784151],[18.5748061,46.5772655],[18.5764698,46.5761258],[18.57538,46.5753589],[18.5770469,46.5738474],[18.5759615,46.5715558],[18.5645139,46.5796186],[18.5645824,46.5808191],[18.5648254,46.5817914],[18.5659898,46.5830419],[18.5671879,46.585087],[18.568098,46.5871378],[18.5680811,46.5886602],[18.5702553,46.5928592],[18.5712303,46.5951446],[18.5691294,46.5951353],[18.5685686,46.5955172],[18.5635491,46.6008262],[18.5629973,46.6012019],[18.5624398,46.6011995],[18.561336,46.6019572],[18.5613257,46.6031038],[18.5607648,46.6034794],[18.5590931,46.605375],[18.5585322,46.6057569],[18.5574317,46.6061302],[18.5535352,46.6084004],[18.551318,46.6099154],[18.5485362,46.6121841],[18.5457521,46.6136965],[18.5424141,46.6167312],[18.5401909,46.6178617],[18.5368613,46.6189872],[18.530207,46.6216222],[18.526332,46.6223669],[18.5241045,46.6238813],[18.5191078,46.6261452],[18.5126824,46.6276659],[18.5095632,46.6296757],[18.5052374,46.6314102],[18.5041577,46.6287399],[18.5064204,46.6237984],[18.5064243,46.6234142],[18.5058832,46.6226554],[18.5070048,46.6211361],[18.5070239,46.6192334],[18.5042614,46.6184578],[18.502618,46.6173033],[18.4998685,46.6161497],[18.4987623,46.6161443],[18.4960168,46.6146063],[18.4960207,46.6142283],[18.4954709,46.6134632],[18.4954904,46.6115605],[18.497193,46.607757],[18.4972046,46.6066167],[18.4966665,46.6047113],[18.4966938,46.6020462],[18.4972746,46.599762],[18.497294,46.5978593],[18.4967443,46.5970943],[18.4962232,46.5944266],[18.4962387,46.592902],[18.4968065,46.5910019],[18.4962932,46.5875719],[18.4968727,46.5845253],[18.4991031,46.5826333],[18.4991147,46.5814929],[18.4974765,46.5799603],[18.4952499,46.5814742],[18.4891702,46.5818225],[18.4880528,46.5829637],[18.4852777,46.5844685],[18.4824903,46.587126],[18.480251,46.5897799],[18.4775034,46.5886195],[18.4730808,46.5885972],[18.4647813,46.5904639],[18.4603337,46.5927219],[18.4592197,46.5934785],[18.4575364,46.5961349],[18.4564014,46.5987941],[18.4558487,46.5991755],[18.4536286,46.5999263],[18.4530718,46.6006796],[18.4497288,46.6029491],[18.4497034,46.605236],[18.4502393,46.6063793],[18.4480363,46.6063677],[18.4463685,46.6067369],[18.444714,46.6067282],[18.4452582,46.6071153],[18.4513116,46.6094344],[18.4507547,46.6101876],[18.4490826,46.6109412],[18.4479685,46.61246]]]}}]}