{
"type": "FeatureCollection",
"name": "Bonnezeaux",
"crs": { "type": "name", "properties": { "name": "urn:ogc:def:crs:OGC:1.3:CRS84" } },
"features": [
{ "type": "Feature", "properties": { "Name": null, "id": "" }, "geometry": { "type": "MultiPolygon", "coordinates": [ [ [ [ -0.4694324648973, 47.263207717549399 ], [ -0.469592932634711, 47.2629716685245 ], [ -0.469773152176457, 47.262706976022599 ], [ -0.470114423761659, 47.262207999937402 ], [ -0.470313490982941, 47.261919790509999 ], [ -0.470456698191978, 47.261718292134503 ], [ -0.4706690073265, 47.261433082716302 ], [ -0.470787146634241, 47.261275308996503 ], [ -0.471062161585502, 47.260955366124499 ], [ -0.471764194747324, 47.261156919684602 ], [ -0.472685766336887, 47.261421495222002 ], [ -0.473192324861933, 47.2615669169884 ], [ -0.472930137044611, 47.261695892816903 ], [ -0.472794733749837, 47.261721062841097 ], [ -0.472717421191803, 47.261749403535802 ], [ -0.472395643177037, 47.261876414621703 ], [ -0.472347475919396, 47.261895501521998 ], [ -0.47216328547697, 47.2619715498912 ], [ -0.47202726594572, 47.262065231935303 ], [ -0.471980178820811, 47.262067651558098 ], [ -0.47189172153404, 47.2621128160579 ], [ -0.471735317316358, 47.262188905556897 ], [ -0.471607117058989, 47.262247929921799 ], [ -0.471269699746974, 47.262424913829797 ], [ -0.47105466472259, 47.262537451345402 ], [ -0.470921377764873, 47.2625954197052 ], [ -0.470861271794964, 47.262616593580702 ], [ -0.470793118906945, 47.2626406576641 ], [ -0.470574981899593, 47.2627978206378 ], [ -0.470449780731989, 47.262886301680801 ], [ -0.470325530278935, 47.262975366875501 ], [ -0.470091431454043, 47.263138143089598 ], [ -0.469858666095193, 47.263399254480703 ], [ -0.469824650823406, 47.263406301165702 ], [ -0.469755234736379, 47.263371072453403 ], [ -0.469717862678811, 47.263352177125199 ], [ -0.469673328686673, 47.263329585277901 ], [ -0.46965063848326, 47.263318090251403 ], [ -0.46959316632007, 47.2632890641272 ], [ -0.4694324648973, 47.263207717549399 ] ] ], [ [ [ -0.468797736715832, 47.2642854956907 ], [ -0.468852331621538, 47.264174429722701 ], [ -0.468955175537087, 47.2639647338289 ], [ -0.46898923940344, 47.2639006268816 ], [ -0.469222543374055, 47.263541378101898 ], [ -0.469399958158891, 47.2632758331237 ], [ -0.469868585694244, 47.263502613752898 ], [ -0.470134806275867, 47.263652215089202 ], [ -0.47048509404386, 47.263831018609501 ], [ -0.47081120052016, 47.263975221100502 ], [ -0.470946572756539, 47.264029984195901 ], [ -0.471053592203846, 47.264065726333598 ], [ -0.47127820099312, 47.264138119339599 ], [ -0.471405880887484, 47.2641819924009 ], [ -0.471444924175956, 47.264205631145003 ], [ -0.471482159715202, 47.264242264148201 ], [ -0.471495884389677, 47.264269463571203 ], [ -0.471491698082157, 47.264298091477897 ], [ -0.471466252202903, 47.264329590817397 ], [ -0.471415465114664, 47.264354676072301 ], [ -0.471344632381037, 47.264378270968997 ], [ -0.471217578239916, 47.264406568096199 ], [ -0.470889816622321, 47.264479992444898 ], [ -0.470825520549856, 47.264486954808 ], [ -0.470680019860924, 47.2644885266307 ], [ -0.470644428207067, 47.264486140915999 ], [ -0.470533628893104, 47.264478572525803 ], [ -0.470053995821878, 47.264425256520902 ], [ -0.468797736715832, 47.2642854956907 ] ] ], [ [ [ -0.469903843336923, 47.263456394090198 ], [ -0.46993863154878, 47.2634109003532 ], [ -0.470130066841311, 47.2631864311698 ], [ -0.470199493672072, 47.2631410898952 ], [ -0.470581829329336, 47.2628806541804 ], [ -0.470830336137275, 47.262707352895497 ], [ -0.471143056826662, 47.262571561374102 ], [ -0.471504455555203, 47.262388137559398 ], [ -0.471840489365836, 47.262217412132301 ], [ -0.471968888449713, 47.2621672035541 ], [ -0.472188595036557, 47.262057975602303 ], [ -0.472337288255259, 47.261991623309598 ], [ -0.472820100629696, 47.261786247211198 ], [ -0.472909275047696, 47.261776970315204 ], [ -0.473300121504843, 47.261610635694502 ], [ -0.47520541013735, 47.262287875737002 ], [ -0.475396446072546, 47.261870586649401 ], [ -0.476836982398187, 47.262044866092403 ], [ -0.477150761513865, 47.2614258955509 ], [ -0.477228265086016, 47.2613784602012 ], [ -0.477241577730022, 47.261370221041297 ], [ -0.477368659800861, 47.2612924081782 ], [ -0.477397677918662, 47.261316372739898 ], [ -0.477422956703377, 47.261337169367998 ], [ -0.477470786751571, 47.261290822277502 ], [ -0.477476364148137, 47.261193558439402 ], [ -0.477518928878025, 47.261147873912101 ], [ -0.477530807736959, 47.261135072966098 ], [ -0.477650136500588, 47.261088410059699 ], [ -0.477687755440771, 47.261052209528401 ], [ -0.477702510889556, 47.260998375004696 ], [ -0.47775154249472, 47.260864681432302 ], [ -0.478248668362354, 47.260768384427401 ], [ -0.478435876834634, 47.260725027473697 ], [ -0.478604560735749, 47.2606597069299 ], [ -0.478631234674673, 47.260706134588602 ], [ -0.478670375061432, 47.260774391924798 ], [ -0.479076855902088, 47.260975741986798 ], [ -0.479220900766941, 47.261051979453804 ], [ -0.47933863094774, 47.261125969815097 ], [ -0.47946081613576, 47.261196185777798 ], [ -0.479579919339758, 47.261265818288102 ], [ -0.47963000715031, 47.261298089044999 ], [ -0.479685664537353, 47.261337870206503 ], [ -0.479728489412682, 47.261392887170601 ], [ -0.479721306893812, 47.261474709011097 ], [ -0.479712126281869, 47.261576568853698 ], [ -0.479715950398935, 47.261639488013998 ], [ -0.479733279082299, 47.261717366022602 ], [ -0.479742919959394, 47.261825329203504 ], [ -0.480033555328436, 47.261782415370703 ], [ -0.480056912041475, 47.2618691506921 ], [ -0.480036790876321, 47.261933915137199 ], [ -0.480008616585746, 47.262031911665801 ], [ -0.480004213605221, 47.262094311845203 ], [ -0.480011597611115, 47.262189087156699 ], [ -0.480011395017249, 47.2622100715149 ], [ -0.480074905196004, 47.262353886361502 ], [ -0.480100011853497, 47.2624870403315 ], [ -0.480145423279632, 47.262643464608402 ], [ -0.480109924873374, 47.262700129976203 ], [ -0.480043598306547, 47.262761523596097 ], [ -0.479937672900818, 47.262780941895699 ], [ -0.479779967397851, 47.262786946750097 ], [ -0.479488607883784, 47.2628637278724 ], [ -0.479109629084929, 47.262913941447202 ], [ -0.477939630509784, 47.2630692161407 ], [ -0.477898679894194, 47.263064812725098 ], [ -0.476837536080005, 47.262992384507001 ], [ -0.476555576473529, 47.263645038445603 ], [ -0.476454397178444, 47.263757676830402 ], [ -0.476377473723435, 47.263801048040001 ], [ -0.476282763575999, 47.263868426923501 ], [ -0.476126063371324, 47.2639963910052 ], [ -0.476012256275626, 47.264079814628602 ], [ -0.475895641561641, 47.264198412155103 ], [ -0.475847504405602, 47.264213273282998 ], [ -0.47580870826706, 47.264225195989603 ], [ -0.475559027191173, 47.2645011364651 ], [ -0.475210843192482, 47.264885974598002 ], [ -0.475018137139848, 47.265143778121796 ], [ -0.474879431448273, 47.265367882538797 ], [ -0.474459299670461, 47.265281973344997 ], [ -0.473529512395173, 47.264888858522099 ], [ -0.472680420845611, 47.264267182122502 ], [ -0.472669570154055, 47.264259261886998 ], [ -0.472633688878415, 47.264232942589302 ], [ -0.472691052488844, 47.264192674070301 ], [ -0.47220710245687, 47.263895426831702 ], [ -0.472163860843706, 47.263865615230799 ], [ -0.472140831016232, 47.263849697312999 ], [ -0.472111890504607, 47.263829784224001 ], [ -0.472075927921174, 47.263812847903402 ], [ -0.47189574554025, 47.263934426473497 ], [ -0.471644376747605, 47.264103012608999 ], [ -0.471570421065854, 47.264124980038403 ], [ -0.471459698340054, 47.264154230170597 ], [ -0.471034808083253, 47.264007751798701 ], [ -0.470821317678434, 47.263918525879099 ], [ -0.470602939951554, 47.2638292476597 ], [ -0.470475406420795, 47.263767536140499 ], [ -0.469903843336923, 47.263456394090198 ] ], [ [ -0.47520541013735, 47.262287875737002 ], [ -0.475163414211124, 47.262379608561602 ], [ -0.475205412042686, 47.262287876414199 ], [ -0.47520541013735, 47.262287875737002 ] ] ], [ [ [ -0.475567953164617, 47.267348775625997 ], [ -0.475958289400195, 47.267315409654103 ], [ -0.476218448794739, 47.267293668503001 ], [ -0.476302980256049, 47.267286565039299 ], [ -0.47653723926381, 47.2673001219231 ], [ -0.477129561537942, 47.267360935753103 ], [ -0.478181935572283, 47.267471185812902 ], [ -0.478026388072512, 47.267626655914597 ], [ -0.477809713407757, 47.267841775761703 ], [ -0.47751782722782, 47.268102279090797 ], [ -0.477333778249159, 47.268261306422502 ], [ -0.47705691150692, 47.268126665165703 ], [ -0.476522867501064, 47.267866576543703 ], [ -0.47634559627541, 47.267780166911301 ], [ -0.4761725004083, 47.267684827835097 ], [ -0.47600100450259, 47.267589449554002 ], [ -0.475567953164617, 47.267348775625997 ] ] ], [ [ [ -0.484210119738995, 47.264290371006602 ], [ -0.484294273505109, 47.264142831760303 ], [ -0.484590938655334, 47.263808462220901 ], [ -0.48495141108795, 47.263925937863597 ], [ -0.48519648797444, 47.264005204563901 ], [ -0.48545178132586, 47.2641039974732 ], [ -0.485660570567125, 47.264176667648698 ], [ -0.485739782385923, 47.264204158292202 ], [ -0.485925543455587, 47.264266499625599 ], [ -0.486164766568485, 47.264346697338802 ], [ -0.48649272588351, 47.264445077955401 ], [ -0.486610569024836, 47.264480354377099 ], [ -0.486795123915754, 47.264534890806303 ], [ -0.487013195491978, 47.264587355426102 ], [ -0.487488532249785, 47.2647019900283 ], [ -0.487873459120367, 47.264799346887699 ], [ -0.487977286086326, 47.264845037231296 ], [ -0.488019464079533, 47.264742111470099 ], [ -0.488175479434842, 47.2644539479424 ], [ -0.488440218708836, 47.2645215414219 ], [ -0.488729805709934, 47.2646164387657 ], [ -0.489047429819012, 47.264714159167298 ], [ -0.489233665035342, 47.264757214876902 ], [ -0.489477796043495, 47.264805250004102 ], [ -0.489581333856655, 47.264783092374898 ], [ -0.489641649731421, 47.264800876335698 ], [ -0.489837921410481, 47.264866364546897 ], [ -0.489698933132538, 47.265079061722297 ], [ -0.489840353379609, 47.265125285863299 ], [ -0.490047286139046, 47.265219955891098 ], [ -0.490090433157233, 47.265217981038198 ], [ -0.490429790007808, 47.265293740731998 ], [ -0.490370500924238, 47.265455774321801 ], [ -0.489983821337112, 47.265915342085897 ], [ -0.49049948978476, 47.266129019651103 ], [ -0.490477329349401, 47.266160604749103 ], [ -0.49005263365016, 47.2662016057686 ], [ -0.489765634148981, 47.266228619829903 ], [ -0.489644657417333, 47.266223655747801 ], [ -0.48941360871178, 47.266155591355101 ], [ -0.489282608115841, 47.266121443584602 ], [ -0.489192805606138, 47.266118685668502 ], [ -0.488936284927613, 47.266131903140199 ], [ -0.488775412320934, 47.266162670231097 ], [ -0.488658663288441, 47.266241139829397 ], [ -0.488570807330525, 47.266295058089099 ], [ -0.488451111816034, 47.266349366677801 ], [ -0.488372261298839, 47.266373988341002 ], [ -0.488075837753482, 47.266432650124202 ], [ -0.487924595652716, 47.266465775546997 ], [ -0.487519000515875, 47.266573470903801 ], [ -0.487414829156305, 47.2665965377251 ], [ -0.487356953386745, 47.266609831268802 ], [ -0.487183319700263, 47.2666498200484 ], [ -0.486827394056957, 47.266713692693301 ], [ -0.48659687747928, 47.266755977191202 ], [ -0.486560905637842, 47.266763069598802 ], [ -0.486410241149345, 47.266792679229603 ], [ -0.486239584524577, 47.2668289905248 ], [ -0.486041150629619, 47.266887493629 ], [ -0.485863382839653, 47.266776701465503 ], [ -0.48544976890437, 47.266579336736797 ], [ -0.485338160078709, 47.266687124216801 ], [ -0.485323138798198, 47.266702696783703 ], [ -0.485230452352487, 47.266799137734601 ], [ -0.484721626726957, 47.266833736012302 ], [ -0.48461877598767, 47.2665065997152 ], [ -0.484640136876683, 47.266457738196102 ], [ -0.484739134839406, 47.266229011409003 ], [ -0.484828104602821, 47.266033044639499 ], [ -0.48485367055822, 47.265995951565699 ], [ -0.485000075833122, 47.266033957559898 ], [ -0.485225506900969, 47.266100829734803 ], [ -0.485332470132642, 47.266140787067201 ], [ -0.485447620068974, 47.266157771665704 ], [ -0.48575004903285, 47.266225094278496 ], [ -0.485764615461537, 47.266200884473001 ], [ -0.486376914505466, 47.265181694148502 ], [ -0.486421897928829, 47.265107052309801 ], [ -0.486288541446388, 47.265068556590101 ], [ -0.486131886719837, 47.265021704997999 ], [ -0.486112135805478, 47.265015792792703 ], [ -0.486000431679361, 47.264981088187703 ], [ -0.485955649115172, 47.264967241792 ], [ -0.485889228222347, 47.264946548649696 ], [ -0.485683397670867, 47.264887496041098 ], [ -0.485502347188815, 47.264819641907401 ], [ -0.485438009651253, 47.2647955516927 ], [ -0.485266027532412, 47.2647640104449 ], [ -0.485234146141, 47.264753740876799 ], [ -0.485153867455125, 47.264723281188097 ], [ -0.484951287701943, 47.2646453410254 ], [ -0.484734694440586, 47.264550538103897 ], [ -0.48452359611242, 47.264466761661801 ], [ -0.484499003694894, 47.264457020738703 ], [ -0.48425488623792, 47.2642988838424 ], [ -0.484210119738995, 47.264290371006602 ] ] ], [ [ [ -0.475006904849021, 47.265770459776 ], [ -0.47542347481812, 47.265378733384502 ], [ -0.475894128482234, 47.264941787154903 ], [ -0.475601244662431, 47.264818905214703 ], [ -0.476385345357195, 47.264064229200301 ], [ -0.476627620242307, 47.264164629956198 ], [ -0.477739664705412, 47.263450543998601 ], [ -0.477795473603109, 47.263465459414903 ], [ -0.477820601313451, 47.263458550846501 ], [ -0.477889566434089, 47.263439495510902 ], [ -0.478356270441295, 47.263347914332101 ], [ -0.478530945491265, 47.2633046632806 ], [ -0.478724739907589, 47.263281311814602 ], [ -0.478737633723247, 47.263237166116497 ], [ -0.478835319340399, 47.263161423437502 ], [ -0.479343485831326, 47.263091401382802 ], [ -0.479643077953619, 47.263037469468003 ], [ -0.479783696376339, 47.263003700353302 ], [ -0.479892144850904, 47.263107003225997 ], [ -0.480046958998689, 47.263244544684198 ], [ -0.480082072950529, 47.2632356777398 ], [ -0.480389314849985, 47.263377861133101 ], [ -0.48042843280732, 47.263379714444902 ], [ -0.480523940893597, 47.263384398306201 ], [ -0.481270983680321, 47.263886170547899 ], [ -0.481317358665796, 47.263935448310001 ], [ -0.48147314576151, 47.264021116843303 ], [ -0.481500992333882, 47.264067598799102 ], [ -0.481541410565725, 47.264102168731199 ], [ -0.481724219386493, 47.264200947830403 ], [ -0.481840388733946, 47.264262745418698 ], [ -0.481857784111769, 47.264276442744901 ], [ -0.481875428852418, 47.264298071524102 ], [ -0.481836225351182, 47.264351685728897 ], [ -0.48181291538157, 47.264383573929102 ], [ -0.481768993907512, 47.264443439465701 ], [ -0.481747768822842, 47.264499937934097 ], [ -0.481742634271373, 47.264545509037802 ], [ -0.481753258993015, 47.264604042640798 ], [ -0.481758495682951, 47.264633163028201 ], [ -0.481800781154799, 47.264697756472998 ], [ -0.481906539637284, 47.264835417341203 ], [ -0.48206560767043, 47.2649955369872 ], [ -0.48209283616685, 47.265022870370899 ], [ -0.482146324025008, 47.265087091162101 ], [ -0.482180926250012, 47.265128720217596 ], [ -0.482200838121596, 47.265152641808498 ], [ -0.482292737870808, 47.265190441044901 ], [ -0.48233431470012, 47.265246945441497 ], [ -0.482451834074855, 47.265376484833098 ], [ -0.482632300206075, 47.265533572961701 ], [ -0.482781025576563, 47.26569356988 ], [ -0.48285711137416, 47.265766960792597 ], [ -0.482914736024368, 47.265811655670902 ], [ -0.483259538787231, 47.265998462816398 ], [ -0.483352082716141, 47.266110873412003 ], [ -0.483158466809545, 47.266198153052301 ], [ -0.48290120564829, 47.266332265781699 ], [ -0.482930009917835, 47.266374492357798 ], [ -0.483211941528046, 47.266683291030702 ], [ -0.483204848266198, 47.266689046098698 ], [ -0.482848006689496, 47.267021632375403 ], [ -0.483075151792031, 47.267229042298801 ], [ -0.483145231471923, 47.2672738765216 ], [ -0.483284335651904, 47.267350942731802 ], [ -0.483320822867473, 47.267366075732397 ], [ -0.483293461020271, 47.267398978042003 ], [ -0.483166314196655, 47.267558161852897 ], [ -0.483114989128521, 47.267600642186999 ], [ -0.482912918952078, 47.267748523752203 ], [ -0.482808209088155, 47.2678264361193 ], [ -0.482723841407445, 47.267894464666 ], [ -0.482670586373648, 47.267952925687297 ], [ -0.482603209985389, 47.268026769613698 ], [ -0.482562800677788, 47.268050791062699 ], [ -0.482513595294501, 47.268062884467497 ], [ -0.482397942147951, 47.268071467973897 ], [ -0.482283478718496, 47.268080024639097 ], [ -0.481974266939398, 47.267959414655799 ], [ -0.48165196231023, 47.267838377066703 ], [ -0.481521513952309, 47.267789443527803 ], [ -0.481073051618761, 47.267618017213003 ], [ -0.481049422525941, 47.267641741520002 ], [ -0.480481933913248, 47.267605550626797 ], [ -0.480341022193745, 47.2675965614999 ], [ -0.48005257404761, 47.267576249435002 ], [ -0.479426871397202, 47.267529752848702 ], [ -0.478782111537747, 47.267464937178701 ], [ -0.47821251978239, 47.267406630696399 ], [ -0.47850823689214, 47.267168799863001 ], [ -0.478153912841098, 47.266969324446798 ], [ -0.477647787175097, 47.266687245004 ], [ -0.477345515151598, 47.266519349186702 ], [ -0.47695951340472, 47.266303194507003 ], [ -0.477100082094219, 47.266192834798403 ], [ -0.477231547577222, 47.266089713652001 ], [ -0.477467261065289, 47.265907626471098 ], [ -0.477585312486428, 47.265816531781702 ], [ -0.477753542896702, 47.265686489811799 ], [ -0.47778836158549, 47.265659537871102 ], [ -0.477982414268589, 47.265507553394599 ], [ -0.478277673357214, 47.265275674850102 ], [ -0.47847684202595, 47.265120760465599 ], [ -0.478578911380253, 47.265047238574702 ], [ -0.478789967326227, 47.264901951368401 ], [ -0.479125280760685, 47.264672779286599 ], [ -0.479117274242129, 47.2646666846546 ], [ -0.479109300371847, 47.264660480906898 ], [ -0.479069714764981, 47.264687188873097 ], [ -0.478802300850354, 47.264867545677497 ], [ -0.478486931035633, 47.265076221412301 ], [ -0.478354056138614, 47.265179377448803 ], [ -0.4779863135775, 47.265465957555897 ], [ -0.477891437884328, 47.265540200218901 ], [ -0.477716588145682, 47.265677586928298 ], [ -0.477532743712608, 47.265820415625299 ], [ -0.477165001133878, 47.266104469639799 ], [ -0.476926828895831, 47.2662901172354 ], [ -0.476911922949117, 47.266283373315702 ], [ -0.476879481921098, 47.266305144268401 ], [ -0.476708603573283, 47.266432993393103 ], [ -0.476642314066494, 47.266482407652497 ], [ -0.476625640582373, 47.266494784518201 ], [ -0.476309434992722, 47.266361078156102 ], [ -0.475768812637972, 47.2661293169038 ], [ -0.475388947233355, 47.265954046532997 ], [ -0.475109899711032, 47.265822674389199 ], [ -0.475006904849021, 47.265770459776 ] ] ], [ [ [ -0.477282525782744, 47.267269623410101 ], [ -0.477527790225052, 47.267083257875598 ], [ -0.477574926604658, 47.2670255055341 ], [ -0.47762330362478, 47.266966265139999 ], [ -0.477761098837808, 47.2667975228226 ], [ -0.477932978793179, 47.266894527077604 ], [ -0.47809541162705, 47.266985876105402 ], [ -0.478260040777508, 47.267078627857501 ], [ -0.478368927479106, 47.267139962565501 ], [ -0.478398609028554, 47.267161032430501 ], [ -0.478408213476533, 47.267180145497598 ], [ -0.478405700709832, 47.267197765816803 ], [ -0.47824619193008, 47.267330475542103 ], [ -0.478184196948795, 47.267379149059003 ], [ -0.478151942681778, 47.2674044201299 ], [ -0.478078263086436, 47.267396132545301 ], [ -0.477876584403128, 47.267373599351203 ], [ -0.477366857532594, 47.267316899069598 ], [ -0.477282525782744, 47.267269623410101 ] ] ], [ [ [ -0.49638827521992, 47.270698539856603 ], [ -0.496395032053034, 47.2706762402821 ], [ -0.496423244213831, 47.270661782335601 ], [ -0.4965396647815, 47.270630552360302 ], [ -0.49700808129861, 47.270533006332101 ], [ -0.497278000749883, 47.270530262140497 ], [ -0.497432768618955, 47.270573344474798 ], [ -0.497537956122251, 47.270634133762897 ], [ -0.497592714144766, 47.270731714746702 ], [ -0.497658237108033, 47.270785193829703 ], [ -0.497476384259829, 47.270932067950298 ], [ -0.497558488211647, 47.2709892822187 ], [ -0.497525264129811, 47.2710284295284 ], [ -0.497535519341332, 47.271034851627 ], [ -0.496881985176448, 47.2715446199729 ], [ -0.496852605074299, 47.271551922194597 ], [ -0.496830660310812, 47.271536976440501 ], [ -0.496655889099136, 47.2711563731349 ], [ -0.49638827521992, 47.270698539856603 ] ] ], [ [ [ -0.488901134059265, 47.274934434297698 ], [ -0.48880080877311, 47.274884872275003 ], [ -0.48777952513558, 47.274299830293401 ], [ -0.48789211387316, 47.274245493610699 ], [ -0.487970279315303, 47.2742052497278 ], [ -0.488082744062644, 47.274138408913998 ], [ -0.488210085628601, 47.274012781348198 ], [ -0.48836349953701, 47.273865183654401 ], [ -0.488563035586298, 47.273681621670498 ], [ -0.488658035739763, 47.273602158243598 ], [ -0.489036716194578, 47.2732774767709 ], [ -0.489113358137966, 47.273214019734198 ], [ -0.489341337143994, 47.2731053762298 ], [ -0.489396169489393, 47.273087118185899 ], [ -0.48959357659168, 47.273028812187498 ], [ -0.489641548375938, 47.273017654151801 ], [ -0.490052926083964, 47.272791451560202 ], [ -0.490275048778989, 47.272814817700798 ], [ -0.490296772634423, 47.272928048534901 ], [ -0.490306494295384, 47.2730069471747 ], [ -0.490324724168638, 47.273281756646 ], [ -0.490334729358607, 47.273400873175198 ], [ -0.490337771199149, 47.273556064288996 ], [ -0.490330195124757, 47.273655443664303 ], [ -0.490299948668136, 47.273766183882103 ], [ -0.490279494438633, 47.273824480933797 ], [ -0.490194003474313, 47.274013975769599 ], [ -0.490050493274987, 47.274253598605597 ], [ -0.490008795996006, 47.274313039653599 ], [ -0.489869507257253, 47.274472983435501 ], [ -0.489802825472803, 47.274539970922397 ], [ -0.489650501578182, 47.274673137691899 ], [ -0.489494956800271, 47.2747881262734 ], [ -0.489428052725645, 47.274833772458599 ], [ -0.489372033248574, 47.274874747589699 ], [ -0.489325444745608, 47.274904165750002 ], [ -0.489099036719573, 47.275032217004998 ], [ -0.488901134059265, 47.274934434297698 ] ] ], [ [ [ -0.495741027200513, 47.275521202845802 ], [ -0.495762109835429, 47.275407547261302 ], [ -0.495774567134193, 47.275340794304199 ], [ -0.495791844877765, 47.275247204479498 ], [ -0.495839484860242, 47.274990504464903 ], [ -0.495863857103278, 47.274849283134998 ], [ -0.495867401439259, 47.274828675514797 ], [ -0.495919645456354, 47.274669158861201 ], [ -0.495979981565699, 47.274484662089698 ], [ -0.496172136478481, 47.273897826827302 ], [ -0.496227574917169, 47.273725985224303 ], [ -0.496231211989203, 47.273714737549199 ], [ -0.496234043413844, 47.273705757988601 ], [ -0.496241559336956, 47.273682705655702 ], [ -0.496436420106894, 47.273306526953299 ], [ -0.496830012334775, 47.272685121255797 ], [ -0.496955585666712, 47.272479416849997 ], [ -0.497964141203743, 47.272798425346302 ], [ -0.498260881610535, 47.272892210510499 ], [ -0.498699456993465, 47.273062105122101 ], [ -0.498749448548153, 47.273094983822098 ], [ -0.498874583205325, 47.273147456376599 ], [ -0.499356447584838, 47.273293414745602 ], [ -0.499467132972078, 47.273335238841902 ], [ -0.499597763607635, 47.273391978346098 ], [ -0.500490733572386, 47.273954868266898 ], [ -0.500490499100586, 47.273965490713202 ], [ -0.500488757788785, 47.274026937595302 ], [ -0.500619398710622, 47.274111214384398 ], [ -0.500756147978687, 47.274188241706199 ], [ -0.500512212043263, 47.2743171067399 ], [ -0.499991279833932, 47.274552151323597 ], [ -0.49978488081755, 47.274625804521797 ], [ -0.49982478716077, 47.274654445506599 ], [ -0.499862878931321, 47.274647113908401 ], [ -0.4999093815356, 47.274646331971098 ], [ -0.499975856779758, 47.274645235473599 ], [ -0.500223989426689, 47.274553092360598 ], [ -0.500314308287799, 47.274513157865499 ], [ -0.500437934008235, 47.274445300854303 ], [ -0.500575711397429, 47.274396913487202 ], [ -0.500707237877541, 47.274350742235598 ], [ -0.500759386075543, 47.274341715324098 ], [ -0.500926322829074, 47.274339504353797 ], [ -0.501062435550543, 47.274305197320402 ], [ -0.501236949849997, 47.274273803618399 ], [ -0.501385772971533, 47.274274833362803 ], [ -0.501490262790715, 47.2742818876889 ], [ -0.501487973943489, 47.274266277060399 ], [ -0.501520740799372, 47.274258105453299 ], [ -0.501652957229123, 47.274224969705301 ], [ -0.501760524213591, 47.274210988467502 ], [ -0.501853336435985, 47.274282420819098 ], [ -0.502055409186969, 47.2741077600461 ], [ -0.502770684956177, 47.274003681061501 ], [ -0.503017498256878, 47.273936487986198 ], [ -0.503033531025254, 47.273947429987601 ], [ -0.503405083089082, 47.273803547265103 ], [ -0.503477515738885, 47.2737754599083 ], [ -0.50366532784466, 47.273738091603498 ], [ -0.503813609343984, 47.2737085139389 ], [ -0.503937214116554, 47.273675131106799 ], [ -0.504206781298439, 47.273576230618701 ], [ -0.504374865124409, 47.273506205436902 ], [ -0.504440279960236, 47.273470210319601 ], [ -0.505037872268447, 47.273088510109702 ], [ -0.505309354671292, 47.272893253426702 ], [ -0.505378096973291, 47.272827725973499 ], [ -0.505441569664332, 47.272827519064798 ], [ -0.505451532651594, 47.272848511718003 ], [ -0.50539590076997, 47.273013885377203 ], [ -0.505368367761925, 47.273065713190803 ], [ -0.505302763996611, 47.273154989831298 ], [ -0.50516599386943, 47.273308776670703 ], [ -0.5048902132163, 47.273584895716297 ], [ -0.504832359161766, 47.2736334767039 ], [ -0.504808978277189, 47.273626397661197 ], [ -0.5046058132542, 47.273752912815603 ], [ -0.504496972399478, 47.273842919106102 ], [ -0.504304111541565, 47.2740186126452 ], [ -0.504219062248607, 47.274096031579298 ], [ -0.504136191125861, 47.274171528269598 ], [ -0.503976391820953, 47.274315601340803 ], [ -0.503805380815187, 47.274469880415197 ], [ -0.503622166811154, 47.274621202758297 ], [ -0.503547452194313, 47.274703427280798 ], [ -0.503441362026257, 47.274867521813803 ], [ -0.503293502770034, 47.275096453409297 ], [ -0.503246810610826, 47.275183850573001 ], [ -0.503174036423463, 47.275320201450803 ], [ -0.503071529968617, 47.275454422750201 ], [ -0.502990950082081, 47.275590883146499 ], [ -0.502761209834565, 47.275979643861398 ], [ -0.502599671904517, 47.276265092181902 ], [ -0.502580588950235, 47.276301389634199 ], [ -0.502489916952894, 47.276429728811401 ], [ -0.502382290280937, 47.276522651794103 ], [ -0.502347111892063, 47.276562490226098 ], [ -0.501890030538265, 47.277078624277799 ], [ -0.501425847766659, 47.276908396594301 ], [ -0.500522664656912, 47.276619774806498 ], [ -0.5003836544957, 47.276575391347798 ], [ -0.500152010596207, 47.276532019860198 ], [ -0.499980691981135, 47.276481321055797 ], [ -0.499589014323709, 47.276525250797199 ], [ -0.499417813704061, 47.276509475542603 ], [ -0.499221890827895, 47.276491238100803 ], [ -0.498898092617542, 47.2764612966334 ], [ -0.498502142476131, 47.276434567628002 ], [ -0.498445677964124, 47.276419852670003 ], [ -0.498380104685848, 47.276402916375901 ], [ -0.498126427291078, 47.276313554062497 ], [ -0.498054073243512, 47.276288054143102 ], [ -0.497704848791929, 47.276165113645298 ], [ -0.497612794553644, 47.276132728338503 ], [ -0.497515211116522, 47.276098392086098 ], [ -0.497094433823847, 47.275950204722697 ], [ -0.496994859659649, 47.275913143593698 ], [ -0.496879355069244, 47.275870155782101 ], [ -0.496785052504918, 47.275840234664102 ], [ -0.496716455795289, 47.275818531542299 ], [ -0.496274831102932, 47.275678512508101 ], [ -0.495741027200513, 47.275521202845802 ] ] ], [ [ [ -0.490085188718686, 47.275144464893799 ], [ -0.490220868034193, 47.274984584524702 ], [ -0.49015881532025, 47.2749649064313 ], [ -0.490214876491333, 47.274880369065599 ], [ -0.490576398495827, 47.274335080061903 ], [ -0.490565068354752, 47.274256500231203 ], [ -0.490577144026872, 47.274238988188898 ], [ -0.490654308016863, 47.274124492464999 ], [ -0.490708240596561, 47.2740467503058 ], [ -0.490787843479927, 47.273929045107799 ], [ -0.490842543671613, 47.273848044700898 ], [ -0.490872727658171, 47.273803377042199 ], [ -0.491012398016863, 47.2735958046663 ], [ -0.491113145871769, 47.273625392035498 ], [ -0.491140387260727, 47.273557662862302 ], [ -0.491223199503491, 47.273322948013103 ], [ -0.491269572991746, 47.273192086219403 ], [ -0.491347451100098, 47.2730515527563 ], [ -0.491378562676469, 47.272966990979697 ], [ -0.491400316946881, 47.272876168763297 ], [ -0.491423797870407, 47.272724738564698 ], [ -0.491426524720938, 47.272706399542301 ], [ -0.49142863072138, 47.272693377864002 ], [ -0.491485222761463, 47.272688762990498 ], [ -0.491529065207947, 47.272679674946602 ], [ -0.491760691185878, 47.272532942967203 ], [ -0.491871211673035, 47.272462182756001 ], [ -0.49193440556422, 47.272421656999903 ], [ -0.492283642461461, 47.272198011462599 ], [ -0.49221453746058, 47.271567093296802 ], [ -0.492952680095282, 47.271665689853798 ], [ -0.492119151142875, 47.271554349814501 ], [ -0.492188927418743, 47.2713332641368 ], [ -0.492205908949064, 47.2712340246594 ], [ -0.492211032192609, 47.271108586016098 ], [ -0.492181827187985, 47.2709864342144 ], [ -0.492131838527314, 47.270974071516299 ], [ -0.492570322318061, 47.270512973529399 ], [ -0.492610691739362, 47.2704910223447 ], [ -0.492759236889299, 47.270451916762902 ], [ -0.49283244153823, 47.2704452597333 ], [ -0.493484777267596, 47.2704046083756 ], [ -0.493728237052897, 47.2703893509944 ], [ -0.493915592523836, 47.270366222893301 ], [ -0.493933699702902, 47.270418258295898 ], [ -0.49407668458378, 47.2705088113415 ], [ -0.494139190875517, 47.270577846658 ], [ -0.494154659728542, 47.270582607018497 ], [ -0.494248648794214, 47.270654478185598 ], [ -0.494316730643574, 47.270706440118502 ], [ -0.494449684907926, 47.270799692071499 ], [ -0.494541608293759, 47.270869714878302 ], [ -0.494659432009279, 47.270959529775403 ], [ -0.494763441842591, 47.271052923939799 ], [ -0.494812557226958, 47.271091327555801 ], [ -0.494872278854445, 47.271120391091898 ], [ -0.495107257017073, 47.271231914672299 ], [ -0.495316047927847, 47.271306001238301 ], [ -0.495385999362786, 47.271358383821799 ], [ -0.495551059131608, 47.271441195736003 ], [ -0.495576345615179, 47.271489184644501 ], [ -0.49566695012437, 47.271661768304803 ], [ -0.49571551231452, 47.271754103040898 ], [ -0.495768651465235, 47.2718388473834 ], [ -0.495826818291228, 47.271910517858601 ], [ -0.495849513685798, 47.271927234418001 ], [ -0.496085382021032, 47.272100754306202 ], [ -0.496238928267758, 47.272222643207698 ], [ -0.496338288607894, 47.272311039817701 ], [ -0.496403655132131, 47.2723690209681 ], [ -0.49662245254359, 47.272497060807297 ], [ -0.496738468831191, 47.2725825938046 ], [ -0.496730500629264, 47.272616996088999 ], [ -0.49668939701834, 47.272697220089903 ], [ -0.496602576519017, 47.2728309443782 ], [ -0.49659401451488, 47.272844025720502 ], [ -0.496581535260472, 47.272863235757903 ], [ -0.49626213294322, 47.2733548208708 ], [ -0.496181316790569, 47.2735293562097 ], [ -0.496129371278967, 47.273667191870601 ], [ -0.496076462194966, 47.273807111129699 ], [ -0.496031795751332, 47.273934940927802 ], [ -0.495991270204949, 47.274071062414201 ], [ -0.494673898730617, 47.273842149593897 ], [ -0.494372465796965, 47.273789768581899 ], [ -0.494237537075114, 47.273756636365697 ], [ -0.493398027146699, 47.273680097255998 ], [ -0.493360094901616, 47.273818121993799 ], [ -0.493352631399981, 47.273844849136601 ], [ -0.493323243332184, 47.2739517977272 ], [ -0.49331279094049, 47.2739765423172 ], [ -0.493289757838135, 47.274031376245397 ], [ -0.493256631928262, 47.274109970692997 ], [ -0.493226922263547, 47.274180631370697 ], [ -0.493224507714543, 47.274202745781601 ], [ -0.493223186631704, 47.274215004920102 ], [ -0.493241887698163, 47.274243998579003 ], [ -0.493402225894053, 47.2742920010025 ], [ -0.493254903035632, 47.274559723172203 ], [ -0.493167215908204, 47.274644674318601 ], [ -0.493098365464143, 47.274737906996798 ], [ -0.492956032181044, 47.2749048671065 ], [ -0.492940686525715, 47.274925226369398 ], [ -0.492917097649731, 47.274956665550199 ], [ -0.492976770833617, 47.2749847313194 ], [ -0.49295549301131, 47.275159804169 ], [ -0.492942016007487, 47.2752650837365 ], [ -0.49293833065444, 47.275430525157702 ], [ -0.492659505194889, 47.275357164996201 ], [ -0.492477088538145, 47.275361632503703 ], [ -0.491912286469776, 47.275181044003702 ], [ -0.491859870985027, 47.275220406949302 ], [ -0.491814614212396, 47.275202071202301 ], [ -0.49163268283432, 47.275560819964298 ], [ -0.491560404792609, 47.275542531870599 ], [ -0.491409937855107, 47.275511774612099 ], [ -0.491449491689469, 47.275432203300298 ], [ -0.490968816540096, 47.275224827587998 ], [ -0.491026769568194, 47.275150262419302 ], [ -0.491202917365268, 47.274892741463297 ], [ -0.491278574587266, 47.2747998817824 ], [ -0.491530631703645, 47.2745196187972 ], [ -0.491515515236138, 47.274513775110997 ], [ -0.491503218140271, 47.274508936888999 ], [ -0.491189857045401, 47.274872904356101 ], [ -0.491013505600129, 47.2751348289381 ], [ -0.490947552337297, 47.275215663530602 ], [ -0.490928560953602, 47.275241872460398 ], [ -0.490851637551427, 47.275396344150003 ], [ -0.490085188718686, 47.275144464893799 ] ] ], [ [ [ -0.487974099980078, 47.269731452090298 ], [ -0.488211615391547, 47.269485668730098 ], [ -0.488472821674818, 47.269228394409801 ], [ -0.488862957652078, 47.268913604176298 ], [ -0.488844386899191, 47.268874729561603 ], [ -0.48885214314464, 47.268858600200602 ], [ -0.488792319528145, 47.268832970089697 ], [ -0.488773649922907, 47.268824980188803 ], [ -0.488697447067317, 47.268792174311599 ], [ -0.488829867292223, 47.268637538330601 ], [ -0.488855384345282, 47.268607663897598 ], [ -0.489072086671041, 47.268536450058598 ], [ -0.489244579876373, 47.268479849058401 ], [ -0.489298271303483, 47.268462237993397 ], [ -0.489347564702696, 47.268486770008799 ], [ -0.489432320765796, 47.268529167382198 ], [ -0.489612597187212, 47.268619270012202 ], [ -0.490821766928439, 47.2691933837352 ], [ -0.490529234585861, 47.269298477604302 ], [ -0.490442641465145, 47.269333985031203 ], [ -0.490076383215329, 47.2694851914653 ], [ -0.490101900451503, 47.269500148028001 ], [ -0.490128369744007, 47.269515697704797 ], [ -0.490303718108214, 47.269445140850102 ], [ -0.490522298054338, 47.269357160866399 ], [ -0.490624200971361, 47.2693162361969 ], [ -0.490738857771294, 47.269275792501297 ], [ -0.490817904799704, 47.269247829249899 ], [ -0.490878513059519, 47.269231324848398 ], [ -0.490921445412307, 47.2692302754038 ], [ -0.490953640617315, 47.2692337034754 ], [ -0.491159198401138, 47.269287186524103 ], [ -0.491451937057954, 47.269335998141202 ], [ -0.491770770172199, 47.2694135171554 ], [ -0.491689702843462, 47.2694684406977 ], [ -0.491615707268413, 47.269524620040002 ], [ -0.491546105723093, 47.269581595161199 ], [ -0.491500770173474, 47.269619609539902 ], [ -0.491389858894216, 47.269737636755998 ], [ -0.49128975918074, 47.269855392331102 ], [ -0.491278666170609, 47.269868450367298 ], [ -0.491262988658942, 47.269886746864998 ], [ -0.491135717477249, 47.269983666332998 ], [ -0.491121243541878, 47.269994816637897 ], [ -0.491030351671992, 47.270064210300603 ], [ -0.490862353818254, 47.270208565798598 ], [ -0.49080189443338, 47.270288081774197 ], [ -0.490730142207415, 47.270369235358203 ], [ -0.490602766641196, 47.270518972591098 ], [ -0.490414030087707, 47.27067590974 ], [ -0.490152471020928, 47.270561599703498 ], [ -0.489885771671599, 47.270445181999698 ], [ -0.489692244045408, 47.270349089512003 ], [ -0.489548271481259, 47.270277646965702 ], [ -0.489301377633279, 47.270144845189598 ], [ -0.489176315185209, 47.270263628271898 ], [ -0.489165903304962, 47.270266392700499 ], [ -0.48914190708578, 47.2702730172863 ], [ -0.489100838128275, 47.270306432635898 ], [ -0.488961080429683, 47.270229545870698 ], [ -0.48882081275132, 47.270125234877497 ], [ -0.488671852595823, 47.270014480889103 ], [ -0.488479044428814, 47.269914526008598 ], [ -0.488423069811673, 47.269889059222002 ], [ -0.48832715582214, 47.269845500946701 ], [ -0.488273195479118, 47.269828011564599 ], [ -0.488223272641634, 47.269811941610897 ], [ -0.487974099980078, 47.269731452090298 ] ], [ [ -0.489301377633279, 47.270144845189598 ], [ -0.489659508278337, 47.269804692545499 ], [ -0.489301375628845, 47.2701448441114 ], [ -0.489301377633279, 47.270144845189598 ] ], [ [ -0.489225617176217, 47.268706603670303 ], [ -0.489262947680585, 47.268722448418401 ], [ -0.489305015919364, 47.2686777387365 ], [ -0.489275101265136, 47.268664166935899 ], [ -0.48924776316865, 47.268687608132197 ], [ -0.489225617176217, 47.268706603670303 ] ] ], [ [ [ -0.49868939996193, 47.267762562557799 ], [ -0.498980169774798, 47.267614912808597 ], [ -0.498987166210133, 47.2676196849254 ], [ -0.498994049585688, 47.267616827829798 ], [ -0.499028555133896, 47.267639468234997 ], [ -0.499024370294735, 47.267642901713899 ], [ -0.499155360015063, 47.2677141118386 ], [ -0.499278320366538, 47.2677785082887 ], [ -0.499555783425116, 47.267920406388903 ], [ -0.499829138699223, 47.268060598564801 ], [ -0.499675051172183, 47.268197338811603 ], [ -0.49963112677673, 47.268236386350303 ], [ -0.499563679594177, 47.268296203242699 ], [ -0.499295544739952, 47.268125196208203 ], [ -0.499124895134217, 47.268014433900703 ], [ -0.499040876632148, 47.267963757713801 ], [ -0.49876245655904, 47.2677959706268 ], [ -0.49868939996193, 47.267762562557799 ] ] ], [ [ [ -0.486685354301908, 47.266820693684998 ], [ -0.486719719127808, 47.266790679759303 ], [ -0.486997335353756, 47.266741418341198 ], [ -0.487932884491789, 47.266555504100999 ], [ -0.487947094853497, 47.266566394756403 ], [ -0.488602231785932, 47.2664113946988 ], [ -0.488759972929332, 47.266341369699802 ], [ -0.489132611998017, 47.2662061319418 ], [ -0.489213229943107, 47.266207301007498 ], [ -0.489309776887214, 47.2662380703499 ], [ -0.489540925321499, 47.266360037667802 ], [ -0.489793775950328, 47.266340441218397 ], [ -0.490025951249515, 47.266329450685703 ], [ -0.490111019469806, 47.266325555962403 ], [ -0.490307462611586, 47.266339394465398 ], [ -0.490618073518033, 47.266263799962701 ], [ -0.49074240353593, 47.2662443765376 ], [ -0.490986206059913, 47.266231213660099 ], [ -0.491749312358787, 47.266090002444699 ], [ -0.491837124063374, 47.265962550524797 ], [ -0.49192141417352, 47.265986405762099 ], [ -0.491954700658653, 47.265995856248303 ], [ -0.491977809822631, 47.266002297121098 ], [ -0.492614271765065, 47.266084816485602 ], [ -0.493535074024996, 47.266128125368901 ], [ -0.493567217219017, 47.266172709030002 ], [ -0.493612200105497, 47.266208516182097 ], [ -0.493669172602588, 47.266240591746801 ], [ -0.493737328259573, 47.266259182705802 ], [ -0.493813513691945, 47.266264248905699 ], [ -0.493877919602088, 47.266262028458499 ], [ -0.49395134195931, 47.266252498367102 ], [ -0.49404336476148, 47.266229341161498 ], [ -0.494152005021249, 47.266193211312498 ], [ -0.494146070418609, 47.266246268752496 ], [ -0.494189504688845, 47.266369784719302 ], [ -0.494222185467043, 47.2664625086299 ], [ -0.494242351205534, 47.266566351277497 ], [ -0.494250686308843, 47.266608804796498 ], [ -0.493916932365097, 47.2667032554562 ], [ -0.493697859178319, 47.266622817328297 ], [ -0.493925133985389, 47.267103895752101 ], [ -0.494163434851617, 47.267608287182597 ], [ -0.494309974663903, 47.267918429119597 ], [ -0.494444773444147, 47.268203747110498 ], [ -0.494668943426795, 47.268678204312799 ], [ -0.49471587732972, 47.268777527258997 ], [ -0.494768034164606, 47.268887938891197 ], [ -0.494824226879461, 47.269006861699303 ], [ -0.494578606271019, 47.269135927796697 ], [ -0.494391232710144, 47.269248450096498 ], [ -0.49432420574184, 47.269311576220197 ], [ -0.494192655200128, 47.269499516550397 ], [ -0.4941301317594, 47.269562074260598 ], [ -0.493904673652346, 47.269757539344099 ], [ -0.493891931500392, 47.269759482313397 ], [ -0.493751040792162, 47.269780669529801 ], [ -0.493744602181523, 47.269781620512902 ], [ -0.493679142169961, 47.269791514127398 ], [ -0.493566297626715, 47.2698085127372 ], [ -0.493518197228818, 47.269801761877901 ], [ -0.49330249864411, 47.269771765582703 ], [ -0.493239227509166, 47.269780709882298 ], [ -0.493003960286244, 47.269828052118299 ], [ -0.492917866348066, 47.269845370527797 ], [ -0.492834146156444, 47.269850127661599 ], [ -0.492731177977724, 47.269846363179603 ], [ -0.492644373959595, 47.269835254028798 ], [ -0.492516974675318, 47.269797414629998 ], [ -0.492427903637753, 47.269758564674902 ], [ -0.492146273849619, 47.269609638456799 ], [ -0.492126051220048, 47.269474942609001 ], [ -0.492067351042838, 47.269447487032799 ], [ -0.491940999425778, 47.269416373968902 ], [ -0.491795070680213, 47.269380425601298 ], [ -0.491724153211148, 47.269364610991602 ], [ -0.491398919263189, 47.269291673135903 ], [ -0.491349547410447, 47.269280625244598 ], [ -0.491143572419335, 47.269234373156898 ], [ -0.490993389642283, 47.269193045998001 ], [ -0.490903097067609, 47.269168163204597 ], [ -0.490834644273659, 47.269149318139597 ], [ -0.490479428007853, 47.268973929793901 ], [ -0.490153572999138, 47.268816391019001 ], [ -0.489359519773949, 47.268432567595298 ], [ -0.48945088548716, 47.268347246938099 ], [ -0.489795048260037, 47.268075712435099 ], [ -0.490188857183376, 47.267787741375002 ], [ -0.490331522490542, 47.267677391991803 ], [ -0.490435528955155, 47.267588617007597 ], [ -0.490593192828873, 47.267403913834499 ], [ -0.490605148765973, 47.267384990521698 ], [ -0.490592173161725, 47.267377018707997 ], [ -0.49057437836095, 47.267365578457103 ], [ -0.490545572242489, 47.2673861715759 ], [ -0.490555958052866, 47.2673925903227 ], [ -0.490243385187049, 47.267683595994598 ], [ -0.490165793823146, 47.267766529204799 ], [ -0.489977403010952, 47.267907875095801 ], [ -0.489792171989949, 47.268036536718597 ], [ -0.489591261852481, 47.268188171214398 ], [ -0.489529906555948, 47.268235957704597 ], [ -0.489432475723417, 47.268311872956403 ], [ -0.489376732346613, 47.268355363259801 ], [ -0.489368012338856, 47.268358284057101 ], [ -0.48902594025265, 47.268473948685099 ], [ -0.489008015005365, 47.2684800661549 ], [ -0.488373234200364, 47.2681171791059 ], [ -0.488151709692199, 47.267998740627 ], [ -0.487798265492531, 47.267809810250299 ], [ -0.487705085744849, 47.267820732744198 ], [ -0.487560366277548, 47.267689520403202 ], [ -0.487564110511156, 47.267665221421097 ], [ -0.487572324385549, 47.267610464933803 ], [ -0.487535442905491, 47.267568076882 ], [ -0.487355389825504, 47.267436647645397 ], [ -0.486739872929466, 47.266987150813499 ], [ -0.486685354301908, 47.266820693684998 ] ] ], [ [ [ -0.482506130096766, 47.268172352441603 ], [ -0.482508089218873, 47.268149071527702 ], [ -0.482709064851987, 47.268075945179703 ], [ -0.482859926047892, 47.268069908139502 ], [ -0.482986332477517, 47.2680648489196 ], [ -0.483261913068833, 47.267989155743898 ], [ -0.483435019656469, 47.267954406444296 ], [ -0.48347508764686, 47.267964322414898 ], [ -0.483493857964188, 47.267996541453499 ], [ -0.483471857725274, 47.268105995736903 ], [ -0.483472843950786, 47.268428218570001 ], [ -0.483486407699124, 47.268545092840398 ], [ -0.483498191543947, 47.268645340706399 ], [ -0.48349700012009, 47.268775986010198 ], [ -0.483512471700107, 47.268896146124597 ], [ -0.483494497184565, 47.268919070236102 ], [ -0.483465855913034, 47.268922661250201 ], [ -0.4829703422423, 47.268539151419198 ], [ -0.48252071605034, 47.268205382172603 ], [ -0.482506130096766, 47.268172352441603 ] ] ], [ [ [ -0.483543456941824, 47.268317943384702 ], [ -0.483545053607669, 47.2680771950291 ], [ -0.483561795781165, 47.2680034302157 ], [ -0.483602019653711, 47.267923688194898 ], [ -0.483659168253297, 47.267848934457902 ], [ -0.48370019038043, 47.267816612819601 ], [ -0.483739597569414, 47.267806543501401 ], [ -0.483789890869357, 47.267822865495901 ], [ -0.483843610960247, 47.267740365853101 ], [ -0.483893775043881, 47.267690810170201 ], [ -0.483973313593933, 47.267639794969703 ], [ -0.484105135406071, 47.267569248924602 ], [ -0.484358560238454, 47.267446765412501 ], [ -0.484661246664596, 47.267319006831201 ], [ -0.484904467999833, 47.2672292603879 ], [ -0.4851187016276, 47.2671816295517 ], [ -0.485451832513302, 47.267121998104201 ], [ -0.485563833919204, 47.2670890015292 ], [ -0.485664348524139, 47.2670595402193 ], [ -0.485762671295938, 47.267030577265402 ], [ -0.485856688468394, 47.267002996260501 ], [ -0.485919595951682, 47.266987056060003 ], [ -0.486016670620411, 47.266962527926097 ], [ -0.48604942311762, 47.266954171795803 ], [ -0.486093278730428, 47.266943102790002 ], [ -0.486304812092375, 47.2668895944215 ], [ -0.486532806504255, 47.266831895954702 ], [ -0.48655332018824, 47.266839758640501 ], [ -0.486654007766701, 47.2668784437261 ], [ -0.486662238872773, 47.2669216306493 ], [ -0.486681813438467, 47.2669817150271 ], [ -0.486708736781874, 47.2670134721225 ], [ -0.487043580498173, 47.267253725771702 ], [ -0.487284971262075, 47.2674256004209 ], [ -0.487341900059098, 47.267453985682003 ], [ -0.487358183293857, 47.267462137696199 ], [ -0.487369481646574, 47.267470791103698 ], [ -0.487505053116006, 47.267573676979403 ], [ -0.487542987579826, 47.267618214098903 ], [ -0.487524957328272, 47.2676702200691 ], [ -0.487533625807679, 47.267694235749701 ], [ -0.487670701659129, 47.267828228274297 ], [ -0.487711794653505, 47.267847393610602 ], [ -0.487757116264839, 47.267834225309798 ], [ -0.48780253655434, 47.2678356253031 ], [ -0.488206770607399, 47.268044825829698 ], [ -0.488623265789738, 47.268283970101798 ], [ -0.48897525910302, 47.268491027472201 ], [ -0.488788318326017, 47.268554298665897 ], [ -0.488606745091398, 47.268719785480002 ], [ -0.488578095621001, 47.268745870237503 ], [ -0.488555530825952, 47.2688391404144 ], [ -0.488708102243394, 47.268918309334701 ], [ -0.48869255334538, 47.268932276176798 ], [ -0.488559496160766, 47.269051642845298 ], [ -0.48840826190968, 47.269200374433801 ], [ -0.488324890586588, 47.269282245579703 ], [ -0.48826963326083, 47.269335083395298 ], [ -0.488225829031732, 47.2693769342306 ], [ -0.488162010882649, 47.269438004567803 ], [ -0.488084840126655, 47.269511804062802 ], [ -0.487996578973707, 47.269596065866097 ], [ -0.487825774188586, 47.269792505447398 ], [ -0.487760087103707, 47.269868031804997 ], [ -0.487613807995965, 47.270036257730503 ], [ -0.486649770683583, 47.269430625031099 ], [ -0.486594632015421, 47.269483278197299 ], [ -0.486552260438655, 47.269517443692898 ], [ -0.486427839356299, 47.269617795483903 ], [ -0.486325203562288, 47.269700514735298 ], [ -0.486126481132564, 47.269906901546797 ], [ -0.486084498167907, 47.269945840155998 ], [ -0.486012392548035, 47.270012673309999 ], [ -0.485952514324123, 47.270068406313598 ], [ -0.485901864116083, 47.270110885562502 ], [ -0.485851812470118, 47.270152797100501 ], [ -0.485787023911294, 47.270220185059003 ], [ -0.485246158478513, 47.270010433752901 ], [ -0.485081837372661, 47.269961531042803 ], [ -0.484901675297908, 47.269920475504598 ], [ -0.484772618866463, 47.2699006731048 ], [ -0.48459092823524, 47.269883597007002 ], [ -0.484465061569042, 47.2698717364609 ], [ -0.484413234284824, 47.269864454071303 ], [ -0.484200202469921, 47.269834658220901 ], [ -0.484154373427737, 47.269828204714997 ], [ -0.484050065793826, 47.269806630468103 ], [ -0.484006466825007, 47.269797613762798 ], [ -0.483996243210711, 47.2698114469272 ], [ -0.483741519192683, 47.269733440241801 ], [ -0.483728420489464, 47.269708458087003 ], [ -0.483738173367813, 47.269695531208903 ], [ -0.483726755783582, 47.269677076770897 ], [ -0.483719990799704, 47.269638910028704 ], [ -0.483694881873061, 47.2692605600134 ], [ -0.483654724971517, 47.269166211073603 ], [ -0.483619541227345, 47.2690432100054 ], [ -0.48360563362224, 47.268985135687799 ], [ -0.483570548217282, 47.268766278653601 ], [ -0.483578747941192, 47.2686610238055 ], [ -0.483587145095528, 47.268552077404699 ], [ -0.483566367413262, 47.268541780068603 ], [ -0.483543456941824, 47.268317943384702 ] ] ], [ [ [ -0.476861266657817, 47.2687011156045 ], [ -0.476977093800588, 47.2685978422722 ], [ -0.477126065402873, 47.268462792288098 ], [ -0.477400100206675, 47.268225047304703 ], [ -0.477712286548361, 47.267957654512102 ], [ -0.477976513155043, 47.267701611969798 ], [ -0.478043571806032, 47.267636674542899 ], [ -0.478115072970161, 47.267567972250298 ], [ -0.478174724818242, 47.267510709262702 ], [ -0.478210867583653, 47.2674759768475 ], [ -0.478273966546105, 47.267483806837298 ], [ -0.479130811851427, 47.267572799863999 ], [ -0.479763455731662, 47.2676408158678 ], [ -0.479896910172086, 47.267648722909897 ], [ -0.480126017852055, 47.2676622109771 ], [ -0.480496121526191, 47.267684144504599 ], [ -0.480848699906597, 47.267707134730301 ], [ -0.480991226323192, 47.267714272513103 ], [ -0.481173838831642, 47.267729163621397 ], [ -0.481365716221122, 47.2677918153218 ], [ -0.481682346673858, 47.267907842607599 ], [ -0.482151721596576, 47.268091993251801 ], [ -0.482202720714247, 47.268166174154103 ], [ -0.482201422966541, 47.268194553598001 ], [ -0.482168460963156, 47.268226245083298 ], [ -0.481863965811668, 47.268318096121703 ], [ -0.48177113118861, 47.268352955383797 ], [ -0.481688142746129, 47.268391438768703 ], [ -0.481531149049468, 47.2684642336949 ], [ -0.481480228501001, 47.268498690057001 ], [ -0.481419284568103, 47.268539863420301 ], [ -0.481392883571913, 47.268557795672102 ], [ -0.481195846594444, 47.268668459443397 ], [ -0.481101372619474, 47.268717668243099 ], [ -0.480013372063591, 47.268092158768603 ], [ -0.479847897070114, 47.268234727878401 ], [ -0.479760762548656, 47.2683075230347 ], [ -0.479677019965898, 47.268364834082199 ], [ -0.479612474621958, 47.268411944844203 ], [ -0.479605325771279, 47.268417259786297 ], [ -0.479533378244089, 47.268469864258101 ], [ -0.479474686407659, 47.2685127171478 ], [ -0.479453840286778, 47.268531392357801 ], [ -0.479343957353258, 47.268629686914501 ], [ -0.479189130965679, 47.268770538621403 ], [ -0.479105149289501, 47.268853610556697 ], [ -0.479037904384181, 47.268919968914901 ], [ -0.478878389294748, 47.269070215404597 ], [ -0.478814762642149, 47.269130103089601 ], [ -0.478613918582017, 47.269306379273203 ], [ -0.478138239054469, 47.2690366885627 ], [ -0.477991894903134, 47.269172228729502 ], [ -0.477931166479291, 47.269229253482401 ], [ -0.477867773149801, 47.269288674033596 ], [ -0.476861266657817, 47.2687011156045 ] ] ], [ [ [ -0.480893045935187, 47.268890091248998 ], [ -0.481243557194046, 47.268740937219903 ], [ -0.48145304620152, 47.268645705209998 ], [ -0.481605872579205, 47.268529646290503 ], [ -0.481997684910334, 47.268373347103903 ], [ -0.482197419377991, 47.268256139766798 ], [ -0.482297140583584, 47.268216423473902 ], [ -0.482349118387709, 47.268226874205403 ], [ -0.482416791498228, 47.268253569368902 ], [ -0.482463154320362, 47.268279715147699 ], [ -0.482728106706469, 47.268469463381798 ], [ -0.483233441210681, 47.268846236052902 ], [ -0.482687545000586, 47.269493452683399 ], [ -0.482717926688475, 47.269520168572001 ], [ -0.482841233167516, 47.269601593828 ], [ -0.482792205706464, 47.269677499799101 ], [ -0.482736944137494, 47.269763027821902 ], [ -0.482711257434898, 47.269802800250297 ], [ -0.482667976621706, 47.269786843822601 ], [ -0.482638301398353, 47.269795935517898 ], [ -0.48255042834191, 47.2698497681966 ], [ -0.482408969845864, 47.269873283459702 ], [ -0.482173912082948, 47.269724475857402 ], [ -0.482104602349928, 47.2696888995035 ], [ -0.482065725261061, 47.269664285930503 ], [ -0.481976984014848, 47.269593635529098 ], [ -0.481925898577083, 47.269560413353197 ], [ -0.481718594028369, 47.2694359308191 ], [ -0.481561417951092, 47.269329695259898 ], [ -0.48119309143888, 47.269062875290999 ], [ -0.481086856252779, 47.268992109755899 ], [ -0.481019787262789, 47.268953699051998 ], [ -0.480893045935187, 47.268890091248998 ] ] ], [ [ [ -0.496024862314035, 47.269982130874702 ], [ -0.496064070298537, 47.269843714850197 ], [ -0.496156826132845, 47.269721904929 ], [ -0.496308018760402, 47.269540696057398 ], [ -0.496415875516235, 47.2693970645728 ], [ -0.496465173581557, 47.269331507133103 ], [ -0.496588577993858, 47.269197319020698 ], [ -0.496677661386833, 47.269106375068297 ], [ -0.496811905249091, 47.268969507779701 ], [ -0.497101643185838, 47.268617543916001 ], [ -0.49712930303793, 47.268597875825101 ], [ -0.497156183481273, 47.268578844009902 ], [ -0.497340868306982, 47.268457476842897 ], [ -0.497712245263643, 47.268196405944799 ], [ -0.497920518826044, 47.268106136150699 ], [ -0.498017461644515, 47.268071698379003 ], [ -0.498366832062371, 47.267908837141 ], [ -0.49863255868992, 47.267785013122797 ], [ -0.498684791718601, 47.267812543468899 ], [ -0.49898405272452, 47.267970014506197 ], [ -0.499426295164291, 47.268241884620302 ], [ -0.499725175890654, 47.268426363381202 ], [ -0.499900298583105, 47.268546812211099 ], [ -0.500072978770018, 47.268665523251499 ], [ -0.500363970016833, 47.268871072939298 ], [ -0.500385915511902, 47.268855965111896 ], [ -0.500404139027313, 47.268843267558303 ], [ -0.500376502573016, 47.268825493530102 ], [ -0.500172039885536, 47.268690819142101 ], [ -0.499814494803861, 47.268454945431401 ], [ -0.49973123050164, 47.268403877478697 ], [ -0.499570502115004, 47.268300539020402 ], [ -0.499837428417102, 47.268067133863603 ], [ -0.499837661670885, 47.268066243707999 ], [ -0.500088172987906, 47.268231906203901 ], [ -0.501800811226664, 47.269364587612202 ], [ -0.502152620420404, 47.269578046333898 ], [ -0.502456160210474, 47.269762242553298 ], [ -0.502271329518676, 47.269889596958798 ], [ -0.502285923059497, 47.269900213051997 ], [ -0.502472342349228, 47.269772044664002 ], [ -0.502613705375658, 47.269857824517899 ], [ -0.503396369403493, 47.270332694264198 ], [ -0.50350926440819, 47.270438879030003 ], [ -0.503637775710665, 47.270559775930501 ], [ -0.503828404905022, 47.2707390814872 ], [ -0.50408964585615, 47.270984802130997 ], [ -0.504219906809622, 47.271107312661698 ], [ -0.504247529252868, 47.271152634034202 ], [ -0.504409755340834, 47.271418864869098 ], [ -0.504488873443466, 47.271548688278699 ], [ -0.504652225888322, 47.271816723078302 ], [ -0.504940653604772, 47.271992998516303 ], [ -0.505256466121517, 47.272201976680797 ], [ -0.50501273952406, 47.272587759876501 ], [ -0.504841001920163, 47.272805845311701 ], [ -0.504755882791307, 47.272976093021597 ], [ -0.504743971161859, 47.273020392548297 ], [ -0.504716031166777, 47.273064572824303 ], [ -0.504443704214186, 47.273223393537897 ], [ -0.504277999730881, 47.273291112122898 ], [ -0.504129227338066, 47.2733338438399 ], [ -0.504105815477835, 47.273338462353301 ], [ -0.504007518635215, 47.2733577166806 ], [ -0.503868522259293, 47.273390582526098 ], [ -0.503732128267793, 47.273419503680202 ], [ -0.503413404924624, 47.273467126892299 ], [ -0.503320372497928, 47.273481031001701 ], [ -0.503216132559313, 47.273520415375799 ], [ -0.503118508253226, 47.273565213842801 ], [ -0.503040021242993, 47.273601161585503 ], [ -0.502910234122068, 47.273642885517098 ], [ -0.502734945566394, 47.2736993117502 ], [ -0.502602334745587, 47.273742003741198 ], [ -0.502421841727148, 47.273765533044099 ], [ -0.50221275606916, 47.273803172440502 ], [ -0.501877641028816, 47.2738634337558 ], [ -0.501838726176518, 47.273840260432799 ], [ -0.501268166817012, 47.2739727559171 ], [ -0.500951835731481, 47.273721204227101 ], [ -0.500887463089919, 47.273746820794798 ], [ -0.500714633862698, 47.2736104619296 ], [ -0.50053933705041, 47.273472185819301 ], [ -0.500557771037736, 47.273455787303497 ], [ -0.50044288826413, 47.2733696920235 ], [ -0.500379809950035, 47.273322529631201 ], [ -0.500226530710863, 47.273207576564097 ], [ -0.500154105499256, 47.2731689506317 ], [ -0.500085120219542, 47.273132113193803 ], [ -0.499781454107313, 47.273027412613303 ], [ -0.500677165526369, 47.272253780703998 ], [ -0.500490647274739, 47.272173218693098 ], [ -0.499995915404511, 47.271959527804498 ], [ -0.499695689831721, 47.271829906029502 ], [ -0.499632915974848, 47.271802820387101 ], [ -0.499636802247786, 47.271798864243301 ], [ -0.499395273891907, 47.271708922133698 ], [ -0.498727308546288, 47.271460056828602 ], [ -0.498571484723263, 47.271402040145702 ], [ -0.498444264377932, 47.271354676649104 ], [ -0.498184013091415, 47.271257727560602 ], [ -0.498189034444292, 47.271253106423401 ], [ -0.498336701869162, 47.271119851563 ], [ -0.498158414387783, 47.271024673544197 ], [ -0.497984344017607, 47.270931828127502 ], [ -0.497764642940827, 47.270804097484898 ], [ -0.497747729918404, 47.270794244697797 ], [ -0.497714714533693, 47.270774992260897 ], [ -0.497689193659651, 47.270760226646303 ], [ -0.497627351297817, 47.270713863640303 ], [ -0.497590845526418, 47.270638774041601 ], [ -0.497561322980592, 47.270603421054197 ], [ -0.497531649784351, 47.270589744889001 ], [ -0.497330351567907, 47.270497557748797 ], [ -0.496997249239308, 47.270495557515297 ], [ -0.496548560777464, 47.270606133672999 ], [ -0.496389741195827, 47.270636047068201 ], [ -0.496351872685239, 47.270632737496904 ], [ -0.496059171370537, 47.270133144602703 ], [ -0.496038086207205, 47.270067321806202 ], [ -0.496024862314035, 47.269982130874702 ] ] ], [ [ [ -0.480090030755715, 47.269238964959399 ], [ -0.480173613745839, 47.269190822906303 ], [ -0.480195033736272, 47.269178348116299 ], [ -0.480256014611866, 47.269141193370899 ], [ -0.480386780830922, 47.2690654660177 ], [ -0.480759016899773, 47.268906668099604 ], [ -0.480822980155362, 47.2689255546684 ], [ -0.480850430372079, 47.268912367029003 ], [ -0.48093439926181, 47.2689320946753 ], [ -0.480966056298346, 47.268945823509299 ], [ -0.481128735973445, 47.269041414461597 ], [ -0.481519155697642, 47.269322701080398 ], [ -0.481650414378637, 47.269411854695598 ], [ -0.481735056696212, 47.269465236679899 ], [ -0.481897881380046, 47.269563426523902 ], [ -0.481979504390502, 47.269621485757398 ], [ -0.482027328091593, 47.2696658627044 ], [ -0.482016535764726, 47.269691760829303 ], [ -0.481984175269461, 47.269720289213197 ], [ -0.481593303328481, 47.270084665923399 ], [ -0.481586868566064, 47.270090581316097 ], [ -0.481494824591957, 47.270176086837203 ], [ -0.481407107179109, 47.270258083127999 ], [ -0.481346017779873, 47.270313588640199 ], [ -0.48134685760863, 47.270329405223997 ], [ -0.481364630438785, 47.270345425228903 ], [ -0.481642018530823, 47.2705049121857 ], [ -0.481670537720433, 47.270529242218402 ], [ -0.481666297572559, 47.2705412373897 ], [ -0.481537175613852, 47.270676264893602 ], [ -0.48118405533854, 47.271021889102499 ], [ -0.481005197059164, 47.271189092642501 ], [ -0.480458865321226, 47.270870104849401 ], [ -0.480454071583401, 47.270852109096701 ], [ -0.480192641399886, 47.2706793804104 ], [ -0.480317051683763, 47.270560671153703 ], [ -0.48038907182181, 47.2704742178339 ], [ -0.480392694689975, 47.270399775201398 ], [ -0.480384478416737, 47.270334068447397 ], [ -0.480342034952284, 47.2700784946583 ], [ -0.480314445453024, 47.269798595089597 ], [ -0.480312419757448, 47.269659657198098 ], [ -0.480272403785759, 47.269600699276197 ], [ -0.480224780346026, 47.269530579475898 ], [ -0.480211827652332, 47.269454291477999 ], [ -0.480228587633226, 47.269435891995101 ], [ -0.480265895598939, 47.269395032374298 ], [ -0.480090030755715, 47.269238964959399 ] ] ], [ [ [ -0.492579094111004, 47.269858712638403 ], [ -0.492772594297849, 47.2698789980074 ], [ -0.492851437342303, 47.2698821015506 ], [ -0.492918740006734, 47.269877127146202 ], [ -0.493266003738974, 47.269819282573998 ], [ -0.493335020633952, 47.269821735673098 ], [ -0.493439966405776, 47.269830053827803 ], [ -0.493505520227379, 47.269841955924903 ], [ -0.493574008753632, 47.269854400344101 ], [ -0.493381494011081, 47.2698675907235 ], [ -0.49330822398247, 47.269872619046801 ], [ -0.493118766514312, 47.269893124174203 ], [ -0.492974658852167, 47.269911676922803 ], [ -0.492834501637751, 47.269934381838901 ], [ -0.492747777532843, 47.269967461881301 ], [ -0.492579094111004, 47.269858712638403 ] ] ], [ [ [ -0.493642248456817, 47.269954000771598 ], [ -0.493793923124569, 47.269916430532597 ], [ -0.493987559472276, 47.269831745825599 ], [ -0.494040723605782, 47.269804605462099 ], [ -0.494116660980168, 47.269759990607703 ], [ -0.494170367179651, 47.269710251447201 ], [ -0.494305592491356, 47.269554163612298 ], [ -0.494468846252497, 47.2693655469051 ], [ -0.494800105957751, 47.269158051116001 ], [ -0.494747323883407, 47.2694632971914 ], [ -0.49457456264505, 47.269646586825502 ], [ -0.494468108004975, 47.2697595536508 ], [ -0.494141302420685, 47.269961921772001 ], [ -0.493754397064221, 47.270040887635403 ], [ -0.493642248456817, 47.269954000771598 ] ] ], [ [ [ -0.492820257077445, 47.270070188100497 ], [ -0.493085338072918, 47.270011206502097 ], [ -0.493539872712042, 47.2699589421116 ], [ -0.49366867207417, 47.270058384717103 ], [ -0.493417209254023, 47.270084714786101 ], [ -0.493297913258847, 47.270097185575999 ], [ -0.492851646721258, 47.270143874183297 ], [ -0.492820257077445, 47.270070188100497 ] ] ], [ [ [ -0.481032786420135, 47.271195806699602 ], [ -0.481204736571202, 47.271028035574801 ], [ -0.481227928887697, 47.2710063339375 ], [ -0.481320253947264, 47.270919009008502 ], [ -0.481432261260907, 47.270810781578 ], [ -0.48149865368542, 47.270745781131303 ], [ -0.48161999432042, 47.270628775594297 ], [ -0.481702859434078, 47.270535030013498 ], [ -0.48170129763008, 47.270523191057499 ], [ -0.481686887314707, 47.270507782010803 ], [ -0.481540438055249, 47.2704243110989 ], [ -0.481392616788229, 47.270342133778101 ], [ -0.481378337190942, 47.270329352059903 ], [ -0.481376525767214, 47.270312843750403 ], [ -0.481443461928831, 47.270250521346398 ], [ -0.481590919953036, 47.270112438129502 ], [ -0.48201871195361, 47.269712871952798 ], [ -0.482071924087775, 47.269693737817398 ], [ -0.482130557424737, 47.2697200378567 ], [ -0.482152577984509, 47.269733983729601 ], [ -0.482241940459617, 47.269788070654499 ], [ -0.482349416205331, 47.269862402447501 ], [ -0.482377962441102, 47.269889804343002 ], [ -0.482389577205841, 47.2698968086628 ], [ -0.482688614637926, 47.270097779583701 ], [ -0.482770038242939, 47.270157637531703 ], [ -0.482826129646402, 47.270192907726603 ], [ -0.48292666952922, 47.270328895246202 ], [ -0.482931209538368, 47.270335003667398 ], [ -0.482939913930415, 47.270346736173998 ], [ -0.48233653365756, 47.270998146179302 ], [ -0.482222251306682, 47.271118229584502 ], [ -0.482316772396958, 47.2711697555442 ], [ -0.482308326104418, 47.271182832268799 ], [ -0.482254897823717, 47.271235819264298 ], [ -0.482211416090108, 47.271286209613102 ], [ -0.482167782508993, 47.271336505378997 ], [ -0.482149211767117, 47.271358014333998 ], [ -0.48210856182415, 47.271404913326599 ], [ -0.482076282269575, 47.271442261283099 ], [ -0.482070908200452, 47.271448406166101 ], [ -0.482045856856959, 47.271477372816499 ], [ -0.482037881825462, 47.271486488429296 ], [ -0.482002938270464, 47.271528286832996 ], [ -0.481970037970162, 47.271571582807397 ], [ -0.481885440155569, 47.271669048126 ], [ -0.481589181372519, 47.271507352836899 ], [ -0.481039925071734, 47.271210758311 ], [ -0.481032786420135, 47.271195806699602 ] ] ], [ [ [ -0.494499955751421, 47.270157894819697 ], [ -0.4945860048794, 47.270099800312899 ], [ -0.494680327567449, 47.2700650930663 ], [ -0.494623427240234, 47.270012019328099 ], [ -0.494703580663407, 47.269967295025403 ], [ -0.494675686379099, 47.269945129928203 ], [ -0.494753280372055, 47.269896679953298 ], [ -0.49483030980832, 47.269848508268602 ], [ -0.49491704955253, 47.269793105076403 ], [ -0.495054513844635, 47.269689358747101 ], [ -0.49514171450387, 47.269617648977601 ], [ -0.495243485247148, 47.2695340464563 ], [ -0.495330699474382, 47.269473131698597 ], [ -0.495532690293273, 47.269341522667197 ], [ -0.495624049232597, 47.2693013799936 ], [ -0.495862888805741, 47.269196504306599 ], [ -0.496145283152176, 47.269065172986799 ], [ -0.496702474581129, 47.268786129372998 ], [ -0.496767098667003, 47.2687851804424 ], [ -0.496830780362063, 47.268801886097101 ], [ -0.496739372874119, 47.268910805847 ], [ -0.496664647492509, 47.268965649903599 ], [ -0.496472406684985, 47.269176402000902 ], [ -0.49628377647326, 47.269377357635101 ], [ -0.496157213085941, 47.269512253413197 ], [ -0.496126552576098, 47.269589972677302 ], [ -0.496097756776703, 47.269630644141202 ], [ -0.495979323508854, 47.269724283899301 ], [ -0.495938877955257, 47.269774326963599 ], [ -0.49590790783649, 47.269871501953901 ], [ -0.495900624730744, 47.269916228573798 ], [ -0.495901006197858, 47.269993282041199 ], [ -0.495907246963337, 47.270073502031103 ], [ -0.495925568290405, 47.2701324604459 ], [ -0.496062634590762, 47.270370425861302 ], [ -0.496119739496319, 47.270469937208098 ], [ -0.496331282384542, 47.270838312325601 ], [ -0.496523739635453, 47.271173380061697 ], [ -0.496576197070199, 47.271285061500102 ], [ -0.496765578342135, 47.271723725853597 ], [ -0.496407245910164, 47.271815265353098 ], [ -0.49584982658773, 47.271895631254999 ], [ -0.495773488248145, 47.271802908536799 ], [ -0.495675414906118, 47.2716242061692 ], [ -0.495588764058786, 47.271466191779801 ], [ -0.49555716040149, 47.271418988086303 ], [ -0.495416478958262, 47.271352310411402 ], [ -0.495328138432468, 47.271289767775698 ], [ -0.495070420900478, 47.271193204079403 ], [ -0.494958810175823, 47.271135814282403 ], [ -0.494911972023894, 47.271115725190299 ], [ -0.495079671272056, 47.271000875738203 ], [ -0.494865233248731, 47.270861140257402 ], [ -0.495142045651148, 47.270716697367803 ], [ -0.49507272489499, 47.270639199083 ], [ -0.494933099016049, 47.270643840782597 ], [ -0.494792907557445, 47.270400507527398 ], [ -0.494594650771175, 47.270205621097503 ], [ -0.494566913708909, 47.270213954591199 ], [ -0.494499955751421, 47.270157894819697 ] ] ] ] } }
]
}
