{
"type": "FeatureCollection",
"name": "Coteaux-du-Layon-premier-cru-Chaume",
"crs": { "type": "name", "properties": { "name": "urn:ogc:def:crs:OGC:1.3:CRS84" } },
"features": [
{ "type": "Feature", "properties": { "Name": null, "id": "" }, "geometry": { "type": "MultiPolygon", "coordinates": [ [ [ [ -0.633508409987179, 47.329578552092499 ], [ -0.633753821651372, 47.329422894485504 ], [ -0.634052457954288, 47.329231144555401 ], [ -0.634229051357151, 47.329126034184299 ], [ -0.634447612992607, 47.328996719210402 ], [ -0.634754227953605, 47.328830851754098 ], [ -0.635367531089115, 47.328519839138103 ], [ -0.635454163664897, 47.327904860943597 ], [ -0.635499341910615, 47.327900652057899 ], [ -0.635458354461782, 47.328170128413902 ], [ -0.635521906089081, 47.328231671137502 ], [ -0.635985296607302, 47.328237611235998 ], [ -0.636018540629014, 47.328233325454697 ], [ -0.636076518548151, 47.3282087090478 ], [ -0.636100331410318, 47.328200212798897 ], [ -0.636117498645042, 47.328189491557701 ], [ -0.636133888735395, 47.328177082411599 ], [ -0.636147845613828, 47.328160063337798 ], [ -0.636157360284726, 47.328143994506298 ], [ -0.636160398172811, 47.328126236109803 ], [ -0.636152275982824, 47.327963376179397 ], [ -0.636241070871659, 47.327924096141103 ], [ -0.636560188628473, 47.327942844989899 ], [ -0.636609818118787, 47.327843961901202 ], [ -0.636705198587872, 47.327620272920498 ], [ -0.63675094787191, 47.327513040190503 ], [ -0.636636747714025, 47.327482553957502 ], [ -0.636693474237611, 47.327361279253601 ], [ -0.63672531525137, 47.327297198521102 ], [ -0.636825761945626, 47.327150221690403 ], [ -0.636852305709638, 47.3271116302164 ], [ -0.636836137206633, 47.327109703695101 ], [ -0.636899051176037, 47.326983909256803 ], [ -0.636984057553937, 47.326849672226999 ], [ -0.637110486213386, 47.326644114829598 ], [ -0.637250546992705, 47.326391358457798 ], [ -0.637343217210163, 47.326225519610198 ], [ -0.63745414513868, 47.326256648367099 ], [ -0.63761438618413, 47.3263152495242 ], [ -0.637799748460207, 47.326382705710898 ], [ -0.637859592372206, 47.326401286747398 ], [ -0.637897233156581, 47.326412993792303 ], [ -0.638050871282746, 47.326456300951698 ], [ -0.638094644985537, 47.326468536627701 ], [ -0.638173620208426, 47.326487779427701 ], [ -0.638257733512377, 47.326504608131501 ], [ -0.638358106727433, 47.326524711997898 ], [ -0.638402609735738, 47.326557471745097 ], [ -0.638430236946529, 47.326577873593301 ], [ -0.638574687592553, 47.326675268951 ], [ -0.638676081909912, 47.326743644131398 ], [ -0.638701996346458, 47.326758332028 ], [ -0.638722783386592, 47.326767773564399 ], [ -0.639037554047708, 47.326841714222901 ], [ -0.640259312246631, 47.327145938946202 ], [ -0.64044006018017, 47.327192177691202 ], [ -0.640510716901427, 47.327211860130802 ], [ -0.640634258335952, 47.327251061445303 ], [ -0.640730761329041, 47.3272824594574 ], [ -0.640870085107045, 47.327327653972702 ], [ -0.641290908282767, 47.3274993748132 ], [ -0.641338616844809, 47.327518785471298 ], [ -0.641400430921361, 47.327539015192798 ], [ -0.641447606459509, 47.327554477307302 ], [ -0.641763555481668, 47.327655409472101 ], [ -0.641813582039232, 47.3276718634053 ], [ -0.641813828255182, 47.327671585322697 ], [ -0.642002592561106, 47.327734332262096 ], [ -0.642065996457875, 47.327779925247498 ], [ -0.64207228215963, 47.3277944173498 ], [ -0.642067449454636, 47.327807185639003 ], [ -0.64201849147589, 47.327935338904702 ], [ -0.642022522546584, 47.327943953923999 ], [ -0.642034953491191, 47.3279532966476 ], [ -0.642056704067504, 47.327963248090597 ], [ -0.642212397191151, 47.328026942433297 ], [ -0.642352410010866, 47.3280841895482 ], [ -0.643064873037066, 47.328373367900802 ], [ -0.643444336022057, 47.328535024667303 ], [ -0.643687169277141, 47.328638517545599 ], [ -0.644280513838176, 47.328918361304297 ], [ -0.644328373209381, 47.328936053802401 ], [ -0.644365351862564, 47.328949672125901 ], [ -0.644435705320879, 47.3289745886972 ], [ -0.64447436685392, 47.3289876134289 ], [ -0.644546989132018, 47.329008853935399 ], [ -0.644774316682863, 47.329075252004699 ], [ -0.644746668164475, 47.3292555469557 ], [ -0.644645170435556, 47.329782865592001 ], [ -0.644638205353448, 47.3298305769436 ], [ -0.644630649165876, 47.329898853949601 ], [ -0.644626964841122, 47.329955834630198 ], [ -0.644628515419765, 47.329994266677502 ], [ -0.644630529406134, 47.330021960031502 ], [ -0.644634919984269, 47.330045613525101 ], [ -0.64465952229925, 47.330122883842698 ], [ -0.644768774321585, 47.330466680774798 ], [ -0.644792212839091, 47.330540472976402 ], [ -0.644809475598581, 47.330618965057504 ], [ -0.644813717523138, 47.330638477745303 ], [ -0.644821627379765, 47.330674907700299 ], [ -0.644826848386334, 47.330699075818401 ], [ -0.644837522589794, 47.330750829276603 ], [ -0.644842124841124, 47.330808811378603 ], [ -0.644844641799757, 47.330840003561804 ], [ -0.64484989535486, 47.330899767584199 ], [ -0.64485831751443, 47.330998363420299 ], [ -0.64486216613559, 47.331043301957898 ], [ -0.644871826854887, 47.331164028116497 ], [ -0.644884686798882, 47.3313240357122 ], [ -0.644898117971539, 47.331400755599603 ], [ -0.644949937455562, 47.331658129624003 ], [ -0.644989332463144, 47.331824333125901 ], [ -0.645023333596784, 47.3319677257183 ], [ -0.645136839640355, 47.332424758034897 ], [ -0.644951915971045, 47.332473462085098 ], [ -0.644330359615521, 47.332317518719499 ], [ -0.643634961740727, 47.332141901298598 ], [ -0.64344579077411, 47.332467670972903 ], [ -0.643205538223303, 47.332398521551397 ], [ -0.642887643286495, 47.3328003353936 ], [ -0.644015650602327, 47.332777813057497 ], [ -0.64522208283029, 47.332750653875102 ], [ -0.645234019114882, 47.332795608732901 ], [ -0.645324867661108, 47.333116191671699 ], [ -0.645415909081989, 47.333474708460699 ], [ -0.645460105977064, 47.333647159376902 ], [ -0.645479736950542, 47.333717556369699 ], [ -0.645493171518988, 47.333763094969001 ], [ -0.645528093777611, 47.333828325509103 ], [ -0.64569897769558, 47.3341210709739 ], [ -0.646009401829266, 47.334621752762899 ], [ -0.646020499154164, 47.334646547297297 ], [ -0.646030769230732, 47.334684525150003 ], [ -0.6460423041238, 47.3347352601293 ], [ -0.646045784611235, 47.334766962708002 ], [ -0.646047769052675, 47.334821512316303 ], [ -0.646050247683212, 47.334871630582697 ], [ -0.646039783186291, 47.334924408387302 ], [ -0.646012754988135, 47.335109910630997 ], [ -0.646001187086729, 47.335132803674298 ], [ -0.645917404571705, 47.335179593550798 ], [ -0.645086669229878, 47.335030133542297 ], [ -0.64460976112884, 47.334912004054402 ], [ -0.643749054437046, 47.334707602265397 ], [ -0.642915437547548, 47.334509643669897 ], [ -0.642337616164385, 47.334367456485801 ], [ -0.642232246909726, 47.3343462507328 ], [ -0.642118950947645, 47.334305918131797 ], [ -0.641757380182188, 47.334207228452399 ], [ -0.641836728315059, 47.3341087626073 ], [ -0.641560687778724, 47.334010452736401 ], [ -0.641414496779508, 47.334124082625998 ], [ -0.640970032097, 47.333987618063603 ], [ -0.640725919867236, 47.333898758454097 ], [ -0.640517912488705, 47.333818408602802 ], [ -0.640275098697903, 47.333709591182497 ], [ -0.639837629799142, 47.333490534796603 ], [ -0.639615367012133, 47.333377827337401 ], [ -0.639368240327965, 47.3332327355185 ], [ -0.63914200825509, 47.333098613362402 ], [ -0.638810889619061, 47.332921007672397 ], [ -0.638561063778598, 47.3327907782813 ], [ -0.638360221776487, 47.332700647587799 ], [ -0.63815567898924, 47.332606757476803 ], [ -0.637980828986508, 47.332526535515697 ], [ -0.637790912591705, 47.332441108065098 ], [ -0.637530869110721, 47.332341927187301 ], [ -0.637053826209508, 47.332158616472299 ], [ -0.636643833480227, 47.332000328655198 ], [ -0.636374447790389, 47.3318981937608 ], [ -0.636370230234553, 47.331908329032402 ], [ -0.635694460196908, 47.331648240057703 ], [ -0.635388513920102, 47.331524898887601 ], [ -0.635228607477843, 47.331451864972998 ], [ -0.63512059883563, 47.331401357120498 ], [ -0.635043816049925, 47.331359784213703 ], [ -0.634767163705841, 47.331179650694999 ], [ -0.634654691350409, 47.331098461779497 ], [ -0.634647939298835, 47.331098583109203 ], [ -0.634425542231165, 47.330885749079897 ], [ -0.634406550394956, 47.330867599196701 ], [ -0.634405708016541, 47.330866904628998 ], [ -0.634279553262309, 47.330746131324503 ], [ -0.634964317211177, 47.330376289870301 ], [ -0.635047820735869, 47.330331228849602 ], [ -0.635127991555539, 47.3304110860118 ], [ -0.635201326051661, 47.3304839477805 ], [ -0.635264002968125, 47.330546239005102 ], [ -0.635322978906873, 47.330604771033997 ], [ -0.635680558274051, 47.330467134284802 ], [ -0.635703680638252, 47.3304914628646 ], [ -0.635747905992045, 47.330475117828001 ], [ -0.636000839827292, 47.3303815817223 ], [ -0.635877005543722, 47.330269659072499 ], [ -0.63612432366241, 47.3301773799977 ], [ -0.636422169847131, 47.330130468914199 ], [ -0.636481906818927, 47.330217814430803 ], [ -0.636647024446562, 47.330168302524399 ], [ -0.636982199732214, 47.330067861512902 ], [ -0.63714691962469, 47.330018361327603 ], [ -0.637181823715239, 47.330007264341802 ], [ -0.637202346857736, 47.329997158737797 ], [ -0.637218731152161, 47.329984659520697 ], [ -0.637236831228302, 47.329968141318602 ], [ -0.637254137669265, 47.329951647985197 ], [ -0.63727586066942, 47.329926004392 ], [ -0.637291702773244, 47.329899643914402 ], [ -0.6373023272086, 47.329874528375598 ], [ -0.637306191286382, 47.329853319559803 ], [ -0.637307579301324, 47.3298268713543 ], [ -0.637302431690609, 47.329793959208303 ], [ -0.637290199111422, 47.329777760779002 ], [ -0.637275480158439, 47.329758125650798 ], [ -0.637257954923487, 47.329740110481801 ], [ -0.637233930173805, 47.329722028644902 ], [ -0.637204606171328, 47.329707897851399 ], [ -0.637167781235831, 47.329696525436802 ], [ -0.637137567443067, 47.329688820921703 ], [ -0.637096877563152, 47.329684959318897 ], [ -0.637045225186564, 47.329685586689202 ], [ -0.636976755693436, 47.329692328378897 ], [ -0.636945256596145, 47.329698902805099 ], [ -0.636930789354891, 47.329665381510402 ], [ -0.636761112983774, 47.329653485851601 ], [ -0.636666152203735, 47.329646818753602 ], [ -0.636344778123307, 47.329624265493699 ], [ -0.636148969869778, 47.329610123673802 ], [ -0.635470073017521, 47.329561639849601 ], [ -0.635425406366232, 47.329581242891599 ], [ -0.635352288038919, 47.329613272261298 ], [ -0.635233091630401, 47.329606912538502 ], [ -0.635177918500204, 47.329643606576603 ], [ -0.634980569783571, 47.329774962030797 ], [ -0.634775978106623, 47.329640965263799 ], [ -0.634350862707824, 47.329838209710601 ], [ -0.634561227815722, 47.329967430371703 ], [ -0.634797883139852, 47.330112949801503 ], [ -0.634810710143191, 47.330122280862398 ], [ -0.634461991394711, 47.330345700444497 ], [ -0.63420531180785, 47.330503334376601 ], [ -0.634174640408925, 47.330522138189203 ], [ -0.634154820949804, 47.330615039874097 ], [ -0.634155293535664, 47.330625929385 ], [ -0.633764392970899, 47.330275622970198 ], [ -0.633666330334079, 47.330187944096302 ], [ -0.633640083237128, 47.330164433915797 ], [ -0.633508409987179, 47.329578552092499 ] ] ], [ [ [ -0.644922531510916, 47.3267598579721 ], [ -0.644919443480605, 47.326667583016103 ], [ -0.644935278841721, 47.326606075124097 ], [ -0.644964788591353, 47.326519535264403 ], [ -0.645248332793109, 47.326570738776603 ], [ -0.645514619892582, 47.326674212009898 ], [ -0.645800619447569, 47.326781030634102 ], [ -0.646029957170144, 47.326867369334003 ], [ -0.646216617880022, 47.3269342309558 ], [ -0.64640545879224, 47.326982459266901 ], [ -0.646515805061766, 47.327008821539103 ], [ -0.646555291516282, 47.327018395116802 ], [ -0.646788486083138, 47.327067842619897 ], [ -0.646895745657662, 47.327091688082703 ], [ -0.646916618192172, 47.327063365627701 ], [ -0.646888600155085, 47.3270567661909 ], [ -0.646806169914854, 47.327037457528 ], [ -0.646705415811375, 47.327013768044502 ], [ -0.646285617371537, 47.326921699393999 ], [ -0.646272561768809, 47.326918775182897 ], [ -0.646224097727607, 47.326907771313302 ], [ -0.646130963790372, 47.326875280624002 ], [ -0.646115759258116, 47.326869990696601 ], [ -0.646027970947938, 47.326838143052797 ], [ -0.646017336692128, 47.3268337909576 ], [ -0.645867024668987, 47.326771284386197 ], [ -0.645846971015594, 47.326762902477697 ], [ -0.645698535500946, 47.3267006972237 ], [ -0.645713820781051, 47.326670117300303 ], [ -0.645425894624126, 47.326587601010502 ], [ -0.645310047214208, 47.326554381255697 ], [ -0.645005088615971, 47.326465009202998 ], [ -0.645069522784557, 47.326301402075799 ], [ -0.64519081594951, 47.326030479604697 ], [ -0.645264116186152, 47.325860826203098 ], [ -0.645275798120346, 47.325833784033499 ], [ -0.645348309358018, 47.325679836042497 ], [ -0.645384138768138, 47.325606344992202 ], [ -0.645393196285854, 47.325587495955702 ], [ -0.645441356816394, 47.325492619796897 ], [ -0.645497126684817, 47.325390745647702 ], [ -0.645564078165325, 47.325272028417501 ], [ -0.645659355470284, 47.325102044732397 ], [ -0.645716244112326, 47.325006894220202 ], [ -0.645726727872704, 47.324989532364597 ], [ -0.645802995297181, 47.324869440851501 ], [ -0.645846824894755, 47.324806422433703 ], [ -0.645883180790028, 47.324769953569898 ], [ -0.645950251689416, 47.324717379702498 ], [ -0.646015943609909, 47.324673770907197 ], [ -0.646110995518141, 47.324617524132798 ], [ -0.646206221498328, 47.324577493244902 ], [ -0.646394526866467, 47.324502905816097 ], [ -0.646543062458269, 47.324443806568098 ], [ -0.646553770807701, 47.324439504840299 ], [ -0.64681216659005, 47.324337300636302 ], [ -0.647073910574746, 47.324235621431001 ], [ -0.647258978271153, 47.324160233074103 ], [ -0.647398945130706, 47.324074546448799 ], [ -0.64749677676841, 47.324006585701497 ], [ -0.647539333764712, 47.323979473982803 ], [ -0.647564292058687, 47.323966433289002 ], [ -0.647592449545742, 47.323959510258 ], [ -0.647627619425684, 47.323960207176 ], [ -0.647666002998239, 47.3239691841558 ], [ -0.64773623980137, 47.323996355270502 ], [ -0.647796402424528, 47.324019607411003 ], [ -0.647829891020846, 47.324032613332598 ], [ -0.648041564616531, 47.324114636708003 ], [ -0.648148582440532, 47.324152547075997 ], [ -0.648259809707391, 47.324186089410198 ], [ -0.648309608769118, 47.324199213270099 ], [ -0.648393276691384, 47.324221185435299 ], [ -0.648445395269274, 47.324233335123601 ], [ -0.648565544447084, 47.324261640117697 ], [ -0.648624626022239, 47.3242748324788 ], [ -0.648842484946879, 47.324323045496797 ], [ -0.648887198162003, 47.324341285588602 ], [ -0.649079609656274, 47.3244518497809 ], [ -0.649097127920297, 47.324461932999597 ], [ -0.649212178331853, 47.324530230399198 ], [ -0.649314932166725, 47.324591164119099 ], [ -0.649522308164299, 47.324711260281298 ], [ -0.649712345456918, 47.324820005649897 ], [ -0.649809418601753, 47.324875349981497 ], [ -0.649842902975302, 47.3248941231179 ], [ -0.649971702465618, 47.324965772401001 ], [ -0.650019967752825, 47.324987505133102 ], [ -0.650188917523911, 47.325060955416802 ], [ -0.65024646172194, 47.325084649185001 ], [ -0.650291729552759, 47.325103231797399 ], [ -0.650401380087457, 47.325142769641602 ], [ -0.650493353876247, 47.325175744007304 ], [ -0.650593412467359, 47.3252126094674 ], [ -0.650723369572676, 47.325260339925201 ], [ -0.65076920721907, 47.3252775526446 ], [ -0.650897174645133, 47.3253252553897 ], [ -0.65108554180664, 47.325395750459897 ], [ -0.651130417156824, 47.325412452602002 ], [ -0.651162602202477, 47.325384854793697 ], [ -0.6506975201996, 47.325211587467798 ], [ -0.650433217522026, 47.325115903927902 ], [ -0.6502573126574, 47.325043483827599 ], [ -0.650017113572588, 47.324937758928698 ], [ -0.649897228351815, 47.324880248417699 ], [ -0.649872359912797, 47.324867332427999 ], [ -0.64986232584507, 47.324862060614201 ], [ -0.649653758192546, 47.324742002501303 ], [ -0.649407661680533, 47.3245982513019 ], [ -0.649284135729787, 47.324526165242403 ], [ -0.648878606842782, 47.3242890161915 ], [ -0.648853868121916, 47.324283846175199 ], [ -0.648551170079671, 47.324219826120398 ], [ -0.64830197039935, 47.324164847616203 ], [ -0.648240054353489, 47.324148950508899 ], [ -0.648232910284052, 47.324147192477099 ], [ -0.648205395899987, 47.3241382344589 ], [ -0.64817748860456, 47.3241273962823 ], [ -0.648167414306925, 47.324123477383203 ], [ -0.648024864455336, 47.324067849093197 ], [ -0.647701626951164, 47.323935621475201 ], [ -0.647872208380857, 47.323847980605997 ], [ -0.647927153543401, 47.323813990731402 ], [ -0.647974777977604, 47.3237814926282 ], [ -0.648015008327615, 47.323749407180898 ], [ -0.648086760020359, 47.323681905249501 ], [ -0.648215436607499, 47.3235510622413 ], [ -0.64845612158087, 47.323303507776203 ], [ -0.648511116922591, 47.323287810226297 ], [ -0.648551127812441, 47.323279793315599 ], [ -0.648565015149489, 47.323285214440901 ], [ -0.648761902461068, 47.323095270708698 ], [ -0.64915882860265, 47.322715012604398 ], [ -0.649343220559668, 47.322536274966097 ], [ -0.649493238634607, 47.3223899795682 ], [ -0.649677359826035, 47.322197551672701 ], [ -0.649818874454536, 47.322045124740299 ], [ -0.6499677153039, 47.321881562713799 ], [ -0.650038541521009, 47.321808320834101 ], [ -0.650042618231331, 47.3218039569905 ], [ -0.650193974112166, 47.3216637465597 ], [ -0.650240374029605, 47.3216152446523 ], [ -0.650304011983336, 47.321533757467698 ], [ -0.650384727288519, 47.321420822053803 ], [ -0.650473586114797, 47.321291228642103 ], [ -0.650553816891742, 47.3211809217837 ], [ -0.650656240398143, 47.321044232615201 ], [ -0.65069472425949, 47.320992374744797 ], [ -0.650898704621719, 47.320875741070303 ], [ -0.650889435462696, 47.320805739485003 ], [ -0.650907985751385, 47.320739458724397 ], [ -0.650925883297224, 47.320735651317698 ], [ -0.651162428480881, 47.320671072937699 ], [ -0.651481514162537, 47.320574968358898 ], [ -0.651574633511937, 47.320546984840703 ], [ -0.651700693508802, 47.320502554176699 ], [ -0.651740663805335, 47.320497871778599 ], [ -0.651780894636653, 47.3205048065916 ], [ -0.651817696687101, 47.320519779818603 ], [ -0.651937325079251, 47.320604782763098 ], [ -0.652286651588239, 47.320857568415903 ], [ -0.652289726298519, 47.320859904869799 ], [ -0.652290448746662, 47.320860783326999 ], [ -0.652372189602891, 47.3209615777116 ], [ -0.652431414713089, 47.3210353239106 ], [ -0.652450957676838, 47.3210595817878 ], [ -0.65264696575019, 47.321209409137403 ], [ -0.652761806639725, 47.321299969170198 ], [ -0.652770766413045, 47.321306986818598 ], [ -0.652802336805978, 47.321344383976601 ], [ -0.652855086473675, 47.321406708389702 ], [ -0.653006027067371, 47.3215408311301 ], [ -0.653132319850773, 47.321649685073297 ], [ -0.653228019374763, 47.321723814671103 ], [ -0.653373757366696, 47.321830163684901 ], [ -0.653444223424183, 47.3218821070476 ], [ -0.653597703678715, 47.3219775779312 ], [ -0.653753658011101, 47.322070447376603 ], [ -0.654069072839002, 47.322251208814201 ], [ -0.654117309975771, 47.322313404440301 ], [ -0.654177773044301, 47.322374133621103 ], [ -0.654206726603675, 47.322394490106298 ], [ -0.654266455595429, 47.3224210870234 ], [ -0.654306293027574, 47.3224436240953 ], [ -0.654337726319779, 47.322461469231001 ], [ -0.654406763633201, 47.322504084602599 ], [ -0.654584419828327, 47.322637274007803 ], [ -0.654646079068258, 47.3227019305574 ], [ -0.654683531910872, 47.322740043185398 ], [ -0.654867132265962, 47.322870972234497 ], [ -0.655023508317801, 47.322979687865597 ], [ -0.655280286811547, 47.323149766448701 ], [ -0.655568527152559, 47.323343906685203 ], [ -0.655652206694907, 47.323420485828599 ], [ -0.655728685586424, 47.323488640268202 ], [ -0.655817015914845, 47.323553717713501 ], [ -0.655892956996189, 47.323610083320197 ], [ -0.656003600829854, 47.323677792097399 ], [ -0.656056537162626, 47.323707756341797 ], [ -0.656134811151705, 47.323736111204099 ], [ -0.656231694271414, 47.323771089279099 ], [ -0.656294652480749, 47.323796411919602 ], [ -0.656433746686901, 47.323865386787197 ], [ -0.65665739794014, 47.323980992584303 ], [ -0.656758915635065, 47.324033397544603 ], [ -0.656805710321495, 47.324064636433498 ], [ -0.656943709638457, 47.324164195805302 ], [ -0.65700151825962, 47.324209236335598 ], [ -0.657042115640911, 47.324240940791299 ], [ -0.657071681661082, 47.3242683066482 ], [ -0.65712732518572, 47.324326302468599 ], [ -0.657156182652522, 47.324358827458397 ], [ -0.656998526312856, 47.324472570254699 ], [ -0.656967919149814, 47.324476598840597 ], [ -0.656939537458466, 47.3244860545893 ], [ -0.656919501771171, 47.324501285349001 ], [ -0.656896042019574, 47.324532394948598 ], [ -0.65688608839337, 47.324547758593802 ], [ -0.656765693051707, 47.3245742625734 ], [ -0.656620782814182, 47.324606675701297 ], [ -0.656547390066304, 47.324620793926897 ], [ -0.656525056205877, 47.324625643144898 ], [ -0.656447434766089, 47.324638002033403 ], [ -0.656362383419371, 47.324646359341699 ], [ -0.656325308804734, 47.324646896619399 ], [ -0.656280856911925, 47.324642259139601 ], [ -0.656247758100563, 47.324635010958701 ], [ -0.656197087054289, 47.3246188538361 ], [ -0.656151731793968, 47.324599014549896 ], [ -0.656048917593011, 47.324539260091903 ], [ -0.655850123252459, 47.3244227799334 ], [ -0.655759923503508, 47.324373081719003 ], [ -0.655649220285406, 47.324316188920001 ], [ -0.655550764887049, 47.324269814683603 ], [ -0.655441473831618, 47.324235587357599 ], [ -0.655351122851593, 47.324212839372201 ], [ -0.655260508902477, 47.324195957376297 ], [ -0.655148777084582, 47.324180371302397 ], [ -0.65507742024124, 47.324173787093898 ], [ -0.65502698817853, 47.324174744679198 ], [ -0.655001770343823, 47.324176169776202 ], [ -0.654977825310599, 47.324190441882102 ], [ -0.655001047776997, 47.32420836523 ], [ -0.655102484239715, 47.324216795789503 ], [ -0.655221202207678, 47.324227926240603 ], [ -0.655304897102923, 47.3242405202272 ], [ -0.655381233701898, 47.324257942034698 ], [ -0.655436622463657, 47.324273320054097 ], [ -0.65548943249867, 47.324293645737299 ], [ -0.655535332118497, 47.324311755848598 ], [ -0.655628415163415, 47.324355145147798 ], [ -0.65572553136263, 47.324407148928003 ], [ -0.655749782610632, 47.324420713984601 ], [ -0.655837571189004, 47.324470037568801 ], [ -0.656022037585843, 47.324580480531601 ], [ -0.656173611140683, 47.3246750170428 ], [ -0.656210353000086, 47.3247007151137 ], [ -0.656438991210958, 47.3246774701229 ], [ -0.656641411866875, 47.3246546001875 ], [ -0.656765413223925, 47.324636273726803 ], [ -0.65682522905786, 47.3246251966602 ], [ -0.656888343495687, 47.324608067718003 ], [ -0.656928916625786, 47.324588855358797 ], [ -0.656981816867363, 47.324557989563701 ], [ -0.657091578912368, 47.324482434857003 ], [ -0.657183014728232, 47.324423859364401 ], [ -0.657220381056289, 47.324476212880803 ], [ -0.657251135591169, 47.324524899610203 ], [ -0.657291662098485, 47.324584723567597 ], [ -0.657143563507068, 47.324652024040397 ], [ -0.656968996555383, 47.3247257458181 ], [ -0.656775814194629, 47.324802487134498 ], [ -0.65661694737421, 47.324865439982403 ], [ -0.656491916962089, 47.3249250734873 ], [ -0.656433157428726, 47.324953600297299 ], [ -0.656332587436194, 47.325002639881198 ], [ -0.656270695469224, 47.3250357712773 ], [ -0.656250172679033, 47.325041915169699 ], [ -0.656245761734414, 47.325043315816103 ], [ -0.656192504583992, 47.3250592326279 ], [ -0.656001458464633, 47.3251206750544 ], [ -0.655828391271807, 47.325175602880002 ], [ -0.655720638466689, 47.325086174112698 ], [ -0.655425524547908, 47.325147289028799 ], [ -0.655148000218427, 47.325207849163299 ], [ -0.655055410885533, 47.325232033581401 ], [ -0.654790859534061, 47.3253020973902 ], [ -0.654742959396402, 47.325318836118399 ], [ -0.654681472600466, 47.325350151469998 ], [ -0.654552784956667, 47.325420351811502 ], [ -0.654186269388637, 47.325610510109797 ], [ -0.653973533031182, 47.3257194040428 ], [ -0.653804821026275, 47.325741027618797 ], [ -0.653652864102373, 47.325757617468703 ], [ -0.653564613112406, 47.3257715706768 ], [ -0.653507424605629, 47.325784275553403 ], [ -0.653442112019646, 47.325810033121101 ], [ -0.653372116441785, 47.325840984763197 ], [ -0.653266885997686, 47.325897558041902 ], [ -0.653200497952105, 47.3259289367248 ], [ -0.653067263616544, 47.325981074300401 ], [ -0.652884909143218, 47.326051520063601 ], [ -0.652859844642856, 47.326061050585501 ], [ -0.652791898455893, 47.326087070898701 ], [ -0.652717930717302, 47.326110306757798 ], [ -0.652590873867931, 47.326146117946202 ], [ -0.652415768388137, 47.326186775619 ], [ -0.652252353093338, 47.326220035807701 ], [ -0.65224789909505, 47.326220806814497 ], [ -0.652160640139307, 47.326235719010398 ], [ -0.651900344737971, 47.326282751679699 ], [ -0.651709618217956, 47.326317861817699 ], [ -0.651675410363369, 47.326323534288498 ], [ -0.651587982096759, 47.326337910654701 ], [ -0.651514263660145, 47.326349242121601 ], [ -0.651377453394588, 47.326354718251402 ], [ -0.651285347231102, 47.326358787726399 ], [ -0.651200336554381, 47.326363895562203 ], [ -0.651111896590469, 47.326377041723099 ], [ -0.650884156895733, 47.326415567922801 ], [ -0.650712821684948, 47.3264434876465 ], [ -0.65056919707214, 47.326452060992601 ], [ -0.650475241379632, 47.326458170620903 ], [ -0.650423178559894, 47.326429347953898 ], [ -0.650215167489617, 47.326298098401701 ], [ -0.650082262603315, 47.326214862938002 ], [ -0.649968340747385, 47.326159327740498 ], [ -0.649944538233422, 47.326148450972298 ], [ -0.649839806995134, 47.326101368168501 ], [ -0.649769795650334, 47.326069775296403 ], [ -0.649684178311851, 47.3260289402971 ], [ -0.649628024713474, 47.326002318687799 ], [ -0.649518306345952, 47.325952058034098 ], [ -0.649472476125516, 47.325931059578899 ], [ -0.649437669810939, 47.325949366904702 ], [ -0.649708619770055, 47.326082333305798 ], [ -0.649802058921309, 47.326123192652901 ], [ -0.649877486910981, 47.326154525032599 ], [ -0.649927708878616, 47.326177728313397 ], [ -0.649974935507954, 47.326199764111301 ], [ -0.650035742526469, 47.326236332561201 ], [ -0.650194993575149, 47.326330815392801 ], [ -0.650420027334979, 47.326459006195797 ], [ -0.650448496872999, 47.326476134538602 ], [ -0.650454567232679, 47.326479638484301 ], [ -0.650483709859989, 47.3264813352516 ], [ -0.650674179458274, 47.326471648892301 ], [ -0.650795393164153, 47.326464861857502 ], [ -0.650871810824272, 47.326458132146001 ], [ -0.650922760919446, 47.326451122146203 ], [ -0.650983292615647, 47.326442729257103 ], [ -0.651161366868427, 47.326414506991298 ], [ -0.651186282234378, 47.326410568941398 ], [ -0.651276817664666, 47.326395103814001 ], [ -0.651334863153804, 47.326389132061998 ], [ -0.651407289377499, 47.326388024853202 ], [ -0.651481951790573, 47.326386667000698 ], [ -0.651506672316714, 47.326385708949203 ], [ -0.65163513344383, 47.326366617001497 ], [ -0.651951074665033, 47.326307560279503 ], [ -0.652218512204979, 47.3262603027324 ], [ -0.652317602433821, 47.326240061581601 ], [ -0.652334594256736, 47.3262365528836 ], [ -0.652565347306451, 47.326185852940498 ], [ -0.652709953190053, 47.326154716356903 ], [ -0.652781728921204, 47.326128485440101 ], [ -0.65290089289345, 47.326083820417601 ], [ -0.653055869686694, 47.326023969327302 ], [ -0.653196863355292, 47.325965098912903 ], [ -0.653308700900362, 47.3259179604933 ], [ -0.653340732090216, 47.325897846818897 ], [ -0.653362282943229, 47.325881487602103 ], [ -0.653370847927548, 47.325874909609098 ], [ -0.65340504294515, 47.325849590987403 ], [ -0.65346669154504, 47.3258264721361 ], [ -0.653617974874524, 47.325780524800201 ], [ -0.65371723033999, 47.3257685681955 ], [ -0.654018867747928, 47.325746724738998 ], [ -0.654190208690108, 47.325654724862702 ], [ -0.654264834883314, 47.325615876613703 ], [ -0.654446458016917, 47.325521119327803 ], [ -0.654674188729662, 47.325394990025799 ], [ -0.654726871937395, 47.325366745635598 ], [ -0.65488095087377, 47.325313228606902 ], [ -0.654988734951492, 47.325276669995901 ], [ -0.655215810248202, 47.325232388758003 ], [ -0.655622117221045, 47.325153623028299 ], [ -0.655683806399164, 47.325144740555999 ], [ -0.655724495689058, 47.325154453380399 ], [ -0.655755218183287, 47.325169616980098 ], [ -0.655772559206359, 47.325180966493498 ], [ -0.655780110631115, 47.325190641764998 ], [ -0.65561570921515, 47.325238537299697 ], [ -0.655460617104204, 47.325288842944097 ], [ -0.655382408593437, 47.325317891692798 ], [ -0.655346467624361, 47.3253214570003 ], [ -0.655304893233717, 47.325320153040998 ], [ -0.655273835011906, 47.3253292420628 ], [ -0.65515711337848, 47.325386359343099 ], [ -0.655121741038737, 47.325402162929002 ], [ -0.655096655257079, 47.325413316780597 ], [ -0.655043287853615, 47.325347858556498 ], [ -0.655031413472752, 47.325333092460298 ], [ -0.654746228342025, 47.325450487933999 ], [ -0.65461850393536, 47.325507590674 ], [ -0.654583596342274, 47.3255535694923 ], [ -0.654565049226216, 47.325586776832303 ], [ -0.654533686366247, 47.325616692848499 ], [ -0.65446964744774, 47.325665030906599 ], [ -0.654419999886545, 47.325702822358203 ], [ -0.654404189190384, 47.325717829475202 ], [ -0.654398328291187, 47.325723240964798 ], [ -0.654368559859204, 47.325759054608397 ], [ -0.65434908649199, 47.325782558165599 ], [ -0.654283505026403, 47.3258140923338 ], [ -0.654227474282378, 47.325843793696599 ], [ -0.654201433017578, 47.325860384596197 ], [ -0.654151654171141, 47.325904037818901 ], [ -0.654095406965166, 47.325957807829099 ], [ -0.654064243077508, 47.325978975844301 ], [ -0.65402352700262, 47.325996118878798 ], [ -0.653968949293405, 47.326010183684502 ], [ -0.653935349370591, 47.326020884384597 ], [ -0.653901322184746, 47.326040880832203 ], [ -0.653846539071776, 47.326083069317797 ], [ -0.653827466815591, 47.326091059596997 ], [ -0.653701937691633, 47.326112314694001 ], [ -0.653467952794096, 47.3261350014184 ], [ -0.653320313909336, 47.3261488413903 ], [ -0.653177744912167, 47.3261592772783 ], [ -0.653111652830187, 47.326167756245503 ], [ -0.653096502925834, 47.326173009467702 ], [ -0.653085367358489, 47.326176874652198 ], [ -0.653052385592521, 47.326196657689998 ], [ -0.652992354089986, 47.326249374683798 ], [ -0.652937429221909, 47.3262894944233 ], [ -0.65286338892461, 47.326336974769497 ], [ -0.652808808033466, 47.326368522270897 ], [ -0.652792258280151, 47.326374630585903 ], [ -0.652762007270647, 47.326385856357497 ], [ -0.652718923272736, 47.326399378544501 ], [ -0.652696318867428, 47.326410003144701 ], [ -0.652674511635273, 47.326428443036498 ], [ -0.652667384088973, 47.326450296024603 ], [ -0.652654828897369, 47.3264780874837 ], [ -0.652642543234223, 47.326490369923398 ], [ -0.652624352367596, 47.326501576550399 ], [ -0.652607421704062, 47.326505984557201 ], [ -0.652587888674376, 47.326511105302998 ], [ -0.65257428163774, 47.326519554189701 ], [ -0.652555979191961, 47.326542750194101 ], [ -0.652546808871962, 47.326565748897202 ], [ -0.652531100214485, 47.326586159680303 ], [ -0.652486837682727, 47.326619364888302 ], [ -0.652385739192664, 47.326674365319299 ], [ -0.652264374858558, 47.326745143487997 ], [ -0.652226888137702, 47.326768853052798 ], [ -0.652198096344916, 47.326793730883999 ], [ -0.652153604187947, 47.326841091913899 ], [ -0.65201135971994, 47.326996518098703 ], [ -0.651951923588208, 47.327065797697401 ], [ -0.651900980730404, 47.3271138121967 ], [ -0.651827567549646, 47.327174429487698 ], [ -0.651776630831574, 47.327212800963999 ], [ -0.651737809778276, 47.327242229851997 ], [ -0.651706200366553, 47.327284138629203 ], [ -0.651702223217738, 47.327311389682798 ], [ -0.651712251313729, 47.327336037190499 ], [ -0.651760100702806, 47.327404193794898 ], [ -0.651771107374602, 47.3274276389552 ], [ -0.651772619295963, 47.327449850848801 ], [ -0.651771212050045, 47.327454491213601 ], [ -0.651768613115225, 47.327463044205999 ], [ -0.65175141251199, 47.327473228203601 ], [ -0.651679350515741, 47.3274933392916 ], [ -0.65162626229472, 47.327507896768999 ], [ -0.651585173305642, 47.327521535957899 ], [ -0.651543916366558, 47.327540497453903 ], [ -0.651522282331473, 47.327553704725503 ], [ -0.651255223369744, 47.327386554760302 ], [ -0.650770377577711, 47.3277256062105 ], [ -0.650758987840655, 47.327733534515197 ], [ -0.650848289020154, 47.327770017313902 ], [ -0.65029900702164, 47.328299803139799 ], [ -0.650221162169841, 47.3282407902648 ], [ -0.649930240687745, 47.328017072048901 ], [ -0.649849620547222, 47.3279542711009 ], [ -0.649125514993925, 47.328573990440702 ], [ -0.648624957251392, 47.328343252414697 ], [ -0.647985022681451, 47.3291835426025 ], [ -0.647708913917121, 47.329542153138803 ], [ -0.647444292804504, 47.329492703522597 ], [ -0.647056692270448, 47.329420262448899 ], [ -0.64694244441514, 47.329398979697302 ], [ -0.646928378931733, 47.329396808228303 ], [ -0.646883121972266, 47.329390119623902 ], [ -0.646813499810181, 47.329391586365197 ], [ -0.646558703696394, 47.329422302280101 ], [ -0.646404626130723, 47.329441021588202 ], [ -0.646341654490493, 47.329448677539098 ], [ -0.646080107156206, 47.329442475498396 ], [ -0.646007619507736, 47.329440787493702 ], [ -0.645904587822459, 47.329438256585803 ], [ -0.645811532279305, 47.329229490480401 ], [ -0.645763374570311, 47.329121598905402 ], [ -0.645840813306587, 47.328940640685701 ], [ -0.645756424915036, 47.328919860705497 ], [ -0.645644282281509, 47.3288924726223 ], [ -0.64554048088832, 47.3288668951595 ], [ -0.64512248036424, 47.328764401835599 ], [ -0.645118515946082, 47.328756776123903 ], [ -0.64515740172197, 47.328677511828502 ], [ -0.645240238183703, 47.328494041393903 ], [ -0.645317617433326, 47.328323899641802 ], [ -0.645348668996642, 47.328222982419099 ], [ -0.645369148632078, 47.328142043177202 ], [ -0.645385412653338, 47.3280712395443 ], [ -0.64538246166445, 47.328033662518699 ], [ -0.645382182747036, 47.328031508424999 ], [ -0.64536163053186, 47.3279358168286 ], [ -0.645303554541369, 47.327789215102101 ], [ -0.645232345133281, 47.327628787067901 ], [ -0.645154740758318, 47.3274698215168 ], [ -0.645088994903338, 47.327329318322299 ], [ -0.645015546880471, 47.327176890942901 ], [ -0.64498843817106, 47.327093931737501 ], [ -0.644960219052158, 47.326984872902401 ], [ -0.644933990892654, 47.326854393333903 ], [ -0.644922531510916, 47.3267598579721 ] ], [ [ -0.651882711211566, 47.324499032838801 ], [ -0.651922006817853, 47.324515549775199 ], [ -0.651941493030177, 47.324492226466099 ], [ -0.651903369376345, 47.324475402298098 ], [ -0.651882711211566, 47.324499032838801 ] ], [ [ -0.655273124842032, 47.323459012304099 ], [ -0.655306618901246, 47.323479856355199 ], [ -0.655331007831039, 47.323460433362499 ], [ -0.655299875952904, 47.323439244553398 ], [ -0.655273124842032, 47.323459012304099 ] ] ], [ [ [ -0.637377680943571, 47.326145405429799 ], [ -0.637517569839629, 47.325923384435598 ], [ -0.637717307873897, 47.325626220767802 ], [ -0.637720694088705, 47.3256214284552 ], [ -0.637769725178745, 47.325548968157598 ], [ -0.637775248160772, 47.325540504117697 ], [ -0.637851895798974, 47.325427706128899 ], [ -0.637971924347454, 47.3252822769945 ], [ -0.638019763625337, 47.325221569347903 ], [ -0.638049529228659, 47.325203153211099 ], [ -0.638087973216645, 47.325181761444902 ], [ -0.638134561529413, 47.3251710187021 ], [ -0.638169669599784, 47.325162978931601 ], [ -0.638256931137808, 47.325110948332402 ], [ -0.63827251097566, 47.325113974519603 ], [ -0.638304205789704, 47.325120100229398 ], [ -0.638539159123649, 47.325164462053102 ], [ -0.638749766598951, 47.325217246868903 ], [ -0.639048732247196, 47.325294746861999 ], [ -0.639031913279997, 47.325328167591501 ], [ -0.639018136561684, 47.325355635205 ], [ -0.639071993720568, 47.325369987512801 ], [ -0.639149087484476, 47.325390820635 ], [ -0.639164542064027, 47.325419354230597 ], [ -0.63916502646683, 47.325416725597698 ], [ -0.639362381906287, 47.325496870407399 ], [ -0.639490561423797, 47.325360285960102 ], [ -0.639497880329945, 47.325362669872902 ], [ -0.639701436611092, 47.325426758752201 ], [ -0.640044820577732, 47.325533773886299 ], [ -0.64006607953706, 47.3255404066959 ], [ -0.640081681599211, 47.325492965444802 ], [ -0.640193758473143, 47.325150333011798 ], [ -0.639935631503006, 47.325067229323999 ], [ -0.639947651081252, 47.324941587233198 ], [ -0.6398798559943, 47.324876124560099 ], [ -0.63992982417621, 47.324842925610099 ], [ -0.640182971317019, 47.324653395905898 ], [ -0.64031844857189, 47.324544338046898 ], [ -0.640401447109323, 47.324386549841698 ], [ -0.640500481689717, 47.324189687631502 ], [ -0.640594582938443, 47.324013887635999 ], [ -0.640621627322644, 47.323963203485199 ], [ -0.640739328713929, 47.323762150615103 ], [ -0.640903264548767, 47.323494400937697 ], [ -0.640991352251789, 47.323355016956398 ], [ -0.641315503837374, 47.323258872666699 ], [ -0.641437291552475, 47.323225492107703 ], [ -0.64152861382795, 47.323217760015197 ], [ -0.641598832438861, 47.323213483787796 ], [ -0.641644236168062, 47.3232107071914 ], [ -0.64182713288216, 47.3231950544534 ], [ -0.641948024928719, 47.323185582972599 ], [ -0.642189717324832, 47.323165290722997 ], [ -0.642444028566356, 47.323145412954403 ], [ -0.642623032548867, 47.323132945178997 ], [ -0.642782652318966, 47.323129737040297 ], [ -0.643046766424698, 47.323119553426402 ], [ -0.643070925588112, 47.323186474361499 ], [ -0.643032250139152, 47.323350803902002 ], [ -0.643017526416365, 47.323407230019498 ], [ -0.643000248533141, 47.3234357994275 ], [ -0.642959417530387, 47.323482501187002 ], [ -0.643047335046334, 47.3237935355289 ], [ -0.643127565521645, 47.324065519245501 ], [ -0.643150311917413, 47.324166279120298 ], [ -0.643233270743777, 47.324310568643199 ], [ -0.643172275786405, 47.3247063934907 ], [ -0.643108889567902, 47.3246922520933 ], [ -0.642953771066542, 47.324939451431597 ], [ -0.642715049982026, 47.325591205047402 ], [ -0.643055176726178, 47.325675513650999 ], [ -0.643062542069556, 47.325653203305897 ], [ -0.643088064732845, 47.3255918421874 ], [ -0.643115770657694, 47.325531403830098 ], [ -0.643209951635693, 47.325374433973401 ], [ -0.643273101254848, 47.3252601632839 ], [ -0.643339521366553, 47.325106227653002 ], [ -0.643381535805019, 47.325000821228798 ], [ -0.643424107550472, 47.3248938652603 ], [ -0.643503439600638, 47.324688066173501 ], [ -0.643617631035614, 47.324394478041 ], [ -0.643675875741401, 47.324243141878497 ], [ -0.643642000380205, 47.3241990558775 ], [ -0.643489383559362, 47.324022438078899 ], [ -0.643546227818961, 47.323854383790803 ], [ -0.643567919030639, 47.323769801949801 ], [ -0.643546862893511, 47.323670521074298 ], [ -0.643488010181896, 47.323428416706498 ], [ -0.643342553210846, 47.323294740952598 ], [ -0.64319098053998, 47.323152966082397 ], [ -0.64324399269794, 47.323108044650198 ], [ -0.643482702599613, 47.323059455823298 ], [ -0.643627189101014, 47.323020764158201 ], [ -0.643702870920757, 47.3230325365368 ], [ -0.643834460159556, 47.3229581118269 ], [ -0.643909252887041, 47.3229197156721 ], [ -0.644094356891333, 47.3228390141484 ], [ -0.644206803811811, 47.322781321410297 ], [ -0.644269235475753, 47.322742411994497 ], [ -0.644317259785964, 47.322706027737702 ], [ -0.644376640414427, 47.322647568111499 ], [ -0.644494631336215, 47.322513460195601 ], [ -0.645318241285946, 47.322724784419897 ], [ -0.645256609139664, 47.322845677722199 ], [ -0.64531089567591, 47.322874162341598 ], [ -0.645360087294408, 47.3228998330544 ], [ -0.645108966296678, 47.3231149052028 ], [ -0.644888500060752, 47.323299364709101 ], [ -0.644672010631765, 47.3234936119335 ], [ -0.644511426514422, 47.323640682954398 ], [ -0.644418259865433, 47.323761754958298 ], [ -0.644295394357965, 47.323927557378298 ], [ -0.644210648584319, 47.324053591628399 ], [ -0.644175304360834, 47.324114720803998 ], [ -0.6441655757977, 47.324147108677899 ], [ -0.64416414668497, 47.324176802714902 ], [ -0.644174049848891, 47.324228941004399 ], [ -0.644217508015807, 47.324384834001698 ], [ -0.644563761151813, 47.324530136503199 ], [ -0.644686581902799, 47.324584135606102 ], [ -0.644905981581716, 47.324680431111702 ], [ -0.645266368875848, 47.324844483046597 ], [ -0.645579580338515, 47.325000823769003 ], [ -0.645452490219505, 47.325239035543198 ], [ -0.64528486106524, 47.325549714542802 ], [ -0.645147476885126, 47.325827631202301 ], [ -0.645133355266264, 47.325855831414998 ], [ -0.644951586735722, 47.326237426893798 ], [ -0.644872109173129, 47.326439086034902 ], [ -0.644841874770067, 47.326522764822698 ], [ -0.644824318429959, 47.326594059600197 ], [ -0.644816816943882, 47.326645572887898 ], [ -0.644806311892587, 47.326693846103097 ], [ -0.644791452889858, 47.326752169142502 ], [ -0.644814409771811, 47.326865718992302 ], [ -0.644827474001812, 47.326915595070098 ], [ -0.644864379232839, 47.327056914071598 ], [ -0.644893344378313, 47.327155495693198 ], [ -0.644935642325169, 47.327263030933103 ], [ -0.644992543663994, 47.327392366881902 ], [ -0.645110326958935, 47.327645236182398 ], [ -0.645261262943218, 47.3279587955385 ], [ -0.64527931905887, 47.328004098943097 ], [ -0.645286470127432, 47.328044968565898 ], [ -0.645265381533954, 47.328118897644103 ], [ -0.645182643928773, 47.328375992199703 ], [ -0.645122371505985, 47.328481882482897 ], [ -0.645026738233735, 47.3286467396455 ], [ -0.645016176255568, 47.328664914908202 ], [ -0.644807918722328, 47.329035265385897 ], [ -0.644592816112539, 47.328992725458903 ], [ -0.64457594052574, 47.328988208747703 ], [ -0.644541112891341, 47.328978938765403 ], [ -0.644402838308853, 47.328943448344297 ], [ -0.644340290548033, 47.328914411537198 ], [ -0.6441888124099, 47.328844549598699 ], [ -0.643920729755894, 47.328722565057703 ], [ -0.643911700827437, 47.328718432720002 ], [ -0.643572434492833, 47.328569033281603 ], [ -0.643554124424054, 47.32856095671 ], [ -0.643233503842225, 47.328422596285201 ], [ -0.643136144469324, 47.328380593120499 ], [ -0.6430599643556, 47.328347928244497 ], [ -0.642974497120865, 47.328311229137498 ], [ -0.642901180281596, 47.328279735948698 ], [ -0.642805958073396, 47.328239918407498 ], [ -0.642646623219005, 47.328173365207 ], [ -0.642420838151811, 47.328080780292098 ], [ -0.642354446608793, 47.328053665482699 ], [ -0.642184578386277, 47.327980322877899 ], [ -0.64210873718072, 47.3279428704775 ], [ -0.642108828666942, 47.327926646227098 ], [ -0.642124397078186, 47.327882630284101 ], [ -0.642127909170335, 47.327871886050097 ], [ -0.642145416710717, 47.327819338082101 ], [ -0.642148598985231, 47.327780306900102 ], [ -0.64213620465849, 47.327765646031303 ], [ -0.64211126349027, 47.327751649269302 ], [ -0.642048946280816, 47.3277279210687 ], [ -0.641895942250611, 47.3276706306983 ], [ -0.64155077060104, 47.327566830839601 ], [ -0.641472146686247, 47.327541090683702 ], [ -0.641385438526862, 47.3275056009496 ], [ -0.641200847304979, 47.327430105495097 ], [ -0.640921653930797, 47.327318015575997 ], [ -0.640728222516875, 47.327250907428997 ], [ -0.640556254763745, 47.327189524102401 ], [ -0.64060490271747, 47.327127077778002 ], [ -0.640629286681147, 47.327095762605701 ], [ -0.640898609640539, 47.3269608770117 ], [ -0.640996921320315, 47.326985729501899 ], [ -0.64101285227542, 47.326960717393199 ], [ -0.640906084009455, 47.3269323452351 ], [ -0.640803491878382, 47.326979181238698 ], [ -0.64060004892283, 47.327071176193002 ], [ -0.640580801353042, 47.327080521500903 ], [ -0.640521282966635, 47.3271605214888 ], [ -0.640508040146109, 47.3271685068758 ], [ -0.640495141324105, 47.327171795296998 ], [ -0.64030568876418, 47.327114474721199 ], [ -0.6402040544313, 47.327085580409197 ], [ -0.639841202722485, 47.326994586365998 ], [ -0.63951568650329, 47.326914676507599 ], [ -0.639189857927458, 47.326834054610103 ], [ -0.638935717988595, 47.326764882038603 ], [ -0.638826947048581, 47.326734317842302 ], [ -0.63870173784521, 47.326690030203501 ], [ -0.638656636140432, 47.326660173131202 ], [ -0.638487443524984, 47.326541925109403 ], [ -0.63844658855825, 47.326514097665097 ], [ -0.638404331731077, 47.326485142615098 ], [ -0.638351448254499, 47.326471480398297 ], [ -0.638055710429719, 47.326392795864599 ], [ -0.637931971198389, 47.326356481909798 ], [ -0.63775184165806, 47.326297783649402 ], [ -0.637719835240755, 47.326287071490498 ], [ -0.637622047887062, 47.326254269434799 ], [ -0.637572103664235, 47.326233125020103 ], [ -0.637544268716467, 47.326221380877399 ], [ -0.637377680943571, 47.326145405429799 ] ] ], [ [ [ -0.638479796921175, 47.318957588094101 ], [ -0.638489030304667, 47.318945222632301 ], [ -0.63862153587255, 47.318776870949698 ], [ -0.638771390030928, 47.318764691895602 ], [ -0.638818635829885, 47.3187187816619 ], [ -0.638859470335909, 47.318681904120297 ], [ -0.638919655545807, 47.318633335086403 ], [ -0.638976621581972, 47.318593968988502 ], [ -0.639052346039543, 47.318545903860198 ], [ -0.639030635721194, 47.318511077854097 ], [ -0.639133996114694, 47.318471878809198 ], [ -0.639278344470775, 47.318491863982899 ], [ -0.639292777455248, 47.318485823935298 ], [ -0.639385691958607, 47.318503637124202 ], [ -0.639480333721113, 47.318523468801402 ], [ -0.639648606777015, 47.318573794170703 ], [ -0.63983330240906, 47.3186298223699 ], [ -0.639888503792031, 47.318648457681398 ], [ -0.639952772678195, 47.318675730309302 ], [ -0.64011217521512, 47.3187574243547 ], [ -0.640233087828215, 47.318892955197398 ], [ -0.64034228265462, 47.319013983903403 ], [ -0.640382778556994, 47.319054168191201 ], [ -0.640440811984685, 47.319096956424403 ], [ -0.640551613672667, 47.3188470947306 ], [ -0.640667077560419, 47.318589786950596 ], [ -0.640833440617666, 47.318580691989901 ], [ -0.641135427254144, 47.318570405111899 ], [ -0.641432650988804, 47.318564142035903 ], [ -0.641407024008375, 47.318621991646602 ], [ -0.641710164841529, 47.318394389880602 ], [ -0.641943032394395, 47.318306875165703 ], [ -0.642100875731818, 47.3182503727339 ], [ -0.642316344594511, 47.318097886709197 ], [ -0.642237597968921, 47.318085759236801 ], [ -0.642206960730717, 47.318081494004502 ], [ -0.642195130471098, 47.318116110622498 ], [ -0.642167469667683, 47.318112743262901 ], [ -0.642174327673739, 47.3180771111724 ], [ -0.642051900889228, 47.318067706422802 ], [ -0.642035704382422, 47.318059473236502 ], [ -0.64201403917253, 47.318040957876001 ], [ -0.641999915737798, 47.318008597804997 ], [ -0.642021059609397, 47.317882758656197 ], [ -0.642015491042677, 47.317816335386901 ], [ -0.642009206374094, 47.317754981265203 ], [ -0.642009834903081, 47.317717381849299 ], [ -0.641934797732352, 47.317705227877497 ], [ -0.641897540588246, 47.317699097608497 ], [ -0.641835153749806, 47.317982678024997 ], [ -0.64179776607509, 47.318171839974298 ], [ -0.641684921296311, 47.318250901431099 ], [ -0.641584325950342, 47.318305426413303 ], [ -0.641490059773165, 47.318347766833298 ], [ -0.641373049811493, 47.318398661273498 ], [ -0.641215392436281, 47.3184559679109 ], [ -0.641167042527097, 47.318471904188598 ], [ -0.641023852479919, 47.3184982963202 ], [ -0.640841703638888, 47.318530596879498 ], [ -0.640870252720302, 47.318359556288598 ], [ -0.640909977929785, 47.3181364366379 ], [ -0.640994426127747, 47.317943545403402 ], [ -0.641037340753525, 47.317843608496702 ], [ -0.641123205282319, 47.317708709380298 ], [ -0.641175896837407, 47.317629823829101 ], [ -0.641194380419034, 47.317587789010403 ], [ -0.641205191982744, 47.317549870063303 ], [ -0.641636746729798, 47.3171622421522 ], [ -0.641629665980113, 47.317391817623701 ], [ -0.641626033450139, 47.317654628932303 ], [ -0.641814296444718, 47.317685128409003 ], [ -0.641833107102047, 47.317534669869197 ], [ -0.641862340224116, 47.317541682835198 ], [ -0.641902431172668, 47.317480224918803 ], [ -0.641911787612808, 47.317465782541397 ], [ -0.6419366099248, 47.317427333633297 ], [ -0.641944405926002, 47.317415283328401 ], [ -0.641981251771727, 47.317366543913998 ], [ -0.64201845154256, 47.317317162541499 ], [ -0.642069361330175, 47.317255004492502 ], [ -0.64212726336201, 47.3171884814546 ], [ -0.642194202334216, 47.317136003667301 ], [ -0.642249345565316, 47.317093268501701 ], [ -0.642339763759963, 47.3170411350346 ], [ -0.642414651094744, 47.3170081437043 ], [ -0.642501547677919, 47.3169802725971 ], [ -0.64259431561484, 47.316956903301097 ], [ -0.642632764271333, 47.316947405304397 ], [ -0.642684540236964, 47.3169214476778 ], [ -0.64271936722861, 47.316891786523598 ], [ -0.642850727559736, 47.316732206814699 ], [ -0.642927963067897, 47.316657686551402 ], [ -0.643015958296174, 47.316577691608302 ], [ -0.643059065170554, 47.316556782297198 ], [ -0.643186567621189, 47.316525833329102 ], [ -0.643428725378735, 47.316485516396902 ], [ -0.643649840886504, 47.316447571995504 ], [ -0.643877753337927, 47.316363362743203 ], [ -0.644114355279775, 47.316356382726298 ], [ -0.644317112818206, 47.3163525379709 ], [ -0.644414429048241, 47.316312262104901 ], [ -0.644446887071026, 47.316249691111601 ], [ -0.644493308142105, 47.316248323158803 ], [ -0.644607163640143, 47.316244746912297 ], [ -0.644754324670005, 47.316245711759798 ], [ -0.64497426127427, 47.316258719247202 ], [ -0.645179206769901, 47.316277334084702 ], [ -0.645320322820627, 47.316296602122101 ], [ -0.645513447524862, 47.316328474824203 ], [ -0.645699641592142, 47.316365611660899 ], [ -0.645849153124284, 47.316399214623999 ], [ -0.646006906745229, 47.316439047008103 ], [ -0.646249878496551, 47.316506301130701 ], [ -0.646391180350039, 47.316545838929201 ], [ -0.646397403800136, 47.316547716097098 ], [ -0.646512903012519, 47.316583919133997 ], [ -0.646618203478675, 47.316616297092999 ], [ -0.646703572926993, 47.316649842085198 ], [ -0.646712707832485, 47.3166536103612 ], [ -0.646798356314451, 47.316689309384003 ], [ -0.646920956354197, 47.316748089076597 ], [ -0.646937291563702, 47.316756407357097 ], [ -0.646660424712291, 47.316761774723801 ], [ -0.646528854574768, 47.316836202829798 ], [ -0.646632874829815, 47.316970636216197 ], [ -0.646543039636003, 47.317056639742802 ], [ -0.646419231329862, 47.3170034850245 ], [ -0.64650945792369, 47.3170421945741 ], [ -0.646547922129413, 47.317101185532202 ], [ -0.647178231850207, 47.317318208900403 ], [ -0.646711692512028, 47.317795004762701 ], [ -0.646707446926014, 47.317798833088901 ], [ -0.646632645402018, 47.317864267510501 ], [ -0.646547586673098, 47.317938675687401 ], [ -0.646528773279034, 47.318047950904699 ], [ -0.646490282017224, 47.318294735837902 ], [ -0.646446400936758, 47.318516817155597 ], [ -0.646400135011077, 47.318762314279503 ], [ -0.646338032511265, 47.319038048379397 ], [ -0.646265298471902, 47.319381615843199 ], [ -0.646265137870991, 47.319383152918199 ], [ -0.646214983814565, 47.319696271365899 ], [ -0.646208708345825, 47.319734589022701 ], [ -0.6461200895757, 47.320088208019001 ], [ -0.646051732888479, 47.320402619162103 ], [ -0.646050602047323, 47.320407431015298 ], [ -0.646163582393079, 47.320468857016202 ], [ -0.646115037437908, 47.3206457544659 ], [ -0.646016853289457, 47.320755270334701 ], [ -0.645935470695976, 47.320842899945099 ], [ -0.645755266817344, 47.320970222703501 ], [ -0.645558254340144, 47.321097892973697 ], [ -0.645432364283226, 47.321072739387198 ], [ -0.645328218127498, 47.321174511392698 ], [ -0.645143907671152, 47.321297996864601 ], [ -0.645052826338956, 47.321324829623101 ], [ -0.644816346055619, 47.321569991980297 ], [ -0.644781631543021, 47.321533052056601 ], [ -0.644747534928599, 47.321483746391202 ], [ -0.644734752532255, 47.3214653129684 ], [ -0.644680539446129, 47.321369596918601 ], [ -0.644653640351803, 47.321299427877499 ], [ -0.644621832863231, 47.321209676896999 ], [ -0.644605926429047, 47.321131592576201 ], [ -0.644594176546012, 47.321050313652002 ], [ -0.644585719181982, 47.3209394623455 ], [ -0.644578139958302, 47.320812271883298 ], [ -0.64457073448718, 47.320740319013801 ], [ -0.644543673358318, 47.320675562182799 ], [ -0.644487646889914, 47.320586301462797 ], [ -0.644405712837692, 47.320548771725299 ], [ -0.644305988237701, 47.320502968980797 ], [ -0.644264807684692, 47.320483985466097 ], [ -0.644215671909396, 47.320462998792202 ], [ -0.644006589960779, 47.320373948391399 ], [ -0.643809649050048, 47.320288031032298 ], [ -0.643735903189304, 47.320255921230398 ], [ -0.643659803087989, 47.320333560309201 ], [ -0.643428479866149, 47.320420489000398 ], [ -0.643169095408514, 47.320519653224203 ], [ -0.643053158466914, 47.320564928139497 ], [ -0.642961383861418, 47.320606921045702 ], [ -0.642880707749579, 47.320650367837501 ], [ -0.642847577127, 47.3206718649474 ], [ -0.642792741860389, 47.3207074711571 ], [ -0.642694405710111, 47.320775804351499 ], [ -0.642585591369613, 47.320855731254397 ], [ -0.642546096193726, 47.320867424839903 ], [ -0.642256074023349, 47.320815968368002 ], [ -0.642117893239771, 47.320791287152801 ], [ -0.641925592702428, 47.320732707320701 ], [ -0.641548024416301, 47.320607846155497 ], [ -0.641168600324959, 47.320482951925001 ], [ -0.641033977532751, 47.320444279487702 ], [ -0.641010730665041, 47.320437619156898 ], [ -0.64085533924067, 47.320399508062998 ], [ -0.640474053536819, 47.320315493956002 ], [ -0.64041375347537, 47.320303777756102 ], [ -0.64014357947739, 47.320251783590003 ], [ -0.639809191752291, 47.320187023520702 ], [ -0.639766444149661, 47.320174215707802 ], [ -0.639726362212297, 47.320151861778299 ], [ -0.639676281288331, 47.320109094107799 ], [ -0.639676731208369, 47.320102050717999 ], [ -0.639683492429814, 47.319990721985 ], [ -0.639700604777822, 47.3199460269498 ], [ -0.639697907527627, 47.3198808654316 ], [ -0.63968474677795, 47.319811886641403 ], [ -0.639633958760749, 47.319606296181597 ], [ -0.639719849089019, 47.319442379284197 ], [ -0.63983327815129, 47.3192253294566 ], [ -0.639870512330201, 47.319158825225998 ], [ -0.639889426442969, 47.319125068132799 ], [ -0.639731493606552, 47.319108033101699 ], [ -0.639273320970076, 47.319052831903001 ], [ -0.638479796921175, 47.318957588094101 ] ] ], [ [ [ -0.637002866768485, 47.325748735060401 ], [ -0.637002489331062, 47.325737301828397 ], [ -0.637010432625692, 47.325719569882096 ], [ -0.637015695463981, 47.325709221545701 ], [ -0.637026970972278, 47.325699585959001 ], [ -0.637085465436977, 47.325665039687898 ], [ -0.637171737823027, 47.325614032278601 ], [ -0.637308895100698, 47.325517902668899 ], [ -0.637252913633295, 47.325245426300398 ], [ -0.63720419298265, 47.3251817074147 ], [ -0.637164239967228, 47.325120237042498 ], [ -0.63713896961225, 47.325060289096697 ], [ -0.637132513003517, 47.325041296187798 ], [ -0.637120647733391, 47.324979666445898 ], [ -0.637111717387058, 47.324932003223999 ], [ -0.637112790223403, 47.324902861284102 ], [ -0.637113267280789, 47.324892302453399 ], [ -0.637128807592523, 47.324834139480302 ], [ -0.637134382772981, 47.324810804259201 ], [ -0.63715393140507, 47.3247765773284 ], [ -0.637189584138238, 47.3247276970367 ], [ -0.637253284032369, 47.324648739229303 ], [ -0.637257319321911, 47.324643746346801 ], [ -0.637330873618653, 47.324559613218597 ], [ -0.637368234092248, 47.324524197130202 ], [ -0.637412395410494, 47.324503076966899 ], [ -0.637503924554708, 47.324336101964199 ], [ -0.637612195740846, 47.324156075571899 ], [ -0.637713854920713, 47.324009510104901 ], [ -0.637849278360557, 47.323821422786203 ], [ -0.638001594585973, 47.323608834106402 ], [ -0.638224487594753, 47.323289765114097 ], [ -0.63836749390661, 47.3230826044637 ], [ -0.638567893245031, 47.322801278670099 ], [ -0.638610466892176, 47.322725505654397 ], [ -0.638642449235356, 47.322663582532599 ], [ -0.638657852035213, 47.322621014091403 ], [ -0.638659423033395, 47.322616819367099 ], [ -0.638683332796139, 47.322537486064803 ], [ -0.638689492877886, 47.322516926060501 ], [ -0.638735209904392, 47.322366345922603 ], [ -0.638806649681916, 47.322159265727201 ], [ -0.638804906411982, 47.322115973238901 ], [ -0.638833276462518, 47.321912856980497 ], [ -0.638873322823537, 47.321749026833601 ], [ -0.638796740728081, 47.321661399561101 ], [ -0.638757971652299, 47.321617375600198 ], [ -0.638737004317068, 47.321593520751598 ], [ -0.638687678169631, 47.321542347943797 ], [ -0.638663687418747, 47.321450458046002 ], [ -0.63861544220964, 47.321223699812798 ], [ -0.638602245578333, 47.321160039109202 ], [ -0.638566439338897, 47.321083479403299 ], [ -0.638470238008747, 47.320884359266799 ], [ -0.63839754400124, 47.320730913204301 ], [ -0.638376893093878, 47.320666765249001 ], [ -0.638345594209619, 47.320556990533497 ], [ -0.638313047675161, 47.3204561766944 ], [ -0.638431413587948, 47.3202825011982 ], [ -0.638607414488206, 47.320026542142799 ], [ -0.638687713102771, 47.319975540237699 ], [ -0.638901839557006, 47.320008207515698 ], [ -0.639104519916821, 47.320040151942599 ], [ -0.639443876860049, 47.320092231603901 ], [ -0.639502384074115, 47.320102923098901 ], [ -0.639554132104122, 47.320123379174298 ], [ -0.639645980593817, 47.320160601241803 ], [ -0.639662608753054, 47.320167379320303 ], [ -0.639743023195093, 47.3202040587637 ], [ -0.639822990244694, 47.320238048619501 ], [ -0.640157128351672, 47.320293263878803 ], [ -0.640327448837853, 47.320322886949 ], [ -0.640495049227675, 47.320355388800699 ], [ -0.640546073783642, 47.320367125607802 ], [ -0.640650804509917, 47.320391055736998 ], [ -0.640848256177178, 47.320439653015001 ], [ -0.641089005580724, 47.320509150773297 ], [ -0.641371215930627, 47.320601769250302 ], [ -0.641677461711926, 47.320695074672699 ], [ -0.641948428906993, 47.3207782216693 ], [ -0.642160163960516, 47.320836101359298 ], [ -0.642491340104653, 47.320921773171001 ], [ -0.642548554968056, 47.320942687195704 ], [ -0.642657678836395, 47.320865364074301 ], [ -0.64283104139999, 47.320742586821702 ], [ -0.642902034145174, 47.320751713138897 ], [ -0.643089052696468, 47.320839836042701 ], [ -0.643300945084142, 47.320942948547597 ], [ -0.643540183511695, 47.321056466945898 ], [ -0.643926844035928, 47.321233125194297 ], [ -0.644112510552199, 47.321312998033903 ], [ -0.644331832356329, 47.321400555193797 ], [ -0.644394592822154, 47.321423096563997 ], [ -0.644495722369032, 47.321454436082597 ], [ -0.644579779663654, 47.321486131476497 ], [ -0.644630815042806, 47.321511654435199 ], [ -0.644721079095405, 47.321562530407803 ], [ -0.644746516840741, 47.321581918129397 ], [ -0.644777682272785, 47.321605631901797 ], [ -0.64494832578428, 47.321721842756801 ], [ -0.644869740175425, 47.321747291532503 ], [ -0.644831304985619, 47.321760935213199 ], [ -0.644793313575301, 47.321779161018398 ], [ -0.644754272390218, 47.3217994925228 ], [ -0.644677441578466, 47.321846875115298 ], [ -0.644661930138561, 47.321856554452097 ], [ -0.644646953802369, 47.321866307099299 ], [ -0.644634398586443, 47.3218746319153 ], [ -0.644570899515865, 47.321903662001297 ], [ -0.644446859544245, 47.321962350110098 ], [ -0.64430044293132, 47.322031113200097 ], [ -0.644221635336815, 47.322068914799303 ], [ -0.644122469481652, 47.3221152861381 ], [ -0.643044959552998, 47.3226635178154 ], [ -0.6431310817547, 47.322725609680496 ], [ -0.643141855186638, 47.323057990877899 ], [ -0.643034608200286, 47.323071270849098 ], [ -0.642948922360223, 47.323076123629299 ], [ -0.642864554668409, 47.323065254261003 ], [ -0.642793665153214, 47.323083070172899 ], [ -0.642719283736175, 47.323078736261898 ], [ -0.642606022086655, 47.323089320828302 ], [ -0.642431663437822, 47.323105788247297 ], [ -0.641944470272338, 47.3231429781505 ], [ -0.641506110609453, 47.323175209084802 ], [ -0.641377356526189, 47.323186008232902 ], [ -0.641149301415473, 47.323262735911399 ], [ -0.640996321715436, 47.323305205528598 ], [ -0.64096570200281, 47.323297334582399 ], [ -0.640948034987361, 47.323292842230202 ], [ -0.640862799948829, 47.323429342996398 ], [ -0.640742697106079, 47.323614520359001 ], [ -0.640570346695904, 47.323879379578003 ], [ -0.640519774426084, 47.323956395565901 ], [ -0.64050371357151, 47.323995109797998 ], [ -0.640476676849374, 47.324059581858201 ], [ -0.640388030850945, 47.324286488220899 ], [ -0.640374277519779, 47.324312333164997 ], [ -0.640265274846677, 47.324485356079798 ], [ -0.640251053565455, 47.324506259148301 ], [ -0.640207969366749, 47.324539332439699 ], [ -0.640000190175791, 47.324700133230202 ], [ -0.639810187874153, 47.324843613948701 ], [ -0.639601477577435, 47.324977047033201 ], [ -0.639592182653156, 47.324982655551104 ], [ -0.639377741722018, 47.325109779368397 ], [ -0.639144492987441, 47.325026074007198 ], [ -0.639171165520058, 47.324962064363 ], [ -0.63894341131142, 47.324920271764498 ], [ -0.638932173883465, 47.324950002836999 ], [ -0.638799997922666, 47.3249025994606 ], [ -0.638635753514114, 47.325115202578402 ], [ -0.638485304425055, 47.325083691955903 ], [ -0.638413108368735, 47.325072527795697 ], [ -0.638262703730373, 47.3250494866545 ], [ -0.638211676652084, 47.3250768603287 ], [ -0.638144237538293, 47.325129981722398 ], [ -0.638099348844046, 47.325132560508202 ], [ -0.638042928829079, 47.325140998010298 ], [ -0.637993144868662, 47.325167161068201 ], [ -0.637961983081377, 47.325190397247802 ], [ -0.637906976958184, 47.325256826772303 ], [ -0.637791778146338, 47.3254109360687 ], [ -0.637711475912321, 47.325524569520901 ], [ -0.637505779948216, 47.325802274089597 ], [ -0.637358345942311, 47.326004885718 ], [ -0.637312622424185, 47.325932601786697 ], [ -0.637294619147569, 47.325903607146799 ], [ -0.637274632851703, 47.325888372682797 ], [ -0.637253828616853, 47.325872803376697 ], [ -0.63721287065245, 47.325849304447203 ], [ -0.637161995557438, 47.325822241216898 ], [ -0.637097615895805, 47.325793438358502 ], [ -0.637042290448322, 47.325771110602403 ], [ -0.637012062976984, 47.325759261085302 ], [ -0.637002866768485, 47.325748735060401 ] ] ], [ [ [ -0.645788292770176, 47.322636300187099 ], [ -0.645792748767506, 47.322610205870902 ], [ -0.645801184537553, 47.322584166758297 ], [ -0.645878549166172, 47.322464671324099 ], [ -0.645945903840228, 47.322355854029396 ], [ -0.64597911446259, 47.322292628345203 ], [ -0.645988641296057, 47.3222748458967 ], [ -0.646033887010514, 47.322189793688104 ], [ -0.646077531160512, 47.322102628914799 ], [ -0.646191036738814, 47.321972805487498 ], [ -0.646312053619851, 47.321818954427002 ], [ -0.646416988956171, 47.321697600874202 ], [ -0.646525570097841, 47.3215791966932 ], [ -0.646586971873448, 47.321616829522902 ], [ -0.646636226633333, 47.321581036377097 ], [ -0.646709207531606, 47.321619386698998 ], [ -0.646766104132291, 47.321649230522802 ], [ -0.64684439575516, 47.3216896668497 ], [ -0.646941423570612, 47.321551438618698 ], [ -0.647009327293697, 47.321452696665403 ], [ -0.646956505463929, 47.321395058280302 ], [ -0.647131368243679, 47.321341258607397 ], [ -0.647200171315345, 47.321310348077603 ], [ -0.647217211874425, 47.321297826621198 ], [ -0.647228059549352, 47.321289735414602 ], [ -0.647420792001232, 47.321122544252702 ], [ -0.647493124324705, 47.321049977594001 ], [ -0.647552712383639, 47.3209829482808 ], [ -0.647609021793179, 47.320908632206397 ], [ -0.647619730338564, 47.320894597455002 ], [ -0.647645065295776, 47.320859826081602 ], [ -0.647691088754328, 47.320796016773102 ], [ -0.647758397765501, 47.320694409152601 ], [ -0.647826850384251, 47.3205784365529 ], [ -0.647880320953559, 47.320487717708097 ], [ -0.647965458997427, 47.320465124846301 ], [ -0.648292337712129, 47.320540101120102 ], [ -0.648461127705867, 47.320572464123202 ], [ -0.648466789854745, 47.320571925618701 ], [ -0.648641016121816, 47.320553650578397 ], [ -0.648890803220595, 47.320527862458498 ], [ -0.649032079958596, 47.320514227702397 ], [ -0.649110734541844, 47.320515178800598 ], [ -0.649169259383962, 47.3205182949118 ], [ -0.649226908242146, 47.320528017260301 ], [ -0.649349776969165, 47.320549656995702 ], [ -0.649609568315666, 47.320612500588098 ], [ -0.649797043105439, 47.320660405398002 ], [ -0.649874180874103, 47.320679968303303 ], [ -0.650027610928256, 47.320710559210198 ], [ -0.650196949844862, 47.320743172829701 ], [ -0.650329166168621, 47.320763886675898 ], [ -0.649941823529829, 47.32125352373 ], [ -0.64973610819303, 47.3215083632386 ], [ -0.649682202265945, 47.321487438701602 ], [ -0.649090359973002, 47.321973320517202 ], [ -0.648704678793542, 47.322294737644697 ], [ -0.648445149708704, 47.322403470792203 ], [ -0.648446728473631, 47.322485159375702 ], [ -0.648445680440383, 47.322582791542402 ], [ -0.648098392390767, 47.323123971694201 ], [ -0.648067191548251, 47.323113417281199 ], [ -0.64802690353736, 47.3230998141144 ], [ -0.647431564588346, 47.323733591553101 ], [ -0.647340434854565, 47.323634981564297 ], [ -0.647287090901469, 47.323569699581199 ], [ -0.647260355903085, 47.323537105621703 ], [ -0.647199989289486, 47.323460148584303 ], [ -0.647111528963892, 47.3233929962594 ], [ -0.647094188120413, 47.323379662891703 ], [ -0.646924465472117, 47.323251800642403 ], [ -0.646814056276063, 47.323167854760499 ], [ -0.646646970309219, 47.323090466146503 ], [ -0.646378430186968, 47.3229633652915 ], [ -0.6460152704436, 47.322795438831797 ], [ -0.645969692196003, 47.322770285695299 ], [ -0.645892809470837, 47.322727191047399 ], [ -0.645814821714829, 47.322679534991401 ], [ -0.645799821367784, 47.322667479698801 ], [ -0.645791913752954, 47.322654480616997 ], [ -0.645788292770176, 47.322636300187099 ] ] ], [ [ [ -0.644765529054082, 47.329878486975602 ], [ -0.644766747794075, 47.329837895223903 ], [ -0.644776499860924, 47.329776578511499 ], [ -0.644799156097803, 47.329655468226399 ], [ -0.644840821038359, 47.329437604139201 ], [ -0.644861776155679, 47.329322675322203 ], [ -0.64502513154229, 47.329415143727203 ], [ -0.645191968346726, 47.329656378951299 ], [ -0.645837775954361, 47.329687821929603 ], [ -0.645850301784017, 47.329536659517601 ], [ -0.646007321461107, 47.329611932683399 ], [ -0.646247978705938, 47.329587700189698 ], [ -0.646518351262784, 47.329559920107002 ], [ -0.646867351298159, 47.3295188544692 ], [ -0.647049546165031, 47.329551069403998 ], [ -0.647069679952298, 47.329554762428799 ], [ -0.647562020493097, 47.329645089688597 ], [ -0.647602611285383, 47.329666974561498 ], [ -0.647747751103739, 47.329661061128398 ], [ -0.647808413771457, 47.329695472447199 ], [ -0.647860024827552, 47.329690335634801 ], [ -0.647902733292335, 47.329686830404498 ], [ -0.647987210499863, 47.329683544313298 ], [ -0.648192350709848, 47.329684756278297 ], [ -0.648417939884113, 47.329686496602399 ], [ -0.648400245550637, 47.329697236286798 ], [ -0.648385885394603, 47.329716071989203 ], [ -0.648367458309495, 47.329758917078699 ], [ -0.648344138774607, 47.329881851537401 ], [ -0.648308038256699, 47.3298909168251 ], [ -0.648284761175087, 47.330030071347998 ], [ -0.648250905326381, 47.330245618833104 ], [ -0.648318227898014, 47.330251252834003 ], [ -0.648298863931021, 47.330373882668503 ], [ -0.648282512400496, 47.330486234350403 ], [ -0.64826186572706, 47.330570513789198 ], [ -0.64825292457231, 47.330591071618201 ], [ -0.648223896316691, 47.330628121798597 ], [ -0.648196508743783, 47.330669806585497 ], [ -0.648169854294763, 47.330716424863901 ], [ -0.648139356220897, 47.330766948946597 ], [ -0.648100824609028, 47.330822141361502 ], [ -0.648077538179739, 47.330853964352897 ], [ -0.648045857425096, 47.330885149997599 ], [ -0.648006908450071, 47.330922511935199 ], [ -0.647933757918678, 47.330979333113198 ], [ -0.647869056869888, 47.331022010350701 ], [ -0.647771230615755, 47.331084383278998 ], [ -0.647688638050968, 47.331129064625401 ], [ -0.647618274338364, 47.331162547307898 ], [ -0.647549181729454, 47.331208877005103 ], [ -0.647458242952325, 47.3312692308089 ], [ -0.647378737771189, 47.331322286067397 ], [ -0.647195980008478, 47.331441759294201 ], [ -0.647085605688928, 47.3315165117098 ], [ -0.646991465177962, 47.331580480352699 ], [ -0.646897075460812, 47.331636886754602 ], [ -0.646838960414045, 47.331661422756603 ], [ -0.646682746022875, 47.331726800814401 ], [ -0.646413745183024, 47.331835374430199 ], [ -0.646273349181497, 47.331917017035799 ], [ -0.646130130466719, 47.332001992407903 ], [ -0.646072676511858, 47.332032364955097 ], [ -0.645909934539181, 47.332107048957901 ], [ -0.645889861877086, 47.3321159704224 ], [ -0.645855912957251, 47.332131365727598 ], [ -0.645773594853505, 47.332160626654598 ], [ -0.645650781499496, 47.332212337414703 ], [ -0.645531218032691, 47.332267009998702 ], [ -0.645425106845294, 47.332307021170401 ], [ -0.645284569625054, 47.3323554130871 ], [ -0.645250257462663, 47.332264028866902 ], [ -0.645189272672394, 47.332012259837498 ], [ -0.645134399682915, 47.331795805621098 ], [ -0.645110462328748, 47.331701031484698 ], [ -0.645075518398597, 47.3314813378907 ], [ -0.645066796669472, 47.331417357102097 ], [ -0.645043294647924, 47.331247049718698 ], [ -0.645015623370561, 47.331046593341298 ], [ -0.644999683222931, 47.330835404861098 ], [ -0.64498008682135, 47.330701112425999 ], [ -0.64497832382993, 47.330688821515203 ], [ -0.64497017024365, 47.3306273461898 ], [ -0.644950447267454, 47.330553617568 ], [ -0.644911215997922, 47.330421023176903 ], [ -0.644872672863427, 47.3302907502501 ], [ -0.644825333363288, 47.330132456241003 ], [ -0.644779711510633, 47.329972125655097 ], [ -0.644770311340338, 47.329919611220497 ], [ -0.644765529054082, 47.329878486975602 ] ] ], [ [ [ -0.644232642212193, 47.324201777603498 ], [ -0.644234122830174, 47.324141621715398 ], [ -0.644282873158698, 47.3240690770022 ], [ -0.64430538766818, 47.324035656757097 ], [ -0.644407939788392, 47.323886893943502 ], [ -0.644502639729256, 47.323743514400597 ], [ -0.644550877098047, 47.323680988865902 ], [ -0.644726613034019, 47.323524790481002 ], [ -0.644934945760056, 47.323337287928197 ], [ -0.6449647949442, 47.323310396076401 ], [ -0.644970662640043, 47.323305074984603 ], [ -0.645178226738371, 47.323119939164101 ], [ -0.645230459851455, 47.323073328979 ], [ -0.645402513574309, 47.322923463293897 ], [ -0.645466447008531, 47.322867653758699 ], [ -0.645669497991829, 47.3226980690727 ], [ -0.645726044201139, 47.322742253365 ], [ -0.645951737058857, 47.322859076490303 ], [ -0.64600817449606, 47.322886051310597 ], [ -0.646153656261068, 47.322955648409703 ], [ -0.646386398235995, 47.323063057095801 ], [ -0.646546154810254, 47.323139865313799 ], [ -0.64675412755271, 47.323239670550798 ], [ -0.646946579062692, 47.323387996754697 ], [ -0.646969906864121, 47.323411415580402 ], [ -0.646989539353126, 47.323431165528397 ], [ -0.647048907590745, 47.323497339737898 ], [ -0.647206989382847, 47.323691805301699 ], [ -0.647302423582424, 47.323822542775801 ], [ -0.64731970424158, 47.3238622829343 ], [ -0.647326357858121, 47.3239036187653 ], [ -0.647318026701013, 47.323952635098998 ], [ -0.64729474457347, 47.324002031213197 ], [ -0.647257727236858, 47.324042396490903 ], [ -0.647204425732784, 47.324079128061697 ], [ -0.647145971723856, 47.324110253910902 ], [ -0.64701051212739, 47.324162814947101 ], [ -0.646725725284084, 47.324264767533897 ], [ -0.646362540252095, 47.324396939467 ], [ -0.646102534460504, 47.324506673103301 ], [ -0.646019341697347, 47.324544343228197 ], [ -0.645975145328485, 47.324568802277398 ], [ -0.645929875164235, 47.324600865048602 ], [ -0.645881814027539, 47.324642568108104 ], [ -0.645806644037578, 47.324710536388601 ], [ -0.645776729888022, 47.324744279521497 ], [ -0.645773289450561, 47.324748262726601 ], [ -0.645682422325508, 47.324860251567799 ], [ -0.645607365587197, 47.3249552518595 ], [ -0.645166505782635, 47.324740197933501 ], [ -0.644293142467482, 47.324339291841198 ], [ -0.644270000536134, 47.324314695126702 ], [ -0.64425179779264, 47.324265250689699 ], [ -0.644232642212193, 47.324201777603498 ] ] ], [ [ [ -0.635334207408986, 47.326643175335199 ], [ -0.635328449046091, 47.326558193761699 ], [ -0.635324019079847, 47.326492816400801 ], [ -0.635422164906099, 47.3263783555347 ], [ -0.635568364595232, 47.326118289723198 ], [ -0.635732461765606, 47.325813324642901 ], [ -0.63635676105881, 47.325305321938202 ], [ -0.636748918514137, 47.324986179476603 ], [ -0.636994417025104, 47.3251098787605 ], [ -0.637180138791764, 47.3252452739872 ], [ -0.637226608522203, 47.325504530701799 ], [ -0.63721965685067, 47.325515382574402 ], [ -0.637205615142849, 47.325537000535903 ], [ -0.63710822781019, 47.325601964234899 ], [ -0.637079183926185, 47.325621258677401 ], [ -0.636951610739509, 47.3257062734031 ], [ -0.636903443264137, 47.325777805060902 ], [ -0.636870086770265, 47.3258273342013 ], [ -0.637092126348072, 47.325882557450797 ], [ -0.637136233701733, 47.3258410723327 ], [ -0.637195377378801, 47.325876708049499 ], [ -0.637241883206196, 47.325911658405602 ], [ -0.637270005340549, 47.3259413272147 ], [ -0.637295682870227, 47.326005317702403 ], [ -0.637322929304008, 47.326068988655898 ], [ -0.637309331074503, 47.326114744504402 ], [ -0.637307934094663, 47.326176249166501 ], [ -0.637239732565635, 47.326290494232602 ], [ -0.637181411102578, 47.326388208252801 ], [ -0.637081963725403, 47.326559666443998 ], [ -0.636955504141771, 47.326770631902399 ], [ -0.636744820938406, 47.327105896496903 ], [ -0.636717971188382, 47.327151707014202 ], [ -0.636419777652478, 47.327116982960398 ], [ -0.636342108349171, 47.327118966011398 ], [ -0.635965253410186, 47.327138073015597 ], [ -0.635783740668213, 47.326980735311999 ], [ -0.635771213528119, 47.326969953074602 ], [ -0.6356888871438, 47.3269149464805 ], [ -0.63545179796269, 47.326768721678498 ], [ -0.635334207408986, 47.326643175335199 ] ] ], [ [ [ -0.645799171052636, 47.321409616441201 ], [ -0.645839059172879, 47.321351047402203 ], [ -0.645941300702912, 47.321174445687298 ], [ -0.645983945564512, 47.3210920886075 ], [ -0.645978587229801, 47.320970325633603 ], [ -0.646064900235387, 47.320888939551402 ], [ -0.646225900404252, 47.320732570462198 ], [ -0.646374686234674, 47.320577846598503 ], [ -0.646317009728419, 47.320548207357596 ], [ -0.646326040620601, 47.320371019432002 ], [ -0.646339808097875, 47.320171873782101 ], [ -0.646373150041837, 47.3200228501723 ], [ -0.646412110533367, 47.319818046366002 ], [ -0.64645750452633, 47.319620159774303 ], [ -0.646506227712115, 47.319410813481298 ], [ -0.646550048219447, 47.319258035914501 ], [ -0.646636969297776, 47.318986748657899 ], [ -0.6466990754147, 47.318791040224099 ], [ -0.646915139547976, 47.318787854458698 ], [ -0.647011666514904, 47.318786623032203 ], [ -0.647065576428575, 47.319012389935203 ], [ -0.647113508007016, 47.3192242860882 ], [ -0.647166530336529, 47.319456479302097 ], [ -0.647254543710985, 47.319815452027697 ], [ -0.64731052821966, 47.320034664983403 ], [ -0.647339572935282, 47.320128557601599 ], [ -0.647356914596262, 47.320159464166601 ], [ -0.64737824749986, 47.320184747994603 ], [ -0.647423278108742, 47.320221362928301 ], [ -0.647466066095989, 47.320252280700402 ], [ -0.647603782885114, 47.320322750807598 ], [ -0.647810541030193, 47.320430162195898 ], [ -0.647808989152019, 47.320434626829403 ], [ -0.647740351661446, 47.320551776793302 ], [ -0.647646534740896, 47.320713786563999 ], [ -0.647555999986797, 47.320865599694997 ], [ -0.647538425162476, 47.320883905640898 ], [ -0.64749065429725, 47.3209337111903 ], [ -0.647369272560116, 47.321068469879101 ], [ -0.647278279320259, 47.321166766272803 ], [ -0.647259956889374, 47.321177976241302 ], [ -0.647233230041727, 47.321194226685698 ], [ -0.647119989016437, 47.321261590322102 ], [ -0.647079881103296, 47.321283758564903 ], [ -0.647021323361554, 47.321305515335901 ], [ -0.646896286705588, 47.321345582837701 ], [ -0.646872543606092, 47.321353087969399 ], [ -0.646779068663457, 47.321383692220301 ], [ -0.64669399474109, 47.3214170063195 ], [ -0.646608117206263, 47.321452147991202 ], [ -0.646586806261574, 47.321446689577101 ], [ -0.646498309100194, 47.3214237865675 ], [ -0.646338506135805, 47.321387173032299 ], [ -0.646198045415904, 47.3213641002421 ], [ -0.646082198429035, 47.321354132272603 ], [ -0.646019917536507, 47.3213581618989 ], [ -0.645898703863797, 47.321382337316201 ], [ -0.645799171052636, 47.321409616441201 ] ] ], [ [ [ -0.648221042481877, 47.320456368741802 ], [ -0.648864563042515, 47.319685980819997 ], [ -0.649212287495795, 47.319266624464603 ], [ -0.649615659731228, 47.319418045780402 ], [ -0.649979201071015, 47.3195625177799 ], [ -0.650211813121158, 47.319677853334497 ], [ -0.650732157812816, 47.319943377487 ], [ -0.651226320974886, 47.3201980077203 ], [ -0.65135957946592, 47.320146411691702 ], [ -0.65137692032436, 47.320159744440502 ], [ -0.651695221204268, 47.320406568813098 ], [ -0.651676493374256, 47.320419594668202 ], [ -0.651648121412534, 47.320431121621802 ], [ -0.651460696608735, 47.320485233528899 ], [ -0.651134217856729, 47.3205817509293 ], [ -0.650866053436313, 47.320656876751102 ], [ -0.650660875382851, 47.320711095270603 ], [ -0.650603844028366, 47.320710456262901 ], [ -0.650498822112329, 47.320703756938101 ], [ -0.65038450906943, 47.320689058807901 ], [ -0.650245302692072, 47.320659102369497 ], [ -0.649952742909279, 47.320591883718897 ], [ -0.649945491479609, 47.320590489657803 ], [ -0.649801124198129, 47.320562587543002 ], [ -0.649668810704466, 47.320540434260799 ], [ -0.649395840286134, 47.320496209413299 ], [ -0.649161711835983, 47.320463829771498 ], [ -0.649098368838616, 47.320458071473297 ], [ -0.64905211930232, 47.3204600665957 ], [ -0.648837883961563, 47.320480501548602 ], [ -0.6486028169432, 47.320504474930402 ], [ -0.648499403989908, 47.320505833972298 ], [ -0.648427431298206, 47.320507646313402 ], [ -0.648221042481877, 47.320456368741802 ] ] ], [ [ [ -0.646965463125798, 47.318448054766797 ], [ -0.646988084750394, 47.3184279680994 ], [ -0.647002006192121, 47.318400765086103 ], [ -0.647016896625071, 47.318358571794803 ], [ -0.647036583825632, 47.3183109106903 ], [ -0.647074244702016, 47.318274219935098 ], [ -0.64713831144665, 47.318220477698098 ], [ -0.647208471246358, 47.3181861899346 ], [ -0.647254784616373, 47.318210508347804 ], [ -0.647445277631467, 47.318310771306002 ], [ -0.647815842505215, 47.318506126666797 ], [ -0.647862895709107, 47.318482838531402 ], [ -0.648187922104186, 47.318636006572397 ], [ -0.648517227191381, 47.318791652681 ], [ -0.648790038312726, 47.318919425088197 ], [ -0.648782976673591, 47.318952000032802 ], [ -0.648778601777789, 47.319103988899002 ], [ -0.648747821869535, 47.319185343331 ], [ -0.648711259057469, 47.319277153207103 ], [ -0.648674632035603, 47.319329042168597 ], [ -0.648626362922152, 47.319377331930902 ], [ -0.648506273502112, 47.319480329421502 ], [ -0.648403069774486, 47.319562699224797 ], [ -0.648329820789245, 47.319666566855503 ], [ -0.648143778522051, 47.319926192288598 ], [ -0.647846323027358, 47.320358023288499 ], [ -0.647751274659993, 47.320324512885698 ], [ -0.647619879053786, 47.320272949547601 ], [ -0.647547399998097, 47.320236116067498 ], [ -0.647473412947144, 47.320194643739597 ], [ -0.647416946843345, 47.320145771565798 ], [ -0.647389058120798, 47.3200961813478 ], [ -0.647359955479062, 47.319993639101497 ], [ -0.647277209997123, 47.319669286944801 ], [ -0.647171924600249, 47.319218034147603 ], [ -0.647087915053344, 47.318863351323898 ], [ -0.647043007697197, 47.318656947490801 ], [ -0.647020877582237, 47.318584826584299 ], [ -0.646996138265241, 47.318523061291401 ], [ -0.646965463125798, 47.318448054766797 ] ] ], [ [ [ -0.638108469255473, 47.319848971566799 ], [ -0.638099042713959, 47.319709943336598 ], [ -0.638087802341746, 47.319528525974697 ], [ -0.638130344797724, 47.319434730171103 ], [ -0.638131604373173, 47.319431806875201 ], [ -0.638222403523943, 47.319248361737799 ], [ -0.638259748348271, 47.319169778685101 ], [ -0.638459090812845, 47.319004017773203 ], [ -0.638460826731931, 47.318996393352002 ], [ -0.63867726087546, 47.319020156915201 ], [ -0.63909570907278, 47.319068044968098 ], [ -0.639518239275457, 47.319115533145599 ], [ -0.639799210876729, 47.319150968480798 ], [ -0.639705499846597, 47.319332433632503 ], [ -0.639638438401203, 47.3194671922327 ], [ -0.639592752734229, 47.3195712707006 ], [ -0.639581484088795, 47.319604427448802 ], [ -0.639576287243697, 47.319619640316098 ], [ -0.639570731468422, 47.319654960968002 ], [ -0.639571350710325, 47.319685581989603 ], [ -0.639577833395232, 47.3197186325514 ], [ -0.639592435512827, 47.319761972359998 ], [ -0.639612079330197, 47.319803441770603 ], [ -0.639633670021751, 47.319850167130902 ], [ -0.63962584561266, 47.319938008167597 ], [ -0.639606963267987, 47.320077744072101 ], [ -0.63927412457185, 47.3200338415161 ], [ -0.63903312582508, 47.319993816826198 ], [ -0.638753615973367, 47.319944815854598 ], [ -0.63870024645627, 47.3199317099129 ], [ -0.638622222787238, 47.319910725617298 ], [ -0.638552619864246, 47.319894704122397 ], [ -0.638356834694104, 47.319874528372097 ], [ -0.638108469255473, 47.319848971566799 ] ] ], [ [ [ -0.642895648704716, 47.320704510958997 ], [ -0.642953572236661, 47.320661688337097 ], [ -0.643154102005711, 47.320575997802798 ], [ -0.643444674338476, 47.320465761039102 ], [ -0.643754952107507, 47.320351029612098 ], [ -0.643804654477105, 47.320351091038098 ], [ -0.643855529184609, 47.320362560761701 ], [ -0.644026762883603, 47.320429008536102 ], [ -0.644140798431495, 47.320478687805 ], [ -0.644259762377577, 47.320538485774897 ], [ -0.644341035350104, 47.320581894119897 ], [ -0.644376920013662, 47.320600953815202 ], [ -0.644439230831932, 47.320642254050099 ], [ -0.644485588690118, 47.320684776245898 ], [ -0.644521271232673, 47.320728174425 ], [ -0.644538699704545, 47.320774038414498 ], [ -0.644549199082138, 47.32083300707 ], [ -0.644550422095054, 47.320958324423501 ], [ -0.644553929391327, 47.321072395250603 ], [ -0.644560793675392, 47.321144184871002 ], [ -0.644574304623166, 47.3212084660816 ], [ -0.644602566653124, 47.321316262140101 ], [ -0.644638167246746, 47.321416978644898 ], [ -0.6446489673954, 47.321464763061101 ], [ -0.64444842743963, 47.321402030207601 ], [ -0.644258068994997, 47.321336994651503 ], [ -0.644090870749922, 47.321269519225297 ], [ -0.643888642584272, 47.3211838580823 ], [ -0.643656560876281, 47.321080118869602 ], [ -0.643394082736412, 47.320956155605302 ], [ -0.643141095034364, 47.320829460607101 ], [ -0.642895648704716, 47.320704510958997 ] ] ], [ [ [ -0.644749798400907, 47.316101032129403 ], [ -0.645116047081222, 47.316020585541899 ], [ -0.645454606791837, 47.315944161887202 ], [ -0.645627906266858, 47.315877345645902 ], [ -0.645763260237252, 47.315899587866298 ], [ -0.645854624428721, 47.315919967881399 ], [ -0.64593150562505, 47.315937828978299 ], [ -0.645977606094365, 47.315951250083302 ], [ -0.646043363907824, 47.315977030669302 ], [ -0.646105047386835, 47.3160091574928 ], [ -0.646252398340375, 47.316100684494202 ], [ -0.646301045725091, 47.316134031955798 ], [ -0.646493566770019, 47.316266224947398 ], [ -0.646753116435695, 47.316440920128201 ], [ -0.646822198843531, 47.316503905263801 ], [ -0.64697125648314, 47.316630254005197 ], [ -0.646836523557863, 47.316617185791003 ], [ -0.646755409572222, 47.316578009862802 ], [ -0.646666894336762, 47.3165371739831 ], [ -0.646566520701256, 47.316497341557699 ], [ -0.646402971525401, 47.316446337000201 ], [ -0.646250512682973, 47.316400571112702 ], [ -0.646019186515988, 47.316335023811298 ], [ -0.645818350765002, 47.316271582079601 ], [ -0.645701693536628, 47.316241723126602 ], [ -0.645600317323971, 47.316218323133597 ], [ -0.645484409610729, 47.316197542478797 ], [ -0.645255072818576, 47.3161632026303 ], [ -0.645042603947295, 47.316135271629797 ], [ -0.644749798400907, 47.316101032129403 ] ] ], [ [ [ -0.633210364001508, 47.329782988665897 ], [ -0.63344173429593, 47.329615695500102 ], [ -0.6335136452999, 47.3299494050327 ], [ -0.633424019373281, 47.329972577636603 ], [ -0.633210364001508, 47.329782988665897 ] ] ] ] } }
]
}
