{
"type": "FeatureCollection",
"name": "Coteaux-du-Layon-Rablay-sur-Layon-ou-Rablay",
"crs": { "type": "name", "properties": { "name": "urn:ogc:def:crs:OGC:1.3:CRS84" } },
"features": [
{ "type": "Feature", "properties": { "Name": null, "id": "" }, "geometry": { "type": "MultiPolygon", "coordinates": [ [ [ [ -0.600783119714071, 47.285035026322603 ], [ -0.600816258288987, 47.285017685930598 ], [ -0.600858426802991, 47.2849118393911 ], [ -0.600912978371841, 47.284676649109002 ], [ -0.600983402382931, 47.284310835117999 ], [ -0.601005613964883, 47.284183889693502 ], [ -0.600991511822588, 47.2841730628313 ], [ -0.60088987316339, 47.284126744091402 ], [ -0.600890452003346, 47.284020837162601 ], [ -0.60091452783355, 47.283878243393303 ], [ -0.600969454700285, 47.283749380857699 ], [ -0.601108556291351, 47.2835111141139 ], [ -0.601182379259637, 47.283397435316402 ], [ -0.60122699106877, 47.283359642070799 ], [ -0.60130730021386, 47.283263695281597 ], [ -0.601434049279464, 47.283161169366103 ], [ -0.601534099143551, 47.283114715075499 ], [ -0.601658651802792, 47.283066328103999 ], [ -0.60195441205765, 47.282981982756098 ], [ -0.602050500364983, 47.282949529275697 ], [ -0.602415453654733, 47.2827733655296 ], [ -0.602650050993459, 47.282665685266103 ], [ -0.602779298319303, 47.282614267372999 ], [ -0.602989007095616, 47.282548183300698 ], [ -0.603076912362149, 47.2825358993544 ], [ -0.60337961765544, 47.282489995210298 ], [ -0.603426263334662, 47.282470702231898 ], [ -0.603480179906907, 47.2824393777666 ], [ -0.603683712946067, 47.282567419236599 ], [ -0.603755352990149, 47.282638369004601 ], [ -0.60378200691742, 47.2826763817028 ], [ -0.603827225831055, 47.282817363531002 ], [ -0.603865712954993, 47.2833039785721 ], [ -0.603882789762677, 47.283467643643199 ], [ -0.603929033201204, 47.283615983285699 ], [ -0.603981301580159, 47.283743588654403 ], [ -0.604067945103278, 47.283874271068598 ], [ -0.604217617527284, 47.2840403034484 ], [ -0.604234800484689, 47.284083206462697 ], [ -0.60422208439073, 47.284124605583301 ], [ -0.604094247799972, 47.284254294043201 ], [ -0.603967307123489, 47.284369715783697 ], [ -0.603812610666427, 47.284519523992103 ], [ -0.603754708481318, 47.284586208678 ], [ -0.603620163362405, 47.284671226050001 ], [ -0.60341176412816, 47.284780617213201 ], [ -0.603215465626225, 47.284878907891397 ], [ -0.603075430864147, 47.284933454911403 ], [ -0.6029668656294, 47.2849773813371 ], [ -0.602889941487034, 47.285001399743301 ], [ -0.602742722909421, 47.285041660485298 ], [ -0.602633376442369, 47.2850660551792 ], [ -0.602571615912291, 47.285073290861298 ], [ -0.602465740229588, 47.285072434560497 ], [ -0.601916834163692, 47.285077139156499 ], [ -0.601497357219157, 47.285076469739501 ], [ -0.601361410332332, 47.285083395343101 ], [ -0.601018694868045, 47.285076014584703 ], [ -0.600946333797272, 47.285071322495398 ], [ -0.600831014571486, 47.285048138276103 ], [ -0.600783119714071, 47.285035026322603 ] ] ], [ [ [ -0.597482281969999, 47.284822240905797 ], [ -0.597943392708088, 47.282108086068597 ], [ -0.60071853411694, 47.2824288290022 ], [ -0.600653452069302, 47.282566207610998 ], [ -0.600533428259361, 47.282938878736502 ], [ -0.600427207931581, 47.283195499310999 ], [ -0.600307970676557, 47.283459462984801 ], [ -0.600275795622743, 47.2835306640646 ], [ -0.600297369180195, 47.283583794848703 ], [ -0.600302923378134, 47.283597500613098 ], [ -0.600226181912443, 47.283628180369597 ], [ -0.60009114532258, 47.283682208171399 ], [ -0.599558598954666, 47.283610694854197 ], [ -0.599467142234584, 47.283603620757901 ], [ -0.5994023730308, 47.284883687174599 ], [ -0.599087358098836, 47.284870664690899 ], [ -0.598627168920716, 47.284863227997903 ], [ -0.597670640217398, 47.284828653422601 ], [ -0.597482281969999, 47.284822240905797 ] ] ], [ [ [ -0.580208040600771, 47.286341733860297 ], [ -0.580233028449361, 47.286174245770603 ], [ -0.580329293421833, 47.285876050061297 ], [ -0.580478884272893, 47.2853865111598 ], [ -0.580633923813195, 47.284873463294197 ], [ -0.580902583705716, 47.2839750798504 ], [ -0.580922619614705, 47.2839061522808 ], [ -0.580967380423951, 47.283904139225797 ], [ -0.581056858790715, 47.283911379053698 ], [ -0.58235700617815, 47.284064883416796 ], [ -0.582326716105927, 47.284150799758301 ], [ -0.582187896450773, 47.284597023249297 ], [ -0.582016378069532, 47.285087152265604 ], [ -0.581862334582028, 47.285553400721902 ], [ -0.58276986958057, 47.285657657889601 ], [ -0.582593719221279, 47.286330418097997 ], [ -0.58186425988157, 47.286316814189902 ], [ -0.581638638320135, 47.286319637348697 ], [ -0.581235678071886, 47.286326404705399 ], [ -0.580290540122145, 47.286365410928298 ], [ -0.580208040600771, 47.286341733860297 ] ] ], [ [ [ -0.56506698805136, 47.287647079166703 ], [ -0.565359288323831, 47.287286098908702 ], [ -0.565639434363131, 47.286947569941297 ], [ -0.565772172629742, 47.286796508882702 ], [ -0.56631322130977, 47.2861808680235 ], [ -0.56637296083019, 47.286101260404003 ], [ -0.566215896861201, 47.2860435497659 ], [ -0.566281131396975, 47.2859689098403 ], [ -0.566418067157246, 47.285827271107301 ], [ -0.566451312899681, 47.285795428854399 ], [ -0.566599749271636, 47.285645505930603 ], [ -0.566745569877965, 47.285500078940601 ], [ -0.566808754624484, 47.285522196644997 ], [ -0.566970470051024, 47.285622028005001 ], [ -0.567026769105035, 47.285664092893597 ], [ -0.567732387271642, 47.286245986581797 ], [ -0.567781292497429, 47.2863043193328 ], [ -0.567881223659598, 47.286438942824503 ], [ -0.567983732335944, 47.286522661251396 ], [ -0.568114965267827, 47.286602161498699 ], [ -0.568346943892197, 47.286724881568901 ], [ -0.568519271879336, 47.286834837883497 ], [ -0.568940186590422, 47.287141978753297 ], [ -0.56895228248789, 47.287134667532897 ], [ -0.568555530861897, 47.2868443558812 ], [ -0.568334322854966, 47.286704362895897 ], [ -0.568197127041701, 47.286632796369602 ], [ -0.568033577761833, 47.2865393311722 ], [ -0.567935942417107, 47.286469160552898 ], [ -0.567890340811039, 47.286428659397103 ], [ -0.567858495380674, 47.286391880360398 ], [ -0.567812960947508, 47.286314519477699 ], [ -0.567779815377765, 47.286268137959702 ], [ -0.567744417397921, 47.286237686225903 ], [ -0.567633989752232, 47.286142405970899 ], [ -0.567573168251741, 47.2860940822139 ], [ -0.567427184663818, 47.2859759246275 ], [ -0.56734204132919, 47.285904377980302 ], [ -0.567252904043189, 47.285830520989798 ], [ -0.567166037744265, 47.285756954545498 ], [ -0.567042108632736, 47.2856577634914 ], [ -0.567618267270616, 47.285333733850699 ], [ -0.568220759130738, 47.284999518704801 ], [ -0.568321877788432, 47.285048404486297 ], [ -0.568364346503671, 47.285077647188501 ], [ -0.568413677840205, 47.285118483969299 ], [ -0.568444315474428, 47.285155029677803 ], [ -0.56847319104854, 47.2852148796675 ], [ -0.568504820281836, 47.285268336756801 ], [ -0.568550055177504, 47.285379049739902 ], [ -0.568621377429808, 47.285535550167403 ], [ -0.568656513059542, 47.285595928405598 ], [ -0.568719146767088, 47.285705384973802 ], [ -0.568818251673699, 47.2858713937093 ], [ -0.568847929012116, 47.285925361364498 ], [ -0.568876262140897, 47.285975044787399 ], [ -0.568934319930804, 47.286063464689398 ], [ -0.569035483486854, 47.2861847121018 ], [ -0.569161856591283, 47.286320593481697 ], [ -0.569294027826397, 47.286456025929603 ], [ -0.569437263508074, 47.286598507238203 ], [ -0.569461083691707, 47.286636073589698 ], [ -0.569572725159156, 47.2867814196495 ], [ -0.56963251513178, 47.286869966150597 ], [ -0.569692105793795, 47.286981408358599 ], [ -0.569762561151027, 47.2871227952566 ], [ -0.569814565181294, 47.287251593078899 ], [ -0.569833478284175, 47.2872870574991 ], [ -0.56987995609438, 47.287356638611698 ], [ -0.569865354381591, 47.287366099746599 ], [ -0.569809357079951, 47.287402338113402 ], [ -0.569539788978241, 47.287576900668 ], [ -0.569461191407028, 47.287627802537102 ], [ -0.568071944060173, 47.288523686034203 ], [ -0.568052901123576, 47.2885181440043 ], [ -0.568046505513214, 47.288527532646199 ], [ -0.567962115540786, 47.288521207466403 ], [ -0.567999142472145, 47.288450588565503 ], [ -0.567955262417888, 47.288430040288503 ], [ -0.567884328906425, 47.288393021953098 ], [ -0.567818918297997, 47.288351417964599 ], [ -0.567749721496483, 47.288296683311401 ], [ -0.567728087951741, 47.288311947696698 ], [ -0.567488820869769, 47.288227119152602 ], [ -0.567408992925051, 47.288199746252303 ], [ -0.567273142772013, 47.288154451182898 ], [ -0.566698950425254, 47.287968268704098 ], [ -0.566514928004838, 47.288250495189999 ], [ -0.566462729250338, 47.288194426017 ], [ -0.566394172535281, 47.288119394743902 ], [ -0.566329793188549, 47.288071359984698 ], [ -0.566271820876318, 47.288048000271502 ], [ -0.566169236287549, 47.288005015285997 ], [ -0.566092081905062, 47.287979992435197 ], [ -0.56594445289766, 47.2879328051472 ], [ -0.565885830446476, 47.287913610590401 ], [ -0.565527433467264, 47.287799818995303 ], [ -0.565330248744741, 47.287734328954699 ], [ -0.56514371430732, 47.287673647811097 ], [ -0.56506698805136, 47.287647079166703 ] ] ], [ [ [ -0.577131953932403, 47.283907887194999 ], [ -0.577177839155109, 47.283765708928499 ], [ -0.577204473390136, 47.283710276384902 ], [ -0.577243494745285, 47.283620127111803 ], [ -0.577297403549473, 47.283487073420702 ], [ -0.577353929946924, 47.283361508770199 ], [ -0.577362926314719, 47.2833414955969 ], [ -0.577455824879561, 47.283258966161199 ], [ -0.577610896032563, 47.283153521220797 ], [ -0.577863261008346, 47.283003710403001 ], [ -0.578004454984228, 47.282854986249298 ], [ -0.578028835106925, 47.282837291963197 ], [ -0.578091582752461, 47.282785250690999 ], [ -0.578211044411554, 47.2826562115334 ], [ -0.578319475389998, 47.2824948000966 ], [ -0.578348290244008, 47.282466154825002 ], [ -0.578536133565197, 47.282274266099499 ], [ -0.579956360781389, 47.282797445892299 ], [ -0.580445409276554, 47.282163601590597 ], [ -0.579560081783472, 47.281821363855499 ], [ -0.579731475808145, 47.281547703676303 ], [ -0.579913718569306, 47.281260010400402 ], [ -0.57992185973928, 47.281247052521302 ], [ -0.5800921815808, 47.281064623432499 ], [ -0.580944600952772, 47.281280897895101 ], [ -0.581123503493867, 47.281040527101197 ], [ -0.581229974309737, 47.280897556945 ], [ -0.581388297362591, 47.2806881907728 ], [ -0.58093171353593, 47.280523679412703 ], [ -0.580720709744881, 47.280449450369403 ], [ -0.580745354176591, 47.280413904037097 ], [ -0.580492568615443, 47.280324743724201 ], [ -0.580406817133793, 47.280295850516097 ], [ -0.580198355842259, 47.280221992645302 ], [ -0.580065110163836, 47.280175911338198 ], [ -0.579950791737014, 47.280135643853498 ], [ -0.579847862310506, 47.280097367696399 ], [ -0.579710371420987, 47.280043216386701 ], [ -0.57967757551053, 47.280029990325197 ], [ -0.57940571216757, 47.279966469313699 ], [ -0.579274472132836, 47.279934563752803 ], [ -0.579121127479442, 47.279898834490403 ], [ -0.579481472594333, 47.279509759142002 ], [ -0.579754112511552, 47.279219455292598 ], [ -0.579897097986218, 47.279034265417799 ], [ -0.579978286851114, 47.278929205185896 ], [ -0.580141688652397, 47.278736445543103 ], [ -0.580373197112595, 47.278462910106803 ], [ -0.580460016219401, 47.278480055040397 ], [ -0.580528431239233, 47.278493262360598 ], [ -0.580562644758153, 47.278499955937797 ], [ -0.580988728151407, 47.278588630249999 ], [ -0.581029380139191, 47.2785469120223 ], [ -0.581214253035632, 47.278626543412599 ], [ -0.581414526930796, 47.2787147105687 ], [ -0.581635806428162, 47.278810068765601 ], [ -0.581870913676799, 47.2789122088002 ], [ -0.582140806288678, 47.279023637249097 ], [ -0.582305524703044, 47.279090912712903 ], [ -0.582513455124827, 47.279174696111397 ], [ -0.582549872176247, 47.2792024986489 ], [ -0.582560869388698, 47.279218470131603 ], [ -0.582604291323333, 47.2793909651365 ], [ -0.582597399382321, 47.2801987206946 ], [ -0.582589139770689, 47.280511593308198 ], [ -0.582588573322522, 47.280534861108798 ], [ -0.582579416230659, 47.280877950742301 ], [ -0.582561093877604, 47.2811233658649 ], [ -0.582531867168254, 47.281233130684697 ], [ -0.582428622017611, 47.281412499992697 ], [ -0.582187824183246, 47.281759231059503 ], [ -0.582058242727678, 47.281926977324297 ], [ -0.581773403568196, 47.282254791386698 ], [ -0.581477594894516, 47.282551222110001 ], [ -0.581253072330613, 47.2827708332699 ], [ -0.58117225346014, 47.282867591910502 ], [ -0.581067939238111, 47.283029059330602 ], [ -0.58096625669404, 47.283235954572099 ], [ -0.580926352513297, 47.283328655857801 ], [ -0.58083406034508, 47.283571127603999 ], [ -0.580584081732847, 47.2843345695102 ], [ -0.58056577670707, 47.284391728311697 ], [ -0.580304570311736, 47.285290781635801 ], [ -0.580238141900587, 47.285520017838401 ], [ -0.580180825235273, 47.285709140891299 ], [ -0.580006220816597, 47.286393653763199 ], [ -0.579693828472274, 47.286507382387803 ], [ -0.579514142555696, 47.286537711007099 ], [ -0.579041021397002, 47.286642340575099 ], [ -0.578871471820201, 47.286369742368798 ], [ -0.578737918131258, 47.2862397697712 ], [ -0.578591720208742, 47.286063146131902 ], [ -0.578292322285068, 47.285634596342703 ], [ -0.578114486092631, 47.285344860243903 ], [ -0.57779999817256, 47.284850719123298 ], [ -0.577778561906356, 47.284825156433001 ], [ -0.577490522394033, 47.284483397499997 ], [ -0.577297805875416, 47.284240529597803 ], [ -0.577193544597251, 47.284090907407702 ], [ -0.577144104312757, 47.283988888064101 ], [ -0.577131953932403, 47.283907887194999 ] ] ], [ [ [ -0.579983873823028, 47.2873396716993 ], [ -0.580173586161285, 47.286496357088097 ], [ -0.580274932412377, 47.286465021601899 ], [ -0.58131659661163, 47.286423665480598 ], [ -0.581628920304888, 47.2864221303645 ], [ -0.581869345264121, 47.286416867428898 ], [ -0.58216442676263, 47.286418927412498 ], [ -0.582587085194358, 47.286429481638301 ], [ -0.582984793133008, 47.286455133858802 ], [ -0.58330279214563, 47.286485050050899 ], [ -0.583326550075894, 47.286519551792402 ], [ -0.583285793929159, 47.286901105911802 ], [ -0.583238327328843, 47.287271422393502 ], [ -0.582013225436029, 47.2873288248718 ], [ -0.581624350733297, 47.287346332797703 ], [ -0.581579845422001, 47.287348248007604 ], [ -0.580364053421406, 47.287342714074903 ], [ -0.579983873823028, 47.2873396716993 ] ] ], [ [ [ -0.579141085893175, 47.286675208996698 ], [ -0.579760747333542, 47.286553619458601 ], [ -0.579979914200321, 47.286483771900997 ], [ -0.580072847550501, 47.286471260425699 ], [ -0.57986293280119, 47.287385039177799 ], [ -0.579845208721088, 47.287395318943098 ], [ -0.579824541929996, 47.287397218541201 ], [ -0.579541941455588, 47.287288429108102 ], [ -0.579506297646893, 47.2872444707818 ], [ -0.579465954837545, 47.2871637996179 ], [ -0.579396341058326, 47.287051319416904 ], [ -0.579248532344698, 47.286848612307097 ], [ -0.579141085893175, 47.286675208996698 ] ] ], [ [ [ -0.59121585932596, 47.294750068118901 ], [ -0.591566977431225, 47.294183261822297 ], [ -0.592700925642962, 47.294873407481397 ], [ -0.592795397300014, 47.294919324785603 ], [ -0.592889734204562, 47.2949414551871 ], [ -0.593001248209475, 47.294951067782101 ], [ -0.59309358203095, 47.294953163882198 ], [ -0.593036199248249, 47.295303065195597 ], [ -0.593029042090025, 47.295346543278903 ], [ -0.592873395048669, 47.295293058844599 ], [ -0.592731749380226, 47.295248873191802 ], [ -0.592526697953835, 47.295173668335202 ], [ -0.592390942434235, 47.295140294165797 ], [ -0.592189353468192, 47.295071289713498 ], [ -0.592107610013406, 47.295043361679902 ], [ -0.591983577703796, 47.295008993156699 ], [ -0.591743566286283, 47.294953704183001 ], [ -0.591587075818405, 47.2949152938099 ], [ -0.591319723542682, 47.294827507190199 ], [ -0.591251696511935, 47.294776894877202 ], [ -0.59121585932596, 47.294750068118901 ] ] ], [ [ [ -0.577449661315321, 47.296957273252801 ], [ -0.577469614726818, 47.296932686829003 ], [ -0.577603770918328, 47.296767240325501 ], [ -0.577688090115113, 47.296670918299 ], [ -0.577730765554692, 47.296627517525998 ], [ -0.577787911227635, 47.296576641295403 ], [ -0.577816095941583, 47.296554324162599 ], [ -0.577891334221855, 47.2965006368727 ], [ -0.57798038826699, 47.2964356192373 ], [ -0.57815828715482, 47.296332264710998 ], [ -0.57838651229888, 47.296202935665796 ], [ -0.578525469969199, 47.296121508726102 ], [ -0.578652792860972, 47.296050353411701 ], [ -0.578767416683845, 47.295995360187199 ], [ -0.578938579095573, 47.295918165809901 ], [ -0.579049355105897, 47.295875006184097 ], [ -0.579250043018748, 47.295799603744904 ], [ -0.579296187755069, 47.295812237968299 ], [ -0.579329372337738, 47.295821216866997 ], [ -0.579389067105221, 47.295830459055203 ], [ -0.579453893629145, 47.295837199809903 ], [ -0.579509087141289, 47.295852438435098 ], [ -0.579613016217703, 47.296099935724797 ], [ -0.579630484041096, 47.2960957018499 ], [ -0.579640227105811, 47.296118651270703 ], [ -0.579713895718081, 47.296103040411303 ], [ -0.579741094451744, 47.296169247817801 ], [ -0.579779130690723, 47.296252963848097 ], [ -0.579929395129665, 47.296215974215201 ], [ -0.580058670345365, 47.296184047947399 ], [ -0.580090859932186, 47.296176115403902 ], [ -0.58008334176012, 47.296186530649102 ], [ -0.580085202233487, 47.296204496569999 ], [ -0.580097600367857, 47.296235474512599 ], [ -0.580368860720925, 47.296207275815398 ], [ -0.58039157538061, 47.296192336205401 ], [ -0.580405672863393, 47.296183249829198 ], [ -0.580421736156719, 47.296165902144999 ], [ -0.580419141703432, 47.296154807755798 ], [ -0.580414162967307, 47.296133784006997 ], [ -0.580410877801327, 47.296120277786599 ], [ -0.580325999773075, 47.2957612593042 ], [ -0.580309021667282, 47.2956914021972 ], [ -0.580426919144133, 47.295675597108897 ], [ -0.580440312616439, 47.295673831912502 ], [ -0.580539186341098, 47.295660776756598 ], [ -0.580560192874713, 47.2956579654793 ], [ -0.580515914935285, 47.295504511722399 ], [ -0.580494983189395, 47.295432974343299 ], [ -0.580492856613338, 47.295428894618396 ], [ -0.580637745331565, 47.295402703697903 ], [ -0.581019107343471, 47.295333255263799 ], [ -0.581155006444023, 47.295309323799401 ], [ -0.581158123973762, 47.2953183293424 ], [ -0.58124223860972, 47.295610233979197 ], [ -0.58153288033313, 47.2955688176583 ], [ -0.581536544126803, 47.295584024385803 ], [ -0.581544844669666, 47.2956190938717 ], [ -0.581592557858996, 47.295822005497598 ], [ -0.581633195898748, 47.295996298192499 ], [ -0.581638775678478, 47.296020367316402 ], [ -0.581640337410479, 47.296025906333803 ], [ -0.581372124253048, 47.296062034360602 ], [ -0.581242286969741, 47.296077578224001 ], [ -0.581183545307714, 47.296084618683302 ], [ -0.581335610174849, 47.296533301096098 ], [ -0.581292604755592, 47.296541928400401 ], [ -0.581118497852473, 47.296576952417901 ], [ -0.580941248301946, 47.296610541204601 ], [ -0.580892413624555, 47.296625115795102 ], [ -0.580825234528331, 47.296636742140301 ], [ -0.58074597718746, 47.296653968088101 ], [ -0.580569988414086, 47.2966925639072 ], [ -0.580547862577467, 47.296706403966603 ], [ -0.580438115703014, 47.296731239528299 ], [ -0.580301840097977, 47.296755542106901 ], [ -0.580291757181892, 47.296757295207001 ], [ -0.580152963529871, 47.296783567782597 ], [ -0.579928423163082, 47.296821137918002 ], [ -0.579839082825125, 47.296836151162601 ], [ -0.579722696165118, 47.296811086075799 ], [ -0.579633513539826, 47.296814559358197 ], [ -0.579183120581919, 47.296854141555499 ], [ -0.579064626554798, 47.296861042140598 ], [ -0.578824526299619, 47.296871875005003 ], [ -0.578471110707195, 47.2968937731669 ], [ -0.578174935395536, 47.2969099393272 ], [ -0.577916849404134, 47.296927182718498 ], [ -0.577454546500336, 47.296957032464199 ], [ -0.577449661315321, 47.296957273252801 ] ] ], [ [ [ -0.584661490009872, 47.294957419642998 ], [ -0.584854371381557, 47.294428058554203 ], [ -0.584877540245851, 47.294425900575199 ], [ -0.584898618405662, 47.294416237380098 ], [ -0.584944915268717, 47.294375605492 ], [ -0.58494991468515, 47.294365177621998 ], [ -0.584959462835965, 47.294345507332999 ], [ -0.584970387029439, 47.294322640413803 ], [ -0.585223703346773, 47.294382938858703 ], [ -0.585596236578343, 47.293517112695 ], [ -0.585771819724568, 47.293538088730699 ], [ -0.586057158276906, 47.293582075358302 ], [ -0.58612731235586, 47.2935912610087 ], [ -0.586176695357578, 47.293602801085299 ], [ -0.586320380156695, 47.293647922703101 ], [ -0.586411906172088, 47.293679607446499 ], [ -0.586415583316085, 47.293681115850802 ], [ -0.585865778164416, 47.295085558403002 ], [ -0.585615300261108, 47.295006339039197 ], [ -0.585599978482024, 47.295003027783203 ], [ -0.585582505647833, 47.2949992423205 ], [ -0.585455773214729, 47.294987840156303 ], [ -0.585397370045716, 47.294984058295498 ], [ -0.585274188651893, 47.294976240962797 ], [ -0.585253855586493, 47.2949792125263 ], [ -0.58522310942997, 47.294990886849298 ], [ -0.58518717215392, 47.2949922680478 ], [ -0.585073346009071, 47.294987675890198 ], [ -0.584929165353749, 47.2949609518747 ], [ -0.584875995742833, 47.294956196939403 ], [ -0.584694501112966, 47.294955858693299 ], [ -0.584661490009872, 47.294957419642998 ] ] ], [ [ [ -0.587662685898815, 47.292692169920102 ], [ -0.587668465018019, 47.292641885959704 ], [ -0.587741498925752, 47.292480119198203 ], [ -0.587875982593, 47.292207229269401 ], [ -0.58797549872142, 47.292007694959402 ], [ -0.588510854696423, 47.291777463550098 ], [ -0.589148602901617, 47.291533517108 ], [ -0.58925921774279, 47.291496119626601 ], [ -0.589438636659406, 47.291431900447598 ], [ -0.589563477734878, 47.291381445931698 ], [ -0.589700249909842, 47.291315302026497 ], [ -0.589833758450807, 47.291234029123103 ], [ -0.589994963873491, 47.291149014957597 ], [ -0.590193993860615, 47.291031468783203 ], [ -0.590398900175107, 47.2909324847476 ], [ -0.59059432042016, 47.290854070440503 ], [ -0.590753032983853, 47.290807071774999 ], [ -0.59087718795309, 47.290776102370501 ], [ -0.59105019470441, 47.290746774319402 ], [ -0.591248555804133, 47.290722248184601 ], [ -0.591490170261879, 47.290712693535802 ], [ -0.591687379729088, 47.2907125340382 ], [ -0.59199509718467, 47.290724902425403 ], [ -0.592218683853754, 47.290740867173703 ], [ -0.592296405093279, 47.290746390172302 ], [ -0.592678251759033, 47.290767995673697 ], [ -0.593041474153727, 47.290742865183802 ], [ -0.593196432449229, 47.290722924575199 ], [ -0.593333144127952, 47.290703458982598 ], [ -0.593879013287681, 47.290601113260799 ], [ -0.594087078107594, 47.290594935871397 ], [ -0.594110076920416, 47.290594223135798 ], [ -0.594087106106531, 47.290755614793198 ], [ -0.5939057982878, 47.291598786643497 ], [ -0.593834220620529, 47.292037263986899 ], [ -0.593806684608163, 47.292126522601201 ], [ -0.593763815962186, 47.292265730859498 ], [ -0.593694496059423, 47.292431261970798 ], [ -0.593672320281158, 47.292483856819203 ], [ -0.593690435087259, 47.292528895016503 ], [ -0.593611423720525, 47.292557567403399 ], [ -0.593591264021261, 47.292495830688701 ], [ -0.593582614740834, 47.292469514000402 ], [ -0.593466361019112, 47.292474107303597 ], [ -0.593262386726289, 47.2924821392021 ], [ -0.593062107444781, 47.292489966151201 ], [ -0.592868035086578, 47.2925014755265 ], [ -0.592733150491665, 47.292514665702903 ], [ -0.592721216799108, 47.292611461120799 ], [ -0.592714241438799, 47.292829851697299 ], [ -0.592757956176442, 47.293027837473304 ], [ -0.592795239191298, 47.293038668176102 ], [ -0.592767642988072, 47.293093413298898 ], [ -0.592688780550909, 47.293393514283999 ], [ -0.592743684646046, 47.293388569316598 ], [ -0.592595083712487, 47.2939806481942 ], [ -0.592011333964712, 47.293996475506603 ], [ -0.591730734128467, 47.294007598534698 ], [ -0.591595701253822, 47.294020611612297 ], [ -0.591536554076499, 47.294021542002703 ], [ -0.591643664460615, 47.293009090210397 ], [ -0.591687701251933, 47.292635811749697 ], [ -0.591566389052127, 47.292651914584098 ], [ -0.591410956191971, 47.292674751262901 ], [ -0.590866916156117, 47.292755309562203 ], [ -0.590485704777635, 47.2928166761589 ], [ -0.590269582292118, 47.292860945538699 ], [ -0.59004257797454, 47.292898972769997 ], [ -0.589853846665226, 47.292940861496099 ], [ -0.589583588238266, 47.292989688924798 ], [ -0.589514354752704, 47.293002195154102 ], [ -0.589303782142245, 47.293040343177097 ], [ -0.589092745589258, 47.293055705485003 ], [ -0.589055830398121, 47.293058289712697 ], [ -0.588799986429672, 47.292995824939297 ], [ -0.588574749798015, 47.2929414243293 ], [ -0.588072264045568, 47.292841169975603 ], [ -0.58774199105179, 47.292770912369797 ], [ -0.587685878678779, 47.292732005252397 ], [ -0.587662685898815, 47.292692169920102 ] ] ], [ [ [ -0.582038476871686, 47.293091120561897 ], [ -0.582114647292338, 47.292991982444597 ], [ -0.582196460160792, 47.292882126307703 ], [ -0.58268780370074, 47.293037901550797 ], [ -0.582692192358347, 47.292764260928799 ], [ -0.58232757969822, 47.292665580654202 ], [ -0.58243984453915, 47.2925198183272 ], [ -0.582572755524866, 47.292344039973699 ], [ -0.582806244086431, 47.292081615982802 ], [ -0.582827172954188, 47.292051861653 ], [ -0.582999679541195, 47.291820428813097 ], [ -0.583041854670532, 47.291769651607503 ], [ -0.583093276769366, 47.291712550861199 ], [ -0.583174801350507, 47.291632171039701 ], [ -0.583248484521024, 47.291559332900498 ], [ -0.583261817107004, 47.291552702900503 ], [ -0.583284990924935, 47.291548652589 ], [ -0.583399655135748, 47.291579804919898 ], [ -0.58348495742386, 47.291611594014398 ], [ -0.583553539042357, 47.291642908404903 ], [ -0.583660926089741, 47.291701951284303 ], [ -0.583636090028881, 47.291774361777101 ], [ -0.583644603398319, 47.291778874926699 ], [ -0.583643503588551, 47.291784225817501 ], [ -0.583882837186879, 47.291847572284297 ], [ -0.583971215453335, 47.291897649875096 ], [ -0.583990771639243, 47.2919088508893 ], [ -0.583987761390975, 47.291911377073497 ], [ -0.583981362361108, 47.291916711490501 ], [ -0.58396424403852, 47.291934092374802 ], [ -0.583954773998356, 47.291954931711899 ], [ -0.583920253058183, 47.292025118266899 ], [ -0.583882091084195, 47.292094335913497 ], [ -0.583768201525956, 47.292263310099301 ], [ -0.584000615099028, 47.292342009877899 ], [ -0.58430474314721, 47.2924433652503 ], [ -0.584201313510358, 47.292636077856699 ], [ -0.584164635592758, 47.292703717724002 ], [ -0.584067640802764, 47.2928777573064 ], [ -0.583977561685466, 47.293038335866797 ], [ -0.583927075620549, 47.293113431448099 ], [ -0.583918332734388, 47.2931273092833 ], [ -0.583826838177428, 47.293225029732703 ], [ -0.58367420990848, 47.293395110561796 ], [ -0.583614568720762, 47.293428314088104 ], [ -0.583510523539223, 47.293492808386297 ], [ -0.583415424190782, 47.293564325667603 ], [ -0.583386079816079, 47.293553336847303 ], [ -0.582368734828822, 47.293204921174997 ], [ -0.582038476871686, 47.293091120561897 ] ] ], [ [ [ -0.575617078920555, 47.292247155223997 ], [ -0.575712340130733, 47.292158066804603 ], [ -0.575796573982725, 47.2920784200642 ], [ -0.575834265511029, 47.292039769450703 ], [ -0.575970902836704, 47.291899750801299 ], [ -0.576100773456355, 47.291763545273497 ], [ -0.576147521498696, 47.291711728603502 ], [ -0.576178777576959, 47.291673907107104 ], [ -0.576215862721205, 47.291630138392001 ], [ -0.576300747001717, 47.291534430389902 ], [ -0.576410180713783, 47.291405613386097 ], [ -0.576527029098822, 47.291270800132096 ], [ -0.576554197177532, 47.291243197651198 ], [ -0.576564536423704, 47.2912472945264 ], [ -0.576637677952002, 47.291160239091802 ], [ -0.576750131879338, 47.291033040776703 ], [ -0.576807113690356, 47.290963876109302 ], [ -0.576830077162394, 47.290928833415997 ], [ -0.576891774357582, 47.290831046373903 ], [ -0.576955478697735, 47.2907295927129 ], [ -0.577044530832598, 47.290595095403198 ], [ -0.577054987051719, 47.290583057721598 ], [ -0.577289985842882, 47.290657094773003 ], [ -0.577395740424794, 47.290689789332703 ], [ -0.577460113623659, 47.290709702051899 ], [ -0.577394182230352, 47.290805547358097 ], [ -0.577420093907083, 47.290812768484599 ], [ -0.577904391747003, 47.290940844218703 ], [ -0.578192234405893, 47.291016763825603 ], [ -0.578306618492356, 47.291045766907601 ], [ -0.57828150385009, 47.291088265869803 ], [ -0.578254790711974, 47.291132616479501 ], [ -0.578350826698746, 47.291158580944099 ], [ -0.578398871700782, 47.29117196784 ], [ -0.578459323027634, 47.291188666713701 ], [ -0.578706944625653, 47.291255282431898 ], [ -0.57873994016226, 47.291263456207901 ], [ -0.578709365674167, 47.291337304167499 ], [ -0.578687662435654, 47.2913892503379 ], [ -0.578643570056119, 47.291498751066896 ], [ -0.578610098416664, 47.291578816323799 ], [ -0.578578459527175, 47.291656572094503 ], [ -0.57842895231334, 47.291613333085998 ], [ -0.578262911703764, 47.291564476051498 ], [ -0.578239754893354, 47.291610519254696 ], [ -0.578216357971516, 47.291654947756797 ], [ -0.578305900024157, 47.291680842283697 ], [ -0.578372648011732, 47.291700591149201 ], [ -0.578412642756567, 47.291712424095003 ], [ -0.578397059685732, 47.291736966081899 ], [ -0.578384651384816, 47.291823050007302 ], [ -0.578177882271092, 47.291763283688297 ], [ -0.577768376445219, 47.291646599443503 ], [ -0.577385571511071, 47.291537020485698 ], [ -0.577227504164418, 47.291492512021698 ], [ -0.577194436810787, 47.291483258633299 ], [ -0.577154913038206, 47.291528184307701 ], [ -0.577144738995313, 47.2915404836357 ], [ -0.577111170333196, 47.2915793680287 ], [ -0.57696397522953, 47.291747740078101 ], [ -0.576992518584399, 47.291756682479303 ], [ -0.577325487603978, 47.2918577969645 ], [ -0.577495583265283, 47.291909864573903 ], [ -0.577690077597506, 47.291968298528801 ], [ -0.578001354711873, 47.292061879660999 ], [ -0.578290637665165, 47.292149379810503 ], [ -0.578367798030846, 47.292172321997199 ], [ -0.578350548219457, 47.292211604429497 ], [ -0.578338936129539, 47.292238096566997 ], [ -0.578330167035124, 47.292257561995399 ], [ -0.578282649944988, 47.292319676623201 ], [ -0.578249533947977, 47.292309704083799 ], [ -0.578230338455024, 47.292303898015099 ], [ -0.578200604961077, 47.292294992622999 ], [ -0.577644868588157, 47.292128659070201 ], [ -0.577128121151012, 47.291972925722803 ], [ -0.576868838446036, 47.291894320258798 ], [ -0.57683735708574, 47.291885017851499 ], [ -0.576770160760454, 47.291951974223402 ], [ -0.57666473903114, 47.292055525244798 ], [ -0.576691792548876, 47.292063972966702 ], [ -0.576822962253748, 47.292108320432 ], [ -0.577111899499779, 47.292204575450199 ], [ -0.577245485132861, 47.292249388643803 ], [ -0.577260655102327, 47.292254417866602 ], [ -0.57742276672489, 47.292307903385797 ], [ -0.577436849303315, 47.292312515543401 ], [ -0.577419229626462, 47.292332344006503 ], [ -0.577250532026437, 47.292521926187199 ], [ -0.576984327864709, 47.292824547807299 ], [ -0.576970794291181, 47.292840104800199 ], [ -0.576941480505878, 47.292835511741799 ], [ -0.576889124784699, 47.292830998479502 ], [ -0.576842345492821, 47.292822708550602 ], [ -0.576779459595786, 47.292805272834897 ], [ -0.576609036765082, 47.292756278185301 ], [ -0.576586945979606, 47.292746776230601 ], [ -0.576489353270502, 47.292713378582597 ], [ -0.576313141576052, 47.292651044524099 ], [ -0.576225126712374, 47.292616269926697 ], [ -0.576197106938053, 47.2926012733692 ], [ -0.576184498326025, 47.292586973131201 ], [ -0.576166402217429, 47.292551935028598 ], [ -0.576157218407969, 47.292537348953701 ], [ -0.576142430557785, 47.292514194356698 ], [ -0.5761273116754, 47.292494023814903 ], [ -0.576111981176741, 47.292480618545802 ], [ -0.576084965448106, 47.292462797388502 ], [ -0.576026780483661, 47.2924363849042 ], [ -0.575920461417433, 47.292389287779699 ], [ -0.575830063163488, 47.292348548569301 ], [ -0.575617078920555, 47.292247155223997 ] ] ], [ [ [ -0.569124826077444, 47.292533547711898 ], [ -0.569129103656558, 47.292516203863201 ], [ -0.569147459629218, 47.2924775197908 ], [ -0.569216941510603, 47.292379047231798 ], [ -0.569231761715066, 47.292348942884303 ], [ -0.56935651932565, 47.292101699293298 ], [ -0.569486881499307, 47.291873027216198 ], [ -0.569813664264337, 47.292000847435801 ], [ -0.56996945099134, 47.292060936058299 ], [ -0.570223716132597, 47.292189725685397 ], [ -0.570352441639169, 47.2922531701007 ], [ -0.570795595247767, 47.292447786148202 ], [ -0.571077655374991, 47.292546340307098 ], [ -0.571234552714582, 47.292599183801698 ], [ -0.571381087310416, 47.292647570020698 ], [ -0.571607858237607, 47.292713400966299 ], [ -0.571750551493119, 47.292749829427997 ], [ -0.572020789066926, 47.292809995401797 ], [ -0.572181082395823, 47.292842186523799 ], [ -0.572036169391741, 47.293033190706304 ], [ -0.571968417855523, 47.293125754201803 ], [ -0.571737858581945, 47.293429067257797 ], [ -0.572094632439828, 47.293533608969902 ], [ -0.572250874336103, 47.293580523691503 ], [ -0.572350023359411, 47.293609461218701 ], [ -0.572338771317358, 47.293625488045102 ], [ -0.572310157384107, 47.293677195025502 ], [ -0.572301809687662, 47.293707010321398 ], [ -0.572289599426897, 47.293778308018403 ], [ -0.572357541880898, 47.293804061349 ], [ -0.572386576813137, 47.293818396729797 ], [ -0.572405624358477, 47.293837906011298 ], [ -0.5724134524108, 47.293863978894599 ], [ -0.572398048318566, 47.293903203413898 ], [ -0.572362624427147, 47.293985939963399 ], [ -0.572317048603021, 47.294059436836797 ], [ -0.572284727719624, 47.294109185290502 ], [ -0.572184377234728, 47.294231409887097 ], [ -0.572072244181527, 47.294373642625096 ], [ -0.572037004944182, 47.294415370394901 ], [ -0.571992769233859, 47.294463232780501 ], [ -0.571843993901235, 47.294610198370599 ], [ -0.571817151896171, 47.294638780821998 ], [ -0.571801400731138, 47.294648908333997 ], [ -0.571774631679595, 47.294652706529199 ], [ -0.571732001078053, 47.294653028049702 ], [ -0.571493857322279, 47.294595567696497 ], [ -0.571410657616527, 47.294573437723102 ], [ -0.570994912528378, 47.294462598954297 ], [ -0.570774828713052, 47.294395839851298 ], [ -0.570183409602297, 47.294208761155303 ], [ -0.570816398485292, 47.293371919873202 ], [ -0.57089058330345, 47.293272490450804 ], [ -0.570767134470242, 47.293234657389199 ], [ -0.570603643821484, 47.2931842691223 ], [ -0.570372169113921, 47.2931134443727 ], [ -0.570477662496004, 47.292978897319102 ], [ -0.570228252492333, 47.2928933046636 ], [ -0.570099645663676, 47.292849591909501 ], [ -0.570011536960316, 47.292819321422002 ], [ -0.569934987574162, 47.292791578795502 ], [ -0.569791415760396, 47.292743910637199 ], [ -0.569485484829646, 47.292648881666402 ], [ -0.569336938641148, 47.292602086990897 ], [ -0.569124826077444, 47.292533547711898 ] ] ], [ [ [ -0.574906517720572, 47.2928765353034 ], [ -0.574916037160673, 47.292866329060402 ], [ -0.575008261266922, 47.292773369794403 ], [ -0.575074775511422, 47.292708057688301 ], [ -0.57513213727103, 47.292650507342501 ], [ -0.575203272494583, 47.29258099746 ], [ -0.575221282357305, 47.2925670149151 ], [ -0.575339985234682, 47.292467922223302 ], [ -0.575436266738124, 47.292388174741802 ], [ -0.575587418819706, 47.292263209224103 ], [ -0.575614369217514, 47.292276076089102 ], [ -0.575845510140336, 47.292379613145599 ], [ -0.575919909926315, 47.292412825230301 ], [ -0.575964637697178, 47.292432082885902 ], [ -0.576031161349025, 47.292462383660101 ], [ -0.57606944218133, 47.292482290639001 ], [ -0.576080706124465, 47.292490324182999 ], [ -0.576103406568175, 47.292514947030099 ], [ -0.576145915894211, 47.292572482486598 ], [ -0.576154102145656, 47.292588000487598 ], [ -0.576070216826344, 47.292726573006398 ], [ -0.575990906774669, 47.292848332798101 ], [ -0.575935901488748, 47.292933296504998 ], [ -0.575909240607241, 47.292972508193898 ], [ -0.575907106888352, 47.292976268761898 ], [ -0.575895699094966, 47.292995905441501 ], [ -0.575860563557245, 47.293049076129897 ], [ -0.575801834340926, 47.293125863837297 ], [ -0.575807769866016, 47.293129465739199 ], [ -0.575753726452693, 47.29320899268 ], [ -0.575737805483591, 47.2932324632621 ], [ -0.575559071117074, 47.293162095325798 ], [ -0.575433946527911, 47.293107106522697 ], [ -0.575304628646046, 47.293050804990003 ], [ -0.575226125073589, 47.293015646324697 ], [ -0.575069694454221, 47.292948014569497 ], [ -0.574958130200835, 47.292899726499002 ], [ -0.574906517720572, 47.2928765353034 ] ] ], [ [ [ -0.578846205204585, 47.293439742253099 ], [ -0.578857953740456, 47.293425231398402 ], [ -0.578992873734023, 47.293247593313502 ], [ -0.579162304525173, 47.2930293287694 ], [ -0.579193403358834, 47.292989168255403 ], [ -0.579296068290469, 47.292856231762997 ], [ -0.579456398345868, 47.2926505034253 ], [ -0.579476859180211, 47.292631578235103 ], [ -0.579492825238166, 47.292616756902703 ], [ -0.579541295126985, 47.292564975781701 ], [ -0.579632255368924, 47.292469077718202 ], [ -0.579690659278872, 47.2923974345616 ], [ -0.5797748961729, 47.292298049085502 ], [ -0.579922162939154, 47.292122912306397 ], [ -0.57994866929592, 47.292091364282697 ], [ -0.579988754633069, 47.292104545660003 ], [ -0.580404308492074, 47.292260146328303 ], [ -0.58083724578759, 47.292424130442797 ], [ -0.580908867746284, 47.292449404784698 ], [ -0.580964594799422, 47.292391271002302 ], [ -0.581000095503228, 47.2923555699928 ], [ -0.581029649954081, 47.292357811558901 ], [ -0.58105907222498, 47.2923600571987 ], [ -0.581326604627423, 47.292458945465803 ], [ -0.581773268824412, 47.292628089593599 ], [ -0.581418803391111, 47.292806563193103 ], [ -0.58140538125875, 47.292801931110901 ], [ -0.581219184440077, 47.292732973648498 ], [ -0.581162986713617, 47.292809866393199 ], [ -0.581106157902268, 47.292887229173601 ], [ -0.581024602219244, 47.292987073556198 ], [ -0.580951871301941, 47.293098090247703 ], [ -0.580916236173409, 47.293149655937597 ], [ -0.581072081058695, 47.293206393993501 ], [ -0.581059696241525, 47.293221285206997 ], [ -0.580965701319719, 47.293333228783098 ], [ -0.580907616020482, 47.293409638932197 ], [ -0.580862450231724, 47.293471231467599 ], [ -0.580852757205017, 47.293484777910898 ], [ -0.580835174177946, 47.293507129050802 ], [ -0.58075673860521, 47.293578309800402 ], [ -0.580730388832997, 47.293604265901799 ], [ -0.580674515191415, 47.293670154071101 ], [ -0.580624368067727, 47.293730548524898 ], [ -0.580603437778454, 47.2937563372817 ], [ -0.580585470904876, 47.2937709501767 ], [ -0.580563881245223, 47.293782881286702 ], [ -0.580514183255006, 47.293802348772303 ], [ -0.580459979138298, 47.293819792537498 ], [ -0.580374223786983, 47.293844788786302 ], [ -0.580319689471664, 47.293859268820697 ], [ -0.58026832807313, 47.293869685744298 ], [ -0.580239877573373, 47.293874078528702 ], [ -0.58019029550719, 47.293877411379299 ], [ -0.580138478507112, 47.293879010859399 ], [ -0.580101515075358, 47.293874925052002 ], [ -0.580018029832823, 47.293858487340202 ], [ -0.579952545946365, 47.293841854407702 ], [ -0.579881462813676, 47.293820708188697 ], [ -0.579755597057584, 47.293782508477598 ], [ -0.579655686851218, 47.293752158770097 ], [ -0.579597179341138, 47.2937328771743 ], [ -0.579451788349222, 47.293681942467103 ], [ -0.57945845894394, 47.293672724921102 ], [ -0.579304819320054, 47.293617268416298 ], [ -0.579178854195676, 47.293565643770201 ], [ -0.579011164110394, 47.293492146544303 ], [ -0.578972694465186, 47.293477382970501 ], [ -0.578926365955402, 47.293461960721402 ], [ -0.578846205204585, 47.293439742253099 ] ] ], [ [ [ -0.593707338021721, 47.285875612617701 ], [ -0.594010940152021, 47.285777437669502 ], [ -0.594160488235488, 47.285665021804199 ], [ -0.593971999524059, 47.285377710232297 ], [ -0.594676215977046, 47.285257654449197 ], [ -0.594869936361152, 47.285199741383899 ], [ -0.595023142927281, 47.285147950336501 ], [ -0.595171601799396, 47.2850865735318 ], [ -0.595442414540467, 47.2849537244347 ], [ -0.595666540308064, 47.284845572724798 ], [ -0.595799327132261, 47.284801352827998 ], [ -0.595810948754095, 47.284820638178701 ], [ -0.595883890760874, 47.284960582502499 ], [ -0.596043123264476, 47.285198512705499 ], [ -0.596169851008004, 47.285370312837998 ], [ -0.5962078078573, 47.285413023198998 ], [ -0.59628258967375, 47.285483519406597 ], [ -0.596345598765287, 47.285530499410498 ], [ -0.596487009339552, 47.285628848320201 ], [ -0.596665924940849, 47.285691969256099 ], [ -0.597183313792149, 47.2858908526349 ], [ -0.59812148335754, 47.287141333102703 ], [ -0.59807284316695, 47.2871605954915 ], [ -0.596598086521848, 47.287745788347998 ], [ -0.595007444337383, 47.287403816983897 ], [ -0.594900149345996, 47.286513444434497 ], [ -0.59472705053956, 47.286545124680899 ], [ -0.594062800880413, 47.286641231853501 ], [ -0.593771562430898, 47.2860416920497 ], [ -0.593707338021721, 47.285875612617701 ] ] ], [ [ [ -0.569251249598737, 47.285692974034099 ], [ -0.569533257916068, 47.2855522731316 ], [ -0.570229856999466, 47.2851476531713 ], [ -0.570329160738319, 47.285087552013799 ], [ -0.570764073443046, 47.284876354985002 ], [ -0.570981100286463, 47.284766308263599 ], [ -0.571130173807272, 47.284685929472602 ], [ -0.571186291848825, 47.284655544180502 ], [ -0.571209868367387, 47.284643643650902 ], [ -0.571622121312106, 47.284428364794003 ], [ -0.571870135570133, 47.284300419924001 ], [ -0.572067504585192, 47.284510079925603 ], [ -0.571773893613725, 47.284141714878203 ], [ -0.572089875304894, 47.284028167341198 ], [ -0.572402809415489, 47.283916605235802 ], [ -0.57259698448199, 47.283847361189302 ], [ -0.572781865309882, 47.283779754908899 ], [ -0.572786766240371, 47.283783749284297 ], [ -0.572974725640004, 47.2835156280048 ], [ -0.573562498737753, 47.2839221467448 ], [ -0.573962717902851, 47.284204765108598 ], [ -0.574266133882758, 47.283988054499098 ], [ -0.574408512502793, 47.283888772827403 ], [ -0.574652086043798, 47.283726083339197 ], [ -0.57480730334217, 47.283642626400599 ], [ -0.575075405110911, 47.283882182712198 ], [ -0.575236143906545, 47.283794139242097 ], [ -0.575655833216755, 47.283559601328299 ], [ -0.575707114309378, 47.283516295906999 ], [ -0.575743300553181, 47.283494903762602 ], [ -0.575855409888857, 47.283428364841498 ], [ -0.575658273293746, 47.283204465207 ], [ -0.576151903604185, 47.282946828191598 ], [ -0.576553509026308, 47.2833972831924 ], [ -0.576093658860781, 47.283698848445603 ], [ -0.576052233284374, 47.283725088353002 ], [ -0.576023256398693, 47.283743374525002 ], [ -0.575690706926396, 47.283961979634697 ], [ -0.575703927097088, 47.283971574971297 ], [ -0.575784250809828, 47.284032270136699 ], [ -0.575811407202872, 47.284016473328599 ], [ -0.575759241949092, 47.283974915865301 ], [ -0.576578813493618, 47.2834193023346 ], [ -0.57693921730049, 47.283861474493499 ], [ -0.57718274041147, 47.284209023646603 ], [ -0.577408275553978, 47.284481338841303 ], [ -0.577628990173592, 47.284746863346498 ], [ -0.577695736936655, 47.284828342586302 ], [ -0.577785944277625, 47.284937935422903 ], [ -0.578201796079005, 47.285627566877103 ], [ -0.578226654688306, 47.2856687042594 ], [ -0.578493464962593, 47.286033555773798 ], [ -0.578652226204669, 47.286237728109597 ], [ -0.578727449458643, 47.286303264870298 ], [ -0.578778354891515, 47.2863636043203 ], [ -0.57890839974395, 47.286540275668003 ], [ -0.57894166668475, 47.2866042233779 ], [ -0.578962771068644, 47.286648630574497 ], [ -0.578827919690994, 47.286676042433598 ], [ -0.578655086617007, 47.286711835577101 ], [ -0.578475662548977, 47.286750084761998 ], [ -0.578088945874096, 47.286815817046097 ], [ -0.577619098134166, 47.286894115614203 ], [ -0.577238872600752, 47.286965862813503 ], [ -0.57689636832102, 47.2870372563304 ], [ -0.576830148404091, 47.287055159350601 ], [ -0.575993923167258, 47.286566110434599 ], [ -0.575573482408818, 47.286407852416097 ], [ -0.575100938361855, 47.286230832818703 ], [ -0.575061135348429, 47.286215838853202 ], [ -0.574862218898745, 47.286076702604497 ], [ -0.573776850103605, 47.285326049599398 ], [ -0.573663645790759, 47.285248883706402 ], [ -0.573635640796901, 47.2852658776346 ], [ -0.573468287288565, 47.285376020830697 ], [ -0.573810770047884, 47.2856187850346 ], [ -0.574853350206458, 47.286355256763599 ], [ -0.574814973819816, 47.286381582357002 ], [ -0.574798125941012, 47.286393095961699 ], [ -0.574785327369764, 47.286403763806099 ], [ -0.574820113159279, 47.286422967785299 ], [ -0.575556248622044, 47.286831212038798 ], [ -0.575634753714226, 47.286874480767402 ], [ -0.576326320921978, 47.287269585774702 ], [ -0.575845364463466, 47.287555037656603 ], [ -0.575448453226406, 47.287803922178803 ], [ -0.574972178354863, 47.288094182174198 ], [ -0.574599216209652, 47.288299069191403 ], [ -0.574406174900742, 47.288395496352798 ], [ -0.573926239012168, 47.288599082113102 ], [ -0.57362351399866, 47.288703213565498 ], [ -0.573097981187172, 47.288896395447097 ], [ -0.572667130788372, 47.289037634638902 ], [ -0.571985042819895, 47.289230857777497 ], [ -0.571945576785168, 47.2892090034821 ], [ -0.571883681262082, 47.289172520168599 ], [ -0.571446430638629, 47.288920953511699 ], [ -0.571287470349282, 47.288828973376702 ], [ -0.571181389069752, 47.288767356102603 ], [ -0.571058037978461, 47.288696988511902 ], [ -0.570919424322406, 47.288616186649598 ], [ -0.570809217177889, 47.288552262949601 ], [ -0.570721647881111, 47.288488182844901 ], [ -0.570689738297942, 47.288454470456301 ], [ -0.570637631829589, 47.2883759611682 ], [ -0.570552795555741, 47.288215552344901 ], [ -0.570496360748653, 47.288067966762704 ], [ -0.570438922730255, 47.287901307333797 ], [ -0.571995045686152, 47.2868887793854 ], [ -0.571964351879605, 47.286869358430302 ], [ -0.571683575280384, 47.287050489581702 ], [ -0.571323228437, 47.287281832210901 ], [ -0.571254241296301, 47.287325860896701 ], [ -0.571025737226787, 47.287472578112101 ], [ -0.570933039007687, 47.287530493734302 ], [ -0.570796931679832, 47.287618763413498 ], [ -0.570733525379701, 47.287661087937799 ], [ -0.570412985342776, 47.287867771474701 ], [ -0.570372751290903, 47.287828367602998 ], [ -0.570309039899494, 47.287746610797797 ], [ -0.570191208609867, 47.287613801902801 ], [ -0.570112392493038, 47.287537916996101 ], [ -0.570026336650196, 47.287444772301299 ], [ -0.569969318504345, 47.287364070912403 ], [ -0.569890033644211, 47.287233319328301 ], [ -0.569807620095041, 47.287061480746601 ], [ -0.569693330217755, 47.2868524139055 ], [ -0.569648372720192, 47.2867837772095 ], [ -0.56957679899455, 47.286685320142503 ], [ -0.569476527290354, 47.286567560254198 ], [ -0.569644867271155, 47.286472081867501 ], [ -0.56974399883553, 47.286415320951299 ], [ -0.569871256540823, 47.286343365593702 ], [ -0.569948684389436, 47.286298807519302 ], [ -0.570079258937321, 47.2862229649106 ], [ -0.569909304625449, 47.286106899965603 ], [ -0.569650356931233, 47.285984923000399 ], [ -0.569423282538442, 47.285800504941697 ], [ -0.569391222703741, 47.285774456765701 ], [ -0.569251249598737, 47.285692974034099 ] ] ], [ [ [ -0.581272809033813, 47.290010416152498 ], [ -0.581353006149441, 47.2898684385029 ], [ -0.581407069481994, 47.289773497857702 ], [ -0.581560353828836, 47.289496160106701 ], [ -0.581750979032002, 47.2891194412191 ], [ -0.581713862950298, 47.2891110351093 ], [ -0.581732551040503, 47.2890735099419 ], [ -0.581874586569318, 47.2887784955755 ], [ -0.581974766418186, 47.288523163631197 ], [ -0.582056957885151, 47.288268206927498 ], [ -0.582160784652401, 47.2879186797716 ], [ -0.582670972441983, 47.287740258159097 ], [ -0.58317559915686, 47.287569846206999 ], [ -0.583244130511582, 47.287552859394197 ], [ -0.583379289430092, 47.287506237940498 ], [ -0.583511261940279, 47.287594440039598 ], [ -0.583835517332303, 47.287823140512003 ], [ -0.583993293667656, 47.287932803636402 ], [ -0.584070557292901, 47.2879811518305 ], [ -0.584135955732286, 47.288028334684398 ], [ -0.584210517222578, 47.288181031952199 ], [ -0.584218554023137, 47.288216109523603 ], [ -0.584220824590317, 47.288224330135101 ], [ -0.584244466778082, 47.288322548170598 ], [ -0.584238205179673, 47.288353742022899 ], [ -0.584209530295629, 47.288471780655001 ], [ -0.584211144802313, 47.288505885187 ], [ -0.584130064092547, 47.2888547115042 ], [ -0.584108504790752, 47.288916657495903 ], [ -0.584045387472933, 47.289125877670898 ], [ -0.583977835551559, 47.289340101151097 ], [ -0.583954984249234, 47.289400555025601 ], [ -0.583835004160231, 47.289539708846299 ], [ -0.583764249108577, 47.289636518328201 ], [ -0.582995691953976, 47.289462458200198 ], [ -0.58293567392303, 47.289613005690903 ], [ -0.582970153033583, 47.289621583010103 ], [ -0.582911199290821, 47.289756327094899 ], [ -0.582804419348918, 47.290004023493303 ], [ -0.58276221361548, 47.290078141958602 ], [ -0.58271624680042, 47.290151475419599 ], [ -0.582657552900463, 47.290250434799603 ], [ -0.582572473789837, 47.290396619493897 ], [ -0.581272809033813, 47.290010416152498 ] ] ], [ [ [ -0.574713440660074, 47.288335740452702 ], [ -0.574990301099378, 47.288189327517401 ], [ -0.575493633345085, 47.287881741903703 ], [ -0.575743182611069, 47.2877130991331 ], [ -0.576213667265864, 47.287439415519302 ], [ -0.576702458104374, 47.287168229197398 ], [ -0.576809571033893, 47.287125995081503 ], [ -0.576874913421904, 47.287110822649502 ], [ -0.57720823293752, 47.287036738671901 ], [ -0.57789073191852, 47.286909976858901 ], [ -0.578768926237313, 47.286746712387099 ], [ -0.579056027570643, 47.286690630760397 ], [ -0.579081282637848, 47.286697961855502 ], [ -0.579257818893557, 47.286944210207501 ], [ -0.579346661407522, 47.287067001154298 ], [ -0.579486513699534, 47.287293384160797 ], [ -0.579508258605953, 47.287315602708603 ], [ -0.579811986382933, 47.287439330304402 ], [ -0.579841907554457, 47.287464991202903 ], [ -0.579761446339853, 47.287833440177401 ], [ -0.579655472868193, 47.2884906904182 ], [ -0.579590292776833, 47.289040703642598 ], [ -0.579534961346231, 47.289523906379799 ], [ -0.579529426365191, 47.289536243004697 ], [ -0.57943921934694, 47.289518210188902 ], [ -0.578942833701468, 47.289327882835003 ], [ -0.577999935584559, 47.2890018261809 ], [ -0.577411743599226, 47.288799095177701 ], [ -0.5772214902533, 47.288742512799097 ], [ -0.576819940811658, 47.288653426521897 ], [ -0.576666859730797, 47.288625976045999 ], [ -0.576465910304543, 47.288587745707702 ], [ -0.576203533586182, 47.288535999291703 ], [ -0.575991642409175, 47.2885084689919 ], [ -0.575446176910483, 47.2884300336938 ], [ -0.575198488566712, 47.288389997971002 ], [ -0.574713440660074, 47.288335740452702 ] ] ], [ [ [ -0.56939155693393, 47.289429211065901 ], [ -0.569499461722025, 47.289329014812402 ], [ -0.569591410920594, 47.289241835730998 ], [ -0.569668569705875, 47.289169260097502 ], [ -0.56971583529667, 47.289127162731603 ], [ -0.569753329299499, 47.289093476602297 ], [ -0.569804068437584, 47.289047847850902 ], [ -0.569910788096323, 47.288947777748398 ], [ -0.56997229662773, 47.288890823195402 ], [ -0.570025372672083, 47.288844491579802 ], [ -0.570180612940168, 47.288699311175897 ], [ -0.570424680992159, 47.2885455382591 ], [ -0.570478774212245, 47.288510529772601 ], [ -0.570600563547837, 47.288435948544198 ], [ -0.570501295901942, 47.2882576903529 ], [ -0.570469389637444, 47.288174233482799 ], [ -0.570400892212519, 47.287984664467999 ], [ -0.570356505832742, 47.287908710998998 ], [ -0.570211404408703, 47.287738261915401 ], [ -0.569891972090702, 47.287929770255602 ], [ -0.56984019962901, 47.2879598407538 ], [ -0.569363427377677, 47.288241080399402 ], [ -0.569291073280868, 47.288284310276701 ], [ -0.569222475021746, 47.288324270436298 ], [ -0.569078274299763, 47.288400441055899 ], [ -0.568887089110237, 47.288503019627797 ], [ -0.568805016490188, 47.288537536605403 ], [ -0.568738812618892, 47.288565707636302 ], [ -0.56860277953576, 47.288611347163197 ], [ -0.568449549588135, 47.288663283117799 ], [ -0.56843498380698, 47.288671301080797 ], [ -0.56831414142082, 47.288742246128201 ], [ -0.56939155693393, 47.289429211065901 ] ] ], [ [ [ -0.562353515423305, 47.289293796692597 ], [ -0.562505174351233, 47.289132246024202 ], [ -0.562605766502188, 47.289021467244801 ], [ -0.562736232094874, 47.288877869542098 ], [ -0.562815334711168, 47.288790550081401 ], [ -0.562866900780025, 47.288735346817099 ], [ -0.562953128120069, 47.288675564127601 ], [ -0.563003795281939, 47.288682658652498 ], [ -0.563090032613862, 47.2887088463347 ], [ -0.563284162759874, 47.288782184021599 ], [ -0.563385918522665, 47.288822673732803 ], [ -0.563488917735913, 47.288863936196897 ], [ -0.563495447181598, 47.288866529168097 ], [ -0.563613203329136, 47.288737018563502 ], [ -0.563671317568723, 47.288680712539701 ], [ -0.563688629884872, 47.288672160218503 ], [ -0.563827400382159, 47.288641762214603 ], [ -0.563938152931521, 47.288576358819697 ], [ -0.564175508380916, 47.288411000632998 ], [ -0.564307880616471, 47.288306182441602 ], [ -0.564542016118827, 47.288425509401002 ], [ -0.564797748520581, 47.287814861357496 ], [ -0.565312893425756, 47.2879576299487 ], [ -0.565364625048663, 47.288036603494703 ], [ -0.565371702000288, 47.2880673859216 ], [ -0.565336551096875, 47.288533286250498 ], [ -0.565321577926066, 47.288642877346803 ], [ -0.565317487898647, 47.288714915849297 ], [ -0.565301633832505, 47.2889089729277 ], [ -0.565281538602362, 47.288981323224597 ], [ -0.565259790303439, 47.289040747595799 ], [ -0.565230289366986, 47.289091128318503 ], [ -0.56513179577357, 47.289285292635697 ], [ -0.565104462733729, 47.289352368285797 ], [ -0.565079424775962, 47.289434062315699 ], [ -0.565109973438862, 47.289453309269199 ], [ -0.565159376387804, 47.289469273132902 ], [ -0.565297039481191, 47.289491985912697 ], [ -0.565620285374189, 47.289552969686298 ], [ -0.565748644850984, 47.289585159835703 ], [ -0.565824196566422, 47.289611944449199 ], [ -0.565854577582318, 47.289630655673797 ], [ -0.565873884085185, 47.2896541230946 ], [ -0.565883481955267, 47.289676987862101 ], [ -0.565881652695584, 47.289715253390803 ], [ -0.565873011491247, 47.289750664413098 ], [ -0.565840985112689, 47.289806890370201 ], [ -0.56581106176399, 47.289846920850103 ], [ -0.565791306620123, 47.289864560212699 ], [ -0.565853015567614, 47.289924212269398 ], [ -0.565910855065095, 47.289969474557701 ], [ -0.565961046426965, 47.2899992917567 ], [ -0.566057532871151, 47.290036156374399 ], [ -0.566238128534382, 47.290097018890798 ], [ -0.566475022021371, 47.290167955117397 ], [ -0.566671644264393, 47.2902228270449 ], [ -0.56670301017481, 47.290244391493601 ], [ -0.566724310416496, 47.290271942818201 ], [ -0.566751965132891, 47.290337327773997 ], [ -0.566779746288044, 47.2904345198735 ], [ -0.566792443981795, 47.290492074116102 ], [ -0.566794549278602, 47.290517782617599 ], [ -0.566786075016163, 47.290541743812597 ], [ -0.566759641654367, 47.290584460805597 ], [ -0.566742486026222, 47.290591386663102 ], [ -0.566197483248139, 47.2903983557744 ], [ -0.56553299314542, 47.290198993075897 ], [ -0.565059780270764, 47.290085665562003 ], [ -0.564626519648439, 47.289979579128399 ], [ -0.563431715647271, 47.289600500726102 ], [ -0.562353515423305, 47.289293796692597 ] ] ], [ [ [ -0.566044837599403, 47.2899746368794 ], [ -0.566335249511625, 47.289587128461903 ], [ -0.566534400787538, 47.289317233843498 ], [ -0.566921118400789, 47.288798526374599 ], [ -0.567064228560399, 47.288939121891403 ], [ -0.567103261843995, 47.288988386455898 ], [ -0.567137184357529, 47.289032491343399 ], [ -0.5671777094034, 47.289110186760098 ], [ -0.567194641777148, 47.289203567154097 ], [ -0.567177993901175, 47.289285904837598 ], [ -0.567153857374512, 47.289359190871302 ], [ -0.567091093238723, 47.289504946993802 ], [ -0.566957791307448, 47.289759209791796 ], [ -0.566736326941287, 47.290157756423604 ], [ -0.566714285353369, 47.290168887777298 ], [ -0.566595126342676, 47.290141642445199 ], [ -0.566325903744048, 47.290070529094997 ], [ -0.566044837599403, 47.2899746368794 ] ] ], [ [ [ -0.56908511193787, 47.289696735646999 ], [ -0.569281399593081, 47.289545337017699 ], [ -0.569845179886624, 47.289030721884103 ], [ -0.570196058165009, 47.288702530474602 ], [ -0.570212336586216, 47.288692386879802 ], [ -0.570273778628443, 47.288654358654597 ], [ -0.570342587656255, 47.2886115977673 ], [ -0.570610557321721, 47.288446815300098 ], [ -0.570684936580693, 47.288519682431698 ], [ -0.570800886901958, 47.288604246329697 ], [ -0.571042824052263, 47.288745038515103 ], [ -0.571267872042755, 47.288872832830897 ], [ -0.57159159055226, 47.289058326610501 ], [ -0.571862930185434, 47.2892149733675 ], [ -0.571856310492167, 47.2892329302096 ], [ -0.571840499440638, 47.289248106170298 ], [ -0.571049951463574, 47.289437634898299 ], [ -0.570908315826196, 47.289472725752098 ], [ -0.570713344251278, 47.2895183801228 ], [ -0.570343917967268, 47.289607524246499 ], [ -0.570238464243164, 47.2896529451573 ], [ -0.570174930128072, 47.2896913981807 ], [ -0.569946557806429, 47.289836306343602 ], [ -0.569848769573423, 47.289881490912599 ], [ -0.56982594477996, 47.289882824298601 ], [ -0.569641514833088, 47.289834070758701 ], [ -0.56908511193787, 47.289696735646999 ] ] ], [ [ [ -0.56939155693393, 47.289429211065901 ], [ -0.569301513940972, 47.289509212098601 ], [ -0.569201616581257, 47.289592400051497 ], [ -0.569138462472572, 47.289642555925703 ], [ -0.569081824035151, 47.2896831391379 ], [ -0.569056092177974, 47.2897005124413 ], [ -0.568543036781025, 47.289553730333097 ], [ -0.567636192440285, 47.289308848278502 ], [ -0.567645493631392, 47.2892893673705 ], [ -0.567668905647461, 47.2892410657266 ], [ -0.567701615260428, 47.289183196070198 ], [ -0.567758551523645, 47.289083307815197 ], [ -0.567869061079589, 47.288894718963597 ], [ -0.56787546691647, 47.288873524776101 ], [ -0.568408818337639, 47.289044827603 ], [ -0.568708081538193, 47.289141505902798 ], [ -0.568818130421079, 47.289063593185098 ], [ -0.56939155693393, 47.289429211065901 ] ] ], [ [ [ -0.592230063905065, 47.290689237796599 ], [ -0.592309057728863, 47.290395080436099 ], [ -0.592516419144591, 47.289552996722698 ], [ -0.593864959464555, 47.289688746892899 ], [ -0.594081170955338, 47.289707369667603 ], [ -0.594404100172494, 47.2897531443502 ], [ -0.594131433419577, 47.290054567469802 ], [ -0.594030387855423, 47.290211079187003 ], [ -0.59386326506732, 47.290547891147597 ], [ -0.593621929009224, 47.2906110621431 ], [ -0.593340847675766, 47.2906641993698 ], [ -0.593095654582488, 47.2906875666365 ], [ -0.592674323514955, 47.290723148686901 ], [ -0.592399440091339, 47.290710576112801 ], [ -0.592230063905065, 47.290689237796599 ] ] ], [ [ [ -0.585540369570358, 47.291123796149101 ], [ -0.585554995744188, 47.291015563791603 ], [ -0.58559169583765, 47.290898718665602 ], [ -0.585626195974372, 47.290822314046302 ], [ -0.585721733643521, 47.290670216280503 ], [ -0.585797197357248, 47.2905447829487 ], [ -0.585943364802279, 47.290331732275 ], [ -0.586093099854188, 47.290118571047898 ], [ -0.586157026212687, 47.290024674729601 ], [ -0.58619102609474, 47.289970544309099 ], [ -0.586244317888534, 47.289884005918502 ], [ -0.586253432340182, 47.289847947512797 ], [ -0.586272063587495, 47.289793751595198 ], [ -0.586300998532811, 47.289733199190003 ], [ -0.586323023989969, 47.289706023604303 ], [ -0.586358140951604, 47.289656724906301 ], [ -0.586699105179789, 47.2897822576289 ], [ -0.587080691174191, 47.289923024442402 ], [ -0.587306557907728, 47.2889820619259 ], [ -0.587441879715776, 47.288981480712501 ], [ -0.587481021410523, 47.289000366088999 ], [ -0.587757931284289, 47.288995855136797 ], [ -0.587983558167055, 47.289010773385897 ], [ -0.588154723085235, 47.289007460301498 ], [ -0.588442141275925, 47.2890194745505 ], [ -0.588673303425465, 47.289081531849803 ], [ -0.588649164980299, 47.289287115717798 ], [ -0.588644537239846, 47.289410088971202 ], [ -0.58866080705241, 47.289586125552901 ], [ -0.588577551343565, 47.2900129745193 ], [ -0.588460773889143, 47.2903940896094 ], [ -0.588364718764308, 47.290645335016102 ], [ -0.588336957517335, 47.290715494212897 ], [ -0.588216924430948, 47.291024165116703 ], [ -0.587998710896851, 47.291597934417801 ], [ -0.587987986978454, 47.291627734541599 ], [ -0.587946178367093, 47.291733473912103 ], [ -0.587845395699071, 47.291971527495299 ], [ -0.587821339127032, 47.291990114912899 ], [ -0.587759568113446, 47.291969586584102 ], [ -0.587575489472223, 47.292063235287898 ], [ -0.587426203443544, 47.2921166064828 ], [ -0.587184221841219, 47.292172303834299 ], [ -0.58707595932111, 47.292197370541402 ], [ -0.586764942087648, 47.292264574332599 ], [ -0.586658715992115, 47.292286423557201 ], [ -0.586544024463928, 47.292223193467798 ], [ -0.586417743332575, 47.292153022162204 ], [ -0.586241720566014, 47.292054019321498 ], [ -0.586215374574475, 47.292040325104097 ], [ -0.58606273635175, 47.291958261899403 ], [ -0.585642321289813, 47.291730106762898 ], [ -0.585644190761456, 47.291684720021799 ], [ -0.585622755067883, 47.2916096842999 ], [ -0.585572102580974, 47.291491845005503 ], [ -0.585561007117204, 47.291416940178699 ], [ -0.585560491406801, 47.291371537057799 ], [ -0.585567786861812, 47.291300299162799 ], [ -0.585560043585267, 47.291243854837603 ], [ -0.585540369570358, 47.291123796149101 ] ] ], [ [ [ -0.588003465038506, 47.291922750340497 ], [ -0.588135587624956, 47.291529356036897 ], [ -0.588383225838924, 47.290912320839702 ], [ -0.588646801475194, 47.290232610625999 ], [ -0.588697604438316, 47.290041521711998 ], [ -0.588720982679239, 47.289907785003699 ], [ -0.588730216481117, 47.289732851722803 ], [ -0.588733536204888, 47.289499164638201 ], [ -0.588729061522022, 47.289370795651401 ], [ -0.588733660484919, 47.2892870243613 ], [ -0.588762276402528, 47.289291095309999 ], [ -0.590678092677676, 47.289561805287001 ], [ -0.590748494144539, 47.289323247263702 ], [ -0.592424898659293, 47.289541142550299 ], [ -0.592424580362698, 47.289542323939003 ], [ -0.592368705609142, 47.289764302154502 ], [ -0.592246246692797, 47.290250134323699 ], [ -0.592146082702796, 47.290627765407002 ], [ -0.592057888845342, 47.290675555799801 ], [ -0.591866734664181, 47.290665254994103 ], [ -0.591737578518338, 47.290661054293899 ], [ -0.591491565506214, 47.290660292046098 ], [ -0.591219256690827, 47.290678276919799 ], [ -0.591015500520051, 47.290703330529603 ], [ -0.590752494105594, 47.290751485971803 ], [ -0.59053227242748, 47.290821476419602 ], [ -0.590387769239497, 47.290874973928602 ], [ -0.590304277304666, 47.290915858552097 ], [ -0.590107451804375, 47.291014862625801 ], [ -0.589904137498215, 47.291125782456596 ], [ -0.589569187955122, 47.2913143119683 ], [ -0.58946759827553, 47.291357918893297 ], [ -0.589199482825062, 47.291460479445803 ], [ -0.588995863023999, 47.291535179828799 ], [ -0.588753459889908, 47.291612251453202 ], [ -0.588476617973358, 47.291717062850097 ], [ -0.588432422236009, 47.291735552589998 ], [ -0.588003465038506, 47.291922750340497 ] ] ], [ [ [ -0.584466640518603, 47.291346863273297 ], [ -0.584568729873082, 47.291080565934998 ], [ -0.584591767656233, 47.291014969540598 ], [ -0.584601642342888, 47.290930765261997 ], [ -0.584608287772674, 47.2909192051034 ], [ -0.584629943064509, 47.2908666282949 ], [ -0.584722908052751, 47.290664055226102 ], [ -0.584727053977943, 47.290654735127198 ], [ -0.584635353972502, 47.290620351068299 ], [ -0.584762335842958, 47.290425377767598 ], [ -0.584820196682724, 47.290333832576103 ], [ -0.58495582306164, 47.290129489956797 ], [ -0.585148850573498, 47.289866418603502 ], [ -0.585372496843282, 47.289917089667398 ], [ -0.585607035954356, 47.289972199751297 ], [ -0.585802133116744, 47.290017804926002 ], [ -0.586090084226001, 47.290085320906201 ], [ -0.585934683517311, 47.290308840565203 ], [ -0.585847486838337, 47.290427157059298 ], [ -0.585583694031068, 47.290852285337103 ], [ -0.58554766751428, 47.290939551195002 ], [ -0.585523001893722, 47.291042236314802 ], [ -0.585517382878519, 47.291104861251497 ], [ -0.585518985968441, 47.291152663923597 ], [ -0.58553661229233, 47.291222230172302 ], [ -0.585544667422484, 47.291303176734402 ], [ -0.58553634991725, 47.291402743022203 ], [ -0.585537310284733, 47.291444888176301 ], [ -0.585547006410182, 47.291492891226397 ], [ -0.585591969676874, 47.291583060207998 ], [ -0.585616012885848, 47.291657474617203 ], [ -0.585617946510585, 47.291706258350402 ], [ -0.585533417740941, 47.291680124249901 ], [ -0.585452355772878, 47.291654333500297 ], [ -0.585443157297841, 47.291651463768098 ], [ -0.585190683355045, 47.291569872433698 ], [ -0.585011815583524, 47.291511508501301 ], [ -0.584906529423479, 47.291477995166197 ], [ -0.584714552593338, 47.291415710372902 ], [ -0.584549648621485, 47.291362140947797 ], [ -0.584466640518603, 47.291346863273297 ] ] ], [ [ [ -0.579656331854712, 47.289586215944297 ], [ -0.579664904769158, 47.289543956831899 ], [ -0.579681863386456, 47.289512252917497 ], [ -0.579846253391404, 47.289321898207902 ], [ -0.580021322897591, 47.289142748519602 ], [ -0.580050525186422, 47.289111928217899 ], [ -0.580243329596314, 47.288924660834397 ], [ -0.580258729185063, 47.288913281267597 ], [ -0.581594908948222, 47.289335135172998 ], [ -0.581461947015267, 47.289583548669 ], [ -0.581362154022715, 47.289771280201997 ], [ -0.581181853982078, 47.290066574054698 ], [ -0.580478844234804, 47.2898584817734 ], [ -0.579670591710341, 47.289609386440397 ], [ -0.579656331854712, 47.289586215944297 ] ] ], [ [ [ -0.561636020871384, 47.290201674013801 ], [ -0.561701223785441, 47.290090451013299 ], [ -0.561764507544572, 47.289984243283399 ], [ -0.561816136442599, 47.289902003846102 ], [ -0.561832720185654, 47.28987247717 ], [ -0.561911953282431, 47.289743160373597 ], [ -0.561959458582491, 47.289690605556899 ], [ -0.562006000012431, 47.289643487283001 ], [ -0.562095897538154, 47.289551150825503 ], [ -0.562101970802004, 47.289552856725699 ], [ -0.562123698798036, 47.289558948063899 ], [ -0.562235546902562, 47.289589846852998 ], [ -0.562418656171765, 47.289367313029103 ], [ -0.563318804857855, 47.289621452481398 ], [ -0.56357919349152, 47.289697259761503 ], [ -0.564061925417776, 47.2898463470531 ], [ -0.564315916271918, 47.289925503415098 ], [ -0.564500290651281, 47.289981476277703 ], [ -0.564593822830652, 47.290011764284003 ], [ -0.564651276236271, 47.2900292832581 ], [ -0.564996474474844, 47.290113655119001 ], [ -0.565136134956358, 47.290148472418899 ], [ -0.565382801195467, 47.290207034848699 ], [ -0.565512183684645, 47.290238653147597 ], [ -0.56562681531521, 47.290273518416903 ], [ -0.565725041363354, 47.2903026699544 ], [ -0.565893691553369, 47.290353176452697 ], [ -0.565958216156854, 47.290373451220397 ], [ -0.566321170078709, 47.2904957529515 ], [ -0.566653298020728, 47.290618551009999 ], [ -0.566637011669197, 47.290646537318501 ], [ -0.56594594701598, 47.290996351196 ], [ -0.565621300922682, 47.291203596864399 ], [ -0.565325083244209, 47.291410147842598 ], [ -0.565199930226572, 47.291372451587399 ], [ -0.565146050865496, 47.291352930541201 ], [ -0.564976541873421, 47.291295510358196 ], [ -0.564890487007285, 47.291266164276799 ], [ -0.564673857044617, 47.291193250209901 ], [ -0.564424981358734, 47.291107448904903 ], [ -0.564296347703903, 47.291063190092402 ], [ -0.564121705079368, 47.291002231719602 ], [ -0.563937303630475, 47.290931930556901 ], [ -0.563855912882405, 47.290900998555799 ], [ -0.563673606546906, 47.290836309925197 ], [ -0.563406907803128, 47.290737356534898 ], [ -0.563220905004974, 47.2906648505829 ], [ -0.563187753650526, 47.290648296470202 ], [ -0.562900512584778, 47.2905551097044 ], [ -0.561636020871384, 47.290201674013801 ] ] ], [ [ [ -0.5668155460181, 47.290213805541804 ], [ -0.566822687122986, 47.290171771970698 ], [ -0.566875082023794, 47.290077250685201 ], [ -0.567015308488791, 47.289833498914703 ], [ -0.567083730194038, 47.2897110892131 ], [ -0.567136393602143, 47.289602681594197 ], [ -0.567214067887276, 47.289428170314899 ], [ -0.567273194479343, 47.2893054155426 ], [ -0.567299929159055, 47.289257282130301 ], [ -0.568049049277463, 47.289470612358599 ], [ -0.56804546649511, 47.289476490032797 ], [ -0.568559375983734, 47.289614236362397 ], [ -0.568793668054858, 47.289687861320097 ], [ -0.569847817789759, 47.2899468546238 ], [ -0.569845662088226, 47.289962240771999 ], [ -0.569754816414003, 47.290072005259297 ], [ -0.569323047627465, 47.290562280448697 ], [ -0.569121107752442, 47.290790091362801 ], [ -0.56870456273972, 47.2912664679207 ], [ -0.568638480955766, 47.291314460591302 ], [ -0.568571517697011, 47.291339230332902 ], [ -0.568544570063712, 47.291342312396303 ], [ -0.568283655581735, 47.291197052355898 ], [ -0.568076897801366, 47.291109332045203 ], [ -0.567445296197756, 47.290849040720197 ], [ -0.567104451317719, 47.290698757138401 ], [ -0.567016787494092, 47.290649185948197 ], [ -0.566960103881617, 47.290609385714298 ], [ -0.566925469630118, 47.290570529410203 ], [ -0.566891183933314, 47.290499040291301 ], [ -0.566820769182579, 47.290256540246801 ], [ -0.5668155460181, 47.290213805541804 ] ] ], [ [ [ -0.572126030631733, 47.289297527132803 ], [ -0.572125674857615, 47.289280235708802 ], [ -0.572520626122613, 47.289158758646899 ], [ -0.573225886700027, 47.288929672810902 ], [ -0.57440843176794, 47.2884831103651 ], [ -0.574443446738737, 47.288503749282199 ], [ -0.574514563584491, 47.288441990166703 ], [ -0.574577587924704, 47.288405893354401 ], [ -0.574670438713936, 47.288380141740703 ], [ -0.574956394017277, 47.288404129698101 ], [ -0.575193938256284, 47.2884290686914 ], [ -0.575531717725843, 47.288481466479901 ], [ -0.575938838180675, 47.288544882282203 ], [ -0.576272936989131, 47.288593696657401 ], [ -0.576809310568183, 47.288698632565797 ], [ -0.577100684750689, 47.288772102574498 ], [ -0.577310073346232, 47.2888276443176 ], [ -0.577393392076349, 47.288853641268403 ], [ -0.577722298728092, 47.288965603423399 ], [ -0.5781519783216, 47.289109060435699 ], [ -0.578259526570667, 47.289142870330302 ], [ -0.578827636350979, 47.289336304080003 ], [ -0.57886324367609, 47.289347911754298 ], [ -0.579193897287361, 47.289470089324297 ], [ -0.579514549551086, 47.289589240355198 ], [ -0.579451869603891, 47.2897139142122 ], [ -0.579305629001542, 47.289977874339002 ], [ -0.579155043497105, 47.290281980202202 ], [ -0.579093940071731, 47.290420393010997 ], [ -0.5788736943154, 47.290355096222598 ], [ -0.578639529091725, 47.2902856325816 ], [ -0.578494107201884, 47.290267860879098 ], [ -0.578329736393122, 47.290247970145899 ], [ -0.578350037655927, 47.2902087737492 ], [ -0.578315132404565, 47.290199757634497 ], [ -0.578248457915508, 47.290183070487302 ], [ -0.578033971945355, 47.290104797858298 ], [ -0.577523286127759, 47.289918510323098 ], [ -0.577491884396888, 47.289906412039997 ], [ -0.577337817158787, 47.290033182639903 ], [ -0.577252628654841, 47.290106371771401 ], [ -0.577218678175, 47.290135535410499 ], [ -0.577176950696055, 47.290179177368898 ], [ -0.577143568659164, 47.290220849684403 ], [ -0.577116856432584, 47.290257269726197 ], [ -0.577101519571368, 47.290281533604201 ], [ -0.577088785315139, 47.290332932477803 ], [ -0.577087859655365, 47.290368737394502 ], [ -0.577087546236697, 47.2904077676314 ], [ -0.577084265338285, 47.290444005657399 ], [ -0.577072002316604, 47.290480610836802 ], [ -0.577045555970155, 47.290540903599599 ], [ -0.576968972458835, 47.2906657343297 ], [ -0.576903976027138, 47.290769661006699 ], [ -0.576843553512938, 47.2908627226767 ], [ -0.576800187050077, 47.290927502328401 ], [ -0.576737237008292, 47.291008476115202 ], [ -0.576668741223634, 47.291089711003103 ], [ -0.576605738741859, 47.291159962426697 ], [ -0.576530225419003, 47.291239250825598 ], [ -0.576449855253555, 47.291329142477601 ], [ -0.576360783340576, 47.291427593131601 ], [ -0.576300742720862, 47.291494598937199 ], [ -0.576286716505774, 47.291510711754398 ], [ -0.576258766277906, 47.291542483647703 ], [ -0.576201531155149, 47.291609853465602 ], [ -0.576128153506477, 47.291699348999799 ], [ -0.576097763135176, 47.291734260053403 ], [ -0.576031190252118, 47.291804621189698 ], [ -0.575936456931682, 47.291903606477398 ], [ -0.575800041133954, 47.2920469525695 ], [ -0.575761202675653, 47.292082304215299 ], [ -0.575697599680286, 47.292139596761103 ], [ -0.575628882542402, 47.292201642883001 ], [ -0.575592147212147, 47.292234766824897 ], [ -0.57546733103948, 47.292180399410498 ], [ -0.575435646950669, 47.292164073778402 ], [ -0.575377469456438, 47.292133785739402 ], [ -0.575329954759659, 47.292112450983097 ], [ -0.575311799564762, 47.292104359457802 ], [ -0.575177420235561, 47.292043617919603 ], [ -0.575165404923897, 47.292038220837298 ], [ -0.575054882394504, 47.291987647869803 ], [ -0.574968564710863, 47.291948494455298 ], [ -0.57485790438126, 47.291897835440601 ], [ -0.574783901628038, 47.2918685756039 ], [ -0.574665947698651, 47.291817780756098 ], [ -0.57465287057797, 47.291832242004503 ], [ -0.574804953390272, 47.291900278597502 ], [ -0.575047889972627, 47.292009941982997 ], [ -0.575256007531698, 47.292101933980703 ], [ -0.575276523607759, 47.292111664952301 ], [ -0.575202185926324, 47.292184788182603 ], [ -0.575046616759057, 47.292338906886101 ], [ -0.574913769045092, 47.292470246427797 ], [ -0.574765277577905, 47.292617297666403 ], [ -0.574740790350439, 47.292605616320003 ], [ -0.574682022104418, 47.292663930744197 ], [ -0.574560267319133, 47.2927808697291 ], [ -0.574514736086177, 47.292860944761003 ], [ -0.574448287930877, 47.292975007536498 ], [ -0.574270045234738, 47.2928940788969 ], [ -0.574047641253803, 47.292790449748502 ], [ -0.57392372716566, 47.292733709866503 ], [ -0.573728310565976, 47.292643486941202 ], [ -0.573698795067984, 47.292629887637403 ], [ -0.573675104948399, 47.292652065327403 ], [ -0.573470227194993, 47.292556996867098 ], [ -0.573491477705628, 47.292535975784602 ], [ -0.573515709531267, 47.292509996547103 ], [ -0.573546317036116, 47.292480306314502 ], [ -0.573629150415842, 47.292393495100001 ], [ -0.573654662518692, 47.292364862999897 ], [ -0.573713324757307, 47.292300965153601 ], [ -0.573757323200498, 47.2922515772973 ], [ -0.573818527548129, 47.292184086510197 ], [ -0.573881012132878, 47.292113942854002 ], [ -0.573976520639706, 47.292006644768598 ], [ -0.574057436658571, 47.291916918425201 ], [ -0.574133592473243, 47.291833286403602 ], [ -0.574200403228972, 47.291758503390597 ], [ -0.574229262094388, 47.2917264336849 ], [ -0.57428413114913, 47.29166526577 ], [ -0.574303043639142, 47.291644947380703 ], [ -0.574358416844154, 47.291585385985201 ], [ -0.57444528018006, 47.291493493459903 ], [ -0.57454524106953, 47.291401377413699 ], [ -0.574574878849635, 47.291377033627803 ], [ -0.574624219262596, 47.291344242423499 ], [ -0.574732368537774, 47.291279629737097 ], [ -0.57484763555755, 47.291222457461103 ], [ -0.574940418789147, 47.291197609056098 ], [ -0.574990000874694, 47.291184365546101 ], [ -0.575026689185727, 47.291172420633103 ], [ -0.57505475200879, 47.291150288059697 ], [ -0.575074425871235, 47.291135443172401 ], [ -0.575176953331013, 47.291058026532099 ], [ -0.575196867529911, 47.291042813746003 ], [ -0.575254350182202, 47.291001029932602 ], [ -0.575401452203807, 47.290890878350098 ], [ -0.575560784504808, 47.290759532542602 ], [ -0.575602956967053, 47.290722546146903 ], [ -0.57564353805571, 47.290681553544999 ], [ -0.575728769662953, 47.290589079402501 ], [ -0.575774350991539, 47.290539641843502 ], [ -0.575623150185011, 47.290460945598802 ], [ -0.57525026791666, 47.290311222436401 ], [ -0.575115236955967, 47.290256538828402 ], [ -0.574206020917192, 47.291011263619097 ], [ -0.573944177889476, 47.290898035875202 ], [ -0.57389593590898, 47.290859781061897 ], [ -0.573739189035856, 47.290741511913197 ], [ -0.573474227476907, 47.290541596980702 ], [ -0.573398629152111, 47.290488324357099 ], [ -0.573212601766849, 47.2903678927551 ], [ -0.573091875929008, 47.290297266060101 ], [ -0.573023459762698, 47.290260353385797 ], [ -0.57293559865701, 47.290211873988497 ], [ -0.572578554977544, 47.289977575799099 ], [ -0.572560396041741, 47.289919649521998 ], [ -0.572437858868222, 47.289686417574998 ], [ -0.572268702690661, 47.289447231931099 ], [ -0.572126030631733, 47.289297527132803 ] ] ], [ [ [ -0.565323767334092, 47.291515984646601 ], [ -0.565563951739467, 47.291329269708903 ], [ -0.565740224099381, 47.291193362164201 ], [ -0.565932982105302, 47.291072357308003 ], [ -0.565995421633321, 47.291033309614498 ], [ -0.566242786744396, 47.290910895516603 ], [ -0.566540833763194, 47.290759887420002 ], [ -0.566670878855269, 47.290695780660002 ], [ -0.566776698415026, 47.290665761793399 ], [ -0.566820328809283, 47.290666582759201 ], [ -0.566875694136244, 47.290680560238997 ], [ -0.567636502464461, 47.291005728863603 ], [ -0.567660865423892, 47.291039493957797 ], [ -0.567703544889269, 47.291113698504802 ], [ -0.56774681402982, 47.2912027540835 ], [ -0.567823298609619, 47.291404965172603 ], [ -0.567875456831701, 47.291538084459397 ], [ -0.568008574643254, 47.291691602627601 ], [ -0.56804083112205, 47.291782348644098 ], [ -0.568186569151925, 47.292191498689903 ], [ -0.568205625335759, 47.2922669705423 ], [ -0.568147641017382, 47.2922455044529 ], [ -0.567977063252425, 47.292186048695299 ], [ -0.567675228220484, 47.292638885919501 ], [ -0.567860594492091, 47.29269563431 ], [ -0.567789968182971, 47.292776928961402 ], [ -0.567363328582653, 47.293045982311199 ], [ -0.567001895440526, 47.293212008336297 ], [ -0.566670413178008, 47.293117127039899 ], [ -0.567099210214437, 47.292479795265301 ], [ -0.567165786315201, 47.292500997619001 ], [ -0.567473291925959, 47.292027801343004 ], [ -0.566945521163487, 47.2919010196157 ], [ -0.566746928426968, 47.291844496383803 ], [ -0.566696246932509, 47.291930944449497 ], [ -0.565533596425624, 47.2915782025824 ], [ -0.565323767334092, 47.291515984646601 ] ] ], [ [ [ -0.568706117610088, 47.2914133997972 ], [ -0.568718067710344, 47.291395909986697 ], [ -0.56884899974421, 47.291299331599802 ], [ -0.568901216287739, 47.291245998021402 ], [ -0.569278888991705, 47.290800555426898 ], [ -0.56941715415016, 47.290648959856199 ], [ -0.569676402956337, 47.290364773899498 ], [ -0.56988565238102, 47.290131419991198 ], [ -0.569921494050727, 47.290080842811903 ], [ -0.569948872574418, 47.290042421499798 ], [ -0.570083260735616, 47.289884365811098 ], [ -0.570103148495864, 47.289860773907002 ], [ -0.570200746448345, 47.289788830385802 ], [ -0.570272945740869, 47.289745244307703 ], [ -0.57038921544008, 47.289675249062498 ], [ -0.570520017065052, 47.289628597044903 ], [ -0.570531080418396, 47.2896396111123 ], [ -0.570728877913785, 47.289588643305002 ], [ -0.571445346423693, 47.289416357540297 ], [ -0.571944813568359, 47.289297070874099 ], [ -0.572023877950148, 47.289296978727997 ], [ -0.572077566313469, 47.289335517090301 ], [ -0.572267798637233, 47.289547108941903 ], [ -0.572373723499654, 47.289709840902198 ], [ -0.572456993941496, 47.289868494437997 ], [ -0.57249020674397, 47.289979486253003 ], [ -0.572502074968929, 47.290038417365999 ], [ -0.572503616154857, 47.290117312001897 ], [ -0.572501115888601, 47.2902568894553 ], [ -0.572530960664599, 47.290450621878598 ], [ -0.572564169505893, 47.290601355181799 ], [ -0.572639530927453, 47.290822252401099 ], [ -0.57269832981018, 47.290969403752797 ], [ -0.572784031762138, 47.291192415483998 ], [ -0.572936947189663, 47.2915815139866 ], [ -0.573021198628471, 47.291798622541798 ], [ -0.573046895002717, 47.291872267151902 ], [ -0.573123955625393, 47.292088786116103 ], [ -0.57316657457939, 47.292221656599096 ], [ -0.573169243655349, 47.292239868022399 ], [ -0.57317607522088, 47.292286788491502 ], [ -0.573173537282768, 47.2923202999091 ], [ -0.573168302812601, 47.292349118226497 ], [ -0.57314095581089, 47.292409888220099 ], [ -0.573044487960724, 47.292594354805601 ], [ -0.573023160367989, 47.292634122405701 ], [ -0.572968561051359, 47.292735202921001 ], [ -0.572896385849917, 47.292864760948703 ], [ -0.572866797440001, 47.292877928278003 ], [ -0.572579314502051, 47.292841275145101 ], [ -0.571670656889008, 47.292649917567203 ], [ -0.571448319443386, 47.292587014184903 ], [ -0.571145197646609, 47.292494426276598 ], [ -0.57083867895191, 47.2923925700849 ], [ -0.570560770356956, 47.292258832296 ], [ -0.570426468988418, 47.292195199290198 ], [ -0.570346276616023, 47.292156484783 ], [ -0.570208858420218, 47.2920897934141 ], [ -0.570071727622001, 47.292027418630198 ], [ -0.570009724139981, 47.292003283563801 ], [ -0.569888198284427, 47.291956468945003 ], [ -0.569774500661927, 47.291911846398897 ], [ -0.569264794547214, 47.291704225405297 ], [ -0.569098720670572, 47.291634810010301 ], [ -0.568954737481138, 47.291570932633199 ], [ -0.568720877375398, 47.2914381782021 ], [ -0.56870773034622, 47.2914237135493 ], [ -0.568706117610088, 47.2914133997972 ] ] ], [ [ [ -0.578993307319339, 47.290989072078503 ], [ -0.579312565771998, 47.290256752337498 ], [ -0.579594509471904, 47.2896800434239 ], [ -0.57962407179929, 47.289656601729803 ], [ -0.579642168425735, 47.289651897784097 ], [ -0.579660504633104, 47.2896527736915 ], [ -0.580598965217185, 47.289935788397301 ], [ -0.581350056867926, 47.290161770375803 ], [ -0.581536002668249, 47.290250921396897 ], [ -0.581559414692984, 47.290264346761298 ], [ -0.581585860616949, 47.290279570885303 ], [ -0.581660372787752, 47.290338278987001 ], [ -0.581690812608929, 47.290369690927903 ], [ -0.581730760849344, 47.290426492562801 ], [ -0.581765619872468, 47.2904884077956 ], [ -0.581501391156233, 47.290921379417597 ], [ -0.581559367572341, 47.290940676403402 ], [ -0.58142512797063, 47.291126317482501 ], [ -0.581072874741898, 47.291661495120302 ], [ -0.580996917695041, 47.291618872065698 ], [ -0.580732768784619, 47.291501134367003 ], [ -0.580519347761968, 47.291436981578002 ], [ -0.579981029841267, 47.291277601156999 ], [ -0.57981957291732, 47.291229956596297 ], [ -0.579359800138523, 47.291094372978698 ], [ -0.579014256725973, 47.290995364588298 ], [ -0.578993307319339, 47.290989072078503 ] ] ] ] } }
]
}
