{
"type": "FeatureCollection",
"name": "Coulée-de-Serrant",
"crs": { "type": "name", "properties": { "name": "urn:ogc:def:crs:OGC:1.3:CRS84" } },
"features": [
{ "type": "Feature", "properties": { "Name": null, "id": "" }, "geometry": { "type": "MultiPolygon", "coordinates": [ [ [ [ -0.63681055883908, 47.391273021552998 ], [ -0.63697255123835, 47.391182521269798 ], [ -0.637112646148724, 47.391029444699001 ], [ -0.637214464696207, 47.390922443875802 ], [ -0.637311627045818, 47.390799638155897 ], [ -0.637384316969806, 47.390685798987199 ], [ -0.637394409642331, 47.390658538336602 ], [ -0.637391668493299, 47.390401162486299 ], [ -0.637737514594161, 47.390518841061301 ], [ -0.638091223444677, 47.390642850941703 ], [ -0.63819402819512, 47.390763451609601 ], [ -0.6383016978911, 47.390859928975999 ], [ -0.638517386033292, 47.391032596384903 ], [ -0.638231963521533, 47.391279169824202 ], [ -0.637855587100108, 47.391603206148297 ], [ -0.637128880630579, 47.391311630574101 ], [ -0.637068711893933, 47.391293237822303 ], [ -0.636979265738047, 47.391275581202599 ], [ -0.636929188748747, 47.391267055618201 ], [ -0.63681055883908, 47.391273021552998 ] ] ], [ [ [ -0.63802018918993, 47.391674290934297 ], [ -0.638044777693168, 47.391635762454797 ], [ -0.638074533051577, 47.391649880219198 ], [ -0.638452376898266, 47.391300564701403 ], [ -0.638962836913808, 47.3908249872214 ], [ -0.63925115746303, 47.390562550658402 ], [ -0.639645638311927, 47.390808107308899 ], [ -0.640140941931736, 47.391121515785898 ], [ -0.640220380922916, 47.391171564877702 ], [ -0.640981304050273, 47.391706715029201 ], [ -0.641050213979113, 47.391759977234202 ], [ -0.640879060347915, 47.391887447690102 ], [ -0.64074639696921, 47.391981810744198 ], [ -0.64059314196831, 47.392089525167798 ], [ -0.640497730515564, 47.392140366150997 ], [ -0.640365003567192, 47.392202559235699 ], [ -0.640192800434782, 47.392107564624901 ], [ -0.640081436887469, 47.392025172599602 ], [ -0.640007755997028, 47.391979809291499 ], [ -0.639807538309221, 47.391865055122501 ], [ -0.639644076685676, 47.3917815010279 ], [ -0.639521182597896, 47.391724702194303 ], [ -0.63936253295334, 47.391661183022201 ], [ -0.639330768423268, 47.391648750595103 ], [ -0.638675738264911, 47.3921529175811 ], [ -0.638505408891864, 47.392019021859703 ], [ -0.638518252799291, 47.392004922033102 ], [ -0.638248521026114, 47.391816193874398 ], [ -0.638149179828012, 47.391750545724001 ], [ -0.63802018918993, 47.391674290934297 ] ] ], [ [ [ -0.635150561482746, 47.392262621700702 ], [ -0.635220493520893, 47.392213663778499 ], [ -0.635180094444094, 47.392177619653303 ], [ -0.635734858066207, 47.391859636209098 ], [ -0.636106644505013, 47.391653532457603 ], [ -0.636683708701768, 47.391850039436399 ], [ -0.637239744285794, 47.3920455798186 ], [ -0.637404241752756, 47.392107296688003 ], [ -0.637538021897205, 47.392162224951598 ], [ -0.637907861224801, 47.392355570600401 ], [ -0.638295593939786, 47.392562232756603 ], [ -0.638545365236133, 47.392697336019801 ], [ -0.638615944075344, 47.392759558955902 ], [ -0.638751059849804, 47.392879057294003 ], [ -0.638609937431169, 47.393108856641398 ], [ -0.638509595363712, 47.393268890654298 ], [ -0.63846567219437, 47.393339294859899 ], [ -0.638388418537136, 47.393466073900903 ], [ -0.638416267438207, 47.393649489178998 ], [ -0.638468065349389, 47.393966697764697 ], [ -0.638266391672857, 47.393932189741903 ], [ -0.637917957347726, 47.393870555246103 ], [ -0.637609182248259, 47.393765594080499 ], [ -0.637354229397161, 47.393679313600401 ], [ -0.637038672460559, 47.393593667846197 ], [ -0.636547317190535, 47.393459723832301 ], [ -0.635974781840417, 47.393296957660198 ], [ -0.635676880547125, 47.3932132791263 ], [ -0.635604685888061, 47.392966818062497 ], [ -0.635513040827221, 47.392658605285199 ], [ -0.635318354669772, 47.392449229116004 ], [ -0.635150561482746, 47.392262621700702 ] ] ] ] } }
]
}
