{
"type": "FeatureCollection",
"name": "Quarts-de-Chaume",
"crs": { "type": "name", "properties": { "name": "urn:ogc:def:crs:OGC:1.3:CRS84" } },
"features": [
{ "type": "Feature", "properties": { "Name": null, "id": "" }, "geometry": { "type": "MultiPolygon", "coordinates": [ [ [ [ -0.644749798400907, 47.316101032129403 ], [ -0.645116047081222, 47.316020585541899 ], [ -0.645454606791837, 47.315944161887202 ], [ -0.645627906266857, 47.315877345646001 ], [ -0.645763260237252, 47.315899587866298 ], [ -0.64585462442872, 47.315919967881399 ], [ -0.645931505625049, 47.315937828978299 ], [ -0.645977606094364, 47.315951250083302 ], [ -0.646043363907823, 47.315977030669302 ], [ -0.646105047386835, 47.3160091574928 ], [ -0.646252398340374, 47.316100684494202 ], [ -0.64630104572509, 47.316134031955798 ], [ -0.646493566770019, 47.316266224947398 ], [ -0.646753116435694, 47.316440920128201 ], [ -0.646822198843532, 47.316503905263801 ], [ -0.646971256483139, 47.316630254005197 ], [ -0.646836523557863, 47.316617185791003 ], [ -0.646755409572222, 47.316578009862802 ], [ -0.646666894336762, 47.3165371739831 ], [ -0.646566520701256, 47.316497341557699 ], [ -0.646402971525401, 47.316446337000301 ], [ -0.646250512682973, 47.316400571112801 ], [ -0.646019186515987, 47.316335023811298 ], [ -0.645818350765001, 47.316271582079601 ], [ -0.645701693536628, 47.316241723126602 ], [ -0.64560031732397, 47.316218323133597 ], [ -0.645484409610729, 47.316197542478797 ], [ -0.645255072818576, 47.3161632026303 ], [ -0.645042603947295, 47.316135271629797 ], [ -0.644749798400907, 47.316101032129403 ] ] ], [ [ [ -0.644693816083094, 47.323553946712799 ], [ -0.644726613034018, 47.323524790481002 ], [ -0.644934945760056, 47.323337287928197 ], [ -0.6449647949442, 47.323310396076401 ], [ -0.644970662640043, 47.323305074984603 ], [ -0.645178226738371, 47.323119939164101 ], [ -0.645230459851454, 47.323073328979099 ], [ -0.645402513574309, 47.322923463293897 ], [ -0.645466447008531, 47.322867653758699 ], [ -0.645669497991829, 47.3226980690727 ], [ -0.645726044201138, 47.322742253365 ], [ -0.645951737058857, 47.322859076490303 ], [ -0.64600817449606, 47.322886051310597 ], [ -0.646153656261068, 47.322955648409703 ], [ -0.646386398235995, 47.323063057095801 ], [ -0.646546154810254, 47.323139865313898 ], [ -0.64675412755271, 47.323239670550798 ], [ -0.646946579062693, 47.323387996754697 ], [ -0.646969906864122, 47.323411415580402 ], [ -0.646989539353126, 47.323431165528397 ], [ -0.647048907590745, 47.323497339737898 ], [ -0.647206989382847, 47.323691805301699 ], [ -0.647302423582423, 47.323822542775801 ], [ -0.64731970424158, 47.3238622829343 ], [ -0.647326357858121, 47.3239036187653 ], [ -0.647318026701013, 47.323952635099097 ], [ -0.64729474457347, 47.324002031213197 ], [ -0.647257727236858, 47.324042396490903 ], [ -0.647204425732784, 47.324079128061697 ], [ -0.647145971723856, 47.324110253910902 ], [ -0.64701051212739, 47.324162814947101 ], [ -0.646725725284083, 47.324264767533897 ], [ -0.646433043457605, 47.324371284165402 ], [ -0.644693816083094, 47.323553946712799 ] ] ], [ [ [ -0.640594582938443, 47.324013887636099 ], [ -0.640621627322645, 47.323963203485199 ], [ -0.640739328713928, 47.323762150615103 ], [ -0.640903264548767, 47.323494400937697 ], [ -0.640991352251789, 47.323355016956398 ], [ -0.641315503837374, 47.323258872666699 ], [ -0.641437291552475, 47.323225492107703 ], [ -0.64152861382795, 47.323217760015197 ], [ -0.641598832438861, 47.323213483787903 ], [ -0.641644236168061, 47.3232107071914 ], [ -0.641827132882159, 47.3231950544534 ], [ -0.641948024928718, 47.323185582972599 ], [ -0.642189717324832, 47.323165290722997 ], [ -0.642444028566356, 47.323145412954403 ], [ -0.642623032548867, 47.323132945178997 ], [ -0.642782652318966, 47.323129737040297 ], [ -0.643046766424697, 47.323119553426501 ], [ -0.643070925588112, 47.323186474361599 ], [ -0.643032250139151, 47.323350803902002 ], [ -0.643017526416364, 47.323407230019498 ], [ -0.643000248533141, 47.3234357994275 ], [ -0.642959417530388, 47.323482501187002 ], [ -0.643047335046333, 47.3237935355289 ], [ -0.643127565521645, 47.324065519245501 ], [ -0.643150311917413, 47.324166279120298 ], [ -0.643233270743776, 47.324310568643199 ], [ -0.643172275786405, 47.3247063934908 ], [ -0.643108889567901, 47.3246922520933 ], [ -0.642953771066542, 47.324939451431597 ], [ -0.642214968772026, 47.3247789788158 ], [ -0.641260250403799, 47.324567510440097 ], [ -0.641352866230523, 47.324198000833299 ], [ -0.641298698314289, 47.324184921009 ], [ -0.640594582938443, 47.324013887636099 ] ] ], [ [ [ -0.648221042481877, 47.320456368741802 ], [ -0.648864563042514, 47.319685980819997 ], [ -0.649212287495794, 47.319266624464603 ], [ -0.649615659731228, 47.319418045780402 ], [ -0.649979201071015, 47.31956251778 ], [ -0.650211813121159, 47.319677853334497 ], [ -0.650732157812816, 47.319943377487 ], [ -0.651226320974886, 47.3201980077204 ], [ -0.651055093739013, 47.3202642260581 ], [ -0.650605468753391, 47.320393454858902 ], [ -0.650242233402506, 47.320508789504203 ], [ -0.650172489554457, 47.320529728265399 ], [ -0.649945491479608, 47.320590489657803 ], [ -0.649801124198128, 47.320562587543002 ], [ -0.649668810704466, 47.320540434260799 ], [ -0.649395840286133, 47.320496209413299 ], [ -0.649161711835983, 47.320463829771498 ], [ -0.649098368838616, 47.320458071473297 ], [ -0.649052119302319, 47.3204600665957 ], [ -0.648837883961563, 47.320480501548602 ], [ -0.6486028169432, 47.320504474930402 ], [ -0.648499403989907, 47.320505833972298 ], [ -0.648427431298206, 47.320507646313402 ], [ -0.648221042481877, 47.320456368741802 ] ] ], [ [ [ -0.639633958760749, 47.319606296181597 ], [ -0.639719849089019, 47.319442379284197 ], [ -0.63983327815129, 47.3192253294566 ], [ -0.6398705123302, 47.319158825225998 ], [ -0.640275843797822, 47.319216492915601 ], [ -0.640786826508374, 47.319294095049997 ], [ -0.640697804772919, 47.319251648418003 ], [ -0.640584397775822, 47.319193565134299 ], [ -0.640531879490147, 47.319159796076399 ], [ -0.640440811984684, 47.319096956424403 ], [ -0.640551613672667, 47.3188470947306 ], [ -0.640667077560418, 47.318589786950596 ], [ -0.640833440617665, 47.318580691989901 ], [ -0.641135427254144, 47.318570405111899 ], [ -0.641432650988804, 47.318564142035903 ], [ -0.641407024008375, 47.318621991646602 ], [ -0.641710164841529, 47.318394389880602 ], [ -0.641943032394395, 47.318306875165703 ], [ -0.642100875731818, 47.3182503727339 ], [ -0.642316344594512, 47.318097886709197 ], [ -0.642237597968921, 47.318085759236801 ], [ -0.642206960730716, 47.318081494004602 ], [ -0.642195130471098, 47.318116110622498 ], [ -0.642167469667682, 47.318112743262901 ], [ -0.642174327673738, 47.3180771111724 ], [ -0.642051900889227, 47.318067706422802 ], [ -0.642035704382422, 47.318059473236502 ], [ -0.64201403917253, 47.318040957876001 ], [ -0.641999915737798, 47.318008597804997 ], [ -0.642021059609397, 47.317882758656197 ], [ -0.642015491042677, 47.317816335386901 ], [ -0.642009206374094, 47.317754981265203 ], [ -0.642009834903081, 47.317717381849299 ], [ -0.641934797732351, 47.317705227877497 ], [ -0.641897540588245, 47.317699097608497 ], [ -0.641814296444718, 47.317685128409103 ], [ -0.641833107102046, 47.317534669869197 ], [ -0.641862340224116, 47.317541682835298 ], [ -0.641902431172668, 47.317480224918803 ], [ -0.641911787612808, 47.317465782541397 ], [ -0.6419366099248, 47.317427333633297 ], [ -0.641944405926002, 47.317415283328401 ], [ -0.641981251771727, 47.317366543913998 ], [ -0.64201845154256, 47.317317162541499 ], [ -0.642069361330174, 47.317255004492502 ], [ -0.64212726336201, 47.3171884814546 ], [ -0.642194202334215, 47.317136003667301 ], [ -0.642249345565315, 47.317093268501701 ], [ -0.642339763759963, 47.3170411350346 ], [ -0.642414651094744, 47.3170081437043 ], [ -0.642501547677919, 47.3169802725971 ], [ -0.642594315614839, 47.316956903301097 ], [ -0.642632764271333, 47.316947405304397 ], [ -0.642684540236964, 47.316921447677899 ], [ -0.642719367228609, 47.316891786523598 ], [ -0.642850727559736, 47.316732206814699 ], [ -0.642927963067897, 47.316657686551402 ], [ -0.643015958296174, 47.316577691608302 ], [ -0.643059065170553, 47.316556782297198 ], [ -0.643186567621189, 47.316525833329202 ], [ -0.643428725378734, 47.316485516397002 ], [ -0.643649840886503, 47.316447571995504 ], [ -0.643877753337927, 47.316363362743203 ], [ -0.644114355279775, 47.316356382726298 ], [ -0.644317112818207, 47.3163525379709 ], [ -0.644414429048241, 47.316312262104901 ], [ -0.644446887071026, 47.316249691111601 ], [ -0.644493308142105, 47.316248323158803 ], [ -0.644607163640144, 47.316244746912297 ], [ -0.644754324670005, 47.316245711759798 ], [ -0.644974261274269, 47.316258719247202 ], [ -0.645179206769901, 47.316277334084702 ], [ -0.645320322820627, 47.316296602122101 ], [ -0.645513447524862, 47.316328474824203 ], [ -0.645699641592142, 47.316365611660899 ], [ -0.645849153124285, 47.316399214623999 ], [ -0.646006906745229, 47.316439047008203 ], [ -0.646249878496551, 47.316506301130701 ], [ -0.646391180350039, 47.316545838929201 ], [ -0.646397403800136, 47.316547716097098 ], [ -0.646512903012519, 47.316583919133997 ], [ -0.646618203478674, 47.316616297092999 ], [ -0.646703572926993, 47.316649842085198 ], [ -0.646712707832486, 47.3166536103613 ], [ -0.646798356314451, 47.316689309384003 ], [ -0.646920956354197, 47.316748089076597 ], [ -0.646937291563702, 47.316756407357097 ], [ -0.646660424712292, 47.316761774723801 ], [ -0.646528854574767, 47.316836202829798 ], [ -0.646632874829815, 47.316970636216197 ], [ -0.646543039636004, 47.317056639742802 ], [ -0.646419231329863, 47.3170034850245 ], [ -0.646509460368146, 47.317042230544999 ], [ -0.646547922129412, 47.317101185532202 ], [ -0.647178231850207, 47.317318208900403 ], [ -0.646711692512028, 47.317795004762701 ], [ -0.646707446926014, 47.317798833088901 ], [ -0.646632645402017, 47.317864267510501 ], [ -0.646547586673098, 47.317938675687401 ], [ -0.646528773279034, 47.318047950904699 ], [ -0.646490282017223, 47.318294735837902 ], [ -0.646446400936757, 47.318516817155597 ], [ -0.646400135011077, 47.318762314279503 ], [ -0.646338032511264, 47.319038048379397 ], [ -0.646265298471901, 47.319381615843199 ], [ -0.64626513787099, 47.319383152918199 ], [ -0.646214983814565, 47.319696271365899 ], [ -0.645560073393159, 47.320278111299899 ], [ -0.645871303693529, 47.320351062534002 ], [ -0.646050602047324, 47.320407431015298 ], [ -0.644731000766626, 47.321458662858298 ], [ -0.644680539446128, 47.321369596918601 ], [ -0.644653640351802, 47.321299427877499 ], [ -0.644621832863231, 47.321209676896999 ], [ -0.644605926429047, 47.321131592576201 ], [ -0.644594176546011, 47.321050313652002 ], [ -0.644585719181982, 47.320939462345599 ], [ -0.644578139958303, 47.320812271883298 ], [ -0.64457073448718, 47.320740319013801 ], [ -0.644543673358318, 47.320675562182799 ], [ -0.644487646889914, 47.320586301462903 ], [ -0.644405712837693, 47.320548771725299 ], [ -0.644305988237701, 47.320502968980797 ], [ -0.644264807684692, 47.320483985466097 ], [ -0.644215671909396, 47.320462998792202 ], [ -0.644006589960778, 47.320373948391399 ], [ -0.643809649050047, 47.320288031032298 ], [ -0.643735903189303, 47.320255921230398 ], [ -0.643659803087989, 47.320333560309301 ], [ -0.643428479866149, 47.320420489000398 ], [ -0.643169095408513, 47.320519653224203 ], [ -0.643053158466915, 47.320564928139497 ], [ -0.642961383861418, 47.320606921045702 ], [ -0.642880707749579, 47.320650367837501 ], [ -0.642847577126999, 47.3206718649474 ], [ -0.642792741860388, 47.3207074711571 ], [ -0.64269440571011, 47.320775804351499 ], [ -0.642585591369613, 47.320855731254397 ], [ -0.642546096193726, 47.320867424839903 ], [ -0.642256074023349, 47.320815968368002 ], [ -0.642117893239771, 47.320791287152801 ], [ -0.641925592702428, 47.320732707320701 ], [ -0.6415480244163, 47.320607846155497 ], [ -0.641168600324958, 47.320482951925001 ], [ -0.641033977532751, 47.320444279487702 ], [ -0.641010730665042, 47.320437619156898 ], [ -0.64085533924067, 47.320399508062998 ], [ -0.640474053536819, 47.320315493956002 ], [ -0.64041375347537, 47.320303777756102 ], [ -0.640143579477389, 47.320251783590003 ], [ -0.639809191752291, 47.320187023520702 ], [ -0.639766444149661, 47.320174215707802 ], [ -0.639726362212296, 47.320151861778299 ], [ -0.639676281288331, 47.320109094107799 ], [ -0.639676731208369, 47.320102050717999 ], [ -0.639683492429813, 47.319990721985 ], [ -0.639700604777822, 47.3199460269498 ], [ -0.639697907527626, 47.319880865431699 ], [ -0.63968474677795, 47.319811886641403 ], [ -0.639633958760749, 47.319606296181597 ] ] ], [ [ [ -0.646965463125798, 47.318448054766797 ], [ -0.646988084750394, 47.3184279680994 ], [ -0.64700200619212, 47.318400765086103 ], [ -0.647016896625071, 47.318358571794803 ], [ -0.647036583825632, 47.3183109106903 ], [ -0.647074244702015, 47.318274219935098 ], [ -0.64713831144665, 47.318220477698098 ], [ -0.647208471246358, 47.3181861899346 ], [ -0.647254784616372, 47.318210508347804 ], [ -0.647445277631467, 47.318310771306002 ], [ -0.647815842505215, 47.318506126666797 ], [ -0.647862895709107, 47.318482838531402 ], [ -0.648187922104187, 47.318636006572397 ], [ -0.64851722719138, 47.318791652681 ], [ -0.648790038312725, 47.318919425088197 ], [ -0.64878297667359, 47.318952000032802 ], [ -0.648778601777789, 47.319103988899002 ], [ -0.648747821869535, 47.319185343331 ], [ -0.64871125905747, 47.319277153207103 ], [ -0.648674632035602, 47.319329042168697 ], [ -0.648626362922152, 47.319377331930902 ], [ -0.648506273502112, 47.319480329421502 ], [ -0.648403069774486, 47.319562699224797 ], [ -0.648329820789244, 47.319666566855602 ], [ -0.648143778522051, 47.319926192288698 ], [ -0.647846323027357, 47.320358023288499 ], [ -0.647751274659993, 47.320324512885698 ], [ -0.647619879053786, 47.320272949547601 ], [ -0.647547399998097, 47.320236116067498 ], [ -0.647473412947143, 47.320194643739597 ], [ -0.647416946843346, 47.320145771565898 ], [ -0.647389058120798, 47.3200961813478 ], [ -0.647359955479062, 47.319993639101497 ], [ -0.647277209997123, 47.319669286944901 ], [ -0.647171924600249, 47.319218034147603 ], [ -0.647087915053344, 47.318863351323898 ], [ -0.647043007697197, 47.318656947490801 ], [ -0.647020877582237, 47.318584826584399 ], [ -0.646996138265241, 47.318523061291401 ], [ -0.646965463125798, 47.318448054766797 ] ] ], [ [ [ -0.645799171052636, 47.321409616441201 ], [ -0.645839059172879, 47.321351047402203 ], [ -0.645941300702911, 47.321174445687298 ], [ -0.645983945564511, 47.3210920886075 ], [ -0.645978587229801, 47.320970325633603 ], [ -0.646064900235387, 47.320888939551402 ], [ -0.646225900404252, 47.320732570462198 ], [ -0.646374686234673, 47.320577846598503 ], [ -0.64631700972842, 47.320548207357596 ], [ -0.646326040620601, 47.320371019432002 ], [ -0.646339808097875, 47.320171873782101 ], [ -0.646373150041837, 47.3200228501723 ], [ -0.646412110533367, 47.319818046366002 ], [ -0.646457504526329, 47.319620159774303 ], [ -0.646506227712115, 47.319410813481298 ], [ -0.646550048219448, 47.319258035914501 ], [ -0.646636969297776, 47.318986748657899 ], [ -0.646699075414699, 47.318791040224099 ], [ -0.646915139547976, 47.318787854458698 ], [ -0.647011666514905, 47.318786623032203 ], [ -0.647065576428575, 47.319012389935203 ], [ -0.647113508007016, 47.3192242860882 ], [ -0.647166530336528, 47.319456479302097 ], [ -0.647254543710985, 47.319815452027697 ], [ -0.64731052821966, 47.320034664983403 ], [ -0.647339572935281, 47.320128557601599 ], [ -0.647356914596261, 47.320159464166601 ], [ -0.64737824749986, 47.320184747994603 ], [ -0.647423278108742, 47.320221362928301 ], [ -0.64746606609599, 47.320252280700402 ], [ -0.647603782885114, 47.320322750807598 ], [ -0.647810541030193, 47.320430162195898 ], [ -0.647808989152018, 47.320434626829403 ], [ -0.647740351661446, 47.320551776793302 ], [ -0.647646534740896, 47.320713786563999 ], [ -0.647555999986797, 47.320865599694997 ], [ -0.647538425162475, 47.320883905640898 ], [ -0.647490654297249, 47.3209337111903 ], [ -0.647369272560115, 47.321068469879101 ], [ -0.647278279320259, 47.321166766272803 ], [ -0.647259956889374, 47.321177976241401 ], [ -0.646859833648644, 47.321072495495201 ], [ -0.646586806261574, 47.321446689577101 ], [ -0.646498309100193, 47.3214237865675 ], [ -0.646338506135805, 47.321387173032399 ], [ -0.646198045415904, 47.321364100242199 ], [ -0.646082198429035, 47.321354132272603 ], [ -0.646019917536506, 47.3213581618989 ], [ -0.645898703863796, 47.321382337316201 ], [ -0.645799171052636, 47.321409616441201 ] ] ], [ [ [ -0.642895648704716, 47.320704510958997 ], [ -0.642953572236661, 47.320661688337097 ], [ -0.643154102005711, 47.320575997802798 ], [ -0.643444674338476, 47.320465761039202 ], [ -0.643754952107507, 47.320351029612198 ], [ -0.643804654477105, 47.320351091038098 ], [ -0.643855529184609, 47.320362560761701 ], [ -0.644026762883602, 47.320429008536102 ], [ -0.644140798431494, 47.320478687805 ], [ -0.644259762377577, 47.320538485774897 ], [ -0.644341035350104, 47.320581894119897 ], [ -0.644376920013662, 47.320600953815202 ], [ -0.644439230831931, 47.320642254050099 ], [ -0.644485588690117, 47.320684776245898 ], [ -0.644521271232673, 47.320728174425 ], [ -0.644538699704545, 47.320774038414498 ], [ -0.644549199082138, 47.32083300707 ], [ -0.644550422095054, 47.320958324423501 ], [ -0.644553929391326, 47.321072395250702 ], [ -0.644560793675391, 47.321144184871002 ], [ -0.644574304623166, 47.3212084660816 ], [ -0.644602566653123, 47.321316262140101 ], [ -0.644638167246746, 47.321416978644898 ], [ -0.6446489673954, 47.321464763061201 ], [ -0.64444842743963, 47.321402030207601 ], [ -0.644258068994996, 47.321336994651602 ], [ -0.644090870749922, 47.321269519225297 ], [ -0.643888642584272, 47.3211838580823 ], [ -0.643656560876282, 47.321080118869602 ], [ -0.643394082736412, 47.320956155605302 ], [ -0.643141095034364, 47.320829460607101 ], [ -0.642895648704716, 47.320704510958997 ] ] ], [ [ [ -0.646596137898501, 47.323066406578398 ], [ -0.64721924853248, 47.322150561348501 ], [ -0.647397929781512, 47.321893602611603 ], [ -0.647343288134664, 47.3218754938313 ], [ -0.647205590618933, 47.321830706734303 ], [ -0.647112435984731, 47.3217938919462 ], [ -0.647036836810865, 47.321763825006002 ], [ -0.646844395755161, 47.3216896668497 ], [ -0.646941423570611, 47.321551438618698 ], [ -0.647009327293696, 47.321452696665403 ], [ -0.646956505463929, 47.321395058280302 ], [ -0.647131368243678, 47.321341258607397 ], [ -0.647200171315344, 47.321310348077603 ], [ -0.647217211874426, 47.321297826621198 ], [ -0.647228059549353, 47.321289735414602 ], [ -0.647420792001231, 47.321122544252702 ], [ -0.647493124324705, 47.321049977594001 ], [ -0.647552712383639, 47.3209829482808 ], [ -0.647609021793179, 47.320908632206397 ], [ -0.647619730338565, 47.320894597455101 ], [ -0.647645065295776, 47.320859826081602 ], [ -0.647691088754328, 47.320796016773102 ], [ -0.647758397765501, 47.320694409152601 ], [ -0.647826850384251, 47.3205784365529 ], [ -0.647880320953559, 47.320487717708097 ], [ -0.647965458997426, 47.320465124846301 ], [ -0.648292337712129, 47.320540101120102 ], [ -0.648461127705867, 47.320572464123202 ], [ -0.648466789854744, 47.320571925618701 ], [ -0.648641016121816, 47.320553650578397 ], [ -0.648890803220595, 47.320527862458498 ], [ -0.649032079958595, 47.320514227702397 ], [ -0.649110734541844, 47.320515178800598 ], [ -0.649169259383962, 47.3205182949118 ], [ -0.649226908242146, 47.320528017260301 ], [ -0.649349776969165, 47.320549656995702 ], [ -0.649609568315666, 47.320612500588098 ], [ -0.649797043105439, 47.320660405398101 ], [ -0.649874180874104, 47.320679968303303 ], [ -0.650027610928256, 47.320710559210198 ], [ -0.650196949844862, 47.320743172829701 ], [ -0.650329166168621, 47.320763886675898 ], [ -0.649941823529828, 47.32125352373 ], [ -0.649736108193029, 47.3215083632386 ], [ -0.649682202265944, 47.321487438701602 ], [ -0.649090359973002, 47.321973320517202 ], [ -0.648704678793542, 47.322294737644697 ], [ -0.648312927686466, 47.322160520656404 ], [ -0.648117412426755, 47.3224973150853 ], [ -0.647955909972378, 47.322761304898798 ], [ -0.647809822525876, 47.323006425517598 ], [ -0.647805739428792, 47.323010699353603 ], [ -0.647616274828321, 47.323212393918602 ], [ -0.647459533555238, 47.3233846720264 ], [ -0.647287090901468, 47.323569699581199 ], [ -0.647260355903084, 47.323537105621703 ], [ -0.647199989289486, 47.323460148584303 ], [ -0.647111528963892, 47.3233929962594 ], [ -0.647094188120413, 47.323379662891703 ], [ -0.646924465472117, 47.323251800642403 ], [ -0.646814056276063, 47.323167854760499 ], [ -0.646646970309219, 47.323090466146503 ], [ -0.646596137898501, 47.323066406578398 ] ] ], [ [ [ -0.647701626951165, 47.323935621475201 ], [ -0.647872208380856, 47.323847980605997 ], [ -0.647927153543401, 47.323813990731402 ], [ -0.647974777977603, 47.3237814926282 ], [ -0.648015008327616, 47.323749407180898 ], [ -0.648086760020358, 47.323681905249501 ], [ -0.648215436607499, 47.3235510622413 ], [ -0.64845612158087, 47.323303507776203 ], [ -0.64851111692259, 47.323287810226397 ], [ -0.648551127812441, 47.323279793315599 ], [ -0.648565015149489, 47.323285214440901 ], [ -0.648761902461068, 47.323095270708698 ], [ -0.64915882860265, 47.322715012604498 ], [ -0.649343220559667, 47.322536274966097 ], [ -0.649493238634607, 47.3223899795682 ], [ -0.649677359826035, 47.322197551672701 ], [ -0.649818874454536, 47.322045124740299 ], [ -0.6499677153039, 47.321881562713799 ], [ -0.650038541521009, 47.321808320834101 ], [ -0.650042618231331, 47.3218039569905 ], [ -0.650193974112166, 47.3216637465597 ], [ -0.650240374029604, 47.3216152446523 ], [ -0.650304011983335, 47.321533757467698 ], [ -0.65038472728852, 47.321420822053803 ], [ -0.650473586114797, 47.321291228642103 ], [ -0.650553816891741, 47.3211809217837 ], [ -0.650656240398143, 47.321044232615201 ], [ -0.65069472425949, 47.320992374744797 ], [ -0.650898704621718, 47.320875741070303 ], [ -0.650889435462696, 47.320805739485003 ], [ -0.650907985751385, 47.320739458724397 ], [ -0.650925883297224, 47.320735651317698 ], [ -0.65116242848088, 47.320671072937699 ], [ -0.651481514162536, 47.320574968358898 ], [ -0.651574633511937, 47.320546984840703 ], [ -0.651700693508803, 47.320502554176699 ], [ -0.651740663805334, 47.320497871778599 ], [ -0.651780894636653, 47.3205048065916 ], [ -0.651817696687101, 47.320519779818603 ], [ -0.65193732507925, 47.320604782763098 ], [ -0.652286651588239, 47.320857568415903 ], [ -0.65228972629852, 47.320859904869799 ], [ -0.652290448746662, 47.320860783326999 ], [ -0.652372189602891, 47.3209615777116 ], [ -0.652431414713089, 47.3210353239106 ], [ -0.65199129087013, 47.321308089684599 ], [ -0.652026953186479, 47.321339410366797 ], [ -0.652183040522055, 47.321481032294102 ], [ -0.652218322938767, 47.321545709112797 ], [ -0.652233758871652, 47.321573881307401 ], [ -0.652289149104584, 47.3216574811835 ], [ -0.652338277637921, 47.321713341058199 ], [ -0.652385536540589, 47.321759256489997 ], [ -0.652398584979965, 47.321771823008703 ], [ -0.652435158918729, 47.3218009520143 ], [ -0.652489375804804, 47.321843944817203 ], [ -0.652744174382365, 47.321989037746697 ], [ -0.652852000715175, 47.3220252060636 ], [ -0.652967311453629, 47.322124582855402 ], [ -0.652960934046135, 47.322130190786901 ], [ -0.652657324818075, 47.322395326875103 ], [ -0.652625545207557, 47.322423002570901 ], [ -0.652283116183219, 47.322733157519401 ], [ -0.651875158325802, 47.323095119423797 ], [ -0.652014948959218, 47.323174441192201 ], [ -0.652057956365484, 47.323198771763899 ], [ -0.651736128968033, 47.323445643368402 ], [ -0.651321598473467, 47.323763741364601 ], [ -0.651314162664542, 47.323769382492202 ], [ -0.651278509450628, 47.323796638919397 ], [ -0.651218506084249, 47.323841964402398 ], [ -0.650875363871119, 47.324102931731097 ], [ -0.650743295529928, 47.324203334053202 ], [ -0.650710530640527, 47.3242282464346 ], [ -0.650455227971723, 47.324422554363103 ], [ -0.650245170382703, 47.3245825449468 ], [ -0.649872359912798, 47.324867332427999 ], [ -0.64986232584507, 47.324862060614201 ], [ -0.649653758192545, 47.324742002501303 ], [ -0.649407661680533, 47.3245982513019 ], [ -0.649284135729786, 47.324526165242403 ], [ -0.648878606842781, 47.3242890161915 ], [ -0.648853868121916, 47.324283846175199 ], [ -0.648551170079671, 47.324219826120398 ], [ -0.64830197039935, 47.324164847616203 ], [ -0.648240054353489, 47.324148950508899 ], [ -0.648232910284052, 47.324147192477099 ], [ -0.648205395899987, 47.3241382344589 ], [ -0.64817748860456, 47.3241273962823 ], [ -0.648167414306926, 47.324123477383203 ], [ -0.648024864455336, 47.324067849093304 ], [ -0.647701626951165, 47.323935621475201 ] ] ], [ [ [ -0.638657852035214, 47.322621014091403 ], [ -0.638659423033395, 47.322616819367099 ], [ -0.638683332796138, 47.322537486064803 ], [ -0.638689492877886, 47.322516926060501 ], [ -0.638735209904391, 47.322366345922703 ], [ -0.638806649681915, 47.322159265727301 ], [ -0.638804906411982, 47.322115973238901 ], [ -0.638833276462517, 47.321912856980497 ], [ -0.638873322823538, 47.321749026833601 ], [ -0.638796740728082, 47.321661399561101 ], [ -0.638757971652299, 47.321617375600198 ], [ -0.638737004317067, 47.321593520751598 ], [ -0.638687678169631, 47.321542347943797 ], [ -0.639003740212604, 47.321084726361697 ], [ -0.639234022670121, 47.320765422845298 ], [ -0.639596554513858, 47.3201405770428 ], [ -0.639645980593817, 47.320160601241803 ], [ -0.639662608753054, 47.320167379320303 ], [ -0.639743023195093, 47.3202040587638 ], [ -0.639822990244694, 47.320238048619501 ], [ -0.640157128351671, 47.320293263878803 ], [ -0.640327448837852, 47.320322886949 ], [ -0.640495049227675, 47.320355388800699 ], [ -0.640546073783641, 47.320367125607802 ], [ -0.640650804509917, 47.320391055736998 ], [ -0.640848256177177, 47.3204396530151 ], [ -0.641089005580723, 47.320509150773397 ], [ -0.641371215930626, 47.320601769250302 ], [ -0.641677461711926, 47.320695074672699 ], [ -0.641948428906993, 47.3207782216693 ], [ -0.642160163960516, 47.320836101359298 ], [ -0.642491340104653, 47.320921773171001 ], [ -0.6423142986396, 47.321156322835002 ], [ -0.642170368519899, 47.3213456745804 ], [ -0.641997153356832, 47.321568297946001 ], [ -0.641431675390728, 47.321400849682 ], [ -0.641392889827563, 47.321389810600202 ], [ -0.640815337218762, 47.321223459295801 ], [ -0.640251125202476, 47.322081158579799 ], [ -0.639814243981187, 47.322768050535402 ], [ -0.640358332678168, 47.322938520951404 ], [ -0.640412094109192, 47.322955398918999 ], [ -0.641023653874692, 47.323147450967497 ], [ -0.640948034987361, 47.323292842230202 ], [ -0.640862799948829, 47.323429342996498 ], [ -0.640742697106078, 47.323614520359001 ], [ -0.640570346695905, 47.323879379578003 ], [ -0.640519774426083, 47.323956395565901 ], [ -0.640503713571509, 47.323995109797998 ], [ -0.640072906393906, 47.323861369630301 ], [ -0.64008355864783, 47.323842561139799 ], [ -0.63988700699385, 47.323785913456298 ], [ -0.639497290607895, 47.323673682448799 ], [ -0.639492401579471, 47.323666085563502 ], [ -0.639351241144382, 47.323441250380199 ], [ -0.639230518263197, 47.323255876981001 ], [ -0.63895073296244, 47.323015472339002 ], [ -0.63873117096777, 47.322826619157297 ], [ -0.638831256496926, 47.322668656711599 ], [ -0.638657852035214, 47.322621014091403 ] ] ] ] } }
]
}
