{
"type": "FeatureCollection",
"name": "Savennières-Roche-aux-Moines",
"crs": { "type": "name", "properties": { "name": "urn:ogc:def:crs:OGC:1.3:CRS84" } },
"features": [
{ "type": "Feature", "properties": { "Name": null, "id": "" }, "geometry": { "type": "MultiPolygon", "coordinates": [ [ [ [ -0.642609015395866, 47.393166229291502 ], [ -0.642615666846826, 47.3931371835818 ], [ -0.642688809810217, 47.393067213380803 ], [ -0.642928250532159, 47.3928783930969 ], [ -0.643156262537067, 47.392699122435197 ], [ -0.643285740915311, 47.392595033768004 ], [ -0.643322548226801, 47.392570359354004 ], [ -0.643432114091123, 47.392489604151699 ], [ -0.643455267577013, 47.392474910137899 ], [ -0.643496595319009, 47.392444506710099 ], [ -0.64354779349956, 47.3924070350417 ], [ -0.643737225583425, 47.392292775169601 ], [ -0.643822317625086, 47.392248292843099 ], [ -0.643918343769008, 47.392206531517999 ], [ -0.64409152493718, 47.392140181846003 ], [ -0.644357788576012, 47.392016121791897 ], [ -0.644604609375211, 47.392250072583103 ], [ -0.644684277479854, 47.3923229110462 ], [ -0.644734238712932, 47.3923726201823 ], [ -0.644701954474782, 47.392387690977003 ], [ -0.644902970778341, 47.392605685427 ], [ -0.645005292652279, 47.392713048602197 ], [ -0.644718976046586, 47.392803765146802 ], [ -0.644621290930686, 47.392842605301603 ], [ -0.644545622841654, 47.392879312956502 ], [ -0.644487670920769, 47.392911139324703 ], [ -0.644380625578785, 47.392984066471499 ], [ -0.644448775697204, 47.393020228511404 ], [ -0.644461991953311, 47.393023328539599 ], [ -0.644961370774613, 47.393280807851802 ], [ -0.644650496269836, 47.393705094108498 ], [ -0.644269301060028, 47.394213590511001 ], [ -0.643661551921576, 47.393956983044397 ], [ -0.643533011139736, 47.393897301321502 ], [ -0.643412936607382, 47.393794278433802 ], [ -0.643325674781269, 47.393719063850597 ], [ -0.64320895586702, 47.393589261142502 ], [ -0.643154400248584, 47.393520771013598 ], [ -0.643114202595728, 47.3934819295484 ], [ -0.643049080133632, 47.3934395439165 ], [ -0.642931555426189, 47.3933954667854 ], [ -0.642761385133486, 47.393289507968603 ], [ -0.642622462249531, 47.393200051941101 ], [ -0.642609015395866, 47.393166229291502 ] ] ], [ [ [ -0.646242600145543, 47.393907653192898 ], [ -0.646558051183304, 47.393597576515603 ], [ -0.646694452375472, 47.393519220246802 ], [ -0.646925307240157, 47.393366256846797 ], [ -0.647090306254548, 47.393255732109502 ], [ -0.647133048610144, 47.393226634702003 ], [ -0.647261141327489, 47.393143221600702 ], [ -0.647253983030838, 47.393131641021398 ], [ -0.647330378323053, 47.393068594714997 ], [ -0.647425228732172, 47.3929783846879 ], [ -0.647447034634266, 47.392943906520003 ], [ -0.647472523312265, 47.392903094705403 ], [ -0.647549703468544, 47.3926780841838 ], [ -0.647641807627899, 47.3924286340809 ], [ -0.647827165341546, 47.392375504090197 ], [ -0.647960102607907, 47.392336005007998 ], [ -0.648036148058439, 47.3923477658956 ], [ -0.648015828171928, 47.392454741389301 ], [ -0.648427288463181, 47.392562939699701 ], [ -0.648689617608739, 47.392624813470398 ], [ -0.649280421171901, 47.392749365721798 ], [ -0.649427135591179, 47.392760167951003 ], [ -0.649350976799786, 47.393079950558601 ], [ -0.649192102579371, 47.3931419838311 ], [ -0.649147302242665, 47.393160332670497 ], [ -0.649128295615146, 47.393142365533102 ], [ -0.648799913516868, 47.393332460100197 ], [ -0.648615125827909, 47.393432974959303 ], [ -0.648503039176582, 47.3932486013126 ], [ -0.648519318429824, 47.3932401599115 ], [ -0.64850307383016, 47.393215978028202 ], [ -0.648483636286867, 47.393220913929397 ], [ -0.648469285525265, 47.393189463253499 ], [ -0.648436206569201, 47.3931987024731 ], [ -0.648409898379309, 47.393180694129001 ], [ -0.648257405452108, 47.393223421011903 ], [ -0.648257449543545, 47.393251355758501 ], [ -0.648251259467825, 47.393296878727902 ], [ -0.648414191360033, 47.393532194136199 ], [ -0.648347255236407, 47.393554842312099 ], [ -0.648553051569553, 47.3938505415585 ], [ -0.648827612491955, 47.394249787946499 ], [ -0.648859050079367, 47.394272952017097 ], [ -0.648201483992865, 47.394520781974002 ], [ -0.647881977162994, 47.394131866764802 ], [ -0.647585560420781, 47.3937643044979 ], [ -0.647539718719063, 47.393751775410998 ], [ -0.647876683053713, 47.394176910974302 ], [ -0.64815289564519, 47.394512755047401 ], [ -0.647058453970309, 47.394922714711498 ], [ -0.647019666287637, 47.394861751723901 ], [ -0.646790406100728, 47.394589766091599 ], [ -0.646644676328741, 47.394408249012201 ], [ -0.646557573328736, 47.394302302018303 ], [ -0.646437965796774, 47.394116540534803 ], [ -0.646395681692628, 47.394060733595303 ], [ -0.646362360929969, 47.394015729696797 ], [ -0.646242600145543, 47.393907653192898 ] ] ], [ [ [ -0.639330671654752, 47.3892733809354 ], [ -0.639562399237844, 47.389117611012502 ], [ -0.639463622411101, 47.389034824246302 ], [ -0.639789482327747, 47.388813384324997 ], [ -0.639915551729085, 47.388879905950098 ], [ -0.640069131257712, 47.388948990023998 ], [ -0.640230871585604, 47.389034669978301 ], [ -0.640185332628315, 47.3891026926268 ], [ -0.640128859936223, 47.389173851396301 ], [ -0.639959992850062, 47.389276286993699 ], [ -0.639818908488831, 47.389371633984801 ], [ -0.639651035535701, 47.389494584448897 ], [ -0.639330671654752, 47.3892733809354 ] ] ], [ [ [ -0.640928743698705, 47.388265378822098 ], [ -0.641154668340704, 47.388135650617798 ], [ -0.641194588316783, 47.388113853059103 ], [ -0.641222154699865, 47.388125064763102 ], [ -0.641285539305112, 47.3880111537988 ], [ -0.64134260053717, 47.387882301404503 ], [ -0.641530349021933, 47.387739530405803 ], [ -0.641587249564595, 47.387807497145602 ], [ -0.641642885200019, 47.387874422108297 ], [ -0.64176080022453, 47.387830714607702 ], [ -0.641907124899484, 47.387886776543198 ], [ -0.642012723235809, 47.3878297571461 ], [ -0.642098906544124, 47.387979082071503 ], [ -0.642152266742338, 47.388260465129001 ], [ -0.642163220798344, 47.388318156734698 ], [ -0.641849439730274, 47.388496509987 ], [ -0.641853300132941, 47.388510357029297 ], [ -0.641851448365588, 47.388518255197901 ], [ -0.641845257466734, 47.388526739953399 ], [ -0.641831834679916, 47.388532297308998 ], [ -0.641801515762832, 47.388531355167999 ], [ -0.641542383086169, 47.388707453923999 ], [ -0.641514270227147, 47.388721401883302 ], [ -0.641241231713916, 47.388560089476201 ], [ -0.641198087223649, 47.388530531642601 ], [ -0.641174289428246, 47.388514245428297 ], [ -0.64114295428968, 47.388490535522301 ], [ -0.641104216255702, 47.388461380265902 ], [ -0.6409869551249, 47.388385842594801 ], [ -0.6410468294347, 47.388347198849999 ], [ -0.641009554133993, 47.3883239454074 ], [ -0.641047186691717, 47.388295821325499 ], [ -0.640997529784172, 47.388266107038703 ], [ -0.640960746792345, 47.388289157966099 ], [ -0.640928743698705, 47.388265378822098 ] ] ], [ [ [ -0.640003471056303, 47.388599683595601 ], [ -0.640011343061584, 47.388586640466997 ], [ -0.640029435258449, 47.3885794951834 ], [ -0.640050124522312, 47.388581280165397 ], [ -0.640337630399707, 47.388346170873902 ], [ -0.640588156930598, 47.388144931691997 ], [ -0.640581664939734, 47.388129454861897 ], [ -0.640567639570349, 47.388116376867998 ], [ -0.640548044586463, 47.388107258271503 ], [ -0.640545306942228, 47.388096259738802 ], [ -0.640554639273089, 47.3880871359273 ], [ -0.640570671572471, 47.388084831259697 ], [ -0.640584466908491, 47.388090617036397 ], [ -0.640645402741876, 47.388042207664597 ], [ -0.64064136325834, 47.388035485393701 ], [ -0.64064047726614, 47.388028303846497 ], [ -0.640642649006737, 47.388021206721902 ], [ -0.640656293850223, 47.388015011729799 ], [ -0.640672768124704, 47.388015306572797 ], [ -0.640685962480301, 47.3880220123322 ], [ -0.64069093285353, 47.388032670552903 ], [ -0.640685821459593, 47.388043374328099 ], [ -0.640905432616139, 47.388152742911899 ], [ -0.640923139325776, 47.388157504919597 ], [ -0.640941968648998, 47.388153400342198 ], [ -0.64096025389744, 47.388158865146004 ], [ -0.640968265754556, 47.388171320490898 ], [ -0.640961838377334, 47.388184138193601 ], [ -0.640929710549808, 47.388191723454902 ], [ -0.640823280651613, 47.388279497535997 ], [ -0.640692220308752, 47.388414903777502 ], [ -0.640560733363116, 47.388557712748401 ], [ -0.640449898840728, 47.388684194226201 ], [ -0.640409345982155, 47.388729892154103 ], [ -0.640008913863181, 47.388613390994003 ], [ -0.640003471056303, 47.388599683595601 ] ] ], [ [ [ -0.647282884772642, 47.389844182565902 ], [ -0.647458757797721, 47.389800001753997 ], [ -0.647505245717788, 47.389790882506396 ], [ -0.647624264894485, 47.389771195564698 ], [ -0.647761584951853, 47.389722096627501 ], [ -0.647765542009962, 47.389729542198999 ], [ -0.647855923291302, 47.389811594623197 ], [ -0.647875259922602, 47.389861723233999 ], [ -0.647922363458502, 47.389927922025699 ], [ -0.648090635478377, 47.390111253133803 ], [ -0.648262230489326, 47.390304392517599 ], [ -0.648431733961612, 47.390509672977402 ], [ -0.648588092519789, 47.390699235087702 ], [ -0.648643996262296, 47.390779666065001 ], [ -0.64867873601377, 47.390833816713197 ], [ -0.648695831890926, 47.390860765462698 ], [ -0.648709394554678, 47.390882598391599 ], [ -0.64870893677332, 47.390903159367099 ], [ -0.648707799231831, 47.390944919104598 ], [ -0.648693626083628, 47.391071978073903 ], [ -0.648678019430285, 47.391125366621203 ], [ -0.648659912830393, 47.391177121448401 ], [ -0.648438824543061, 47.3911634269136 ], [ -0.648136499620562, 47.3911552563833 ], [ -0.648160691256034, 47.391097362905001 ], [ -0.64817182445885, 47.391042582912 ], [ -0.64816965437686, 47.390987319431702 ], [ -0.648154411428628, 47.3909330070964 ], [ -0.648126590869718, 47.390881072219202 ], [ -0.648086814245931, 47.390832847027497 ], [ -0.648031491293053, 47.390764833670403 ], [ -0.647898431502567, 47.3906406850274 ], [ -0.647637130106174, 47.390414404758197 ], [ -0.64751722176614, 47.390304081282999 ], [ -0.647447917574946, 47.390225602454002 ], [ -0.647381980165102, 47.390138096355898 ], [ -0.647332043922143, 47.390057567625199 ], [ -0.64730479489219, 47.390004262880602 ], [ -0.647293572959313, 47.389954420173503 ], [ -0.647282884772642, 47.389844182565902 ] ] ], [ [ [ -0.641960798600167, 47.3876671024817 ], [ -0.642142018263016, 47.387609875337702 ], [ -0.642461288603388, 47.387547509081102 ], [ -0.642516909807353, 47.387536122895497 ], [ -0.64251216520489, 47.387522934401296 ], [ -0.64267884162345, 47.387384516777502 ], [ -0.642767048058345, 47.387366431518302 ], [ -0.642891107352951, 47.387340913926202 ], [ -0.643012422563154, 47.387316022936503 ], [ -0.64303939371012, 47.387310671437902 ], [ -0.643400113898841, 47.387237360374598 ], [ -0.643538553440231, 47.387241850525498 ], [ -0.643646213382162, 47.387275692480301 ], [ -0.643659883141933, 47.387299144679098 ], [ -0.643703716553533, 47.3873876162423 ], [ -0.643920872238921, 47.387335927876499 ], [ -0.644149278242402, 47.387279921102298 ], [ -0.644164646473604, 47.387287369343802 ], [ -0.644183467260377, 47.387287049386302 ], [ -0.644198457960075, 47.387279189647103 ], [ -0.644203326093553, 47.387266871221001 ], [ -0.644417392537732, 47.387214647972399 ], [ -0.644436032666449, 47.387270205924601 ], [ -0.644552705471745, 47.387305837034901 ], [ -0.644619865993437, 47.387212442218001 ], [ -0.64469734461429, 47.387165404082502 ], [ -0.644743558829045, 47.387138631602198 ], [ -0.644843724988282, 47.387066189705202 ], [ -0.644937081066093, 47.386997025318301 ], [ -0.645166719739873, 47.386853834996302 ], [ -0.645450207815412, 47.386776632220702 ], [ -0.645504144729525, 47.386761963086798 ], [ -0.645555293090296, 47.386838939954899 ], [ -0.645581264051476, 47.387074410948898 ], [ -0.645562215609599, 47.387256683796501 ], [ -0.6455272247349, 47.387440628352799 ], [ -0.645482783986976, 47.3876027006824 ], [ -0.645414970839439, 47.387791820340198 ], [ -0.64531168293853, 47.388048558972798 ], [ -0.64522308503098, 47.388226705501403 ], [ -0.645146248750926, 47.388466573263202 ], [ -0.645183052404662, 47.3884750611155 ], [ -0.645099251221279, 47.388692528051301 ], [ -0.644972559017177, 47.389016866885498 ], [ -0.644914720752269, 47.389177106162798 ], [ -0.644826688124785, 47.389429941065998 ], [ -0.644808649956359, 47.389486649495502 ], [ -0.644785476886194, 47.389559559733897 ], [ -0.644610272770201, 47.389644808606299 ], [ -0.644451882994346, 47.389727547241101 ], [ -0.644400748602727, 47.389754203472897 ], [ -0.644132329686648, 47.389901041049903 ], [ -0.643862145056206, 47.390047302509998 ], [ -0.643750544998024, 47.390111720980599 ], [ -0.643701553455945, 47.390150385281899 ], [ -0.643539764841296, 47.390300275765497 ], [ -0.643366585491571, 47.390460255723397 ], [ -0.643149628389598, 47.390341346009102 ], [ -0.642906163665132, 47.390205333821299 ], [ -0.642804937076958, 47.390123707910298 ], [ -0.642689038494967, 47.390021454654601 ], [ -0.642630123567473, 47.389959048652997 ], [ -0.642655971839031, 47.389839555029297 ], [ -0.642740225457991, 47.389663709925699 ], [ -0.642700633079325, 47.389567355110103 ], [ -0.64309863411831, 47.389448809827599 ], [ -0.642784896179554, 47.3890383433761 ], [ -0.64218413370986, 47.388256852825997 ], [ -0.642162009740424, 47.388153912447102 ], [ -0.642126314138218, 47.387987955515598 ], [ -0.642111687270625, 47.387934794736701 ], [ -0.641960798600167, 47.3876671024817 ] ] ], [ [ [ -0.643497075773238, 47.390458957633598 ], [ -0.643535264018195, 47.390409728113397 ], [ -0.643673419553825, 47.390269410165402 ], [ -0.643749042607865, 47.390198910688497 ], [ -0.643802251103134, 47.390157861215002 ], [ -0.643903921920801, 47.3900957366466 ], [ -0.644099815474287, 47.389986860371302 ], [ -0.644315596703463, 47.3898621302896 ], [ -0.644521036711718, 47.389749259045097 ], [ -0.64473319641171, 47.389633743475699 ], [ -0.644831805052048, 47.389786101254202 ], [ -0.644907032927937, 47.389897107990002 ], [ -0.644968604473316, 47.389986825001202 ], [ -0.644993566633031, 47.390026053668201 ], [ -0.645020577596776, 47.390122712389498 ], [ -0.645054099791365, 47.3902565651915 ], [ -0.645076873570483, 47.390353356819098 ], [ -0.645134344530093, 47.390534940980302 ], [ -0.645157661194856, 47.390610448065402 ], [ -0.645177844100348, 47.390676951689798 ], [ -0.645225196575343, 47.3907585535786 ], [ -0.645323712967092, 47.390911454565803 ], [ -0.645460121421076, 47.3911356203349 ], [ -0.645559700172708, 47.3913119180961 ], [ -0.645643980344695, 47.391468149211398 ], [ -0.645456395918428, 47.391537296248302 ], [ -0.645279249675413, 47.391601880030002 ], [ -0.645155649101774, 47.391642074439901 ], [ -0.645024121353657, 47.391682787731703 ], [ -0.644689320664251, 47.3917649322795 ], [ -0.644503788266488, 47.391561861762398 ], [ -0.644295322799169, 47.391335719498798 ], [ -0.644158111600031, 47.391150417872304 ], [ -0.644099424382957, 47.391050426865803 ], [ -0.644004563488733, 47.390884884129697 ], [ -0.643938614656689, 47.390799088825503 ], [ -0.643850641943043, 47.3907250684736 ], [ -0.643794866492714, 47.390667881430097 ], [ -0.643807014116276, 47.390657227216103 ], [ -0.643673818020658, 47.3905426306628 ], [ -0.643639737847044, 47.390560551126399 ], [ -0.643497075773238, 47.390458957633598 ] ] ], [ [ [ -0.637341459835276, 47.390392641221503 ], [ -0.637340392364459, 47.390173602413498 ], [ -0.637347976135222, 47.389988176420502 ], [ -0.637379774199949, 47.3899229282177 ], [ -0.637376093409369, 47.389868703428 ], [ -0.637434008293589, 47.389803088206001 ], [ -0.637658191633736, 47.389649450971 ], [ -0.637852555916412, 47.389515941597303 ], [ -0.638341527212362, 47.389965090179999 ], [ -0.638497805140035, 47.389935144284799 ], [ -0.638616096764307, 47.3899125156276 ], [ -0.63878546515249, 47.389887746608103 ], [ -0.638819549001357, 47.389934350673997 ], [ -0.63887154415145, 47.38994182407 ], [ -0.638883266711925, 47.390006971418003 ], [ -0.638998406501409, 47.389912528356597 ], [ -0.639128637685634, 47.389813647395499 ], [ -0.639208775469981, 47.389762654958801 ], [ -0.639313736877757, 47.389700071008903 ], [ -0.639472698091817, 47.389633452524798 ], [ -0.639692005829669, 47.389535115013402 ], [ -0.639801901466393, 47.389441646378202 ], [ -0.639952536627283, 47.389338430453101 ], [ -0.640169204033217, 47.389177814207898 ], [ -0.640188917386628, 47.389190623933501 ], [ -0.64044525582811, 47.389324886417697 ], [ -0.64054461395395, 47.389379087323903 ], [ -0.640857185596083, 47.389573406818201 ], [ -0.64092796304892, 47.389732316965599 ], [ -0.640976523172062, 47.3897653999759 ], [ -0.641023086960655, 47.389794490290598 ], [ -0.641048570051038, 47.389810183034498 ], [ -0.641081112654946, 47.389783299887497 ], [ -0.64112384947086, 47.389748257156498 ], [ -0.641164944235756, 47.389714437377002 ], [ -0.64122614421107, 47.389664036940403 ], [ -0.641200575590995, 47.389647085286803 ], [ -0.641341257092881, 47.389530211397897 ], [ -0.641381683356619, 47.389496322362803 ], [ -0.64148442853634, 47.389553480309303 ], [ -0.641511433648161, 47.389532988600401 ], [ -0.641585988919746, 47.389476041480997 ], [ -0.641690568122979, 47.389396164911197 ], [ -0.641754525582897, 47.389347299831897 ], [ -0.642043068663651, 47.389531645535897 ], [ -0.642370288097288, 47.3897402811007 ], [ -0.642433280992524, 47.3898060739252 ], [ -0.642526213353146, 47.389917968904903 ], [ -0.642623139146049, 47.390037849098697 ], [ -0.642697973446649, 47.390133369439802 ], [ -0.642828155085086, 47.390229046984402 ], [ -0.642942984395566, 47.390309705705498 ], [ -0.643006674721264, 47.390344746691298 ], [ -0.643172675541913, 47.3904265944294 ], [ -0.643311259709118, 47.390494765828201 ], [ -0.642230141463781, 47.3911691433348 ], [ -0.642852525152677, 47.3915674120516 ], [ -0.643140292820795, 47.391388791004999 ], [ -0.643490693414749, 47.391128181898097 ], [ -0.643539209380478, 47.391156669355901 ], [ -0.644009464888234, 47.391433088772096 ], [ -0.644028817297106, 47.391444467345799 ], [ -0.644202353565574, 47.391543379761302 ], [ -0.644270577250537, 47.391582603518103 ], [ -0.644458296698755, 47.391698823681097 ], [ -0.644604924944279, 47.391811826599202 ], [ -0.644468630865341, 47.3918878341306 ], [ -0.644451550731274, 47.391896209965097 ], [ -0.644440897300505, 47.391885910366099 ], [ -0.644363140671799, 47.391932866614503 ], [ -0.644379787699034, 47.391941536377097 ], [ -0.644215159428761, 47.392039970061198 ], [ -0.643972205197329, 47.392143833657499 ], [ -0.643740177945082, 47.392244470341602 ], [ -0.643679756992201, 47.392275112117403 ], [ -0.643619166857042, 47.392305218466198 ], [ -0.643458694336949, 47.392408206722799 ], [ -0.643263506476159, 47.392545175647797 ], [ -0.642992879570706, 47.3927495733016 ], [ -0.642706883586619, 47.392983649713798 ], [ -0.642564458186806, 47.393102291761103 ], [ -0.642466374650377, 47.393223148309701 ], [ -0.642185876309815, 47.393085231345601 ], [ -0.641952082876353, 47.392933503997398 ], [ -0.641805809600965, 47.392835446037999 ], [ -0.641547884445696, 47.392670325991404 ], [ -0.64126379163578, 47.392514586454503 ], [ -0.641108584887571, 47.392437354113603 ], [ -0.640819684213875, 47.392298706054703 ], [ -0.640762865067186, 47.392249570689998 ], [ -0.64059314196831, 47.392089525167798 ], [ -0.64074639696921, 47.391981810744198 ], [ -0.640879060347915, 47.391887447690102 ], [ -0.641050213979113, 47.391759977234202 ], [ -0.640981304050273, 47.391706715029201 ], [ -0.640220380922916, 47.391171564877702 ], [ -0.640140941931736, 47.391121515785898 ], [ -0.639645638311927, 47.390808107308899 ], [ -0.63925115746303, 47.390562550658402 ], [ -0.638962836913808, 47.3908249872214 ], [ -0.638452376898266, 47.391300564701403 ], [ -0.638074533051577, 47.391649880219198 ], [ -0.638044777693168, 47.391635762454797 ], [ -0.63802018918993, 47.391674290934297 ], [ -0.637855587100108, 47.391603206148297 ], [ -0.638231963521533, 47.391279169824202 ], [ -0.638517386033292, 47.391032596384903 ], [ -0.6383016978911, 47.390859928975999 ], [ -0.63819402819512, 47.390763451609601 ], [ -0.638091223444677, 47.390642850941703 ], [ -0.637737514594161, 47.390518841061301 ], [ -0.637391668493299, 47.390401162486299 ], [ -0.637341459835276, 47.390392641221503 ] ] ], [ [ [ -0.64481514124844, 47.389611347363498 ], [ -0.644829080965104, 47.389560715191401 ], [ -0.644857144968229, 47.389518741717602 ], [ -0.644889781501342, 47.389424988028402 ], [ -0.644975009302454, 47.389183595739901 ], [ -0.645067529622945, 47.388946029808103 ], [ -0.645158779681378, 47.388736619972299 ], [ -0.645251534450023, 47.388494720846403 ], [ -0.645329090993838, 47.388247891429103 ], [ -0.645409403375949, 47.388066940804002 ], [ -0.64575672302494, 47.388159406958003 ], [ -0.645927207581163, 47.388221374531099 ], [ -0.646043519909283, 47.388271163849303 ], [ -0.646103284311021, 47.388332370061001 ], [ -0.646278722906895, 47.388502231531398 ], [ -0.646317473816857, 47.3886270886143 ], [ -0.646417289376298, 47.388806892895701 ], [ -0.646511572194752, 47.388958033415399 ], [ -0.646589586504866, 47.389061201696897 ], [ -0.646815744772191, 47.389321119228903 ], [ -0.647042012599169, 47.389574814873498 ], [ -0.64710278656116, 47.3897872947528 ], [ -0.647108124732234, 47.389877424055598 ], [ -0.647112829055717, 47.389923145756001 ], [ -0.647128817361892, 47.389988429042099 ], [ -0.647163582462102, 47.390072227670203 ], [ -0.647284243884544, 47.390248222859398 ], [ -0.647330807793761, 47.390300650963198 ], [ -0.647438047996793, 47.390408128085099 ], [ -0.647536695625223, 47.3904965898951 ], [ -0.647676361338281, 47.390624226325599 ], [ -0.647818441228464, 47.390746379813798 ], [ -0.64785939030285, 47.390788440350498 ], [ -0.647893717778956, 47.3908248511758 ], [ -0.647930993412956, 47.3908811753262 ], [ -0.647953249199784, 47.390925444803997 ], [ -0.647966020658587, 47.390961000377303 ], [ -0.647964683444112, 47.391007632654699 ], [ -0.647955908451075, 47.391056120539503 ], [ -0.64794136908087, 47.391095957965 ], [ -0.647903940586835, 47.391148499491798 ], [ -0.647863302649388, 47.391194833597901 ], [ -0.647828887121409, 47.391229257182601 ], [ -0.647742300216224, 47.391288748900401 ], [ -0.647692531086091, 47.391335459707598 ], [ -0.647650975865333, 47.391380020189402 ], [ -0.647617818855203, 47.391430985645798 ], [ -0.647593376761536, 47.391496907217899 ], [ -0.647584840454795, 47.3915333119362 ], [ -0.647583093752652, 47.391564186639101 ], [ -0.647612288951214, 47.391612924392703 ], [ -0.647691204949629, 47.391709755535601 ], [ -0.647713688355016, 47.391747619624901 ], [ -0.647725644696408, 47.391780947886801 ], [ -0.647733628055972, 47.391829991038001 ], [ -0.647736781709588, 47.3918665694843 ], [ -0.647724187057022, 47.391901839977898 ], [ -0.647704596854773, 47.391941565554497 ], [ -0.647508800636941, 47.392237076145001 ], [ -0.647404326946605, 47.392380847261499 ], [ -0.647385032816652, 47.392411281466003 ], [ -0.647343017267248, 47.392646002110801 ], [ -0.647311373205431, 47.392859580245997 ], [ -0.647299487491935, 47.392899424351697 ], [ -0.647286822738274, 47.392931723120597 ], [ -0.64726815433696, 47.392967454523699 ], [ -0.647242305978863, 47.392999085692303 ], [ -0.647083098647207, 47.393114745786697 ], [ -0.64693781538814, 47.393204916248798 ], [ -0.646685993362058, 47.393361781907203 ], [ -0.646714985590098, 47.393282741074103 ], [ -0.64672202682324, 47.393039115504799 ], [ -0.646717471831294, 47.3929546390805 ], [ -0.646711738332643, 47.392882095014301 ], [ -0.646738839898195, 47.392872773528701 ], [ -0.64670916743879, 47.3928170214784 ], [ -0.646701643693242, 47.392817618063198 ], [ -0.646680278908817, 47.392665541107803 ], [ -0.646644121547483, 47.392537899363099 ], [ -0.646604914048462, 47.392427835926803 ], [ -0.646576148369993, 47.3923698024741 ], [ -0.646513045210733, 47.392277160458796 ], [ -0.646461067861752, 47.392207599558603 ], [ -0.646356984107671, 47.3921036271785 ], [ -0.646172501103975, 47.3919199913515 ], [ -0.645942392973563, 47.3916879524362 ], [ -0.645802092298776, 47.391550961833303 ], [ -0.645737689463959, 47.391484043414103 ], [ -0.645681736041889, 47.391398926679599 ], [ -0.645610882241627, 47.391283998274801 ], [ -0.64550847793767, 47.391111033393798 ], [ -0.645375016743252, 47.390879475774902 ], [ -0.645267899373916, 47.390699629475201 ], [ -0.645232663319877, 47.390634228923602 ], [ -0.645205548135489, 47.3905750619857 ], [ -0.645155724456467, 47.390390804803999 ], [ -0.645113729299944, 47.390192874648903 ], [ -0.645094288649539, 47.390100213934602 ], [ -0.645072122690814, 47.390014307332201 ], [ -0.645043386130781, 47.390019083825997 ], [ -0.644921649442944, 47.389854474951399 ], [ -0.644856580719682, 47.389736751269098 ], [ -0.644827562647581, 47.389659350286699 ], [ -0.64481514124844, 47.389611347363498 ] ] ], [ [ [ -0.644778188543403, 47.391801345425002 ], [ -0.645295993975908, 47.391633436193203 ], [ -0.645560571744204, 47.391541237195902 ], [ -0.645673075417803, 47.391509591103201 ], [ -0.645940691341828, 47.391787764781803 ], [ -0.646080858836848, 47.391928634421603 ], [ -0.64635386572728, 47.392184559530499 ], [ -0.646426582062425, 47.392272213894898 ], [ -0.646493022352611, 47.392367094256898 ], [ -0.646541978467343, 47.392458558147503 ], [ -0.64659927839206, 47.3925829230391 ], [ -0.646621496296239, 47.392663691092899 ], [ -0.646641596288467, 47.392799136196999 ], [ -0.646675909380659, 47.393032272090799 ], [ -0.64667910618141, 47.393102642849598 ], [ -0.6466723015111, 47.393170353635902 ], [ -0.646662101018073, 47.393242766928601 ], [ -0.646640226412271, 47.393313293666502 ], [ -0.64660637438441, 47.393385277669402 ], [ -0.646580830256462, 47.393431137519201 ], [ -0.646559041443208, 47.393460027737099 ], [ -0.646425166846981, 47.393542359802296 ], [ -0.646012568392139, 47.393671016009598 ], [ -0.645802926319689, 47.393324427473097 ], [ -0.645631943585173, 47.393042771160097 ], [ -0.645447939608121, 47.3927530521809 ], [ -0.645316096169829, 47.392551182209402 ], [ -0.645157788352217, 47.392334822502498 ], [ -0.644930024683391, 47.3920143039512 ], [ -0.644778188543403, 47.391801345425002 ] ] ] ] } }
]
}
