{
"type": "FeatureCollection",
"name": "Fiefs-Vendéens-Pissotte",
"crs": { "type": "name", "properties": { "name": "urn:ogc:def:crs:OGC:1.3:CRS84" } },
"features": [
{ "type": "Feature", "properties": { "Name": null, "id": "" }, "geometry": { "type": "MultiPolygon", "coordinates": [ [ [ [ -0.812903681231842, 46.499042856801402 ], [ -0.812958786702713, 46.499057812789196 ], [ -0.813188201581397, 46.499110521004901 ], [ -0.813423208295925, 46.4991651516536 ], [ -0.813528566198808, 46.499189879198397 ], [ -0.813643141543089, 46.499225062914 ], [ -0.813751338071926, 46.499258449089901 ], [ -0.813973470628439, 46.499327202176403 ], [ -0.814055056177786, 46.499355652671902 ], [ -0.814089016884928, 46.499368041527603 ], [ -0.814430164086381, 46.499490048092099 ], [ -0.814101793103375, 46.4998414802184 ], [ -0.814023466062232, 46.4999250496926 ], [ -0.814010925264404, 46.4999383597833 ], [ -0.814065564505461, 46.499963049023002 ], [ -0.814122741775738, 46.4999889336463 ], [ -0.814185628110346, 46.500018792597601 ], [ -0.814503446929515, 46.500161257601498 ], [ -0.814499986253034, 46.500164411196103 ], [ -0.814992405244845, 46.500383172569201 ], [ -0.815022783090881, 46.500356312220099 ], [ -0.815182607019109, 46.500429857096201 ], [ -0.815261397587488, 46.500461798790397 ], [ -0.815077184250273, 46.500628353996703 ], [ -0.814832266286687, 46.500811720279202 ], [ -0.814549954669433, 46.501033836822799 ], [ -0.814337936430995, 46.501220250467 ], [ -0.81414687688218, 46.501408064540001 ], [ -0.813894464246903, 46.501516349326401 ], [ -0.813737286729507, 46.501679448415402 ], [ -0.813577031302225, 46.501809591947698 ], [ -0.813390201599929, 46.501942632469103 ], [ -0.813307817250955, 46.501992539438298 ], [ -0.812934516546213, 46.502197196996399 ], [ -0.812721078403335, 46.502062729590598 ], [ -0.812492688729192, 46.501947043118697 ], [ -0.812258330463833, 46.5021195755929 ], [ -0.812100405877351, 46.502036055765998 ], [ -0.812052683322699, 46.502009106425 ], [ -0.811934139502141, 46.501959440053099 ], [ -0.811805903913316, 46.501906716261097 ], [ -0.811717824577323, 46.501874306770802 ], [ -0.811643158374889, 46.501852610336101 ], [ -0.811502159916877, 46.501818053486801 ], [ -0.811512037491032, 46.501694065290899 ], [ -0.81152044788139, 46.501650251321003 ], [ -0.811571140293236, 46.501476689402999 ], [ -0.811632890276245, 46.501273459834501 ], [ -0.811656325405323, 46.501117845468599 ], [ -0.811658272608957, 46.501061517908298 ], [ -0.81165468599044, 46.501024432658802 ], [ -0.811641358424164, 46.500987879706301 ], [ -0.811627952096891, 46.500956918678902 ], [ -0.811562911882365, 46.500835988558997 ], [ -0.811521881031683, 46.500708541987102 ], [ -0.81152014852943, 46.500703371081997 ], [ -0.811526124804849, 46.500550304401003 ], [ -0.811530648798229, 46.500479863545699 ], [ -0.811534044321627, 46.5004328542541 ], [ -0.811540206824674, 46.5003479527699 ], [ -0.811546345869943, 46.500179672342597 ], [ -0.811521676954072, 46.500071314621103 ], [ -0.811503920427532, 46.4999833886842 ], [ -0.811495440935249, 46.4999181595525 ], [ -0.811493609211797, 46.499877418771199 ], [ -0.811496516309256, 46.499799540382099 ], [ -0.811513483052963, 46.499510034643301 ], [ -0.811510880204233, 46.499465361998702 ], [ -0.811500214297225, 46.499373728746697 ], [ -0.811483731324757, 46.499305124539902 ], [ -0.811591721784981, 46.499076751023303 ], [ -0.811992459542648, 46.4991967676455 ], [ -0.812054974192938, 46.499215560665 ], [ -0.812073798555374, 46.499218727922198 ], [ -0.812235015715602, 46.498891738639401 ], [ -0.812435527506605, 46.498936253446203 ], [ -0.81267483778867, 46.498991030465 ], [ -0.812903681231842, 46.499042856801402 ] ], [ [ -0.814992405244845, 46.500383172569201 ], [ -0.813915740246034, 46.501312449847099 ], [ -0.813931595895487, 46.501320565993602 ], [ -0.815020236935342, 46.500395459306297 ], [ -0.814992405244845, 46.500383172569201 ] ] ], [ [ [ -0.798696756809506, 46.4989049742668 ], [ -0.798753344186087, 46.498787710787703 ], [ -0.79876318750084, 46.498766369716002 ], [ -0.798909578181402, 46.4986326700609 ], [ -0.799016515076539, 46.498533565176103 ], [ -0.799397387277319, 46.498182164286298 ], [ -0.799489489354443, 46.4980972368786 ], [ -0.799531626553126, 46.498133716374298 ], [ -0.799737241361302, 46.498307402583002 ], [ -0.799769995484107, 46.498321269065499 ], [ -0.799882148037216, 46.498369050511101 ], [ -0.799901549377529, 46.4983776996621 ], [ -0.799959741848551, 46.498403106584497 ], [ -0.799979032269133, 46.498411849561499 ], [ -0.800080289692359, 46.498456143802898 ], [ -0.800088708831766, 46.4984574413998 ], [ -0.80026701349648, 46.498476662588999 ], [ -0.800358749635447, 46.4984870074979 ], [ -0.801067358312962, 46.498565151155901 ], [ -0.801112656129766, 46.498570567648301 ], [ -0.801229218699963, 46.498602010271803 ], [ -0.801333050017172, 46.4986300359895 ], [ -0.801425794832236, 46.498655392442103 ], [ -0.801434388267738, 46.498661993945802 ], [ -0.801528852790775, 46.498735198523498 ], [ -0.801842243415106, 46.498977586109703 ], [ -0.801868230837169, 46.498998483465698 ], [ -0.801910865584644, 46.499032331264601 ], [ -0.801943571656016, 46.499054474476502 ], [ -0.802130284697216, 46.499176192479901 ], [ -0.802203098480097, 46.499213173765902 ], [ -0.802327573247863, 46.499273037601903 ], [ -0.802401987398366, 46.499308441984603 ], [ -0.802576342208167, 46.499394655027402 ], [ -0.802721153872875, 46.499479353941702 ], [ -0.802737642271151, 46.499498439736001 ], [ -0.802808601879722, 46.499575616938102 ], [ -0.802936766268889, 46.499715067563002 ], [ -0.803053344949784, 46.499841327172703 ], [ -0.803160292863198, 46.499956782793603 ], [ -0.803209820451474, 46.500010431947402 ], [ -0.803244621972419, 46.500048551688202 ], [ -0.803256176408086, 46.500061283839798 ], [ -0.803366650652329, 46.500181237569599 ], [ -0.803372335538555, 46.500186935099599 ], [ -0.803409858659611, 46.500218221016098 ], [ -0.803490932476526, 46.500285225854498 ], [ -0.80353950836689, 46.500324671950501 ], [ -0.803615382017801, 46.5003874955936 ], [ -0.80355743999751, 46.5004205260257 ], [ -0.80340262104792, 46.500509888346301 ], [ -0.803628968045199, 46.500649243279 ], [ -0.803770849673658, 46.500737527337698 ], [ -0.803807926130993, 46.500760723565698 ], [ -0.804564330194692, 46.501114321267202 ], [ -0.804145590064936, 46.501487500386098 ], [ -0.804424889363273, 46.5017576558974 ], [ -0.804098814565974, 46.501956645397001 ], [ -0.803933599647428, 46.501810207680798 ], [ -0.803160450859927, 46.501108699095703 ], [ -0.803105332901988, 46.501059698372501 ], [ -0.802876995124263, 46.500856474633999 ], [ -0.802837807673003, 46.500821358490903 ], [ -0.802792941660905, 46.500780634716897 ], [ -0.802660007728204, 46.500660228937903 ], [ -0.802493683627831, 46.500512374876301 ], [ -0.802246007378213, 46.5002905015983 ], [ -0.802155974926929, 46.500212579447897 ], [ -0.802127044760913, 46.500181512038303 ], [ -0.802065693851631, 46.500135206404202 ], [ -0.802013101562377, 46.500111894899597 ], [ -0.801942197391513, 46.500105663006103 ], [ -0.801883511610463, 46.500112141256501 ], [ -0.801787117342536, 46.500129565242702 ], [ -0.801693784528864, 46.500159246771801 ], [ -0.801601227398881, 46.500191065999402 ], [ -0.801593676369719, 46.5001891175895 ], [ -0.801471082164883, 46.500254083377797 ], [ -0.801273369368071, 46.500381903197898 ], [ -0.801134573419427, 46.500471008723501 ], [ -0.800953447863816, 46.500585673230198 ], [ -0.800899028212002, 46.500623372011503 ], [ -0.800852554574165, 46.500687770123299 ], [ -0.800804766863528, 46.500758783814298 ], [ -0.800773962550026, 46.500844008026597 ], [ -0.800758247734569, 46.500890092264598 ], [ -0.800710686333298, 46.501023680074802 ], [ -0.800696700830291, 46.501061431063597 ], [ -0.8006909873885, 46.501109219982602 ], [ -0.800695029492906, 46.501169972417202 ], [ -0.800706209117198, 46.501207841910599 ], [ -0.800724476011928, 46.501253174412597 ], [ -0.800740090580197, 46.501284252372599 ], [ -0.800781056198845, 46.5013454353386 ], [ -0.800847968302098, 46.501445069343099 ], [ -0.801040738256205, 46.501734554125299 ], [ -0.801110605927747, 46.501840048555998 ], [ -0.801235694272749, 46.5020280226341 ], [ -0.801279075253288, 46.502092559789901 ], [ -0.801477201047947, 46.502397741089403 ], [ -0.801523145016067, 46.502466258636801 ], [ -0.799568456349533, 46.502580224943401 ], [ -0.799541200432368, 46.502541898297899 ], [ -0.799293154511225, 46.502216575771001 ], [ -0.799248194800222, 46.502153704103002 ], [ -0.799106253785677, 46.501965468048397 ], [ -0.79902748585336, 46.5018547242571 ], [ -0.798942089405469, 46.501721744619303 ], [ -0.798942988750735, 46.501716855672498 ], [ -0.798971158684277, 46.5015726448461 ], [ -0.798987554511917, 46.5014999802967 ], [ -0.799003603307578, 46.501430203042801 ], [ -0.799043117123794, 46.501254342228599 ], [ -0.79914224558074, 46.500792303582799 ], [ -0.799173065297574, 46.500657650520303 ], [ -0.799172555027551, 46.500646588137997 ], [ -0.799177437403391, 46.500640782451299 ], [ -0.79935734491132, 46.500430341687597 ], [ -0.799463571179303, 46.500296669840502 ], [ -0.799492981638345, 46.500261822748797 ], [ -0.79949772163713, 46.500255661183097 ], [ -0.799526963669435, 46.500218025052597 ], [ -0.799562335571037, 46.500175812828203 ], [ -0.798721643801588, 46.499786600258503 ], [ -0.798338514517958, 46.499607535874098 ], [ -0.798371743604846, 46.499544129052701 ], [ -0.79845006224111, 46.499394573067903 ], [ -0.798486431046648, 46.499324336686499 ], [ -0.798504791017394, 46.499290145698303 ], [ -0.798528716640765, 46.4992483413724 ], [ -0.798561342982194, 46.499179103827103 ], [ -0.798621478530216, 46.499048686887797 ], [ -0.798652646758509, 46.498976513841697 ], [ -0.798663730504545, 46.498951805032299 ], [ -0.798669735125256, 46.498938317390802 ], [ -0.798675249330406, 46.4989299665339 ], [ -0.798682060938339, 46.498921500422398 ], [ -0.798696756809506, 46.4989049742668 ] ] ], [ [ [ -0.809994253105034, 46.505638410325297 ], [ -0.810197417108466, 46.5055747246507 ], [ -0.811052722719317, 46.505298145823403 ], [ -0.812728075866405, 46.504247876523401 ], [ -0.812803985794253, 46.504546787166603 ], [ -0.81282037804354, 46.504611436672803 ], [ -0.8128625453399, 46.504773877258799 ], [ -0.812865403644905, 46.504784870332401 ], [ -0.812945731006789, 46.5050948301338 ], [ -0.812943706108764, 46.505107311354699 ], [ -0.81294045654637, 46.505127478159402 ], [ -0.812928752516716, 46.505438182982701 ], [ -0.812913756029082, 46.505788591515298 ], [ -0.812912815597969, 46.505810412144598 ], [ -0.812905956729359, 46.5062022885527 ], [ -0.812903371162339, 46.506222802809098 ], [ -0.812902467129023, 46.506229846641801 ], [ -0.812888261503051, 46.506306326081003 ], [ -0.812863819753918, 46.506388402805598 ], [ -0.812854118812945, 46.506414518398898 ], [ -0.812847814217232, 46.5064317040001 ], [ -0.81278640361946, 46.506551002081999 ], [ -0.812766455370185, 46.506587033500999 ], [ -0.812757776499173, 46.5066081657477 ], [ -0.812733942897451, 46.506676176775301 ], [ -0.812717479919155, 46.5067407415495 ], [ -0.812706349153617, 46.5067938145908 ], [ -0.812697062147551, 46.5068831204822 ], [ -0.812694743257432, 46.506921998389501 ], [ -0.81269334479373, 46.506933917797198 ], [ -0.812690964468942, 46.506955687293797 ], [ -0.812699108767877, 46.5070151579298 ], [ -0.812716461531376, 46.507089232125999 ], [ -0.812884588825491, 46.507566041869097 ], [ -0.812920245458504, 46.507670309547997 ], [ -0.812936738141373, 46.507718656576998 ], [ -0.812944901543492, 46.507742391123401 ], [ -0.81298225350814, 46.507848864983799 ], [ -0.813029581870057, 46.507983520379803 ], [ -0.813043322185776, 46.508022574626096 ], [ -0.813060783145219, 46.508069455948501 ], [ -0.813072152426924, 46.508090117582697 ], [ -0.811549866923966, 46.508658479692201 ], [ -0.811388282881175, 46.508613421167802 ], [ -0.811321520002885, 46.508595643602099 ], [ -0.81114429789309, 46.508546157076999 ], [ -0.811129856114269, 46.5085424106869 ], [ -0.81107315995642, 46.508527055838798 ], [ -0.811053449995759, 46.508522286138998 ], [ -0.810987780321923, 46.508507627171703 ], [ -0.810681028123462, 46.508435261376597 ], [ -0.81067439376631, 46.508433373102399 ], [ -0.810417715326026, 46.5083315166126 ], [ -0.810323172050624, 46.5082934435327 ], [ -0.810313577196141, 46.508289923075203 ], [ -0.810296826456798, 46.508282097666601 ], [ -0.81009776842321, 46.508189011008398 ], [ -0.809978162366192, 46.508132535321003 ], [ -0.809971224405016, 46.508129665482599 ], [ -0.809655007341756, 46.508001999219502 ], [ -0.809636959817161, 46.507994298086501 ], [ -0.809568195221435, 46.507962252460203 ], [ -0.809508976496355, 46.507935081196599 ], [ -0.809293189945426, 46.507836871453399 ], [ -0.809155037106491, 46.507777479333299 ], [ -0.80902011902546, 46.5077221441516 ], [ -0.808951945802797, 46.507693504154702 ], [ -0.808915479419317, 46.5076785738175 ], [ -0.808838953368573, 46.507647552750598 ], [ -0.808818976407842, 46.507638022660998 ], [ -0.808805142512161, 46.507631199653602 ], [ -0.808591341714442, 46.507546976817302 ], [ -0.808514878458581, 46.507517035248803 ], [ -0.808520797514849, 46.507385057133703 ], [ -0.808524440549792, 46.5073038190082 ], [ -0.808533091122124, 46.507118092739297 ], [ -0.808539094581471, 46.506980973264298 ], [ -0.808539471952248, 46.506953501083103 ], [ -0.808540156627173, 46.506897928007298 ], [ -0.808538174149838, 46.506868262703001 ], [ -0.80853631760499, 46.506840585510297 ], [ -0.808529456023056, 46.5067629789284 ], [ -0.808525959585824, 46.506751998028903 ], [ -0.808520619417257, 46.506718378878297 ], [ -0.808518779266678, 46.506706810893803 ], [ -0.808540566258268, 46.506666599186403 ], [ -0.808552814466022, 46.5066438338377 ], [ -0.808716458889774, 46.506427708733597 ], [ -0.808819756387269, 46.506288527275501 ], [ -0.808834630834783, 46.506273075646298 ], [ -0.808863997785255, 46.506224010922999 ], [ -0.80887310103377, 46.506205380051398 ], [ -0.808901428110229, 46.506147605450799 ], [ -0.808903219580652, 46.506142416216399 ], [ -0.808911149496623, 46.506119515292099 ], [ -0.809309360026086, 46.505915745847098 ], [ -0.809554751370404, 46.505802423544701 ], [ -0.809994225795611, 46.5056383932058 ], [ -0.809994253105034, 46.505638410325297 ] ], [ [ -0.809994253105034, 46.505638410325297 ], [ -0.80999420163113, 46.505638421056503 ], [ -0.810128989990377, 46.505748525313699 ], [ -0.809994253105034, 46.505638410325297 ] ] ], [ [ [ -0.801220549438162, 46.500483131309402 ], [ -0.801524136037983, 46.5002944901332 ], [ -0.801635365251067, 46.500238024891999 ], [ -0.801822645807106, 46.500175684498302 ], [ -0.801876739573219, 46.500164013214999 ], [ -0.80192472886669, 46.500157467190498 ], [ -0.801964883767842, 46.500159691944702 ], [ -0.80198295776107, 46.500165581291398 ], [ -0.801999574433425, 46.500170978231502 ], [ -0.802030598783784, 46.500184351765498 ], [ -0.802101822648443, 46.5002458616379 ], [ -0.802178999458045, 46.5003154130372 ], [ -0.802296025759812, 46.5004179762281 ], [ -0.802360395395818, 46.500477974165399 ], [ -0.802654377919228, 46.500743047325301 ], [ -0.802820690618054, 46.500892965988299 ], [ -0.802929857286002, 46.500990435305802 ], [ -0.803047403557774, 46.501097226546797 ], [ -0.803484109146473, 46.5014898237092 ], [ -0.803573005278916, 46.501570297928303 ], [ -0.803681430365571, 46.501668512489204 ], [ -0.803819730822975, 46.501793723833302 ], [ -0.804015012607776, 46.501966169526597 ], [ -0.804032072978234, 46.501986137619703 ], [ -0.804352073985388, 46.502360341172697 ], [ -0.804490825573433, 46.502522813624601 ], [ -0.80468912957644, 46.5027586590341 ], [ -0.804715502308687, 46.502802044329201 ], [ -0.804729606830951, 46.502833893304 ], [ -0.804735019188934, 46.502868772253599 ], [ -0.804731592856881, 46.502892992337799 ], [ -0.804712695822399, 46.502929176552797 ], [ -0.804685536158339, 46.502978094556298 ], [ -0.804644824930845, 46.503022712893497 ], [ -0.804618205582056, 46.5030425396521 ], [ -0.804581563583536, 46.503058309836803 ], [ -0.804123026828779, 46.503181287109697 ], [ -0.804049711274819, 46.503207707690102 ], [ -0.803924906611287, 46.503254908946403 ], [ -0.80378288191356, 46.503315205066102 ], [ -0.803673596570223, 46.503369092352898 ], [ -0.803625963960584, 46.503402104056399 ], [ -0.803598177221227, 46.503426909609999 ], [ -0.803568486067598, 46.503450056692998 ], [ -0.803522129262999, 46.503471423640399 ], [ -0.80347573968973, 46.503487833436402 ], [ -0.80342215126109, 46.503499118937697 ], [ -0.803382106587754, 46.503501127969599 ], [ -0.803310832905974, 46.503499768132997 ], [ -0.803213421129304, 46.503510925546401 ], [ -0.803172464915849, 46.503519888323602 ], [ -0.803135630052524, 46.503532157623901 ], [ -0.803084730015234, 46.503554090286698 ], [ -0.802881055554054, 46.503664703102203 ], [ -0.802787427336369, 46.5037051950601 ], [ -0.802702893445436, 46.503736071846099 ], [ -0.802529410555287, 46.503782457427597 ], [ -0.802460403245143, 46.5037956168227 ], [ -0.802383007266764, 46.503807928452702 ], [ -0.80224544921307, 46.503819465351498 ], [ -0.802152739054322, 46.503787815698701 ], [ -0.801959747847857, 46.503267106577198 ], [ -0.80177203077954, 46.502758689390099 ], [ -0.801741614176891, 46.502679206992603 ], [ -0.801662872777283, 46.502539562035103 ], [ -0.801659670114357, 46.502533890013602 ], [ -0.80157122583529, 46.502402618169398 ], [ -0.801533853025455, 46.502346923201998 ], [ -0.801264699518874, 46.5019432097465 ], [ -0.801160301579381, 46.5017838369317 ], [ -0.80104630220231, 46.501609773567303 ], [ -0.800956049886762, 46.501476307737398 ], [ -0.800878264397272, 46.501360042331598 ], [ -0.800793919936145, 46.501234150747898 ], [ -0.800766986442319, 46.5011516043987 ], [ -0.800769722690198, 46.501072740851797 ], [ -0.800817441024769, 46.5009509483491 ], [ -0.800881530843876, 46.500773962657199 ], [ -0.800898048525108, 46.500748559004698 ], [ -0.800928195819856, 46.5007036984601 ], [ -0.800957164628957, 46.500668144466999 ], [ -0.801007314109107, 46.500624439522497 ], [ -0.801220549438162, 46.500483131309402 ] ] ], [ [ [ -0.805282720755398, 46.503889579942502 ], [ -0.805672210439059, 46.503954633038902 ], [ -0.805687624636124, 46.5039571847514 ], [ -0.805773120958943, 46.503961035350997 ], [ -0.805753400010772, 46.503978505079402 ], [ -0.805733183166054, 46.503996351918502 ], [ -0.804826475885668, 46.504813236917499 ], [ -0.804848592992541, 46.504823525765701 ], [ -0.805253853707694, 46.504989798148401 ], [ -0.80582811545049, 46.505180586601703 ], [ -0.805547195297835, 46.505576341650801 ], [ -0.805409900476001, 46.505770209970798 ], [ -0.805322492551355, 46.505884455482303 ], [ -0.805278258251609, 46.505940342789302 ], [ -0.805258290190696, 46.505966997850699 ], [ -0.805203361985594, 46.506038575671496 ], [ -0.805161123353723, 46.506090700336799 ], [ -0.805129723108638, 46.5061293923916 ], [ -0.80510040067925, 46.5061679250976 ], [ -0.805068132150898, 46.506209702114099 ], [ -0.805005107070074, 46.506290230833798 ], [ -0.804932281317762, 46.5063859695342 ], [ -0.803083688577854, 46.5057263030724 ], [ -0.803049814088139, 46.505589294478398 ], [ -0.803021343016615, 46.505475824362399 ], [ -0.80300745058174, 46.505418392747899 ], [ -0.802995037527791, 46.505368313166002 ], [ -0.802983428716069, 46.505309741784899 ], [ -0.802962043869865, 46.505228579769202 ], [ -0.802935826885375, 46.5051294404998 ], [ -0.802926226979158, 46.5050919783598 ], [ -0.802902822920894, 46.504998533063102 ], [ -0.802882424332158, 46.504916346569502 ], [ -0.802870719221515, 46.504835817981302 ], [ -0.802870890431342, 46.504726046325899 ], [ -0.802883727745358, 46.504693363626899 ], [ -0.802894570349219, 46.5046734403522 ], [ -0.80296235889308, 46.5045807103157 ], [ -0.802974512220876, 46.504567594767003 ], [ -0.803312616191072, 46.504202135480398 ], [ -0.803355183766042, 46.504151352784497 ], [ -0.803391434036273, 46.5040972284527 ], [ -0.803416081466069, 46.504045401481001 ], [ -0.803461420268677, 46.503952219342302 ], [ -0.803491835849252, 46.503862770283398 ], [ -0.803545622325813, 46.5036656259757 ], [ -0.803583411179432, 46.503583990810199 ], [ -0.803605189446212, 46.5035525970127 ], [ -0.803628557187148, 46.5035260183733 ], [ -0.803674426917254, 46.5034847716014 ], [ -0.803746378227365, 46.503432631965602 ], [ -0.803760474847061, 46.503425852241598 ], [ -0.803836456046834, 46.503389174258899 ], [ -0.804001091255593, 46.503322869637501 ], [ -0.804139035860215, 46.503272950061799 ], [ -0.80415689816122, 46.5032684969851 ], [ -0.804651683887727, 46.503145610786198 ], [ -0.804660164768597, 46.503143480333897 ], [ -0.804710882734846, 46.503118767375298 ], [ -0.804738564033963, 46.503099004399701 ], [ -0.804763233449099, 46.503070137434698 ], [ -0.804797118165445, 46.503017876306103 ], [ -0.804838287300518, 46.503186203001398 ], [ -0.804860687758365, 46.503332166514603 ], [ -0.804881461486511, 46.503632430104098 ], [ -0.804893296978388, 46.503672350886603 ], [ -0.804945307279933, 46.503739790771903 ], [ -0.80497528883526, 46.503761933807901 ], [ -0.805037449902433, 46.503797312008899 ], [ -0.805173789233711, 46.503859365357798 ], [ -0.805282720755398, 46.503889579942502 ] ] ], [ [ [ -0.813866888081223, 46.503278180351401 ], [ -0.814381424887667, 46.503105000513301 ], [ -0.814425215126663, 46.503084517024398 ], [ -0.814702741964075, 46.502954820611102 ], [ -0.814724873537824, 46.502944228338499 ], [ -0.816121321432858, 46.504158286394301 ], [ -0.815386025669228, 46.504548381221497 ], [ -0.81505514466966, 46.5047561814741 ], [ -0.814746772520171, 46.504949850968202 ], [ -0.814289189409678, 46.505237253047497 ], [ -0.8141049925532, 46.505352843541203 ], [ -0.814052529931929, 46.505385804586297 ], [ -0.813871228925636, 46.505499693339601 ], [ -0.813853582961379, 46.505485416551501 ], [ -0.813665748922867, 46.505334211477901 ], [ -0.813344676944457, 46.505064154410597 ], [ -0.812997602041291, 46.504793368572599 ], [ -0.812916915308672, 46.504533490096698 ], [ -0.812859521201833, 46.504319694320301 ], [ -0.8128119668574, 46.504136239221701 ], [ -0.812779002645772, 46.503975078177298 ], [ -0.812715983813328, 46.5036642883314 ], [ -0.812752196999455, 46.503620961914898 ], [ -0.812939508360604, 46.503563722806597 ], [ -0.813018312503442, 46.503539664492799 ], [ -0.813426722866369, 46.503413825408302 ], [ -0.813629387714807, 46.5033513849164 ], [ -0.813672672227859, 46.503338031450802 ], [ -0.813771700197395, 46.503307464899301 ], [ -0.813866888081223, 46.503278180351401 ] ] ] ] } }
]
}
