{
"type": "FeatureCollection",
"name": "Fiefs-Vendéens-Chantonnay",
"crs": { "type": "name", "properties": { "name": "urn:ogc:def:crs:OGC:1.3:CRS84" } },
"features": [
{ "type": "Feature", "properties": { "Name": null, "id": "" }, "geometry": { "type": "MultiPolygon", "coordinates": [ [ [ [ -1.07463645975448, 46.634361363712003 ], [ -1.07472104271381, 46.634259599268297 ], [ -1.0750098567904, 46.633911907581997 ], [ -1.07494352093095, 46.6338776888052 ], [ -1.07475606617785, 46.633749474848699 ], [ -1.07500506457427, 46.633626487633101 ], [ -1.07536233963571, 46.633474951407003 ], [ -1.0758056941619, 46.633320386708697 ], [ -1.07595937027456, 46.633269412442502 ], [ -1.07625365758111, 46.633157848061899 ], [ -1.07611961568177, 46.633538471459602 ], [ -1.07607350431136, 46.633723467641602 ], [ -1.07606984970355, 46.633792013238697 ], [ -1.07608166850142, 46.6339234106158 ], [ -1.07611695050853, 46.634074277596703 ], [ -1.07618555647888, 46.634376423838603 ], [ -1.076219476351, 46.634561997849701 ], [ -1.07621576467268, 46.634641996149099 ], [ -1.07618407259371, 46.634860786060301 ], [ -1.07612536366023, 46.635121804963703 ], [ -1.07608507648872, 46.635295467676698 ], [ -1.07607493543855, 46.635329540444303 ], [ -1.07608512152496, 46.635828670622303 ], [ -1.07605389353263, 46.635963790881299 ], [ -1.07602154155825, 46.636045710018898 ], [ -1.07576884858299, 46.636476979703602 ], [ -1.0754552281367, 46.6370640628651 ], [ -1.07539770851916, 46.6372176189181 ], [ -1.07534374389459, 46.6374376065286 ], [ -1.07531857582962, 46.637658453890197 ], [ -1.07532019632676, 46.637777456046599 ], [ -1.07533986076496, 46.638045594418202 ], [ -1.07539548048385, 46.638498522159701 ], [ -1.07532964704669, 46.638542817234203 ], [ -1.07412538307247, 46.638588661244498 ], [ -1.07412035394445, 46.6385088388623 ], [ -1.07388877429052, 46.638168345004601 ], [ -1.07378076065339, 46.638008307262403 ], [ -1.0736849460609, 46.637859250143997 ], [ -1.0735937383269, 46.6376796172773 ], [ -1.07359193779558, 46.6376260886789 ], [ -1.07356594779681, 46.637549869926197 ], [ -1.07370640422438, 46.636934383543299 ], [ -1.07382225089201, 46.636665167063597 ], [ -1.07404259475052, 46.636350776679102 ], [ -1.0742979326685, 46.6360647773895 ], [ -1.07446786170795, 46.635784403496203 ], [ -1.07447309305755, 46.635776138818798 ], [ -1.0744768996136, 46.635770169877901 ], [ -1.0745814869218, 46.635608366967801 ], [ -1.07458149997647, 46.635608366503298 ], [ -1.07471638445268, 46.635269145413403 ], [ -1.0746709254159, 46.634784371054103 ], [ -1.07463645975448, 46.634361363712003 ] ], [ [ -1.07458149997647, 46.635608366503298 ], [ -1.07458147858681, 46.635608430378198 ], [ -1.07464711897466, 46.6356083852951 ], [ -1.07458149997647, 46.635608366503298 ] ] ], [ [ [ -0.975076691483393, 46.646777568771199 ], [ -0.974796306319092, 46.646614611218702 ], [ -0.974731124407154, 46.646555908811798 ], [ -0.974921080271102, 46.646143099215003 ], [ -0.975155410895997, 46.645425904053603 ], [ -0.975302778098431, 46.645353461338303 ], [ -0.975708048829923, 46.645064338146298 ], [ -0.975849423238265, 46.645043302655402 ], [ -0.975874509662075, 46.6450410345739 ], [ -0.976390536581828, 46.645037936824401 ], [ -0.976549126524967, 46.645027293005398 ], [ -0.97678699484725, 46.644944386016199 ], [ -0.976953502187695, 46.645235618291402 ], [ -0.976962842871479, 46.6452493043912 ], [ -0.976975628751076, 46.645268208170798 ], [ -0.976786882774452, 46.645269278929298 ], [ -0.976791936935681, 46.645409342365298 ], [ -0.977075900316976, 46.645429993570602 ], [ -0.97716330942079, 46.645433396198101 ], [ -0.977212545679682, 46.645434481702203 ], [ -0.97725783704804, 46.645435505799199 ], [ -0.977362871338826, 46.645455245843998 ], [ -0.977276453024678, 46.645653877434697 ], [ -0.977458261787308, 46.645712532245099 ], [ -0.977499062831092, 46.645708365857601 ], [ -0.977560037085676, 46.6456450052831 ], [ -0.977563690344579, 46.6456106819548 ], [ -0.977565016077841, 46.645598212313402 ], [ -0.977633953621306, 46.645523999803402 ], [ -0.977663954343077, 46.6454758421729 ], [ -0.977727044095754, 46.645374506100602 ], [ -0.978569822685801, 46.645567837225101 ], [ -0.978293711884743, 46.6461829736689 ], [ -0.978252918762988, 46.646315270977503 ], [ -0.978215163106323, 46.646460805996398 ], [ -0.978245038876473, 46.646570607365902 ], [ -0.978288375201552, 46.646616434809602 ], [ -0.978329966662935, 46.6466956448049 ], [ -0.978422176555479, 46.6468666707541 ], [ -0.978440849410343, 46.6469003450092 ], [ -0.978425358386452, 46.646941949418597 ], [ -0.978607131682584, 46.647047061646099 ], [ -0.978745336720288, 46.647089594221903 ], [ -0.978895611794057, 46.647141237013003 ], [ -0.97877792937608, 46.647828037054403 ], [ -0.978699393174218, 46.6482748050773 ], [ -0.978539833804715, 46.648248737289101 ], [ -0.97856521251445, 46.648105985149797 ], [ -0.978162105901281, 46.648040176614103 ], [ -0.978094212617578, 46.648029091758403 ], [ -0.977808516667957, 46.6479824654757 ], [ -0.977582088664025, 46.6481686932865 ], [ -0.977568916098858, 46.648160793092103 ], [ -0.977557312319622, 46.648167705282802 ], [ -0.977546545023365, 46.648162795923803 ], [ -0.977522164775352, 46.648183134269701 ], [ -0.977070271025009, 46.647925124617402 ], [ -0.976987897626546, 46.647875927655903 ], [ -0.976910235413834, 46.647831354421598 ], [ -0.975076691483393, 46.646777568771199 ] ] ], [ [ [ -1.00858344160499, 46.641718670743202 ], [ -1.00917698498109, 46.640862072904198 ], [ -1.0098196804215, 46.640958478069997 ], [ -1.01007626596164, 46.6409892197929 ], [ -1.0101516226207, 46.641000520238997 ], [ -1.01028151307408, 46.641016429919901 ], [ -1.01032916363013, 46.641021424414703 ], [ -1.01038631503847, 46.6410301073429 ], [ -1.01050520521148, 46.641056418545901 ], [ -1.01059319345288, 46.641079592150703 ], [ -1.01064474161604, 46.641094827333802 ], [ -1.0107971274346, 46.641129792774699 ], [ -1.0108891142976, 46.641154286725502 ], [ -1.01096822889064, 46.641173398058903 ], [ -1.01103994748216, 46.641178676491599 ], [ -1.01116267614372, 46.641190832923002 ], [ -1.01122243785796, 46.641197278258304 ], [ -1.01090237247274, 46.641837379731797 ], [ -1.01066731014806, 46.6422075526485 ], [ -1.01046315336474, 46.642586794814598 ], [ -1.0102662516901, 46.642580687327801 ], [ -1.01019412447517, 46.642579119165298 ], [ -1.01017706979156, 46.642578264656699 ], [ -1.01010604940223, 46.642573601309202 ], [ -1.01001304326061, 46.642568670735201 ], [ -1.00985498173965, 46.642560436538602 ], [ -1.00983038372448, 46.642560071429401 ], [ -1.00979537625625, 46.642560737867299 ], [ -1.00970676637743, 46.642567662302604 ], [ -1.0095758807002, 46.642582485737499 ], [ -1.00952940976974, 46.642587817851002 ], [ -1.00923448425776, 46.642628704285102 ], [ -1.00917449701455, 46.642637493568699 ], [ -1.0089570676468, 46.642650170081701 ], [ -1.00869931831512, 46.642666384919302 ], [ -1.0085344311199, 46.642676708004998 ], [ -1.00827130795652, 46.642694786870599 ], [ -1.00818062364752, 46.642577408833098 ], [ -1.00802250678932, 46.642475246775398 ], [ -1.00819439317126, 46.6422819098647 ], [ -1.00852516128456, 46.641801690749702 ], [ -1.00858344160499, 46.641718670743202 ] ] ], [ [ [ -1.04274087588019, 46.640949809571701 ], [ -1.04253983768584, 46.640910823627799 ], [ -1.04240696287517, 46.640885047656099 ], [ -1.04263399934915, 46.640507213989999 ], [ -1.04278337310966, 46.640198596324304 ], [ -1.04288743249142, 46.640030984308801 ], [ -1.04294904571309, 46.6400418558813 ], [ -1.04314223130576, 46.640313128820502 ], [ -1.04337435579414, 46.640659248867699 ], [ -1.04344717059064, 46.6408097354144 ], [ -1.04348529375657, 46.640844264626502 ], [ -1.04331023499034, 46.6410998827849 ], [ -1.04291313014967, 46.641007293269197 ], [ -1.04274087588019, 46.640949809571701 ] ] ], [ [ [ -1.04706724979801, 46.6395009882837 ], [ -1.04709278558845, 46.639482666938299 ], [ -1.04717638076076, 46.6394020125298 ], [ -1.04720029575311, 46.639378978909001 ], [ -1.04727576141226, 46.6393062302648 ], [ -1.04739159462092, 46.639197424323498 ], [ -1.04794440836525, 46.639471615700899 ], [ -1.04847514852763, 46.639739885809597 ], [ -1.04847302167448, 46.639751925354901 ], [ -1.04846121667505, 46.639818196233399 ], [ -1.04844952880653, 46.639884282646697 ], [ -1.04842093840444, 46.640018677410403 ], [ -1.04841336865162, 46.640054297102701 ], [ -1.04841233811983, 46.640058913706902 ], [ -1.04845741164332, 46.640085315635901 ], [ -1.04859952358645, 46.640168812848401 ], [ -1.04871448226717, 46.640236265292501 ], [ -1.04881696060162, 46.6402964409885 ], [ -1.04885754242245, 46.640320179500002 ], [ -1.04892412215012, 46.640360436177097 ], [ -1.04906204183844, 46.640443693357298 ], [ -1.04924194489329, 46.6405522711418 ], [ -1.04948743234882, 46.640766597189398 ], [ -1.04964076178844, 46.640924683641202 ], [ -1.04935855346814, 46.641172334114401 ], [ -1.04937811999087, 46.641186158344901 ], [ -1.0494243058801, 46.641220265450698 ], [ -1.04951333383163, 46.641284711881802 ], [ -1.0489418869626, 46.641883052301203 ], [ -1.04875964430305, 46.641829212257903 ], [ -1.04873084095266, 46.641818094652301 ], [ -1.04863404584006, 46.641792240588302 ], [ -1.04860668577933, 46.641781342423698 ], [ -1.04845836452525, 46.641726131681899 ], [ -1.04821816689439, 46.641608990407498 ], [ -1.04813039557023, 46.641541541320002 ], [ -1.04799771998274, 46.6414374958796 ], [ -1.0477558658789, 46.641153812772203 ], [ -1.04757817457651, 46.641032559060697 ], [ -1.04716921072831, 46.640890526050804 ], [ -1.04640973022141, 46.640665060466901 ], [ -1.0457580200527, 46.6405029354597 ], [ -1.04537698677641, 46.640406261529101 ], [ -1.04512217124312, 46.640203364531402 ], [ -1.04491373235105, 46.640144258769602 ], [ -1.04386305715898, 46.640012241981204 ], [ -1.04385731347635, 46.639976750101503 ], [ -1.04418352682885, 46.639845237981298 ], [ -1.04452218835229, 46.639736952546897 ], [ -1.04478969997701, 46.6397037129571 ], [ -1.0448663944183, 46.639696487612802 ], [ -1.04492845472096, 46.639698064783303 ], [ -1.04534990878879, 46.639705468732302 ], [ -1.04591956289699, 46.639789069812501 ], [ -1.04598743790587, 46.639791559021702 ], [ -1.04609608355028, 46.639799775821402 ], [ -1.04622996093969, 46.639805974202602 ], [ -1.04648602220242, 46.639775776828102 ], [ -1.04674790146208, 46.639708749943402 ], [ -1.04690974812735, 46.639599761498097 ], [ -1.04696848592246, 46.639558484229198 ], [ -1.04706724979801, 46.6395009882837 ] ], [ [ -1.04731786879056, 46.640205135167299 ], [ -1.04606688900784, 46.639832606832599 ], [ -1.04603522892034, 46.639878210566302 ], [ -1.04598016656914, 46.639944954173302 ], [ -1.04593657962304, 46.640019370829698 ], [ -1.04647217251311, 46.6401584583149 ], [ -1.0476620600919, 46.6405217179923 ], [ -1.04806948194389, 46.640674523842598 ], [ -1.04807537351448, 46.640664343823403 ], [ -1.04809805429787, 46.640623510779001 ], [ -1.04821030425924, 46.640666373372902 ], [ -1.04823888024781, 46.640617343683502 ], [ -1.04826864047453, 46.640572789198899 ], [ -1.04828987340849, 46.640544151970801 ], [ -1.04804824068455, 46.640439476400701 ], [ -1.04731786879056, 46.640205135167299 ] ] ], [ [ [ -1.04415475619413, 46.640110848688003 ], [ -1.04420703420321, 46.640116765766699 ], [ -1.04488642523424, 46.640203160422899 ], [ -1.04507131469124, 46.640255758784797 ], [ -1.04531968259696, 46.6404578557691 ], [ -1.04536215859878, 46.640468022474202 ], [ -1.04575560962918, 46.640569018364701 ], [ -1.04637636404421, 46.640721156167103 ], [ -1.04713156880644, 46.640947205835403 ], [ -1.04741256471325, 46.641047832727601 ], [ -1.04613979199032, 46.641180155169202 ], [ -1.04605287229453, 46.641197407723801 ], [ -1.04604761247067, 46.641159293167 ], [ -1.04585388734651, 46.6411725102096 ], [ -1.04560217528666, 46.641195105024103 ], [ -1.04539360794098, 46.641213633024996 ], [ -1.0453142191373, 46.641223730754596 ], [ -1.0452756703124, 46.6412302763841 ], [ -1.04512085894802, 46.641255218273301 ], [ -1.04500579032824, 46.641284202225897 ], [ -1.04474654986534, 46.641345478503901 ], [ -1.04420835669863, 46.641495520983803 ], [ -1.0439147550523, 46.641193091795799 ], [ -1.04389714181126, 46.641174888039501 ], [ -1.04364907717799, 46.640931628000999 ], [ -1.04349310836351, 46.640789549709702 ], [ -1.04342433456838, 46.640645168681402 ], [ -1.04323441046461, 46.6403655132804 ], [ -1.04321641714603, 46.640339028061902 ], [ -1.04301938060095, 46.640054358032202 ], [ -1.0435847470375, 46.6400567790064 ], [ -1.04415475619413, 46.640110848688003 ] ] ], [ [ [ -1.0091912412874, 46.642802511058299 ], [ -1.00918680737284, 46.642684224741203 ], [ -1.00958471993486, 46.642625813170802 ], [ -1.00983925677028, 46.642604209095502 ], [ -1.01017014406617, 46.642622775067402 ], [ -1.01050040147998, 46.642633157694902 ], [ -1.01066787611219, 46.642647606969703 ], [ -1.01074887815594, 46.6426762994302 ], [ -1.01041394898472, 46.642869380103598 ], [ -1.01038650835887, 46.642890806829598 ], [ -1.0103095366406, 46.642944215846804 ], [ -1.00991456551455, 46.642906453745198 ], [ -1.00917957494514, 46.642884621190397 ], [ -1.0091912412874, 46.642802511058299 ] ] ], [ [ [ -1.01147720739492, 46.6425400091398 ], [ -1.01158459188076, 46.642513086765099 ], [ -1.01177010421246, 46.642612093855099 ], [ -1.01208754583856, 46.6427744057005 ], [ -1.01252035183874, 46.6429797116987 ], [ -1.01279441886228, 46.643138528205 ], [ -1.01299060624322, 46.6432641440745 ], [ -1.01330733661233, 46.643520405277997 ], [ -1.01331989197023, 46.643533182706499 ], [ -1.01321674513203, 46.6435712370819 ], [ -1.01313218465791, 46.643618296246501 ], [ -1.01301041317499, 46.6436978809515 ], [ -1.01293312590764, 46.643748417740198 ], [ -1.01289644032134, 46.6437724589791 ], [ -1.01284276662737, 46.643813747653901 ], [ -1.01278696318566, 46.6438942669147 ], [ -1.01274962631785, 46.643947957127402 ], [ -1.01265609394668, 46.644065518876303 ], [ -1.01250690382658, 46.644181739275297 ], [ -1.01245676725135, 46.644220767081102 ], [ -1.01237686860797, 46.644256699017198 ], [ -1.01233175956104, 46.644277654133703 ], [ -1.01220923940597, 46.6443389798903 ], [ -1.01211097824979, 46.644390575226701 ], [ -1.01138446127066, 46.643895287825401 ], [ -1.01063428845677, 46.643383135300297 ], [ -1.01029123744524, 46.643138634720501 ], [ -1.01028620976555, 46.643123014915297 ], [ -1.01029379612242, 46.6430849728049 ], [ -1.01032507871642, 46.643064340239498 ], [ -1.01036428858034, 46.643036713309797 ], [ -1.01043237110581, 46.6429895028365 ], [ -1.01048678866069, 46.642951894801797 ], [ -1.01063075487963, 46.642865450046997 ], [ -1.0107809268654, 46.642780086098803 ], [ -1.01083382481483, 46.6427516912225 ], [ -1.01093800690757, 46.642704785207499 ], [ -1.01102350762127, 46.642668685106301 ], [ -1.01106669646977, 46.6426483296421 ], [ -1.01119142935398, 46.642616481578401 ], [ -1.01136219160369, 46.642570309124402 ], [ -1.01147720739492, 46.6425400091398 ] ] ], [ [ [ -0.984606801388639, 46.663920877211901 ], [ -0.984190225785596, 46.663667811447397 ], [ -0.984598229590441, 46.663404522230699 ], [ -0.985477818054763, 46.662897419508802 ], [ -0.985856443040354, 46.663216325977501 ], [ -0.985880017202447, 46.663235989687202 ], [ -0.986030861544325, 46.6633685568776 ], [ -0.986097405077081, 46.663440369327503 ], [ -0.986190763621279, 46.663539954982298 ], [ -0.986227831739346, 46.663581282785799 ], [ -0.986310329572515, 46.663678658637501 ], [ -0.986449186181242, 46.663839491833301 ], [ -0.986501725089975, 46.663906931789299 ], [ -0.986489692560749, 46.663911245145101 ], [ -0.986530032872499, 46.663958788055602 ], [ -0.986613344277708, 46.664011922430099 ], [ -0.986698588704516, 46.664073013474699 ], [ -0.986757934433546, 46.664098122227401 ], [ -0.987049963124688, 46.663956783998302 ], [ -0.98724725483324, 46.663870536452798 ], [ -0.98742173082677, 46.6637958471714 ], [ -0.987621698909159, 46.663727519192797 ], [ -0.987745580543624, 46.663678797068599 ], [ -0.988024214674304, 46.663811152325401 ], [ -0.988227385940371, 46.6639011358292 ], [ -0.988307280714242, 46.663935004159796 ], [ -0.988423133943014, 46.663989709445602 ], [ -0.988514976510921, 46.664028273719801 ], [ -0.988571363479089, 46.664053917293899 ], [ -0.988651508327343, 46.664089579837203 ], [ -0.988699091646217, 46.664112500489502 ], [ -0.988799693927036, 46.664155321608 ], [ -0.989942980584315, 46.664666940992198 ], [ -0.989539463244971, 46.664990570943402 ], [ -0.989446331388178, 46.665130788816597 ], [ -0.989210057050478, 46.6655851291546 ], [ -0.989119871101342, 46.6657711881927 ], [ -0.988708017390061, 46.666407859726199 ], [ -0.988408501474451, 46.666782644535203 ], [ -0.988199075023206, 46.666944173384799 ], [ -0.987973028437466, 46.667103566420799 ], [ -0.987626965317809, 46.667319146512099 ], [ -0.987430237614991, 46.667134245541497 ], [ -0.987273397720501, 46.6668468815338 ], [ -0.987047575690984, 46.666254545106398 ], [ -0.986922464254783, 46.666025769802502 ], [ -0.986639764279629, 46.665731441846198 ], [ -0.986591751882256, 46.665654864818499 ], [ -0.986568233251455, 46.665623307585903 ], [ -0.986532473407236, 46.665558610739403 ], [ -0.986507437592018, 46.665515124414 ], [ -0.986464615521225, 46.665450556011997 ], [ -0.986407719123326, 46.665358916194798 ], [ -0.986370595987526, 46.665306329729297 ], [ -0.98624812764448, 46.665190762112999 ], [ -0.986226386194783, 46.665177526004904 ], [ -0.986001418665637, 46.664964899248503 ], [ -0.985940084608791, 46.664907528968598 ], [ -0.985883970511751, 46.664850085293203 ], [ -0.985803689617062, 46.664775973647899 ], [ -0.985682743224774, 46.664685217843697 ], [ -0.985516640072166, 46.664563900463897 ], [ -0.985330753784717, 46.664425320612303 ], [ -0.985144315903976, 46.664290275789 ], [ -0.985040694092611, 46.664211079078001 ], [ -0.984991660790248, 46.664177298395899 ], [ -0.984910781963827, 46.664114819191298 ], [ -0.98483748197136, 46.664060857682998 ], [ -0.984726516261776, 46.663991860383199 ], [ -0.984655301171647, 46.663948284472198 ], [ -0.984606801388639, 46.663920877211901 ] ] ], [ [ [ -1.07648718487894, 46.646073504001201 ], [ -1.07690886994582, 46.646351670150203 ], [ -1.0760223258224, 46.647006781953102 ], [ -1.07597750639349, 46.647005148830303 ], [ -1.07592210594446, 46.6468378668676 ], [ -1.07582368969818, 46.646590193677802 ], [ -1.07617945200615, 46.646311636979803 ], [ -1.07635411794937, 46.646176462266403 ], [ -1.07648718487894, 46.646073504001201 ] ] ], [ [ [ -1.03452965188202, 46.668802106329501 ], [ -1.03434995935147, 46.668752388752402 ], [ -1.03496331658025, 46.668149923741296 ], [ -1.03542921839227, 46.667692025181701 ], [ -1.03563183727263, 46.667729528457897 ], [ -1.0357196883289, 46.667751697614598 ], [ -1.035766745566, 46.667770028922597 ], [ -1.03582188928528, 46.667802888693799 ], [ -1.03598973850479, 46.667914086217202 ], [ -1.03618729475644, 46.668090874381797 ], [ -1.03624528456022, 46.668141755850598 ], [ -1.03633230062165, 46.668209421560299 ], [ -1.03637871545248, 46.6682465916114 ], [ -1.03657036450381, 46.668389506835702 ], [ -1.03653280060101, 46.668399530313003 ], [ -1.03666088220256, 46.668508854812799 ], [ -1.03671699772856, 46.668592656320598 ], [ -1.03677798456423, 46.668658119020201 ], [ -1.03683685341433, 46.668788120561103 ], [ -1.03686604690367, 46.668851376200799 ], [ -1.03693357173933, 46.668906294253702 ], [ -1.037034495448, 46.668966157641201 ], [ -1.03724450511217, 46.669092782377597 ], [ -1.03675901659344, 46.6694004326529 ], [ -1.03677331210694, 46.669407214037903 ], [ -1.03680647482324, 46.669423077136599 ], [ -1.03687263039675, 46.669443178675898 ], [ -1.03620713601138, 46.669891414555899 ], [ -1.03613837136723, 46.669862821299503 ], [ -1.03611610034005, 46.669853760169502 ], [ -1.03602521608041, 46.669816731501101 ], [ -1.03598836283478, 46.669756495292901 ], [ -1.0361819307066, 46.6695670689369 ], [ -1.03611757002883, 46.669529349688403 ], [ -1.03600186137194, 46.669463343362096 ], [ -1.03592401211715, 46.669416830604 ], [ -1.03587146080685, 46.6693880359066 ], [ -1.03570750775984, 46.669293019808897 ], [ -1.03560902065859, 46.669236675877997 ], [ -1.03550829540057, 46.669178057509797 ], [ -1.03536053812026, 46.669092821007197 ], [ -1.03517511650114, 46.668987172954502 ], [ -1.03514932052138, 46.6689720868713 ], [ -1.03511574374864, 46.668962098278001 ], [ -1.03492330367474, 46.668909521524697 ], [ -1.03484670716508, 46.668889543062598 ], [ -1.03472411173411, 46.668855613383499 ], [ -1.03465776582456, 46.668838393450301 ], [ -1.03461544310466, 46.668826855324397 ], [ -1.03452965188202, 46.668802106329501 ] ] ], [ [ [ -1.03241822549374, 46.669524636564802 ], [ -1.03227708212389, 46.669484676057699 ], [ -1.03255056218482, 46.668543399001699 ], [ -1.03291236630552, 46.667726579483499 ], [ -1.0330582234228, 46.6677455914066 ], [ -1.03303423063658, 46.667797276747201 ], [ -1.03390771445501, 46.667913657055898 ], [ -1.03419431091996, 46.667953282921502 ], [ -1.03423547698017, 46.667994749826597 ], [ -1.03403816004475, 46.668686142546399 ], [ -1.03386515999939, 46.669272796833802 ], [ -1.03368543759659, 46.669875149621902 ], [ -1.03366380033321, 46.669882727219402 ], [ -1.03355084796482, 46.669835636155298 ], [ -1.03347231368893, 46.669813912741802 ], [ -1.03336119385047, 46.669785672489503 ], [ -1.03255263333702, 46.669561371773398 ], [ -1.03241822549374, 46.669524636564802 ] ] ], [ [ [ -1.03381828231349, 46.669943539364503 ], [ -1.03376466224822, 46.669924680868398 ], [ -1.03375525283644, 46.669912263473996 ], [ -1.03409099717222, 46.668778229061303 ], [ -1.03414934790892, 46.668755348236303 ], [ -1.03421902104859, 46.668773461121603 ], [ -1.03428181494524, 46.668792411178998 ], [ -1.03436441228822, 46.668814189325502 ], [ -1.03445426196123, 46.668839093099898 ], [ -1.0347987853322, 46.668932920041598 ], [ -1.03488970783273, 46.668958155373197 ], [ -1.03504211000305, 46.668998040866498 ], [ -1.03510720660145, 46.669018360988296 ], [ -1.03592838049693, 46.669488831614402 ], [ -1.03599296216164, 46.669526002222298 ], [ -1.03603823573358, 46.6695555580594 ], [ -1.03604869288841, 46.669605859576897 ], [ -1.03583855643913, 46.669802162287098 ], [ -1.03587788155193, 46.669818115190203 ], [ -1.03607694193855, 46.669901382126803 ], [ -1.03623059905088, 46.6699676207378 ], [ -1.03636774920992, 46.670025163072197 ], [ -1.03620926320484, 46.670168698082001 ], [ -1.03565051560556, 46.670713554617798 ], [ -1.03552521007626, 46.670655026333101 ], [ -1.03538002682567, 46.670584214817097 ], [ -1.03534850656093, 46.670569483577701 ], [ -1.03528176565293, 46.670535697472701 ], [ -1.03521656695726, 46.670505391292302 ], [ -1.03517027145357, 46.670482533905599 ], [ -1.03495788345446, 46.6703975887959 ], [ -1.03418798800287, 46.670090658915598 ], [ -1.03396160156746, 46.670003238551097 ], [ -1.03381828231349, 46.669943539364503 ] ] ], [ [ [ -1.01008797232976, 46.665294692790802 ], [ -1.01013806423005, 46.665207947699102 ], [ -1.01035133707609, 46.6652491429668 ], [ -1.01114484199279, 46.6654021845236 ], [ -1.011072222802, 46.665547582219602 ], [ -1.01101824846413, 46.6656434524294 ], [ -1.01099207485351, 46.6656917647597 ], [ -1.01097435028215, 46.6657287550006 ], [ -1.01086104279713, 46.665926858659603 ], [ -1.01080969301115, 46.666010041760003 ], [ -1.01076813502472, 46.666067809104703 ], [ -1.01062534593332, 46.666250301014898 ], [ -1.01045660029544, 46.666186811492999 ], [ -1.00992929417605, 46.666061623062703 ], [ -1.00968837159576, 46.6660197083757 ], [ -1.00982085581154, 46.665769977582499 ], [ -1.0098675239972, 46.665676581554003 ], [ -1.00997856952882, 46.665469262800201 ], [ -1.01000299064109, 46.665430550798703 ], [ -1.01002545789195, 46.665392159602497 ], [ -1.01008797232976, 46.665294692790802 ] ] ], [ [ [ -1.0109957191029, 46.665788638599302 ], [ -1.01102256245919, 46.665742655962902 ], [ -1.01106740573471, 46.665655787600102 ], [ -1.01111983907546, 46.665560331934898 ], [ -1.0111962444826, 46.6654128272123 ], [ -1.01214760014306, 46.6656347986901 ], [ -1.01218822021127, 46.665671793086098 ], [ -1.01200561103221, 46.665997004362801 ], [ -1.01196371826394, 46.666057668975199 ], [ -1.01189622237652, 46.666150604998599 ], [ -1.0117966316597, 46.666268069626298 ], [ -1.01174348450059, 46.6663329327993 ], [ -1.01168203514689, 46.666388412568601 ], [ -1.01166185015851, 46.666410883386803 ], [ -1.01161348006888, 46.666470566458301 ], [ -1.01155478710574, 46.666485883274703 ], [ -1.01115479739194, 46.666420625691003 ], [ -1.01076301989209, 46.666312623776001 ], [ -1.01066606313691, 46.666269819839599 ], [ -1.01075735031522, 46.666151429744701 ], [ -1.01081290913917, 46.666081082172397 ], [ -1.0108654581873, 46.666006512303703 ], [ -1.0109101376719, 46.665936040546001 ], [ -1.01094515691636, 46.665874147342102 ], [ -1.0109957191029, 46.665788638599302 ] ] ], [ [ [ -1.00818371778007, 46.666408534512598 ], [ -1.00789424928418, 46.666315535332899 ], [ -1.00810357217492, 46.666089860505501 ], [ -1.00814527928305, 46.666047208540199 ], [ -1.00815992970253, 46.666053539152102 ], [ -1.00835544344033, 46.665761269041703 ], [ -1.00843698303353, 46.665797861243803 ], [ -1.00847367421344, 46.665811643313198 ], [ -1.00856242505706, 46.665821197189402 ], [ -1.00871176643004, 46.665835465562701 ], [ -1.00914155756501, 46.6659428025444 ], [ -1.00929253108076, 46.665979173981398 ], [ -1.00938917451629, 46.665999838100603 ], [ -1.00959095902206, 46.666037235413903 ], [ -1.00990464442232, 46.666094581916298 ], [ -1.01004093739106, 46.666126155747698 ], [ -1.01011968973027, 46.666145371658601 ], [ -1.01023803426026, 46.666172064639603 ], [ -1.01030002073813, 46.666186809234901 ], [ -1.01043650021347, 46.666215049242901 ], [ -1.01057061135333, 46.6662642436292 ], [ -1.01061728457747, 46.666286916940997 ], [ -1.01073540933255, 46.666344144732903 ], [ -1.01078400059059, 46.666357852227101 ], [ -1.01105430163031, 46.666432762215898 ], [ -1.01114040366756, 46.6664564354964 ], [ -1.01152369716509, 46.6665202940885 ], [ -1.01154955338419, 46.666549249472801 ], [ -1.01146900896248, 46.666672286014197 ], [ -1.01129274219344, 46.666949949687996 ], [ -1.01116810817234, 46.667256802297302 ], [ -1.01113513326523, 46.667254350092101 ], [ -1.01104472290321, 46.667241340018599 ], [ -1.01095543707526, 46.667229724035899 ], [ -1.0109146425001, 46.667223533398897 ], [ -1.01078295262312, 46.667202906910703 ], [ -1.01073212253659, 46.6671975542776 ], [ -1.01065992822264, 46.667189135588899 ], [ -1.01056069802597, 46.667177461604602 ], [ -1.01047949942351, 46.667163272223902 ], [ -1.0103165893787, 46.667143377104601 ], [ -1.01026935877073, 46.667136753302998 ], [ -1.01017965058228, 46.6671266841985 ], [ -1.01008673322842, 46.667115365926598 ], [ -1.01007395678151, 46.667113847535802 ], [ -1.01000525133685, 46.667104963762199 ], [ -1.00996948537211, 46.667101779430602 ], [ -1.00988103185797, 46.667067548856402 ], [ -1.00980722800448, 46.667039630628601 ], [ -1.00973673453946, 46.667014508644101 ], [ -1.00967500999356, 46.666989485528603 ], [ -1.00949425237017, 46.6669135582612 ], [ -1.00938457889621, 46.666870576058798 ], [ -1.00931379972693, 46.666847077656001 ], [ -1.00919864289756, 46.666808227032 ], [ -1.00924046978297, 46.666737927956198 ], [ -1.00907239969758, 46.666670635144598 ], [ -1.00905786936355, 46.666666112620298 ], [ -1.00896839392082, 46.666634342389798 ], [ -1.00881056991368, 46.666590880243199 ], [ -1.00831409686451, 46.666452434484803 ], [ -1.00818371778007, 46.666408534512598 ] ] ], [ [ [ -1.01312102099423, 46.644259428733797 ], [ -1.01339800034616, 46.644049040382299 ], [ -1.01381838779386, 46.643924939514797 ], [ -1.01398832412076, 46.644166859079199 ], [ -1.01411931266823, 46.644280440519402 ], [ -1.01419425709649, 46.644342079672903 ], [ -1.01424525266875, 46.644377952091297 ], [ -1.01430303986925, 46.644418040346103 ], [ -1.01436572136449, 46.644465368131101 ], [ -1.01441395640775, 46.644503032208 ], [ -1.01447734611414, 46.644547008253099 ], [ -1.01460166858033, 46.644618357922802 ], [ -1.01462210233333, 46.644604163048299 ], [ -1.01518849355809, 46.645006517961903 ], [ -1.01499333322022, 46.6451847955109 ], [ -1.0152316803086, 46.645405977462701 ], [ -1.01540689597024, 46.645477913710103 ], [ -1.01565985242511, 46.645592943443901 ], [ -1.01595586427746, 46.645790996423699 ], [ -1.0161065302885, 46.645911919189402 ], [ -1.01622546916587, 46.646014326457703 ], [ -1.01633470954145, 46.646112331272498 ], [ -1.0163693178693, 46.646130673424302 ], [ -1.0166521321167, 46.646305610878699 ], [ -1.01674031753374, 46.646342098728198 ], [ -1.01678131470042, 46.646360261834097 ], [ -1.01686493466616, 46.646430439836301 ], [ -1.01686489682257, 46.646430459195102 ], [ -1.01693688053155, 46.646489685115597 ], [ -1.01591498185739, 46.6471608813956 ], [ -1.0158360854021, 46.647098813733301 ], [ -1.01577361589017, 46.647046619626103 ], [ -1.01573940631567, 46.6470179130527 ], [ -1.01566745234062, 46.646960497562098 ], [ -1.01535599492079, 46.646757945186501 ], [ -1.01522450047801, 46.646670231232498 ], [ -1.01507751009134, 46.646574954951603 ], [ -1.0149152535667, 46.646467428984202 ], [ -1.01315906664039, 46.645118743786803 ], [ -1.01311013686978, 46.645084430399002 ], [ -1.01300926843911, 46.645011752645999 ], [ -1.01286834636238, 46.644915215369998 ], [ -1.0127791144549, 46.644850839156099 ], [ -1.0126167050875, 46.644738627328202 ], [ -1.01280052454266, 46.644569433590398 ], [ -1.01286593899296, 46.644485566377597 ], [ -1.01298427450761, 46.644375917074598 ], [ -1.01312102099423, 46.644259428733797 ] ], [ [ -1.01686489682257, 46.646430459195102 ], [ -1.0168646602146, 46.646430269141497 ], [ -1.0162070124287, 46.6468579245577 ], [ -1.01686489682257, 46.646430459195102 ] ] ], [ [ [ -1.07104882651556, 46.6434298085222 ], [ -1.07114787908443, 46.6433085993175 ], [ -1.07124252496328, 46.6432874014098 ], [ -1.07164390871197, 46.643403284351599 ], [ -1.07184350814062, 46.643460177693399 ], [ -1.07204729696737, 46.643596372858603 ], [ -1.07212342815781, 46.643648665558999 ], [ -1.0721951540596, 46.643693532162899 ], [ -1.07222238919744, 46.643710542345801 ], [ -1.07227060066801, 46.643743324564099 ], [ -1.07232111337579, 46.643777115918802 ], [ -1.07238867925573, 46.643822193416199 ], [ -1.07263245567231, 46.6439867286335 ], [ -1.07276461555076, 46.644073373407998 ], [ -1.07289498587428, 46.6441543022611 ], [ -1.07249805260068, 46.644441471391701 ], [ -1.07241993254051, 46.644498553452401 ], [ -1.07225547357886, 46.644631799405403 ], [ -1.07222872949963, 46.6446534874785 ], [ -1.07220521329247, 46.6446726534625 ], [ -1.07219041336872, 46.644684621184702 ], [ -1.07202807885606, 46.6448163576638 ], [ -1.07196827001903, 46.644863267319103 ], [ -1.07192213783232, 46.6448346576882 ], [ -1.07185695838496, 46.6447941835088 ], [ -1.07182429418921, 46.644773912988597 ], [ -1.07172404778638, 46.644716391266698 ], [ -1.07168549262529, 46.644687737631898 ], [ -1.07161980586573, 46.644639265930302 ], [ -1.07147449663431, 46.644536993250298 ], [ -1.07144852111216, 46.644517052922403 ], [ -1.0713856845767, 46.644472194483399 ], [ -1.07133627263312, 46.644437020178103 ], [ -1.07128876195565, 46.644405204448503 ], [ -1.07126366539721, 46.644386684456897 ], [ -1.07122008060265, 46.644354846383401 ], [ -1.07113021786584, 46.644289994616898 ], [ -1.07097608486938, 46.6441990527901 ], [ -1.07073292193161, 46.644044220912598 ], [ -1.07066004449279, 46.6440185718618 ], [ -1.07066007353096, 46.6439817395378 ], [ -1.07075367130574, 46.643794338100498 ], [ -1.07078875195795, 46.643732772869498 ], [ -1.07099464203967, 46.643497435476803 ], [ -1.07104882651556, 46.6434298085222 ] ] ], [ [ [ -1.07442477772017, 46.639691600711899 ], [ -1.0743721730806, 46.639402571359497 ], [ -1.07433854359232, 46.639256964871599 ], [ -1.07427289695208, 46.639047481006003 ], [ -1.07424189147319, 46.638943499388702 ], [ -1.07411809343576, 46.638667948042901 ], [ -1.07534350125184, 46.638625787873998 ], [ -1.07541041201726, 46.638668813069202 ], [ -1.07550525387719, 46.6396584629694 ], [ -1.07558517276646, 46.640813352783603 ], [ -1.07558379905776, 46.6408828268885 ], [ -1.07558356018321, 46.641053125547799 ], [ -1.07555323645612, 46.641318516218298 ], [ -1.07550950701952, 46.641483545959296 ], [ -1.0754538059749, 46.641665771854903 ], [ -1.07521352146658, 46.642319271767299 ], [ -1.07507715647825, 46.642572439840002 ], [ -1.0749004330405, 46.642904898759603 ], [ -1.07474417574294, 46.643197120063299 ], [ -1.07470631398878, 46.643260291325703 ], [ -1.07458960467931, 46.643399948067 ], [ -1.07453244209431, 46.643465861501397 ], [ -1.0744663377282, 46.643537358445997 ], [ -1.07443536008531, 46.643560532079498 ], [ -1.0741892546677, 46.643740531181997 ], [ -1.07391907472228, 46.643916021220498 ], [ -1.07372740698564, 46.644044944613803 ], [ -1.07346929028222, 46.644204487518898 ], [ -1.07332501874854, 46.644295082721399 ], [ -1.07322086944935, 46.644302338504303 ], [ -1.07318168007921, 46.644273789049798 ], [ -1.07312905597326, 46.6442396132894 ], [ -1.07307552166439, 46.6442015027243 ], [ -1.07296127459618, 46.644125221193597 ], [ -1.07270118698518, 46.643954955178003 ], [ -1.0730084607573, 46.643645889976902 ], [ -1.07303690255611, 46.643615774249703 ], [ -1.07286492563863, 46.643482407803504 ], [ -1.07285115538769, 46.643527491742297 ], [ -1.07296929329276, 46.6436177995161 ], [ -1.07266149927291, 46.643931102708699 ], [ -1.07224789994836, 46.6436547626204 ], [ -1.07208635058913, 46.6435478386624 ], [ -1.07205030715663, 46.643523694158503 ], [ -1.07195460034651, 46.643459465533603 ], [ -1.07188392941602, 46.643412947387901 ], [ -1.07183776934914, 46.643400369618703 ], [ -1.07173501896295, 46.6433696701258 ], [ -1.07160737242004, 46.6433339498343 ], [ -1.07127055298334, 46.643238474957798 ], [ -1.07124262488774, 46.643183206268802 ], [ -1.07174570215724, 46.642557522541402 ], [ -1.07219047011993, 46.642656344336402 ], [ -1.07232329661075, 46.642687308553903 ], [ -1.07244189730093, 46.6427061015468 ], [ -1.07257559230881, 46.642733978097397 ], [ -1.07271165353131, 46.6427621580657 ], [ -1.07274344361812, 46.642768682570299 ], [ -1.0728181094448, 46.642785538968603 ], [ -1.07304070902005, 46.6428298552323 ], [ -1.07306295211957, 46.642834410957597 ], [ -1.07327290382991, 46.642877301131001 ], [ -1.07342185002228, 46.6428962583079 ], [ -1.07346553929612, 46.642904865991397 ], [ -1.07362590138919, 46.642242131185903 ], [ -1.07364990302464, 46.642164504254303 ], [ -1.07365700243616, 46.642046869224799 ], [ -1.07362961355451, 46.641850919351199 ], [ -1.07378515873323, 46.641837624577597 ], [ -1.07420929483951, 46.641843754838298 ], [ -1.0742339298856, 46.6417635896779 ], [ -1.07419761074946, 46.641482086694701 ], [ -1.07418085595492, 46.641201889434399 ], [ -1.07419092785373, 46.640820477218803 ], [ -1.0742072882071, 46.6407460611861 ], [ -1.07445724352321, 46.639831108500999 ], [ -1.07442477772017, 46.639691600711899 ] ] ], [ [ [ -1.07076467134826, 46.641872624424302 ], [ -1.07019642449975, 46.641532087067603 ], [ -1.0700899987745, 46.641467814177197 ], [ -1.07203301913867, 46.640560454226303 ], [ -1.07221168954342, 46.640976477292 ], [ -1.07225813521875, 46.641084770148197 ], [ -1.07228754611454, 46.641186374468099 ], [ -1.07229655379381, 46.641308485793303 ], [ -1.07228529753153, 46.641428684791897 ], [ -1.07225857583766, 46.641531698653999 ], [ -1.07220091648886, 46.6416353615543 ], [ -1.07188154440519, 46.642132095271599 ], [ -1.07185875938597, 46.642170962767601 ], [ -1.07181370081395, 46.6422382297404 ], [ -1.07177892706106, 46.642290236274803 ], [ -1.0717256456443, 46.642372158364701 ], [ -1.07167368596342, 46.642452329371999 ], [ -1.07163265581923, 46.642510644196904 ], [ -1.07155247742232, 46.642624438915803 ], [ -1.07146771826159, 46.642725674472899 ], [ -1.07144985046417, 46.642747010834597 ], [ -1.07132795298863, 46.6429064497109 ], [ -1.07126344171912, 46.642982306024003 ], [ -1.07111712616548, 46.643167055491098 ], [ -1.07101817329338, 46.643292038937503 ], [ -1.07095255144256, 46.6433710811718 ], [ -1.07068595783695, 46.643697295390197 ], [ -1.07061158581421, 46.643710054471903 ], [ -1.06993040149908, 46.643453493441299 ], [ -1.0694145240166, 46.6432367413056 ], [ -1.06957804816751, 46.643015822872997 ], [ -1.06968353973401, 46.642892808414501 ], [ -1.06974951018819, 46.642817180723704 ], [ -1.06986909370304, 46.642666815071799 ], [ -1.07000094223703, 46.642480787079798 ], [ -1.07004830991316, 46.642396253934102 ], [ -1.07012015516014, 46.642287219489702 ], [ -1.07022262642722, 46.642255339588701 ], [ -1.07044614868826, 46.642187961944501 ], [ -1.07054789939851, 46.642155205720698 ], [ -1.07063001599952, 46.642107630201103 ], [ -1.07070388674166, 46.642055532985999 ], [ -1.07079631321508, 46.641988837184698 ], [ -1.07086083557584, 46.641936026198003 ], [ -1.07088512493819, 46.641920899297403 ], [ -1.07076467134826, 46.641872624424302 ] ] ], [ [ [ -1.01652195536418, 46.6474158947631 ], [ -1.01591498185739, 46.6471608813956 ], [ -1.01693689358931, 46.646489684657801 ], [ -1.01716969324727, 46.646683279494297 ], [ -1.01722034020044, 46.646776882798598 ], [ -1.01765149307238, 46.646956641857898 ], [ -1.01767088227863, 46.646942483082597 ], [ -1.01779693430161, 46.647010000282101 ], [ -1.01825507319715, 46.6471632055542 ], [ -1.01863048778474, 46.6473677444705 ], [ -1.01780498668053, 46.647960707263898 ], [ -1.01692203891537, 46.647586026010003 ], [ -1.01652195536418, 46.6474158947631 ] ] ], [ [ [ -1.07773537754177, 46.645008717891699 ], [ -1.07735287537007, 46.644756632824397 ], [ -1.07862553859862, 46.644027523553902 ], [ -1.07983076072675, 46.642844576884997 ], [ -1.08020861552587, 46.6430714023465 ], [ -1.08053027857373, 46.643251071569303 ], [ -1.0806676436819, 46.643320237983303 ], [ -1.08095577968341, 46.6434949874143 ], [ -1.07971435904977, 46.644668397731401 ], [ -1.07923128129111, 46.644882787260599 ], [ -1.0789963267752, 46.644998970401403 ], [ -1.07828291218371, 46.645371813429399 ], [ -1.07818715612601, 46.6454209710027 ], [ -1.07801693033773, 46.645516661750001 ], [ -1.07784620784828, 46.645637489223603 ], [ -1.07782857277963, 46.6456460332695 ], [ -1.07694454809418, 46.646324307341999 ], [ -1.07644314788909, 46.645998009103799 ], [ -1.07624837014599, 46.645866152854403 ], [ -1.07737772139178, 46.6450081678434 ], [ -1.07741246502542, 46.644977961915998 ], [ -1.07754071398725, 46.644887102239103 ], [ -1.07773537754177, 46.645008717891699 ] ] ] ] } }
]
}
