{"type":"FeatureCollection","crs":{"type":"name","properties":{"name":"urn:ogc:def:crs:EPSG::4326"}},"features":[{"type":"Feature","properties":{"region_id":17,"name":"Szekszárd","name_hu":"Szekszárdi borvidék","region_group":"Dél-Dunántúl (South Transdanubia)","area_ha_approx":3000,"notable_grapes":"Kadarka, Kékfrankos, Merlot, Cabernet Sauvignon","notes":"Deep loess soils; Bikavér style; Hungary's Kadarka capital"},"geometry":{"type":"MultiPolygon","coordinates":[[[[18.5360465,46.2393208],[18.537672,46.241231],[18.5387456,46.2439009],[18.538717,46.2469501],[18.5392476,46.248471],[18.5397979,46.2488578],[18.5403179,46.2515252],[18.5403072,46.2526656],[18.5408575,46.2530523],[18.5408326,46.2557173],[18.5397088,46.2583773],[18.539634,46.2663723],[18.5390729,46.2671321],[18.5396197,46.2678969],[18.5396091,46.2690373],[18.5406976,46.2701826],[18.5412427,46.2701851],[18.5423312,46.2713365],[18.5423099,46.2736173],[18.5417612,46.2739991],[18.5390015,46.274749],[18.5379112,46.2747441],[18.5373607,46.2743574],[18.5368119,46.2747392],[18.5362614,46.2743524],[18.5351586,46.2747317],[18.5346134,46.2747292],[18.5346098,46.2751072],[18.5340485,46.275867],[18.5345954,46.2766319],[18.5340413,46.2766293],[18.5312794,46.2785195],[18.5312722,46.2792818],[18.5307306,46.2789013],[18.530725,46.2781893],[18.5313157,46.2747141],[18.5318915,46.2724297],[18.5319023,46.2712894],[18.5313519,46.2709026],[18.5319132,46.2701428],[18.5313592,46.2701403],[18.5313628,46.2697622],[18.5308249,46.2689974],[18.5302745,46.2686168],[18.5280852,46.2686068],[18.5258796,46.2693589],[18.5253366,46.2682098],[18.5258942,46.2678343],[18.5259089,46.2663097],[18.527553,46.2663173],[18.5275567,46.2659392],[18.528118,46.2651795],[18.5270226,46.2647901],[18.5242941,46.2632528],[18.5242978,46.2628748],[18.5237585,46.2613476],[18.5243198,46.2605879],[18.5232392,46.2586801],[18.5221513,46.2575346],[18.5199609,46.256762],[18.5194234,46.2559972],[18.5172331,46.2552246],[18.5150577,46.2529335],[18.5128639,46.2525388],[18.5106828,46.2517661],[18.5101365,46.2510012],[18.5090453,46.2502336],[18.5085079,46.2494749],[18.5079692,46.2479477],[18.5079919,46.2456607],[18.5074546,46.2448958],[18.5003371,46.2429587],[18.4986936,46.2429508],[18.4981437,46.24257],[18.4970347,46.2444674],[18.4953862,46.244075],[18.4948374,46.2444566],[18.4915259,46.245965],[18.4882193,46.2478514],[18.485468,46.2478378],[18.4843733,46.247448],[18.4838244,46.2478296],[18.481627,46.2478186],[18.4810782,46.2481939],[18.4794346,46.2481856],[18.4783319,46.2485643],[18.473937,46.2485421],[18.4711987,46.2481438],[18.4695429,46.249282],[18.4689932,46.2488949],[18.466259,46.2481185],[18.4640616,46.2481071],[18.4553141,46.2450183],[18.453121,46.2446225],[18.4531252,46.2442445],[18.4536873,46.2434851],[18.4514817,46.2442358],[18.4492719,46.2453645],[18.4476157,46.2465023],[18.4470708,46.2464994],[18.4459638,46.2472497],[18.445393,46.2487713],[18.4442732,46.2506681],[18.4442435,46.2533331],[18.4546778,46.2533884],[18.4546819,46.2530104],[18.4552269,46.2530132],[18.4579818,46.2518872],[18.4601753,46.2522768],[18.4596221,46.2530362],[18.4596138,46.2537985],[18.4656529,46.2538298],[18.465657,46.2534456],[18.4662019,46.2534484],[18.4678294,46.2549815],[18.4650622,46.2572543],[18.4645172,46.2572514],[18.4606303,46.2614211],[18.4606262,46.2617992],[18.4617162,46.2618048],[18.4628111,46.2621948],[18.4644395,46.264484],[18.4682654,46.2660285],[18.4721037,46.2664262],[18.4743019,46.2664374],[18.4775822,46.2672163],[18.4781321,46.2676034],[18.4792153,46.2691335],[18.4792113,46.2695116],[18.4802976,46.2698951],[18.4802577,46.2737067],[18.4808038,46.2744718],[18.480776,46.2771367],[18.4802059,46.2786586],[18.4807322,46.2813263],[18.4806686,46.2874186],[18.4795412,46.2900781],[18.4784216,46.2919752],[18.4755888,46.3003405],[18.4777843,46.3007297],[18.4832584,46.3022819],[18.4827011,46.3034195],[18.4832227,46.3057092],[18.483199,46.3079899],[18.4842989,46.3079954],[18.485387,46.3091474],[18.485383,46.3095255],[18.4859285,46.3095282],[18.4842633,46.3114227],[18.483693,46.3129445],[18.482594,46.3137014],[18.4809235,46.3152177],[18.48037,46.3159773],[18.4797996,46.3174929],[18.4786964,46.318634],[18.4803302,46.3197827],[18.4797716,46.3201641],[18.4803222,46.320545],[18.479218,46.3209175],[18.4830364,46.323608],[18.4813468,46.3277831],[18.4807643,46.3304454],[18.4763235,46.3349971],[18.4812155,46.340352],[18.4878101,46.3403848],[18.4905609,46.3400204],[18.4927582,46.3404093],[18.4877314,46.3480018],[18.4860926,46.3472313],[18.4855378,46.3472285],[18.4822287,46.3487367],[18.4822247,46.3491148],[18.4816659,46.3494963],[18.4805651,46.3494907],[18.4794564,46.3502413],[18.4778017,46.3509953],[18.475592,46.3517465],[18.4750421,46.352128],[18.4728404,46.3521168],[18.4722905,46.3524921],[18.4722865,46.3528702],[18.4739211,46.3540251],[18.4644338,46.3673023],[18.4655219,46.3676921],[18.4677079,46.3692219],[18.4687968,46.3703741],[18.4704319,46.3715229],[18.4726142,46.3734368],[18.4759018,46.3749782],[18.476448,46.3749809],[18.476444,46.375359],[18.4742374,46.3757321],[18.4725818,46.376486],[18.4703792,46.3764748],[18.469829,46.3768501],[18.4681611,46.3787443],[18.4664596,46.3829255],[18.4664555,46.3833097],[18.4670107,46.3833126],[18.4680877,46.385599],[18.4718899,46.3901925],[18.4735096,46.3928659],[18.4745871,46.3951522],[18.474583,46.3955365],[18.4762069,46.3978317],[18.477852,46.3989805],[18.4783824,46.4005078],[18.4794683,46.4020318],[18.4789049,46.4027913],[18.4843944,46.4047216],[18.488789,46.4051277],[18.4909889,46.4055166],[18.4903993,46.4097035],[18.4931654,46.4081924],[18.49481,46.4085847],[18.4975643,46.4082139],[18.4992218,46.4082219],[18.4981043,46.4097412],[18.4980966,46.4105035],[18.4958926,46.4104928],[18.4920361,46.410852],[18.4925631,46.4127636],[18.4931147,46.4131444],[18.4947672,46.4127744],[18.4953149,46.4135394],[18.494209,46.4139121],[18.4931069,46.4139067],[18.4908832,46.4157985],[18.4897771,46.4161774],[18.4875611,46.4173069],[18.4858926,46.4192014],[18.484216,46.4218582],[18.4808973,46.4229882],[18.4792404,46.4237361],[18.4770037,46.4267743],[18.4769876,46.4282989],[18.476437,46.4286742],[18.4753064,46.4313336],[18.4747184,46.4343801],[18.4747023,46.4359047],[18.4736038,46.4355149],[18.4730449,46.4366525],[18.4724778,46.4385586],[18.470787,46.4415932],[18.4751935,46.4419998],[18.4746297,46.4427593],[18.4740425,46.4465619],[18.4778936,46.4469595],[18.4756519,46.4503757],[18.4767547,46.4503812],[18.472879,46.4522706],[18.4717681,46.4530211],[18.4711765,46.457208],[18.4700613,46.4583489],[18.4700532,46.459105],[18.4694809,46.4606268],[18.4689339,46.460624],[18.4678186,46.461765],[18.4683746,46.4617678],[18.4689135,46.4625267],[18.4694402,46.4644384],[18.4699474,46.4690089],[18.4726726,46.471688],[18.4721255,46.4716852],[18.4726564,46.4732126],[18.4726159,46.477018],[18.473155,46.4777831],[18.4737071,46.4781701],[18.4753537,46.4785566],[18.4775525,46.47933],[18.4819532,46.4797301],[18.4869141,46.4797548],[18.488558,46.4812876],[18.4896536,46.4820554],[18.4940507,46.4828393],[18.4951542,46.4828447],[18.4957092,46.4820851],[18.4962693,46.4817035],[18.4978929,46.4843827],[18.4962382,46.4847528],[18.4967739,46.4858958],[18.5012073,46.4840145],[18.5011996,46.4847768],[18.502307,46.4844041],[18.5028466,46.4851628],[18.5011958,46.4851549],[18.502284,46.4866848],[18.5061496,46.485941],[18.5072341,46.4878552],[18.504472,46.4885981],[18.5055513,46.490128],[18.5110808,46.4890139],[18.5110733,46.4897762],[18.5093716,46.493958],[18.5060619,46.4946984],[18.5016161,46.4977265],[18.5059626,46.5046023],[18.5042653,46.5091621],[18.503119,46.5133465],[18.5014584,46.5133385],[18.4986948,46.5140875],[18.4942795,46.5148284],[18.4926462,46.5121553],[18.4926618,46.5106306],[18.4921221,46.5098656],[18.4915813,46.5083383],[18.4899219,46.5090925],[18.4920712,46.5148176],[18.4931285,46.5193907],[18.4947531,46.5220638],[18.4969383,46.5243615],[18.4963739,46.5251211],[18.4985672,46.5266503],[18.4996599,46.5278022],[18.4968879,46.5293135],[18.4974279,46.5300722],[18.4968762,46.5304538],[18.4979652,46.5319838],[18.4957484,46.5327354],[18.4940844,46.5338677],[18.4924075,46.5353843],[18.4862934,46.5395378],[18.4852017,46.5391543],[18.4796264,46.5440788],[18.4790865,46.5433137],[18.4779859,46.5429239],[18.476861,46.5448272],[18.4774049,46.5452081],[18.4774008,46.5455923],[18.4623768,46.5577011],[18.4618116,46.5584606],[18.4617992,46.5596009],[18.4606775,46.5611199],[18.460113,46.5626355],[18.4595476,46.5633949],[18.4595434,46.5637792],[18.4589829,46.5649167],[18.4584258,46.5649138],[18.4578736,46.565289],[18.4578528,46.5671979],[18.4561994,46.5671893],[18.4523273,46.5679314],[18.4490201,46.5671516],[18.4473795,46.5659963],[18.4474049,46.5637156],[18.4479699,46.5621939],[18.4474261,46.5618067],[18.4457639,46.5617979],[18.4435584,46.5621705],[18.441314,46.5652017],[18.4396436,46.5667175],[18.4374246,46.567468],[18.437416,46.5682303],[18.436846,46.5693676],[18.4368114,46.5724169],[18.4362504,46.5735543],[18.434005,46.5765916],[18.4334568,46.5765887],[18.4300709,46.582663],[18.4306281,46.582666],[18.431703,46.5845747],[18.4316725,46.5872397],[18.4311199,46.5876147],[18.4305629,46.5883741],[18.4355161,46.5891633],[18.4360648,46.5899286],[18.4366088,46.5903158],[18.4371618,46.5906968],[18.4382633,46.5910808],[18.4387987,46.5922303],[18.4393474,46.5929957],[18.439326,46.5948983],[18.4387385,46.5975603],[18.4392959,46.5975633],[18.4403756,46.5990938],[18.440367,46.5998562],[18.4425532,46.6021487],[18.4447608,46.6025447],[18.4458582,46.6033129],[18.444714,46.6067282],[18.4463685,46.6067369],[18.4480363,46.6063677],[18.4502393,46.6063793],[18.4497034,46.605236],[18.4497288,46.6029491],[18.4530718,46.6006796],[18.4536286,46.5999263],[18.4558487,46.5991755],[18.4564014,46.5987941],[18.4575364,46.5961349],[18.4592197,46.5934785],[18.4603337,46.5927219],[18.4647813,46.5904639],[18.4730808,46.5885972],[18.4775034,46.5886195],[18.480251,46.5897799],[18.4824903,46.587126],[18.4852777,46.5844685],[18.4880528,46.5829637],[18.4891702,46.5818225],[18.4952499,46.5814742],[18.4974765,46.5799603],[18.4991147,46.5814929],[18.4991031,46.5826333],[18.4968727,46.5845253],[18.4962932,46.5875719],[18.4968065,46.5910019],[18.4962387,46.592902],[18.4962232,46.5944266],[18.4967443,46.5970943],[18.497294,46.5978593],[18.4972746,46.599762],[18.4966938,46.6020462],[18.4966665,46.6047113],[18.4972046,46.6066167],[18.497193,46.607757],[18.4954904,46.6115605],[18.4954709,46.6134632],[18.4960207,46.6142283],[18.4960168,46.6146063],[18.4987623,46.6161443],[18.4998685,46.6161497],[18.502618,46.6173033],[18.5042614,46.6184578],[18.5070239,46.6192334],[18.5070048,46.6211361],[18.5058832,46.6226554],[18.5064243,46.6234142],[18.5064204,46.6237984],[18.5041577,46.6287399],[18.5052374,46.6314102],[18.5095632,46.6296757],[18.5126824,46.6276659],[18.5191078,46.6261452],[18.5241045,46.6238813],[18.526332,46.6223669],[18.530207,46.6216222],[18.5368613,46.6189872],[18.5401909,46.6178617],[18.5424141,46.6167312],[18.5457521,46.6136965],[18.5485362,46.6121841],[18.551318,46.6099154],[18.5535352,46.6084004],[18.5574317,46.6061302],[18.5585322,46.6057569],[18.5590931,46.605375],[18.5607648,46.6034794],[18.5613257,46.6031038],[18.561336,46.6019572],[18.5624398,46.6011995],[18.5629973,46.6012019],[18.5635491,46.6008262],[18.5685686,46.5955172],[18.5691294,46.5951353],[18.5712303,46.5951446],[18.5702553,46.5928592],[18.5680811,46.5886602],[18.568098,46.5871378],[18.5671879,46.585087],[18.5659898,46.5830419],[18.5648254,46.5817914],[18.5645824,46.5808191],[18.5645139,46.5796186],[18.5759615,46.5715558],[18.5770469,46.5738474],[18.57538,46.5753589],[18.5764698,46.5761258],[18.5748061,46.5772655],[18.5770071,46.5784151],[18.5781092,46.5787977],[18.5786607,46.578422],[18.5792246,46.5776619],[18.5786806,46.576135],[18.580363,46.5738611],[18.5820264,46.5727213],[18.5836962,46.5708253],[18.5842534,46.5708276],[18.5859166,46.569694],[18.5864647,46.5696962],[18.5870186,46.5700765],[18.58757,46.5697007],[18.5903384,46.5685714],[18.5925489,46.5685803],[18.5919815,46.5708589],[18.5914179,46.571619],[18.5908536,46.5735195],[18.5908439,46.5746661],[18.5913921,46.5746683],[18.5930451,46.5758153],[18.5935869,46.5765799],[18.5946859,46.5773466],[18.5957882,46.5777291],[18.5968936,46.5777335],[18.5990892,46.5785045],[18.6001978,46.5781308],[18.6007582,46.5777487],[18.6013064,46.5777509],[18.6013095,46.5773728],[18.6024181,46.5769929],[18.6024087,46.5781395],[18.601851,46.5792777],[18.6029502,46.5800444],[18.6023898,46.5804203],[18.6023867,46.5808045],[18.6029376,46.581569],[18.6040311,46.5819514],[18.604028,46.5823295],[18.6029251,46.5830875],[18.602922,46.5834717],[18.6040154,46.5838541],[18.6056783,46.5838606],[18.6056751,46.5842448],[18.6051147,46.5846207],[18.6051116,46.5849988],[18.606211,46.5857654],[18.6067683,46.5857676],[18.6073197,46.5853917],[18.6084284,46.5850117],[18.6089736,46.5853981],[18.6078618,46.5861561],[18.6078587,46.5865342],[18.6084098,46.5872987],[18.6095154,46.5873029],[18.610618,46.5876914],[18.612275,46.5873135],[18.613929,46.5873199],[18.6144832,46.5877063],[18.6144802,46.5880843],[18.6133745,46.5880801],[18.6128049,46.5896026],[18.6111417,46.5907367],[18.6111386,46.5911209],[18.6116929,46.5915011],[18.6122412,46.5915032],[18.6127927,46.5911273],[18.613347,46.5915075],[18.6133378,46.5926479],[18.6122321,46.5926436],[18.6105748,46.5930215],[18.611114,46.594164],[18.6116714,46.5941662],[18.6116652,46.5949285],[18.6111048,46.5953044],[18.6127436,46.5972197],[18.6144038,46.5976041],[18.6144008,46.5979822],[18.6160429,46.5995131],[18.6176881,46.600666],[18.618794,46.6006701],[18.6198939,46.6014304],[18.6204514,46.6014325],[18.6209878,46.6029593],[18.6215363,46.6029613],[18.6215332,46.6033456],[18.6209817,46.6037216],[18.6209787,46.6041058],[18.6198727,46.6041017],[18.6193152,46.60524],[18.6182031,46.6059982],[18.6159911,46.6059898],[18.6154395,46.6063658],[18.6143304,46.6067458],[18.6132152,46.607882],[18.6121061,46.6082558],[18.6098908,46.6086316],[18.6098846,46.6093939],[18.6109352,46.6162529],[18.6114929,46.616255],[18.6125686,46.6189242],[18.6125625,46.6196866],[18.6120046,46.6208249],[18.6131048,46.6215914],[18.6147537,46.6223601],[18.6164147,46.6227445],[18.6169603,46.6231308],[18.6169512,46.6242712],[18.6158387,46.6250293],[18.6158296,46.6261697],[18.6163782,46.6273122],[18.6180334,46.6273185],[18.6191519,46.6258042],[18.6197006,46.6258063],[18.620804,46.6261885],[18.6213497,46.6265748],[18.6235567,46.6273392],[18.6257666,46.6277317],[18.6263094,46.6284961],[18.6274099,46.6292625],[18.6285164,46.6292666],[18.62962,46.6296487],[18.6301687,46.6296507],[18.6284987,46.6315474],[18.6256951,46.6368672],[18.626232,46.6383939],[18.6273239,46.6403007],[18.6278669,46.6422117],[18.6289589,46.6441185],[18.6294901,46.6464013],[18.6300361,46.6467876],[18.6317038,46.6464094],[18.6377928,46.6456754],[18.6388939,46.6464355],[18.639437,46.6471998],[18.6394341,46.647584],[18.6399802,46.6479641],[18.6405295,46.6491127],[18.6405238,46.6498688],[18.6410698,46.650255],[18.6410641,46.6510174],[18.6416192,46.6513974],[18.6394024,46.6517737],[18.6393967,46.6525299],[18.6399255,46.6552031],[18.6398909,46.6597708],[18.6387957,46.6593826],[18.6382319,46.660143],[18.6376828,46.660141],[18.6376741,46.6612821],[18.6387812,46.6612915],[18.6409895,46.6609152],[18.6439137,46.6610042],[18.6481673,46.6628434],[18.6514973,46.6617146],[18.6537165,46.6598196],[18.6575925,46.6590706],[18.660922,46.6579415],[18.6670173,46.6564374],[18.6826528,46.6336369],[18.6865571,46.6283191],[18.7049747,46.6009627],[18.7071818,46.6017255],[18.7138013,46.6028918],[18.7171102,46.6029014],[18.7182185,46.6025204],[18.7204281,46.602911],[18.7275966,46.6055966],[18.7275944,46.6059746],[18.7292399,46.6075039],[18.7297907,46.6086459],[18.7314387,46.6097971],[18.7319761,46.6117014],[18.7347281,46.6132336],[18.7374827,46.6159063],[18.7385781,46.617812],[18.7429662,46.622776],[18.7440555,46.6258221],[18.7445999,46.6265859],[18.7462556,46.628115],[18.7479003,46.6300221],[18.750107,46.6311683],[18.7512073,46.6323178],[18.7556102,46.6349942],[18.7600245,46.6372863],[18.7700323,46.6262727],[18.7789185,46.6175364],[18.79837,46.5928263],[18.7972695,46.5916835],[18.7961832,46.5874913],[18.7956367,46.5871058],[18.7967476,46.5859679],[18.7967494,46.5855836],[18.7923377,46.583293],[18.789041,46.5809985],[18.7879446,46.5790933],[18.7857429,46.5771854],[18.7829875,46.5764167],[18.7807785,46.5760273],[18.7791249,46.5760234],[18.7763588,46.5756388],[18.7736036,46.5748698],[18.771948,46.5752501],[18.7680699,46.5779057],[18.7647435,46.5798002],[18.76363,46.5813221],[18.7608566,46.5839803],[18.7603083,46.5839789],[18.7581033,46.5828267],[18.7564576,46.581304],[18.7542507,46.580536],[18.7536997,46.5793879],[18.7526094,46.5782447],[18.7526281,46.5748173],[18.752073,46.5744378],[18.7520897,46.5713884],[18.7509844,46.5713856],[18.7504425,46.5702437],[18.7504872,46.5677871],[18.7528683,46.5680532],[18.7593988,46.5542699],[18.7593941,46.5523783],[18.7621312,46.5519961],[18.7637781,46.5531406],[18.766543,46.5535256],[18.76598,46.5546708],[18.7813793,46.5653683],[18.7797146,46.5676514],[18.7885166,46.5741424],[18.7907364,46.5722447],[18.7929614,46.5692066],[18.7940613,46.5684467],[18.7940684,46.566922],[18.7946273,46.566539],[18.795179,46.5657841],[18.7974123,46.5608369],[18.8018518,46.5566568],[18.8040666,46.5536122],[18.8062866,46.5513361],[18.8090528,46.5494392],[18.8112659,46.5486815],[18.8101661,46.5475326],[18.8101677,46.5471545],[18.8107246,46.5471557],[18.8129286,46.5463979],[18.8151399,46.5460244],[18.8151415,46.5456401],[18.8156984,46.5456413],[18.8184446,46.5483119],[18.8195462,46.5490765],[18.8305693,46.5510008],[18.8344425,46.5506301],[18.8360998,46.5494928],[18.8366537,46.5479691],[18.8372121,46.5475859],[18.8394128,46.5475899],[18.8421837,46.5464546],[18.8455033,46.542655],[18.849378,46.5392344],[18.8504826,46.5392363],[18.8532426,46.5384787],[18.8537994,46.5384797],[18.8543459,46.5388587],[18.8554491,46.5392448],[18.8571066,46.540388],[18.8571187,46.5369606],[18.8576692,46.5361992],[18.8587764,46.5354387],[18.8620838,46.5346818],[18.8637452,46.5346845],[18.8714756,46.5324159],[18.8764451,46.5312769],[18.8775532,46.5301382],[18.8742434,46.5289927],[18.8720358,46.5286051],[18.8681759,46.528221],[18.8676295,46.5278359],[18.867632,46.5270797],[18.8670778,46.5263165],[18.8659837,46.5259305],[18.864878,46.526313],[18.8643213,46.5263121],[18.8632195,46.525548],[18.8621164,46.5251619],[18.862119,46.5244058],[18.8626744,46.5247848],[18.8830666,46.5301463],[18.8907846,46.5316818],[18.8957494,46.5320666],[18.8952155,46.52712],[18.8963422,46.5191201],[18.899113,46.5137936],[18.9040933,46.5077074],[18.9074082,46.5031437],[18.9101812,46.4997197],[18.9118391,46.4970566],[18.9103695,46.4951571],[18.9173629,46.4913486],[18.9223628,46.4749795],[18.9240465,46.464321],[18.9234992,46.4605087],[18.920224,46.4498448],[18.9163761,46.4429856],[18.9213444,46.4384234],[18.9185978,46.4361333],[18.9180528,46.4353703],[18.9329261,46.4342459],[18.9340247,46.4361498],[18.9455938,46.4331176],[18.9450467,46.4285431],[18.9626744,46.4239898],[18.9604842,46.4205607],[18.9560771,46.4194168],[18.9522252,46.4186513],[18.9500221,46.4178871],[18.948374,46.4175076],[18.9478288,46.4167448],[18.9478309,46.4155982],[18.9456273,46.4152182],[18.9428816,46.4125506],[18.9384733,46.4125465],[18.9395784,46.4110229],[18.9395791,46.4106448],[18.9384786,46.4098814],[18.9384794,46.4094972],[18.9406857,46.4083589],[18.9412352,46.4068347],[18.9423386,46.4060734],[18.9423393,46.4056953],[18.9412426,46.4030292],[18.9416635,46.4026432],[18.9416649,46.401887],[18.9405668,46.3999771],[18.9389111,46.3992194],[18.9379566,46.397696],[18.9368549,46.3976949],[18.9363003,46.3973101],[18.9352017,46.3957905],[18.9352064,46.3935035],[18.9368673,46.3916024],[18.9363143,46.3904553],[18.9335687,46.3885498],[18.9313671,46.3877853],[18.9291754,46.3866426],[18.9280747,46.3862634],[18.9264179,46.3862616],[18.925327,46.3854981],[18.924229,46.3839723],[18.9236737,46.3839717],[18.9231284,46.3835868],[18.9225731,46.3835862],[18.9225714,46.3843485],[18.9220242,46.3847322],[18.9209236,46.3843467],[18.9209254,46.3835844],[18.9104775,46.3824318],[18.9099223,46.3824312],[18.9066239,46.3835675],[18.9060687,46.3835668],[18.9055215,46.3839504],[18.9055225,46.3835661],[18.9033215,46.3828072],[18.9027752,46.3828065],[18.9011227,46.3812797],[18.9000223,46.3808941],[18.9000233,46.380516],[18.8994781,46.380131],[18.8994885,46.3763256],[18.8983892,46.3755618],[18.8989385,46.3744221],[18.8972963,46.3725172],[18.8973005,46.3709925],[18.8934561,46.3690846],[18.8940162,46.3641333],[18.8934788,46.3610833],[18.898431,46.3603337],[18.9028391,46.3588148],[18.9050291,46.359958],[18.9055841,46.3599587],[18.9066841,46.3603443],[18.9072302,46.360345],[18.9094341,46.3595853],[18.9094332,46.3599634],[18.9116352,46.3599661],[18.9138273,46.3603529],[18.9143832,46.3599693],[18.9149283,46.3603542],[18.9165745,46.3607342],[18.9171304,46.3603568],[18.9215272,46.3595994],[18.9226282,46.3596006],[18.9237301,46.3592176],[18.9248311,46.3592188],[18.9275799,46.3588436],[18.9286818,46.3584605],[18.9281357,46.35846],[18.9281433,46.3550326],[18.9303394,46.3535164],[18.9303427,46.3519917],[18.9292524,46.3512283],[18.9286976,46.3512277],[18.9281524,46.3508491],[18.9281558,46.3493244],[18.9270567,46.3485609],[18.9248551,46.3485585],[18.9237552,46.3481731],[18.9232102,46.3477944],[18.9226553,46.3477938],[18.9210113,46.3466516],[18.9204681,46.3455044],[18.9204708,46.344364],[18.9215678,46.3420782],[18.9221235,46.3417008],[18.9232241,46.341702],[18.9237691,46.3420806],[18.9248663,46.3436065],[18.9259653,46.34437],[18.9265111,46.3443706],[18.9270668,46.3439931],[18.9270702,46.3424684],[18.9276169,46.3420848],[18.9287183,46.3417079],[18.929819,46.341709],[18.9309204,46.3413321],[18.9314663,46.3413326],[18.9320227,46.3405709],[18.9320235,46.3401866],[18.9314695,46.339808],[18.9287241,46.3390428],[18.9270803,46.3379007],[18.9248817,46.3367517],[18.9237821,46.3363725],[18.9221384,46.335224],[18.9221401,46.3344679],[18.9215872,46.333705],[18.9221436,46.3329433],[18.9221454,46.3321809],[18.922692,46.3317973],[18.9237933,46.3314204],[18.9254484,46.3314222],[18.9276445,46.3295218],[18.9303935,46.3283843],[18.9314955,46.3276231],[18.9309506,46.3272383],[18.9303976,46.3264754],[18.9287541,46.3253333],[18.9265543,46.3249529],[18.9243644,46.3241882],[18.9243635,46.3245662],[18.923808,46.3249499],[18.9238054,46.3260903],[18.9232597,46.3260897],[18.9205116,46.326849],[18.919957,46.3268484],[18.9199659,46.3230367],[18.9205223,46.322275],[18.9210688,46.3218976],[18.9210697,46.3215195],[18.9188702,46.3211327],[18.9183264,46.3203698],[18.9188729,46.3199924],[18.9155831,46.3192262],[18.9194382,46.3154252],[18.9210901,46.3127558],[18.9222006,46.3081893],[18.9216515,46.3059078],[18.9216629,46.3009558],[18.9189359,46.2933357],[18.9178353,46.2937125],[18.9178435,46.2902851],[18.9140208,46.2815232],[18.9129308,46.2777164],[18.9123951,46.2739041],[18.9107717,46.265529],[18.9113282,46.2609557],[18.9096861,46.2601976],[18.9091321,46.2601969],[18.9085881,46.259812],[18.9069451,46.2594319],[18.9052942,46.2586675],[18.9003533,46.2586612],[18.8921214,46.2597906],[18.8893762,46.2605491],[18.8860736,46.2624471],[18.8844238,46.2643475],[18.8805745,46.2666289],[18.8783692,46.2689126],[18.8761661,46.2704339],[18.8750657,46.2708103],[18.8690259,46.2704229],[18.8673828,46.270036],[18.864093,46.2677437],[18.8624552,46.2658383],[18.8624591,46.264698],[18.8630055,46.2643146],[18.8652253,46.2578477],[18.8674332,46.2548019],[18.8690808,46.2536641],[18.8696372,46.2529027],[18.8729345,46.2498647],[18.8762416,46.2464424],[18.8767889,46.2456809],[18.8768032,46.2411132],[18.8751695,46.2380614],[18.8729797,46.235771],[18.869147,46.2334843],[18.8669641,46.2319561],[18.8647622,46.2334773],[18.8620153,46.2349974],[18.8554205,46.2361268],[18.8537772,46.236124],[18.8510423,46.2342166],[18.849948,46.2330681],[18.8477651,46.2292588],[18.8450365,46.2258266],[18.8423053,46.2231566],[18.8395685,46.2220112],[18.8362769,46.2212428],[18.8324437,46.2197109],[18.8313486,46.2189465],[18.8302489,46.2193224],[18.8220262,46.2193063],[18.8225677,46.2200697],[18.812698,46.2189092],[18.8083144,46.2189],[18.8061164,46.2192734],[18.8033755,46.2192675],[18.8011758,46.2200251],[18.7989812,46.2196422],[18.7923958,46.2207679],[18.7852621,46.2207515],[18.7836212,46.2203696],[18.783623,46.2199854],[18.7830676,46.2203683],[18.7819713,46.2199815],[18.7808784,46.2207413],[18.7792247,46.2211216],[18.7786763,46.2218826],[18.7781209,46.2222594],[18.7770316,46.2222568],[18.7759353,46.2218761],[18.7770392,46.2207321],[18.7781379,46.218832],[18.7781398,46.218454],[18.7775971,46.2180684],[18.7775989,46.2176904],[18.7754046,46.2173008],[18.7754008,46.2180631],[18.7759524,46.2184487],[18.7759467,46.2195891],[18.7753913,46.2199658],[18.7748467,46.2199645],[18.7715483,46.2207188],[18.7715502,46.2203408],[18.7721057,46.2199579],[18.7721115,46.2188175],[18.7710153,46.2184367],[18.7710211,46.2172902],[18.7699269,46.2165252],[18.7644127,46.2210854],[18.7589266,46.2218339],[18.759437,46.2283057],[18.7539419,46.2305785],[18.7512171,46.227522],[18.7424352,46.228261],[18.7429628,46.2313117],[18.7418644,46.2313088],[18.7407771,46.2309215],[18.7407793,46.2305435],[18.7396852,46.2297782],[18.7391359,46.2290143],[18.7380484,46.2271086],[18.7380506,46.2267244],[18.7391575,46.2252089],[18.7391683,46.2233001],[18.7386237,46.2232986],[18.7375276,46.2229175],[18.7353334,46.2225272],[18.7347931,46.2217696],[18.7314852,46.2240411],[18.7309406,46.2240396],[18.7298401,46.2244208],[18.7292843,46.2247973],[18.7259985,46.224788],[18.7254426,46.2251706],[18.7232256,46.2285855],[18.7226718,46.2301085],[18.7221225,46.2308693],[18.7215438,46.2350573],[18.7160766,46.2323764],[18.7056822,46.226631],[18.7018038,46.2327116],[18.6995989,46.2353699],[18.6979393,46.2365113],[18.6913723,46.2342038],[18.69083,46.233824],[18.6897341,46.2334363],[18.6870102,46.2307626],[18.6842522,46.2318941],[18.6842471,46.2326564],[18.6837023,46.2326547],[18.684242,46.2334187],[18.6836921,46.2341793],[18.6825681,46.2379811],[18.6820233,46.2379794],[18.6820208,46.2383636],[18.681467,46.2383618],[18.6814645,46.2387399],[18.6803633,46.2391206],[18.6798185,46.2391188],[18.6770974,46.2360606],[18.6749109,46.2345349],[18.6749213,46.2330103],[18.6760328,46.2311112],[18.6760458,46.2292023],[18.6766009,46.2276857],[18.6755339,46.2231082],[18.6733464,46.2231009],[18.6727954,46.222721],[18.6722482,46.2230973],[18.6716972,46.2227174],[18.6722639,46.2208165],[18.671713,46.2204304],[18.6706122,46.220811],[18.670065,46.2211873],[18.6689668,46.2211836],[18.6684168,46.2219441],[18.6662204,46.2219367],[18.6651196,46.222311],[18.6645722,46.2226934],[18.6640187,46.2226915],[18.6623839,46.2215456],[18.6623893,46.2207833],[18.6634983,46.2192624],[18.6635063,46.218122],[18.6629609,46.2169735],[18.6602337,46.2150615],[18.6607837,46.214301],[18.6602473,46.2131588],[18.6607945,46.2127764],[18.6608081,46.2108737],[18.6613696,46.2097353],[18.6613777,46.2085949],[18.6608297,46.2078307],[18.6569915,46.2078174],[18.6558964,46.2074294],[18.6542595,46.2066614],[18.652631,46.2047529],[18.6493541,46.2024606],[18.6482592,46.2020725],[18.6477175,46.2016925],[18.6455191,46.2020627],[18.6438797,46.2016788],[18.6411397,46.201669],[18.6405893,46.2012827],[18.6400448,46.2012807],[18.6389556,46.2001364],[18.6378722,46.1982297],[18.6378837,46.1967051],[18.6373422,46.1963189],[18.6362474,46.1959368],[18.6335133,46.1940241],[18.6329631,46.1947844],[18.6329486,46.1966871],[18.6323984,46.1974474],[18.6312949,46.1982056],[18.631292,46.1985837],[18.6301913,46.1989639],[18.6290878,46.1997159],[18.6290819,46.2004783],[18.6285345,46.2008605],[18.6285316,46.2012385],[18.6279782,46.2012365],[18.6268716,46.202379],[18.6252264,46.2027509],[18.6246553,46.2050357],[18.6246375,46.2073165],[18.6240871,46.2080767],[18.6240812,46.208839],[18.6218823,46.2092088],[18.6207784,46.209967],[18.6207665,46.2114916],[18.6218585,46.2122581],[18.6218525,46.2130204],[18.621299,46.2141587],[18.621293,46.214921],[18.620186,46.2160572],[18.620183,46.2164415],[18.6196354,46.2168175],[18.6212572,46.2194887],[18.6212512,46.220251],[18.6223374,46.2217798],[18.6228731,46.2229222],[18.6228582,46.2248311],[18.6222987,46.2267317],[18.6211855,46.2286302],[18.6211735,46.2301549],[18.6217122,46.2309192],[18.6217003,46.2324377],[18.6200452,46.2339561],[18.6194944,46.2347163],[18.6194734,46.2373813],[18.6211107,46.2381499],[18.620554,46.2385258],[18.6200092,46.2385238],[18.6189077,46.2389038],[18.6183599,46.2392798],[18.6183539,46.2400421],[18.6178031,46.239662],[18.6167016,46.2400358],[18.6117594,46.2404011],[18.6106548,46.241153],[18.606808,46.2419004],[18.6024257,46.2415051],[18.601324,46.2418788],[18.5980093,46.2441527],[18.5958178,46.244522],[18.5952767,46.2430013],[18.592637,46.240297],[18.5925761,46.2380384],[18.5931336,46.2365159],[18.5920632,46.2342308],[18.5915159,46.2334663],[18.5909744,46.2330798],[18.5909968,46.2304148],[18.5915575,46.2285143],[18.5888226,46.2277409],[18.5866356,46.2265916],[18.5855406,46.2262028],[18.5855535,46.2246844],[18.5850122,46.2242979],[18.5833725,46.2239131],[18.5822743,46.2239086],[18.581724,46.2235221],[18.5811793,46.2235198],[18.580629,46.2231395],[18.5800942,46.2219906],[18.5795439,46.2216103],[18.5795472,46.2212322],[18.5790059,46.2208457],[18.5779209,46.2193165],[18.5779242,46.2189385],[18.5773829,46.2185519],[18.5768359,46.2177935],[18.5757378,46.2177889],[18.5735605,46.2166332],[18.5708142,46.2162435],[18.5685666,46.2230889],[18.5680164,46.2227023],[18.5647341,46.2223102],[18.5636427,46.2215432],[18.5630891,46.2215408],[18.5630823,46.2223031],[18.5619909,46.2215361],[18.5581689,46.2196168],[18.555985,46.219223],[18.5548869,46.2192182],[18.5548903,46.2188402],[18.5537888,46.2192134],[18.552146,46.2192062],[18.5488411,46.2203383],[18.5482806,46.2210981],[18.547736,46.2210957],[18.5466343,46.2214689],[18.5482701,46.2222385],[18.5471633,46.2241363],[18.5466132,46.2237558],[18.5455115,46.224129],[18.5449668,46.2241265],[18.5427598,46.2252571],[18.5416544,46.2260145],[18.5394579,46.2260046],[18.538365,46.2263839],[18.5383614,46.226762],[18.5378078,46.2267595],[18.5372595,46.2271413],[18.5361612,46.2271363],[18.5334092,46.2282642],[18.5328592,46.2278774],[18.5306372,46.2305386],[18.5289796,46.2320494],[18.5284166,46.2339558],[18.5316813,46.2362516],[18.533871,46.2370239],[18.5349516,46.2389316],[18.5360465,46.2393208]]],[[[18.8755788,46.628762],[18.8777859,46.6306681],[18.8805501,46.629916],[18.8800013,46.6299152],[18.8800036,46.6291529],[18.8789031,46.6272485],[18.8783615,46.6249607],[18.8767022,46.6234335],[18.8761583,46.621908],[18.8756031,46.6211448],[18.8723189,46.6131446],[18.8701165,46.610098],[18.870119,46.6093357],[18.867371,46.6055197],[18.8662675,46.6047618],[18.8657241,46.6032362],[18.8651769,46.600186],[18.8701428,46.6020966],[18.870149,46.6001939],[18.8745727,46.6002007],[18.8745739,46.5998226],[18.8789838,46.6013539],[18.886713,46.6025055],[18.8905706,46.605554],[18.8960975,46.6067081],[18.9110339,46.5994879],[18.9198775,46.5972173],[18.9242894,46.5983626],[18.9270496,46.5983655],[18.9287112,46.5991296],[18.9292597,46.5991302],[18.929809,46.5987465],[18.9320191,46.5995111],[18.9342349,46.5976105],[18.9353408,46.5976116],[18.9425229,46.5983808],[18.9441751,46.5995227],[18.9463833,46.6014336],[18.9535539,46.6041049],[18.9557639,46.6052471],[18.9629456,46.6071553],[18.964599,46.6079189],[18.9662542,46.607542],[18.969573,46.6071601],[18.9706812,46.6056361],[18.9704046,46.6040236],[18.9684299,46.6001027],[18.9673642,46.5990457],[18.9668485,46.5979591],[18.9668485,46.5973213],[18.9670892,46.5969434],[18.9680346,46.5962642],[18.9684471,46.5955615],[18.9684385,46.5951835],[18.9665391,46.5926499],[18.9665821,46.5923782],[18.9659201,46.5904178],[18.9574469,46.5881113],[18.9568986,46.5881109],[18.9557942,46.5873476],[18.9530332,46.5881077],[18.9508219,46.5881059],[18.9508239,46.5869655],[18.9491755,46.5839147],[18.9519349,46.5839171],[18.9519356,46.583539],[18.9535895,46.5835404],[18.9535901,46.5831561],[18.9541487,46.5824004],[18.9552543,46.5824013],[18.9563592,46.5827803],[18.9582282,46.5826973],[18.9581766,46.5823429],[18.9588384,46.5813623],[18.9607378,46.5812265],[18.9613223,46.5809783],[18.9629036,46.5797673],[18.9628607,46.5781487],[18.9618846,46.5785948],[18.9585669,46.5793546],[18.9547003,46.5804919],[18.9519403,46.5808739],[18.9502865,46.5808725],[18.9486244,46.5804868],[18.9486251,46.5801087],[18.9508388,46.578586],[18.9513961,46.5785864],[18.951945,46.5782088],[18.9524932,46.5782093],[18.9569189,46.5759259],[18.9574665,46.5763044],[18.9602358,46.5755504],[18.9602352,46.5759285],[18.9618888,46.5759297],[18.9679658,46.5747937],[18.9701777,46.5740329],[18.9679664,46.5744094],[18.967968,46.573269],[18.9690745,46.5725074],[18.9701831,46.5702212],[18.9712837,46.5671788],[18.9712842,46.5667945],[18.9686782,46.564607],[18.9658109,46.5648445],[18.9619074,46.5641228],[18.9619068,46.5645071],[18.9613497,46.5645066],[18.9602517,46.5656462],[18.9607992,46.5660309],[18.9607986,46.566409],[18.9602499,46.5667866],[18.959144,46.56717],[18.9574798,46.5683091],[18.9574791,46.5686934],[18.9563828,46.5686925],[18.9547191,46.5694535],[18.9525072,46.5702079],[18.9469841,46.5732525],[18.9453305,46.573251],[18.9425708,46.5736266],[18.9425701,46.5740108],[18.941464,46.5743879],[18.9364942,46.5743831],[18.9309681,46.5739996],[18.9282075,46.574759],[18.9282024,46.5770399],[18.9265488,46.5770381],[18.9193661,46.5777926],[18.9188197,46.5770296],[18.9188242,46.5751269],[18.9105343,46.5766419],[18.9083234,46.5766392],[18.9061206,46.5770146],[18.9033525,46.5770111],[18.8845825,46.5754673],[18.8812659,46.5785057],[18.8779364,46.5826905],[18.8735085,46.5872517],[18.8712922,46.5887729],[18.8668567,46.5925715],[18.8640852,46.5959945],[18.8629716,46.5982797],[18.8613094,46.600564],[18.8596457,46.6032264],[18.8590763,46.6066528],[18.8612622,46.6142736],[18.8623618,46.6161782],[18.8689752,46.6207566],[18.8722819,46.6245672],[18.8755788,46.628762]]]]}}]}