{
  "type": "FeatureCollection",
  "features": [
    {
      "type": "Feature",
      "geometry": {
        "type": "Polygon",
        "coordinates": [
          [
            [
              4.954844419308118,
              47.19031389860355,
              0.0
            ],
            [
              4.954759141869307,
              47.19017310507717,
              0.0
            ],
            [
              4.954933994470705,
              47.19006744460544,
              0.0
            ],
            [
              4.955133732527079,
              47.1899812921266,
              0.0
            ],
            [
              4.955317620170292,
              47.1899090785048,
              0.0
            ],
            [
              4.955517853330065,
              47.18986712011623,
              0.0
            ],
            [
              4.955758387028284,
              47.18978792171511,
              0.0
            ],
            [
              4.955761358138322,
              47.18979074490312,
              0.0
            ],
            [
              4.955803112122272,
              47.18978546736775,
              0.0
            ],
            [
              4.956064641625066,
              47.18969495318868,
              0.0
            ],
            [
              4.956183584015763,
              47.1897914046209,
              0.0
            ],
            [
              4.954844419308118,
              47.19031389860355,
              0.0
            ]
          ]
        ]
      },
      "properties": {
        "folder": "01Domaine Georges Roumier.kmz / Domaine Georges Roumier",
        "name": "Domaine Georges Roumier"
      }
    },
    {
      "type": "Feature",
      "geometry": {
        "type": "Polygon",
        "coordinates": [
          [
            [
              4.955975700036392,
              47.19307594241236,
              0.0
            ],
            [
              4.955832398556829,
              47.19264401473357,
              0.0
            ],
            [
              4.956106017124073,
              47.19256285038291,
              0.0
            ],
            [
              4.956815015135114,
              47.19235726106665,
              0.0
            ],
            [
              4.956931536815919,
              47.1927697618335,
              0.0
            ],
            [
              4.955975700036392,
              47.19307594241236,
              0.0
            ]
          ]
        ]
      },
      "properties": {
        "folder": "01Domaine Georges Roumier.kmz / Domaine Georges Roumier",
        "name": "Domaine Georges Roumier"
      }
    },
    {
      "type": "Feature",
      "geometry": {
        "type": "Polygon",
        "coordinates": [
          [
            [
              4.957452678304421,
              47.19443482091771,
              0.0
            ],
            [
              4.957365251701964,
              47.19435383397852,
              0.0
            ],
            [
              4.957223855051536,
              47.19421009983971,
              0.0
            ],
            [
              4.957121770600564,
              47.1940928112459,
              0.0
            ],
            [
              4.957125540737426,
              47.19405539712884,
              0.0
            ],
            [
              4.957229072601268,
              47.19401198515583,
              0.0
            ],
            [
              4.957364416904893,
              47.193971093911,
              0.0
            ],
            [
              4.957658049809144,
              47.19435877967708,
              0.0
            ],
            [
              4.957452678304421,
              47.19443482091771,
              0.0
            ]
          ]
        ]
      },
      "properties": {
        "folder": "01Domaine Georges Roumier.kmz / Domaine Georges Roumier",
        "name": "Domaine Georges Roumier"
      }
    },
    {
      "type": "Feature",
      "geometry": {
        "type": "Polygon",
        "coordinates": [
          [
            [
              4.9574268935876,
              47.19399623743143,
              0.0
            ],
            [
              4.957419043469384,
              47.19399587000773,
              0.0
            ],
            [
              4.95744510105985,
              47.19397165665571,
              0.0
            ],
            [
              4.958346169306007,
              47.19368013067368,
              0.0
            ],
            [
              4.958765157947768,
              47.19354093644116,
              0.0
            ],
            [
              4.959163380537053,
              47.19342270481084,
              0.0
            ],
            [
              4.959342234017159,
              47.19337060596798,
              0.0
            ],
            [
              4.959393390947991,
              47.19338349165692,
              0.0
            ],
            [
              4.959428551755316,
              47.19344541633271,
              0.0
            ],
            [
              4.959495413511368,
              47.19352209274501,
              0.0
            ],
            [
              4.959592696735545,
              47.1935163163223,
              0.0
            ],
            [
              4.959689107878454,
              47.19351142078519,
              0.0
            ],
            [
              4.959773485656518,
              47.19354088001359,
              0.0
            ],
            [
              4.959878371236279,
              47.19360465586236,
              0.0
            ],
            [
              4.958586107856256,
              47.1940084537055,
              0.0
            ],
            [
              4.957660541050037,
              47.19430559108602,
              0.0
            ],
            [
              4.9574268935876,
              47.19399623743143,
              0.0
            ]
          ]
        ]
      },
      "properties": {
        "folder": "01Domaine Georges Roumier.kmz / Domaine Georges Roumier",
        "name": "Domaine Georges Roumier"
      }
    }
  ]
}