{
  "type": "FeatureCollection",
  "features": [
    {
      "type": "Feature",
      "geometry": {
        "type": "Polygon",
        "coordinates": [
          [
            [
              4.95658007495932,
              47.1932706702617,
              0.0
            ],
            [
              4.957113336070929,
              47.19307653281161,
              0.0
            ],
            [
              4.957653135724385,
              47.19287049888833,
              0.0
            ],
            [
              4.957780095290705,
              47.19289806040526,
              0.0
            ],
            [
              4.957075449077067,
              47.19316109585591,
              0.0
            ],
            [
              4.956608095266056,
              47.19333234849444,
              0.0
            ],
            [
              4.95658007495932,
              47.1932706702617,
              0.0
            ]
          ]
        ]
      },
      "properties": {
        "folder": "02Domaine Bruno Clair.kmz / Domaine Bruno Clair",
        "name": "Domaine Bruno Clair"
      }
    },
    {
      "type": "Feature",
      "geometry": {
        "type": "Polygon",
        "coordinates": [
          [
            [
              4.957598447987646,
              47.19484502074061,
              0.0
            ],
            [
              4.957523695185797,
              47.19477701243719,
              0.0
            ],
            [
              4.957542800056142,
              47.1947721762105,
              0.0
            ],
            [
              4.957255682548314,
              47.19450045260486,
              0.0
            ],
            [
              4.956939749248792,
              47.19424313519043,
              0.0
            ],
            [
              4.957028126937719,
              47.19420709413156,
              0.0
            ],
            [
              4.957069866462096,
              47.19420201873893,
              0.0
            ],
            [
              4.957085428042081,
              47.19419220791703,
              0.0
            ],
            [
              4.957095323914902,
              47.19417716194344,
              0.0
            ],
            [
              4.957297311521083,
              47.19436690375696,
              0.0
            ],
            [
              4.957468651666954,
              47.1945421177666,
              0.0
            ],
            [
              4.95770863513719,
              47.19480615366761,
              0.0
            ],
            [
              4.957711470502613,
              47.19481030613925,
              0.0
            ],
            [
              4.957598447987646,
              47.19484502074061,
              0.0
            ]
          ]
        ]
      },
      "properties": {
        "folder": "02Domaine Bruno Clair.kmz / Domaine Bruno Clair",
        "name": "Domaine Bruno Clair"
      }
    },
    {
      "type": "Feature",
      "geometry": {
        "type": "Polygon",
        "coordinates": [
          [
            [
              4.95771206121669,
              47.19480785327008,
              0.0
            ],
            [
              4.957422725131519,
              47.19448660967782,
              0.0
            ],
            [
              4.957420036579019,
              47.19448551937943,
              0.0
            ],
            [
              4.957666280750413,
              47.19436835852125,
              0.0
            ],
            [
              4.957663904312366,
              47.19436543263529,
              0.0
            ],
            [
              4.958027548586339,
              47.19472666831454,
              0.0
            ],
            [
              4.95771206121669,
              47.19480785327008,
              0.0
            ]
          ]
        ]
      },
      "properties": {
        "folder": "02Domaine Bruno Clair.kmz / Domaine Bruno Clair",
        "name": "Domaine Bruno Clair"
      }
    },
    {
      "type": "Feature",
      "geometry": {
        "type": "Polygon",
        "coordinates": [
          [
            [
              4.959878778646145,
              47.19360065503029,
              0.0
            ],
            [
              4.959985891737562,
              47.19360377252118,
              0.0
            ],
            [
              4.960340811135273,
              47.19352712569334,
              0.0
            ],
            [
              4.960330908797004,
              47.19353017167664,
              0.0
            ],
            [
              4.960466138348101,
              47.19373752274965,
              0.0
            ],
            [
              4.960621514264833,
              47.19401609543266,
              0.0
            ],
            [
              4.960604387562338,
              47.19400708704302,
              0.0
            ],
            [
              4.958605887951717,
              47.19456785645885,
              0.0
            ],
            [
              4.958037686750667,
              47.19472057781176,
              0.0
            ],
            [
              4.95786992414502,
              47.19455612243883,
              0.0
            ],
            [
              4.95766700536592,
              47.19430679645416,
              0.0
            ],
            [
              4.959878778646145,
              47.19360065503029,
              0.0
            ]
          ]
        ]
      },
      "properties": {
        "folder": "02Domaine Bruno Clair.kmz / Domaine Bruno Clair",
        "name": "Domaine Bruno Clair"
      }
    }
  ]
}