{
  "type": "FeatureCollection",
  "features": [
    {
      "type": "Feature",
      "geometry": {
        "type": "Polygon",
        "coordinates": [
          [
            [
              4.956583316678014,
              47.19346333189065,
              0.0
            ],
            [
              4.957085425152212,
              47.1932751109581,
              0.0
            ],
            [
              4.957106952477234,
              47.1934406164346,
              0.0
            ],
            [
              4.957113623784981,
              47.19360334843557,
              0.0
            ],
            [
              4.95713330943645,
              47.193652498319,
              0.0
            ],
            [
              4.957339909568772,
              47.19394892137809,
              0.0
            ],
            [
              4.957184176162681,
              47.19400492269272,
              0.0
            ],
            [
              4.957114914000735,
              47.19403036964687,
              0.0
            ],
            [
              4.957072316176827,
              47.19403399152098,
              0.0
            ],
            [
              4.957041723075355,
              47.19401187952741,
              0.0
            ],
            [
              4.956978406860564,
              47.19397736308914,
              0.0
            ],
            [
              4.956858099459462,
              47.19385249107815,
              0.0
            ],
            [
              4.956768820447898,
              47.19371261245276,
              0.0
            ],
            [
              4.956676737341739,
              47.19358701344592,
              0.0
            ],
            [
              4.956583316678014,
              47.19346333189065,
              0.0
            ]
          ]
        ]
      },
      "properties": {
        "folder": "03Domaine le Vooget.kmz",
        "name": "Domaine le Vooget"
      }
    }
  ]
}