{
  "type": "FeatureCollection",
  "features": [
    {
      "type": "Feature",
      "geometry": {
        "type": "Polygon",
        "coordinates": [
          [
            [
              4.956594814189936,
              47.19334115738505,
              0.0
            ],
            [
              4.957107688376956,
              47.19314892740923,
              0.0
            ],
            [
              4.957369838600085,
              47.19305075212762,
              0.0
            ],
            [
              4.957787838150378,
              47.1928929149379,
              0.0
            ],
            [
              4.957937561322099,
              47.19284885345612,
              0.0
            ],
            [
              4.958506826777194,
              47.19267934055665,
              0.0
            ],
            [
              4.959051631876008,
              47.19251047139748,
              0.0
            ],
            [
              4.959051512755295,
              47.1925137763528,
              0.0
            ],
            [
              4.959082179557033,
              47.19264337138267,
              0.0
            ],
            [
              4.958507319334789,
              47.19281360160931,
              0.0
            ],
            [
              4.957864867609169,
              47.19300778974077,
              0.0
            ],
            [
              4.957154956571095,
              47.19326194139359,
              0.0
            ],
            [
              4.957087653488948,
              47.19327052455274,
              0.0
            ],
            [
              4.956668359350758,
              47.19342205065423,
              0.0
            ],
            [
              4.956594814189936,
              47.19334115738505,
              0.0
            ]
          ]
        ]
      },
      "properties": {
        "folder": "04Domaine Georges Lignier.kmz",
        "name": "Domaine Georges Lignier"
      }
    }
  ]
}