{
  "type": "FeatureCollection",
  "features": [
    {
      "type": "Feature",
      "geometry": {
        "type": "Polygon",
        "coordinates": [
          [
            [
              4.958927233437977,
              47.19170707897867,
              0.0
            ],
            [
              4.957585867016022,
              47.19210786580252,
              0.0
            ],
            [
              4.95679427986955,
              47.1923425175011,
              0.0
            ],
            [
              4.955908857918871,
              47.19260892630222,
              0.0
            ],
            [
              4.955871068949338,
              47.19254480967831,
              0.0
            ],
            [
              4.955884218298168,
              47.19254218545363,
              0.0
            ],
            [
              4.956836682765604,
              47.19224654657411,
              0.0
            ],
            [
              4.958884709606462,
              47.19164189835756,
              0.0
            ],
            [
              4.958927233437977,
              47.19170707897867,
              0.0
            ]
          ]
        ]
      },
      "properties": {
        "folder": "05Domaine Arlaud.kmz",
        "name": "Domaine Arlaud"
      }
    }
  ]
}