{
  "type": "FeatureCollection",
  "features": [
    {
      "type": "Feature",
      "geometry": {
        "type": "Polygon",
        "coordinates": [
          [
            [
              4.955896596262881,
              47.19253842724608,
              0.0
            ],
            [
              4.955831929376416,
              47.19244951030039,
              0.0
            ],
            [
              4.956796880423902,
              47.19215829670112,
              0.0
            ],
            [
              4.956805021590263,
              47.19215002073214,
              0.0
            ],
            [
              4.956809008685417,
              47.19215168423008,
              0.0
            ],
            [
              4.957630981145014,
              47.19191777189165,
              0.0
            ],
            [
              4.958833190669165,
              47.19155778421998,
              0.0
            ],
            [
              4.958887116864734,
              47.19163749770295,
              0.0
            ],
            [
              4.955896596262881,
              47.19253842724608,
              0.0
            ]
          ]
        ]
      },
      "properties": {
        "folder": "06Maison Louis Jadot.kmz",
        "name": "Maison Louis Jadot"
      }
    }
  ]
}