{
  "type": "FeatureCollection",
  "features": [
    {
      "type": "Feature",
      "geometry": {
        "type": "Polygon",
        "coordinates": [
          [
            [
              4.956253582418837,
              47.19168190283634,
              0.0
            ],
            [
              4.955825692105835,
              47.19181381342581,
              0.0
            ],
            [
              4.955402143487877,
              47.19195164149513,
              0.0
            ],
            [
              4.955296983718725,
              47.19180122286027,
              0.0
            ],
            [
              4.955980622035541,
              47.1915884485879,
              0.0
            ],
            [
              4.95644678471348,
              47.1914350715616,
              0.0
            ],
            [
              4.956529430416561,
              47.19158977827301,
              0.0
            ],
            [
              4.956253582418837,
              47.19168190283634,
              0.0
            ]
          ]
        ]
      },
      "properties": {
        "folder": "07Domaine Jacques-Frédéric Mugnier.kmz / Domaine Jacques-Frédéric Mugnier",
        "name": "Domaine Jacques-Frédéric Mugnier"
      }
    },
    {
      "type": "Feature",
      "geometry": {
        "type": "Polygon",
        "coordinates": [
          [
            [
              4.958228690476043,
              47.19119983394214,
              0.0
            ],
            [
              4.957614308626328,
              47.19137705643647,
              0.0
            ],
            [
              4.957573886022524,
              47.19133276588153,
              0.0
            ],
            [
              4.957258995376666,
              47.19140757706004,
              0.0
            ],
            [
              4.95693938845082,
              47.19148226099007,
              0.0
            ],
            [
              4.956576674588955,
              47.19156835141476,
              0.0
            ],
            [
              4.956524586032187,
              47.19148100717959,
              0.0
            ],
            [
              4.957025302150995,
              47.19136866713153,
              0.0
            ],
            [
              4.95817733748976,
              47.1910752189525,
              0.0
            ],
            [
              4.958228690476043,
              47.19119983394214,
              0.0
            ]
          ]
        ]
      },
      "properties": {
        "folder": "07Domaine Jacques-Frédéric Mugnier.kmz / Domaine Jacques-Frédéric Mugnier",
        "name": "Domaine Jacques-Frédéric Mugnier"
      }
    },
    {
      "type": "Feature",
      "geometry": {
        "type": "Polygon",
        "coordinates": [
          [
            [
              4.955737995628755,
              47.19237550531277,
              0.0
            ],
            [
              4.955739511745367,
              47.19237429331078,
              0.0
            ],
            [
              4.955901313721385,
              47.19232028684059,
              0.0
            ],
            [
              4.955967178183929,
              47.19239417764808,
              0.0
            ],
            [
              4.955797293224748,
              47.19245112892406,
              0.0
            ],
            [
              4.955737995628755,
              47.19237550531277,
              0.0
            ]
          ]
        ]
      },
      "properties": {
        "folder": "07Domaine Jacques-Frédéric Mugnier.kmz / Domaine Jacques-Frédéric Mugnier",
        "name": "Domaine Jacques-Frédéric Mugnier"
      }
    }
  ]
}