{
  "type": "FeatureCollection",
  "features": [
    {
      "type": "Feature",
      "geometry": {
        "type": "Polygon",
        "coordinates": [
          [
            [
              4.95597456345828,
              47.19239001159377,
              0.0
            ],
            [
              4.955902727434511,
              47.1922901239161,
              0.0
            ],
            [
              4.956735760142106,
              47.19203196575617,
              0.0
            ],
            [
              4.957413939208191,
              47.19183315025841,
              0.0
            ],
            [
              4.958769056264378,
              47.19145055529862,
              0.0
            ],
            [
              4.958819956107559,
              47.19154856504515,
              0.0
            ],
            [
              4.958170214138391,
              47.1917460079394,
              0.0
            ],
            [
              4.957609553299516,
              47.1919112291364,
              0.0
            ],
            [
              4.956441554902195,
              47.19225886792271,
              0.0
            ],
            [
              4.95597456345828,
              47.19239001159377,
              0.0
            ]
          ]
        ]
      },
      "properties": {
        "folder": "08Domaine François Bertheau.kmz",
        "name": "Domaine François Bertheau"
      }
    }
  ]
}