{
  "type": "FeatureCollection",
  "features": [
    {
      "type": "Feature",
      "geometry": {
        "type": "Polygon",
        "coordinates": [
          [
            [
              4.955269490490791,
              47.19180792283351,
              0.0
            ],
            [
              4.955083695148219,
              47.19152088767954,
              0.0
            ],
            [
              4.954984547579803,
              47.19152061747616,
              0.0
            ],
            [
              4.954922721540376,
              47.19149563778649,
              0.0
            ],
            [
              4.954780073206891,
              47.19128761002481,
              0.0
            ],
            [
              4.954759755475793,
              47.19124527893572,
              0.0
            ],
            [
              4.954847248086089,
              47.19121326298662,
              0.0
            ],
            [
              4.954991717603738,
              47.19117368195711,
              0.0
            ],
            [
              4.954876749336252,
              47.19098843346639,
              0.0
            ],
            [
              4.955355430838708,
              47.19087881207102,
              0.0
            ],
            [
              4.956053652504833,
              47.1907269770938,
              0.0
            ],
            [
              4.95605664186731,
              47.19072586806532,
              0.0
            ],
            [
              4.956196688594925,
              47.19099973173166,
              0.0
            ],
            [
              4.956433533017899,
              47.19143608478499,
              0.0
            ],
            [
              4.955269490490791,
              47.19180792283351,
              0.0
            ]
          ]
        ]
      },
      "properties": {
        "folder": "09Domaine Bart.kmz / Domaine Bart",
        "name": "Domaine Bart"
      }
    },
    {
      "type": "Feature",
      "geometry": {
        "type": "Polygon",
        "coordinates": [
          [
            [
              4.955884561697037,
              47.19222677068039,
              0.0
            ],
            [
              4.955693132013971,
              47.19229176791877,
              0.0
            ],
            [
              4.955623390759721,
              47.19222701141073,
              0.0
            ],
            [
              4.955557843546363,
              47.19215196048889,
              0.0
            ],
            [
              4.955993530581154,
              47.19199872099586,
              0.0
            ],
            [
              4.95661945060986,
              47.19177961742921,
              0.0
            ],
            [
              4.956973097840899,
              47.19165778728158,
              0.0
            ],
            [
              4.956962550598581,
              47.19171243094117,
              0.0
            ],
            [
              4.956949589858479,
              47.19179858221857,
              0.0
            ],
            [
              4.956393743490286,
              47.19198080252448,
              0.0
            ],
            [
              4.955839438952536,
              47.19216150706994,
              0.0
            ],
            [
              4.955884561697037,
              47.19222677068039,
              0.0
            ]
          ]
        ]
      },
      "properties": {
        "folder": "09Domaine Bart.kmz / Domaine Bart",
        "name": "Domaine Bart"
      }
    }
  ]
}