{
  "type": "FeatureCollection",
  "features": [
    {
      "type": "Feature",
      "geometry": {
        "type": "Polygon",
        "coordinates": [
          [
            [
              4.954284238669143,
              47.19059319915733,
              0.0
            ],
            [
              4.954222174130853,
              47.190553286317,
              0.0
            ],
            [
              4.954775846416752,
              47.19024795496264,
              0.0
            ],
            [
              4.954835577611842,
              47.19031091281384,
              0.0
            ],
            [
              4.954844110777596,
              47.19031797665216,
              0.0
            ],
            [
              4.954661199067099,
              47.19039341107904,
              0.0
            ],
            [
              4.954284238669143,
              47.19059319915733,
              0.0
            ]
          ]
        ]
      },
      "properties": {
        "folder": "10Domaine Newman.kmz / 10Domaine Newman",
        "name": "10Domaine Newman"
      }
    },
    {
      "type": "Feature",
      "geometry": {
        "type": "Polygon",
        "coordinates": [
          [
            [
              4.9555516381329,
              47.19215477532605,
              0.0
            ],
            [
              4.955511202501437,
              47.19210304232899,
              0.0
            ],
            [
              4.955444094977639,
              47.19201784895522,
              0.0
            ],
            [
              4.956028046738106,
              47.19183435957414,
              0.0
            ],
            [
              4.956566405986926,
              47.19166095915561,
              0.0
            ],
            [
              4.957041950941202,
              47.19154805379845,
              0.0
            ],
            [
              4.95756094208746,
              47.1914315818499,
              0.0
            ],
            [
              4.957691573367773,
              47.19157168219605,
              0.0
            ],
            [
              4.957002507242714,
              47.19177311632421,
              0.0
            ],
            [
              4.957002013700866,
              47.19165919259848,
              0.0
            ],
            [
              4.956970856348448,
              47.19165547716857,
              0.0
            ],
            [
              4.9569707482728,
              47.1916595751184,
              0.0
            ],
            [
              4.956350936551233,
              47.19186861137742,
              0.0
            ],
            [
              4.9555516381329,
              47.19215477532605,
              0.0
            ]
          ]
        ]
      },
      "properties": {
        "folder": "10Domaine Newman.kmz / 10Domaine Newman",
        "name": "10Domaine Newman"
      }
    }
  ]
}