{
  "type": "FeatureCollection",
  "features": [
    {
      "type": "Feature",
      "geometry": {
        "type": "Polygon",
        "coordinates": [
          [
            [
              4.955442766757205,
              47.19201307281872,
              0.0
            ],
            [
              4.955398324549572,
              47.19193638952932,
              0.0
            ],
            [
              4.956528236043861,
              47.19157584459248,
              0.0
            ],
            [
              4.957511534547021,
              47.1913453380375,
              0.0
            ],
            [
              4.957552467099948,
              47.19142866682826,
              0.0
            ],
            [
              4.956625567701294,
              47.19164195935969,
              0.0
            ],
            [
              4.955978974209465,
              47.19185058580373,
              0.0
            ],
            [
              4.955442766757205,
              47.19201307281872,
              0.0
            ]
          ]
        ]
      },
      "properties": {
        "folder": "11Maison Joseph Drouhin.kmz / 11Maison Joseph Drouhin",
        "name": "11Maison Joseph Drouhin"
      }
    },
    {
      "type": "Feature",
      "geometry": {
        "type": "Polygon",
        "coordinates": [
          [
            [
              4.957715620813248,
              47.19151663141658,
              0.0
            ],
            [
              4.957675765004295,
              47.19146397079869,
              0.0
            ],
            [
              4.95860739875422,
              47.19118493003585,
              0.0
            ],
            [
              4.958645876268795,
              47.19124940805662,
              0.0
            ],
            [
              4.958644209463481,
              47.19124373771619,
              0.0
            ],
            [
              4.957715620813248,
              47.19151663141658,
              0.0
            ]
          ]
        ]
      },
      "properties": {
        "folder": "11Maison Joseph Drouhin.kmz / 11Maison Joseph Drouhin",
        "name": "11Maison Joseph Drouhin"
      }
    }
  ]
}