{
  "type": "FeatureCollection",
  "features": [
    {
      "type": "Feature",
      "geometry": {
        "type": "Polygon",
        "coordinates": [
          [
            [
              4.954796931835304,
              47.1909690246213,
              0.0
            ],
            [
              4.954720546612656,
              47.19094443624101,
              0.0
            ],
            [
              4.954624854418588,
              47.19079087361445,
              0.0
            ],
            [
              4.954681768188404,
              47.19076581445622,
              0.0
            ],
            [
              4.954657660341546,
              47.19072720540001,
              0.0
            ],
            [
              4.954964576478032,
              47.19062583570038,
              0.0
            ],
            [
              4.955246392803028,
              47.19053521987755,
              0.0
            ],
            [
              4.955248698885473,
              47.19053431615216,
              0.0
            ],
            [
              4.955387842624523,
              47.19050007568112,
              0.0
            ],
            [
              4.955704494835356,
              47.19039536414784,
              0.0
            ],
            [
              4.956116309179261,
              47.19026904629256,
              0.0
            ],
            [
              4.956118849824556,
              47.19026808214879,
              0.0
            ],
            [
              4.956049042352692,
              47.19061141803447,
              0.0
            ],
            [
              4.956038457746201,
              47.19070847194006,
              0.0
            ],
            [
              4.955491673107295,
              47.1908337813821,
              0.0
            ],
            [
              4.954849269321349,
              47.19098447178901,
              0.0
            ],
            [
              4.954796931835304,
              47.1909690246213,
              0.0
            ]
          ]
        ]
      },
      "properties": {
        "folder": "12Domaine Pierre Naigeon.kmz / 12Domaine Pierre Naigeon",
        "name": "12Domaine Pierre Naigeon"
      }
    },
    {
      "type": "Feature",
      "geometry": {
        "type": "Polygon",
        "coordinates": [
          [
            [
              4.956235064681134,
              47.19100595459494,
              0.0
            ],
            [
              4.95619123402423,
              47.19091042304917,
              0.0
            ],
            [
              4.956312513027211,
              47.19087326907345,
              0.0
            ],
            [
              4.956369714302527,
              47.19086875043752,
              0.0
            ],
            [
              4.956457209763522,
              47.19083796458764,
              0.0
            ],
            [
              4.956588715207677,
              47.19081361116,
              0.0
            ],
            [
              4.957061058799916,
              47.19066779720592,
              0.0
            ],
            [
              4.957107633534346,
              47.19074528210906,
              0.0
            ],
            [
              4.956729853714538,
              47.19086087967349,
              0.0
            ],
            [
              4.956235064681134,
              47.19100595459494,
              0.0
            ]
          ]
        ]
      },
      "properties": {
        "folder": "12Domaine Pierre Naigeon.kmz / 12Domaine Pierre Naigeon",
        "name": "12Domaine Pierre Naigeon"
      }
    }
  ]
}