{
  "type": "FeatureCollection",
  "features": [
    {
      "type": "Feature",
      "geometry": {
        "type": "Polygon",
        "coordinates": [
          [
            [
              4.954674800890865,
              47.1907045526163,
              0.0
            ],
            [
              4.95463986379479,
              47.19066912802514,
              0.0
            ],
            [
              4.955591965920229,
              47.19028565428005,
              0.0
            ],
            [
              4.956180508430217,
              47.19005347006045,
              0.0
            ],
            [
              4.956117333293715,
              47.19026744774277,
              0.0
            ],
            [
              4.954674800890865,
              47.1907045526163,
              0.0
            ]
          ]
        ]
      },
      "properties": {
        "folder": "13Domaine d'Auvenay.kmz / 13Domaine d'Auvenay",
        "name": "13Domaine d'Auvenay"
      }
    },
    {
      "type": "Feature",
      "geometry": {
        "type": "Polygon",
        "coordinates": [
          [
            [
              4.956159537659217,
              47.19026584422485,
              0.0
            ],
            [
              4.956233840459829,
              47.19001869088606,
              0.0
            ],
            [
              4.956397658883935,
              47.18996808844949,
              0.0
            ],
            [
              4.956451814063496,
              47.18997457150456,
              0.0
            ],
            [
              4.956590649690931,
              47.19010919848876,
              0.0
            ],
            [
              4.956159537659217,
              47.19026584422485,
              0.0
            ]
          ]
        ]
      },
      "properties": {
        "folder": "13Domaine d'Auvenay.kmz / 13Domaine d'Auvenay",
        "name": "13Domaine d'Auvenay"
      }
    }
  ]
}