{
  "type": "FeatureCollection",
  "features": [
    {
      "type": "Feature",
      "geometry": {
        "type": "Polygon",
        "coordinates": [
          [
            [
              4.956215594624087,
              47.1899407007612,
              0.0
            ],
            [
              4.954593545993575,
              47.19058649420698,
              0.0
            ],
            [
              4.954563813565096,
              47.1905355937774,
              0.0
            ],
            [
              4.955202660061079,
              47.19028521313835,
              0.0
            ],
            [
              4.955633863051874,
              47.19011497196433,
              0.0
            ],
            [
              4.956225668476639,
              47.18987821143477,
              0.0
            ],
            [
              4.956215594624087,
              47.1899407007612,
              0.0
            ]
          ]
        ]
      },
      "properties": {
        "folder": "14Domaine Philippe Charlopin.kmz",
        "name": "14Domaine Philippe Charlopin"
      }
    }
  ]
}