{
  "type": "FeatureCollection",
  "features": [
    {
      "type": "Feature",
      "geometry": {
        "type": "Polygon",
        "coordinates": [
          [
            [
              4.954391700170699,
              47.19059825421692,
              0.0
            ],
            [
              4.954322260137975,
              47.19058593926116,
              0.0
            ],
            [
              4.954633811503902,
              47.19040522587212,
              0.0
            ],
            [
              4.954857562435045,
              47.19030952079611,
              0.0
            ],
            [
              4.955233417304072,
              47.19015891603664,
              0.0
            ],
            [
              4.955746749726502,
              47.18996401034325,
              0.0
            ],
            [
              4.956176169984934,
              47.18979114072017,
              0.0
            ],
            [
              4.956219801078752,
              47.1898266859721,
              0.0
            ],
            [
              4.956224674083272,
              47.18986743171683,
              0.0
            ],
            [
              4.955249769714278,
              47.1902491144136,
              0.0
            ],
            [
              4.954391700170699,
              47.19059825421692,
              0.0
            ]
          ]
        ]
      },
      "properties": {
        "folder": "15Domaine Dujac.kmz / 15Domaine Dujac",
        "name": "15Domaine Dujac"
      }
    },
    {
      "type": "Feature",
      "geometry": {
        "type": "Polygon",
        "coordinates": [
          [
            [
              4.956317807606045,
              47.19335194865874,
              0.0
            ],
            [
              4.95626184843267,
              47.1932778345068,
              0.0
            ],
            [
              4.956207293445702,
              47.19328378840757,
              0.0
            ],
            [
              4.956131206939367,
              47.19326806338132,
              0.0
            ],
            [
              4.956064504976954,
              47.19321649241046,
              0.0
            ],
            [
              4.956974897519006,
              47.19290414548227,
              0.0
            ],
            [
              4.957010778147255,
              47.19299094867228,
              0.0
            ],
            [
              4.957059242895989,
              47.19309137845116,
              0.0
            ],
            [
              4.956317807606045,
              47.19335194865874,
              0.0
            ]
          ]
        ]
      },
      "properties": {
        "folder": "15Domaine Dujac.kmz / 15Domaine Dujac",
        "name": "15Domaine Dujac"
      }
    },
    {
      "type": "Feature",
      "geometry": {
        "type": "Polygon",
        "coordinates": [
          [
            [
              4.957100065193012,
              47.19306862079788,
              0.0
            ],
            [
              4.957011608347324,
              47.19288916057562,
              0.0
            ],
            [
              4.957671194415047,
              47.19269478930416,
              0.0
            ],
            [
              4.959340747569334,
              47.19220635425029,
              0.0
            ],
            [
              4.959433485781704,
              47.19236557020465,
              0.0
            ],
            [
              4.959439819734445,
              47.19236631984793,
              0.0
            ],
            [
              4.959017660042502,
              47.1924769986542,
              0.0
            ],
            [
              4.957775301210033,
              47.19283513818249,
              0.0
            ],
            [
              4.957688234723752,
              47.19284495148675,
              0.0
            ],
            [
              4.957100065193012,
              47.19306862079788,
              0.0
            ]
          ]
        ]
      },
      "properties": {
        "folder": "15Domaine Dujac.kmz / 15Domaine Dujac",
        "name": "15Domaine Dujac"
      }
    }
  ]
}