{
  "type": "FeatureCollection",
  "features": [
    {
      "type": "Feature",
      "geometry": {
        "type": "Polygon",
        "coordinates": [
          [
            [
              4.958317041656414,
              47.19126589121699,
              0.0
            ],
            [
              4.958213000604701,
              47.19103659083894,
              0.0
            ],
            [
              4.958234994474806,
              47.19101693012248,
              0.0
            ],
            [
              4.958317498815566,
              47.19099216047699,
              0.0
            ],
            [
              4.958516736136886,
              47.19094780101959,
              0.0
            ],
            [
              4.95861091919358,
              47.19118620526379,
              0.0
            ],
            [
              4.958317041656414,
              47.19126589121699,
              0.0
            ]
          ]
        ]
      },
      "properties": {
        "folder": "16Domaine Comte Georgesde Vogüé.kmz / 16Domaine Comte Georgesde Vogüé",
        "name": "16Domaine Comte Georgesde Vogüé"
      }
    },
    {
      "type": "Feature",
      "geometry": {
        "type": "Polygon",
        "coordinates": [
          [
            [
              4.954784973936713,
              47.19023390880161,
              0.0
            ],
            [
              4.954425438947412,
              47.19043859888021,
              0.0
            ],
            [
              4.95421641831403,
              47.19055110836836,
              0.0
            ],
            [
              4.954177402577848,
              47.19049670130837,
              0.0
            ],
            [
              4.954319213248414,
              47.19042645395366,
              0.0
            ],
            [
              4.954488967421353,
              47.19031953697079,
              0.0
            ],
            [
              4.954722077989022,
              47.19017859328292,
              0.0
            ],
            [
              4.954784973936713,
              47.19023390880161,
              0.0
            ]
          ]
        ]
      },
      "properties": {
        "folder": "16Domaine Comte Georgesde Vogüé.kmz / 16Domaine Comte Georgesde Vogüé",
        "name": "16Domaine Comte Georgesde Vogüé"
      }
    },
    {
      "type": "Feature",
      "geometry": {
        "type": "Polygon",
        "coordinates": [
          [
            [
              4.956975467775968,
              47.18906502479697,
              0.0
            ],
            [
              4.957085190645858,
              47.18905323327046,
              0.0
            ],
            [
              4.957392149000272,
              47.18935768338028,
              0.0
            ],
            [
              4.957740966906772,
              47.18971207835187,
              0.0
            ],
            [
              4.9582254488193,
              47.19023628778166,
              0.0
            ],
            [
              4.958224012613526,
              47.19023425483047,
              0.0
            ],
            [
              4.957096635355159,
              47.19064760470848,
              0.0
            ],
            [
              4.956593735415287,
              47.19080843729446,
              0.0
            ],
            [
              4.956506959040141,
              47.19082151258394,
              0.0
            ],
            [
              4.956175302972752,
              47.1908996101198,
              0.0
            ],
            [
              4.9561063301987,
              47.19075582420544,
              0.0
            ],
            [
              4.95608386167312,
              47.19065071808092,
              0.0
            ],
            [
              4.956116181749115,
              47.19051473998123,
              0.0
            ],
            [
              4.956159529187074,
              47.19027676707273,
              0.0
            ],
            [
              4.956623839493018,
              47.19009825297589,
              0.0
            ],
            [
              4.956497575022918,
              47.18998348233717,
              0.0
            ],
            [
              4.95635142909414,
              47.18985190257897,
              0.0
            ],
            [
              4.956199145023906,
              47.18967712002866,
              0.0
            ],
            [
              4.956391525383388,
              47.18951661643157,
              0.0
            ],
            [
              4.956588189140147,
              47.18934836069185,
              0.0
            ],
            [
              4.956853943514594,
              47.18913057266253,
              0.0
            ],
            [
              4.956975467775968,
              47.18906502479697,
              0.0
            ]
          ]
        ]
      },
      "properties": {
        "folder": "16Domaine Comte Georgesde Vogüé.kmz / 16Domaine Comte Georgesde Vogüé",
        "name": "16Domaine Comte Georgesde Vogüé"
      }
    },
    {
      "type": "Feature",
      "geometry": {
        "type": "Polygon",
        "coordinates": [
          [
            [
              4.95632396243685,
              47.19117741892403,
              0.0
            ],
            [
              4.956265785725922,
              47.19106727592745,
              0.0
            ],
            [
              4.956531377034468,
              47.1909904405104,
              0.0
            ],
            [
              4.956931247474587,
              47.19087577139426,
              0.0
            ],
            [
              4.957202848907112,
              47.19079685758587,
              0.0
            ],
            [
              4.957113759666008,
              47.19064293373037,
              0.0
            ],
            [
              4.958221384821762,
              47.19023443474031,
              0.0
            ],
            [
              4.9583219930626,
              47.19044133673448,
              0.0
            ],
            [
              4.958229653944988,
              47.19049052195937,
              0.0
            ],
            [
              4.958092797318896,
              47.19052980022035,
              0.0
            ],
            [
              4.957954907224293,
              47.19057876872019,
              0.0
            ],
            [
              4.957952293237127,
              47.19061502127963,
              0.0
            ],
            [
              4.958013257834217,
              47.19073763343205,
              0.0
            ],
            [
              4.958072588186848,
              47.19083816162343,
              0.0
            ],
            [
              4.957310189892612,
              47.19104192421519,
              0.0
            ],
            [
              4.956397752904667,
              47.19128361812183,
              0.0
            ],
            [
              4.95632396243685,
              47.19117741892403,
              0.0
            ]
          ]
        ]
      },
      "properties": {
        "folder": "16Domaine Comte Georgesde Vogüé.kmz / 16Domaine Comte Georgesde Vogüé",
        "name": "16Domaine Comte Georgesde Vogüé"
      }
    }
  ]
}