{
  "type": "FeatureCollection",
  "features": [
    {
      "type": "Feature",
      "geometry": {
        "type": "Polygon",
        "coordinates": [
          [
            [
              4.95626979490509,
              47.19106167889182,
              0.0
            ],
            [
              4.956231217089348,
              47.19100307203384,
              0.0
            ],
            [
              4.956647171447206,
              47.19088033491416,
              0.0
            ],
            [
              4.957102028822231,
              47.19074271399534,
              0.0
            ],
            [
              4.957141105277603,
              47.1908031743644,
              0.0
            ],
            [
              4.957143145158087,
              47.19080704586452,
              0.0
            ],
            [
              4.956774150880793,
              47.19091610136178,
              0.0
            ],
            [
              4.95644713001087,
              47.19100961256627,
              0.0
            ],
            [
              4.95626979490509,
              47.19106167889182,
              0.0
            ]
          ]
        ]
      },
      "properties": {
        "folder": "17Domaine Christian Confuron et Fils.kmz",
        "name": "17Domaine Christian Confuron et Fils"
      }
    }
  ]
}