{
  "type": "FeatureCollection",
  "features": [
    {
      "type": "Feature",
      "geometry": {
        "type": "Polygon",
        "coordinates": [
          [
            [
              4.958141174740865,
              47.19090563801551,
              0.0
            ],
            [
              4.958009649224946,
              47.19070499533522,
              0.0
            ],
            [
              4.957960938548613,
              47.19060679072987,
              0.0
            ],
            [
              4.957972713510199,
              47.19057905983323,
              0.0
            ],
            [
              4.958004464939485,
              47.19056536083342,
              0.0
            ],
            [
              4.958232853706424,
              47.19050962249473,
              0.0
            ],
            [
              4.958323284005452,
              47.19047647033695,
              0.0
            ],
            [
              4.958359677791437,
              47.19044135737531,
              0.0
            ],
            [
              4.958380489257427,
              47.19045887115482,
              0.0
            ],
            [
              4.958448519767513,
              47.19061048791949,
              0.0
            ],
            [
              4.958557473547691,
              47.19089856759505,
              0.0
            ],
            [
              4.958211652790661,
              47.19097538570921,
              0.0
            ],
            [
              4.958141174740865,
              47.19090563801551,
              0.0
            ]
          ]
        ]
      },
      "properties": {
        "folder": "18Domaine de la Pousse d'Or .kmz",
        "name": "18Domaine de la Pousse d'Or"
      }
    }
  ]
}