{
  "type": "FeatureCollection",
  "features": [
    {
      "type": "Feature",
      "geometry": {
        "type": "Polygon",
        "coordinates": [
          [
            [
              4.955905401277619,
              47.19228570988005,
              0.0
            ],
            [
              4.955878415402085,
              47.19224095875481,
              0.0
            ],
            [
              4.955925398435208,
              47.19221262647775,
              0.0
            ],
            [
              4.955907882876424,
              47.19219219010887,
              0.0
            ],
            [
              4.95734305635994,
              47.19176814704031,
              0.0
            ],
            [
              4.957965671732958,
              47.19158358374701,
              0.0
            ],
            [
              4.958705643489707,
              47.19136493924574,
              0.0
            ],
            [
              4.958763925567851,
              47.19144849029425,
              0.0
            ],
            [
              4.957786958272667,
              47.19172648803976,
              0.0
            ],
            [
              4.95702158544643,
              47.19194638673082,
              0.0
            ],
            [
              4.956469071255012,
              47.1921122600454,
              0.0
            ],
            [
              4.956286000360488,
              47.19216887456786,
              0.0
            ],
            [
              4.955905401277619,
              47.19228570988005,
              0.0
            ]
          ]
        ]
      },
      "properties": {
        "folder": "19Domaine Drouhin-Laroze.kmz / 19Domaine Drouhin-Laroze",
        "name": "19Domaine Drouhin-Laroze"
      }
    },
    {
      "type": "Feature",
      "geometry": {
        "type": "Polygon",
        "coordinates": [
          [
            [
              4.956033742004065,
              47.19321525662497,
              0.0
            ],
            [
              4.955945723421102,
              47.19310771558185,
              0.0
            ],
            [
              4.956085467806006,
              47.19303753547236,
              0.0
            ],
            [
              4.956303310084042,
              47.19297459373767,
              0.0
            ],
            [
              4.956599010257889,
              47.19288163402793,
              0.0
            ],
            [
              4.95695376851528,
              47.19277239613369,
              0.0
            ],
            [
              4.956896236466955,
              47.19255452748404,
              0.0
            ],
            [
              4.956827242133448,
              47.19234753576644,
              0.0
            ],
            [
              4.957358586573674,
              47.19218534654433,
              0.0
            ],
            [
              4.957864255901305,
              47.1920269664448,
              0.0
            ],
            [
              4.958310873730884,
              47.19190133819371,
              0.0
            ],
            [
              4.958945742936571,
              47.19170130508631,
              0.0
            ],
            [
              4.959112333539584,
              47.1918911316112,
              0.0
            ],
            [
              4.959344891129549,
              47.19218566043752,
              0.0
            ],
            [
              4.956033742004065,
              47.19321525662497,
              0.0
            ]
          ]
        ]
      },
      "properties": {
        "folder": "19Domaine Drouhin-Laroze.kmz / 19Domaine Drouhin-Laroze",
        "name": "19Domaine Drouhin-Laroze"
      }
    }
  ]
}