{
  "type": "FeatureCollection",
  "features": [
    {
      "type": "Feature",
      "geometry": {
        "type": "Polygon",
        "coordinates": [
          [
            [
              4.959066967152297,
              47.19247487527751,
              0.0
            ],
            [
              4.9590612764847,
              47.19251029000336,
              0.0
            ],
            [
              4.957786894045584,
              47.19289341226373,
              0.0
            ],
            [
              4.957760112530178,
              47.192849649782,
              0.0
            ],
            [
              4.959066967152297,
              47.19247487527751,
              0.0
            ]
          ]
        ]
      },
      "properties": {
        "folder": "20Domaine de la Vougeraie.kmz / 20Domaine de la Vougeraie",
        "name": "20Domaine de la Vougeraie"
      }
    },
    {
      "type": "Feature",
      "geometry": {
        "type": "Polygon",
        "coordinates": [
          [
            [
              4.959080828692093,
              47.1924727234767,
              0.0
            ],
            [
              4.959425498500107,
              47.19236950149601,
              0.0
            ],
            [
              4.959520095248902,
              47.19238564526501,
              0.0
            ],
            [
              4.959630853933965,
              47.19254452377692,
              0.0
            ],
            [
              4.959870096231677,
              47.19286947767431,
              0.0
            ],
            [
              4.960337559974812,
              47.19347113163657,
              0.0
            ],
            [
              4.96032466419241,
              47.19348305511886,
              0.0
            ],
            [
              4.960203421256699,
              47.19351890833781,
              0.0
            ],
            [
              4.960043076491553,
              47.19357057951294,
              0.0
            ],
            [
              4.959981429683276,
              47.19358521610477,
              0.0
            ],
            [
              4.959920789291507,
              47.19356837185517,
              0.0
            ],
            [
              4.959778454489183,
              47.19346000069193,
              0.0
            ],
            [
              4.959569972062541,
              47.19346632861131,
              0.0
            ],
            [
              4.959571340452023,
              47.19346771612847,
              0.0
            ],
            [
              4.959321986884769,
              47.19312662227989,
              0.0
            ],
            [
              4.959335755968041,
              47.19306189133786,
              0.0
            ],
            [
              4.959412178520868,
              47.19305431398885,
              0.0
            ],
            [
              4.959406695424211,
              47.19296525323182,
              0.0
            ],
            [
              4.959342125558896,
              47.19282412121478,
              0.0
            ],
            [
              4.959179569826462,
              47.19260906356973,
              0.0
            ],
            [
              4.959080828692093,
              47.1924727234767,
              0.0
            ]
          ]
        ]
      },
      "properties": {
        "folder": "20Domaine de la Vougeraie.kmz / 20Domaine de la Vougeraie",
        "name": "20Domaine de la Vougeraie"
      }
    }
  ]
}