{
  "type": "FeatureCollection",
  "features": [
    {
      "type": "Feature",
      "geometry": {
        "type": "Polygon",
        "coordinates": [
          [
            [
              4.957135313141232,
              47.19326996067721,
              0.0
            ],
            [
              4.957712369219913,
              47.19306402963294,
              0.0
            ],
            [
              4.958175143763639,
              47.19291254022757,
              0.0
            ],
            [
              4.959105174239951,
              47.19263626669321,
              0.0
            ],
            [
              4.959261693359136,
              47.19289618445344,
              0.0
            ],
            [
              4.959227440240335,
              47.19298258020203,
              0.0
            ],
            [
              4.959201653918576,
              47.1930735951477,
              0.0
            ],
            [
              4.959206379296425,
              47.19312441896714,
              0.0
            ],
            [
              4.958451740444039,
              47.1933621710903,
              0.0
            ],
            [
              4.957846348386534,
              47.19356365178513,
              0.0
            ],
            [
              4.957277153190558,
              47.19374687666639,
              0.0
            ],
            [
              4.957270623610961,
              47.19375276250192,
              0.0
            ],
            [
              4.95720189952446,
              47.19367253410264,
              0.0
            ],
            [
              4.957167076453852,
              47.19361564836458,
              0.0
            ],
            [
              4.957135313141232,
              47.19326996067721,
              0.0
            ]
          ]
        ]
      },
      "properties": {
        "folder": "21Domaine Robert Groffier.kmz",
        "name": "21Domaine Robert Groffier"
      }
    }
  ]
}