{
  "type": "FeatureCollection",
  "features": [
    {
      "type": "Feature",
      "geometry": {
        "type": "Polygon",
        "coordinates": [
          [
            [
              4.957285875391579,
              47.19377885546461,
              0.0
            ],
            [
              4.958116833153799,
              47.19350052836512,
              0.0
            ],
            [
              4.959211428411512,
              47.19314280438207,
              0.0
            ],
            [
              4.959280213353814,
              47.19323940244523,
              0.0
            ],
            [
              4.959323227787388,
              47.19329391714406,
              0.0
            ],
            [
              4.959331666111629,
              47.19333055331089,
              0.0
            ],
            [
              4.958628886646705,
              47.19355578979781,
              0.0
            ],
            [
              4.958074922577169,
              47.19373084963343,
              0.0
            ],
            [
              4.957413689029573,
              47.19394795319058,
              0.0
            ],
            [
              4.957383655870673,
              47.19392123844636,
              0.0
            ],
            [
              4.957285875391579,
              47.19377885546461,
              0.0
            ]
          ]
        ]
      },
      "properties": {
        "folder": "22Domaine Gérard Peirazeau.kmz",
        "name": "22Domaine Gérard Peirazeau"
      }
    }
  ]
}