{
  "type": "FeatureCollection",
  "features": [
    {
      "type": "Feature",
      "geometry": {
        "type": "Polygon",
        "coordinates": [
          [
            [
              4.956398458654146,
              47.19129267044146,
              0.0
            ],
            [
              4.956784841499924,
              47.19118824641819,
              0.0
            ],
            [
              4.957290389827344,
              47.19105424694934,
              0.0
            ],
            [
              4.958075007990046,
              47.19084021212464,
              0.0
            ],
            [
              4.958167063777498,
              47.19097485061353,
              0.0
            ],
            [
              4.958143520556386,
              47.19100701899929,
              0.0
            ],
            [
              4.958172059282628,
              47.19107025996159,
              0.0
            ],
            [
              4.957467399570348,
              47.19126485688548,
              0.0
            ],
            [
              4.956515902893299,
              47.19148735630155,
              0.0
            ],
            [
              4.956398458654146,
              47.19129267044146,
              0.0
            ]
          ]
        ]
      },
      "properties": {
        "folder": "23Domaine Laurent Roumier.kmz",
        "name": "23Domaine Laurent Roumier"
      }
    }
  ]
}