{
  "type": "FeatureCollection",
  "features": [
    {
      "type": "Feature",
      "geometry": {
        "type": "Polygon",
        "coordinates": [
          [
            [
              4.957671071284102,
              47.19146584831367,
              0.0
            ],
            [
              4.957609592565985,
              47.19138782583437,
              0.0
            ],
            [
              4.957785281603105,
              47.19133416372703,
              0.0
            ],
            [
              4.958238798336052,
              47.19119585933812,
              0.0
            ],
            [
              4.958276100589099,
              47.19127816026619,
              0.0
            ],
            [
              4.958279171221267,
              47.19128031889844,
              0.0
            ],
            [
              4.958084164646479,
              47.19134258135693,
              0.0
            ],
            [
              4.957671071284102,
              47.19146584831367,
              0.0
            ]
          ]
        ]
      },
      "properties": {
        "folder": "24Château Roblot.kmz",
        "name": "24Château Roblot"
      }
    }
  ]
}