{
  "type": "FeatureCollection",
  "features": [
    {
      "type": "Feature",
      "geometry": {
        "type": "Polygon",
        "coordinates": [
          [
            [
              4.955912298472834,
              47.19218661240397,
              0.0
            ],
            [
              4.95588981522541,
              47.19214711987782,
              0.0
            ],
            [
              4.956670888008281,
              47.19188593392138,
              0.0
            ],
            [
              4.957001456895805,
              47.19177783119745,
              0.0
            ],
            [
              4.957299463954834,
              47.19169838308151,
              0.0
            ],
            [
              4.957730360175838,
              47.19156415802018,
              0.0
            ],
            [
              4.95770255100827,
              47.19152161093989,
              0.0
            ],
            [
              4.958649718416874,
              47.191245922485,
              0.0
            ],
            [
              4.958721668698987,
              47.19136611250872,
              0.0
            ],
            [
              4.957781032684128,
              47.19164151952468,
              0.0
            ],
            [
              4.956732400098263,
              47.19194647483131,
              0.0
            ],
            [
              4.955912298472834,
              47.19218661240397,
              0.0
            ]
          ]
        ]
      },
      "properties": {
        "folder": "25Maison Bouchard Père et Fils.kmz",
        "name": "25Maison Bouchard Père et Fils"
      }
    }
  ]
}