{"type":"FeatureCollection","crs":{"type":"name","properties":{"name":"urn:ogc:def:crs:EPSG::4326"}},"features":[{"type":"Feature","properties":{"region_id":6,"name":"Sopron","name_hu":"Soproni borvidék","region_group":"Dunántúl (Transdanubia)","area_ha_approx":1900,"notable_grapes":"Kékfrankos, Pinot Noir, Cabernet Franc","notes":"W border with Austria; cool climate, elegant reds"},"geometry":{"type":"Polygon","coordinates":[[[16.6761409,47.5603164],[16.6732768,47.5595946],[16.6721712,47.559751],[16.6704681,47.5604891],[16.6696166,47.5619446],[16.6686953,47.5626298],[16.6685848,47.5630708],[16.6687211,47.5637438],[16.6681683,47.5645905],[16.6670286,47.5648877],[16.6646716,47.5661554],[16.6644563,47.5664273],[16.664331,47.5672095],[16.6634407,47.5678494],[16.6631193,47.5684406],[16.6631313,47.56869],[16.6641221,47.5693838],[16.6663108,47.5693243],[16.6676621,47.5696455],[16.6683409,47.5701958],[16.67108,47.5713346],[16.6714298,47.5723594],[16.6714488,47.5727705],[16.6710894,47.5740071],[16.6712691,47.5751716],[16.6731059,47.5759784],[16.6738397,47.5766428],[16.6751269,47.5787886],[16.6752573,47.5820764],[16.675102,47.5825322],[16.6736595,47.5852836],[16.6724672,47.5869148],[16.6721759,47.587389],[16.6722814,47.5874474],[16.6707959,47.5898429],[16.6695138,47.5927965],[16.6688841,47.5933645],[16.6672235,47.5956776],[16.6664014,47.5962606],[16.6666391,47.5973245],[16.6664167,47.5978834],[16.6666849,47.5979033],[16.6669974,47.5984307],[16.6685,47.5996434],[16.6705497,47.6007716],[16.6711894,47.6018104],[16.6704548,47.6023374],[16.6713766,47.6033943],[16.6731434,47.6049581],[16.6715421,47.6062474],[16.6703318,47.6058049],[16.6689816,47.6055828],[16.6642851,47.6054241],[16.661893,47.6054499],[16.6595343,47.6061018],[16.6564295,47.6151969],[16.6534246,47.6201648],[16.652941,47.6222312],[16.6521179,47.622856],[16.6508599,47.623022],[16.6461137,47.6246059],[16.6413423,47.6259834],[16.6377015,47.6267228],[16.6363518,47.6274095],[16.6349836,47.627849],[16.6334188,47.6278951],[16.6315853,47.6281794],[16.6289983,47.6280554],[16.6276719,47.6277812],[16.6268646,47.6273737],[16.6258417,47.6271784],[16.625282,47.6268388],[16.6211005,47.6260433],[16.6189081,47.6257992],[16.6133028,47.6225275],[16.6063891,47.6212667],[16.6042391,47.6210639],[16.6011495,47.6196895],[16.5998633,47.6197397],[16.5972031,47.6185671],[16.593396,47.617849],[16.5899898,47.6174209],[16.5879956,47.6175323],[16.5838746,47.6181145],[16.5822785,47.6187003],[16.5797753,47.6190477],[16.5771165,47.6191434],[16.5743698,47.6195419],[16.5733423,47.6198787],[16.572515,47.6198261],[16.5710068,47.6206991],[16.5679367,47.6233218],[16.5649192,47.6244544],[16.5632369,47.624612],[16.5622601,47.6248678],[16.5601248,47.6270174],[16.5583494,47.6276419],[16.5561677,47.6291676],[16.5537111,47.629862],[16.5530899,47.630264],[16.5519971,47.6318408],[16.5513725,47.6323963],[16.5501051,47.6328597],[16.5488018,47.6335886],[16.5451862,47.6346951],[16.5434009,47.6355977],[16.5421623,47.6358235],[16.5411959,47.6363064],[16.5393942,47.636697],[16.5383012,47.6378257],[16.5361471,47.6380174],[16.535486,47.6382281],[16.5346888,47.6387627],[16.5341457,47.6389109],[16.5330503,47.6397705],[16.5286981,47.6414974],[16.5261849,47.6419745],[16.523828,47.6419091],[16.5233788,47.6412824],[16.5231467,47.6412016],[16.5227965,47.6416019],[16.5227146,47.6421656],[16.5223397,47.6422874],[16.52212,47.6425922],[16.5195276,47.6434208],[16.5175364,47.6444879],[16.516905,47.6449472],[16.516901,47.645144],[16.5164337,47.6453768],[16.5154866,47.6456041],[16.5144416,47.6461448],[16.5137478,47.6461132],[16.5133014,47.6460439],[16.5137539,47.6447647],[16.5136654,47.6443271],[16.5123605,47.643114],[16.5120325,47.6426248],[16.5107059,47.6417817],[16.5091765,47.641322],[16.5074609,47.6400363],[16.506737,47.6385235],[16.5064854,47.6383877],[16.5061199,47.6384395],[16.5052116,47.6390544],[16.5024401,47.6400534],[16.5015802,47.6399494],[16.5001677,47.6393588],[16.497815,47.6393496],[16.4988378,47.6385677],[16.4990872,47.638158],[16.4989781,47.6378134],[16.4984729,47.6370234],[16.4984043,47.6363952],[16.4981954,47.6360905],[16.4967579,47.6358048],[16.4963588,47.635332],[16.4962808,47.6348424],[16.4951863,47.6330584],[16.4953267,47.6325667],[16.49523,47.6314761],[16.4960345,47.6308352],[16.4965739,47.630644],[16.4969887,47.6298938],[16.497394,47.6297194],[16.49808,47.6290805],[16.4995986,47.6282336],[16.4996111,47.627992],[16.5004312,47.627475],[16.5067612,47.6248459],[16.5080396,47.6237299],[16.5085386,47.6230175],[16.507661,47.6225448],[16.5050539,47.621705],[16.5056137,47.6206467],[16.5044786,47.6203672],[16.5035276,47.6195306],[16.5052208,47.6190808],[16.505043,47.6187803],[16.5055264,47.6185238],[16.5082267,47.6179563],[16.5083795,47.6176957],[16.5096642,47.6175801],[16.5100727,47.6171429],[16.5109614,47.6168633],[16.5107587,47.6164429],[16.5113699,47.6161319],[16.5118874,47.6152306],[16.5124053,47.6147298],[16.5124651,47.6143962],[16.5129112,47.6139563],[16.513111,47.6140159],[16.5145052,47.6130473],[16.5147206,47.6132408],[16.5150494,47.6131428],[16.5149372,47.6129452],[16.5151461,47.6127013],[16.5162998,47.6121884],[16.5189316,47.6102733],[16.5184171,47.6098865],[16.518863,47.6093988],[16.5186884,47.6092327],[16.5195241,47.6085936],[16.5188536,47.6078515],[16.5175752,47.6072061],[16.5177311,47.606958],[16.5172602,47.6068592],[16.5181645,47.6056209],[16.5192216,47.6049145],[16.5193588,47.6049923],[16.5202257,47.6046559],[16.5198296,47.6041051],[16.5205967,47.6035563],[16.5208462,47.6036488],[16.5209647,47.6034975],[16.5198916,47.6026343],[16.521369,47.6018234],[16.5214169,47.6004308],[16.5211144,47.6002238],[16.5194051,47.6010146],[16.5188075,47.5994953],[16.5197245,47.5993973],[16.5176064,47.5971076],[16.5163795,47.5976619],[16.5159791,47.5973273],[16.5149698,47.5980016],[16.5146868,47.5978178],[16.5132502,47.5988087],[16.5127887,47.5985837],[16.5154679,47.5965815],[16.5152959,47.5964842],[16.516364,47.5955999],[16.5142981,47.5941011],[16.5081848,47.5965642],[16.5065331,47.597079],[16.5054251,47.5954732],[16.5044737,47.5958272],[16.5022687,47.5961463],[16.5017128,47.5968049],[16.5012923,47.5967923],[16.5011091,47.5971234],[16.5013816,47.5974655],[16.5012872,47.5975811],[16.4987265,47.597145],[16.4987351,47.5980194],[16.4983403,47.598382],[16.4964606,47.5993437],[16.4954923,47.5993205],[16.4934414,47.6001537],[16.4940546,47.6009917],[16.4923256,47.601093],[16.4916021,47.601356],[16.4913342,47.6009948],[16.4892036,47.6023983],[16.4884401,47.6018169],[16.4880851,47.6020795],[16.4848536,47.6002341],[16.4834519,47.5996061],[16.481095,47.5992144],[16.4807935,47.5990035],[16.479612,47.5996775],[16.4812559,47.6014073],[16.4800892,47.6021615],[16.4785094,47.6040052],[16.4758856,47.6055936],[16.4754865,47.6062669],[16.4740888,47.6078778],[16.4735301,47.6091098],[16.4724916,47.6105363],[16.472303,47.6111917],[16.4704713,47.6140661],[16.4701114,47.6144659],[16.4680112,47.6155486],[16.4686026,47.616082],[16.4688786,47.6177067],[16.4692592,47.6180519],[16.4701824,47.6184256],[16.4699522,47.6190083],[16.4700814,47.6190875],[16.4691488,47.6205015],[16.468592,47.6211238],[16.4674503,47.6215862],[16.4660314,47.6225188],[16.463889,47.6236002],[16.4636658,47.6234371],[16.4633416,47.6235749],[16.4608045,47.6257551],[16.4609126,47.6260511],[16.460626,47.6266781],[16.4595454,47.6274],[16.4593621,47.6276819],[16.4595031,47.6278497],[16.4609643,47.6268238],[16.4613683,47.6262411],[16.4624052,47.6253368],[16.4622523,47.6255339],[16.462764,47.6255339],[16.4615148,47.6265056],[16.4600032,47.6285476],[16.4580011,47.6292775],[16.4572336,47.6302317],[16.4571561,47.6313395],[16.4576079,47.6323694],[16.4568205,47.6330097],[16.4565514,47.6336231],[16.456485,47.6344156],[16.4566743,47.634785],[16.4565813,47.634973],[16.458279,47.636305],[16.4514201,47.6389394],[16.4521727,47.6409164],[16.4520731,47.6420535],[16.4526611,47.6429914],[16.452701,47.6438531],[16.4529169,47.6442448],[16.4536877,47.644773],[16.4538412,47.6458491],[16.4535681,47.6474544],[16.453691,47.6476917],[16.4526644,47.649406],[16.4518404,47.6504441],[16.4511745,47.6519085],[16.4506479,47.6522717],[16.450261,47.6532139],[16.4496235,47.6538463],[16.4496076,47.6545343],[16.4504386,47.6549979],[16.4504767,47.655344],[16.4502198,47.6557969],[16.4472625,47.6564537],[16.4459949,47.6563648],[16.4433137,47.656676],[16.4398585,47.6566843],[16.4381177,47.6572678],[16.4349999,47.6588876],[16.4344973,47.6592945],[16.4330414,47.6599206],[16.4316064,47.6598845],[16.4300938,47.6604636],[16.4279125,47.6608008],[16.4236102,47.6630592],[16.4222997,47.664112],[16.4215432,47.6652971],[16.4238528,47.6669801],[16.4256188,47.6679096],[16.4282546,47.6686926],[16.4293892,47.668609],[16.43094,47.6691975],[16.4326727,47.6695159],[16.4342048,47.6701284],[16.435135,47.6703069],[16.4383312,47.6716204],[16.4393144,47.6722349],[16.4418598,47.673212],[16.443356,47.6741131],[16.4433487,47.6750759],[16.442775,47.67603],[16.4425038,47.67734],[16.4427589,47.6780254],[16.4428525,47.6789367],[16.443854,47.6806493],[16.4438779,47.6817294],[16.4443551,47.6826393],[16.4452936,47.6838253],[16.4454255,47.6848073],[16.445999,47.6859748],[16.4458625,47.6882567],[16.4459727,47.6896358],[16.4469568,47.6906672],[16.4476177,47.6917087],[16.4478441,47.6929075],[16.4475523,47.6934961],[16.4473638,47.6952854],[16.4474953,47.695942],[16.4473224,47.6963055],[16.4482408,47.6965429],[16.450716,47.6962836],[16.4513681,47.6964834],[16.4517259,47.6967724],[16.4539869,47.6968378],[16.4599824,47.6841118],[16.4604968,47.683576],[16.4612272,47.6832577],[16.4619702,47.6826905],[16.4641915,47.6822182],[16.4649095,47.6823089],[16.464991,47.6821395],[16.4660878,47.6816605],[16.4660752,47.6811099],[16.4662938,47.6808382],[16.4668238,47.6811957],[16.4675009,47.6813776],[16.4680243,47.6811926],[16.4696578,47.6811758],[16.4698571,47.681963],[16.470263,47.6820847],[16.4703542,47.6823651],[16.4709205,47.6824119],[16.4715844,47.6823983],[16.4717418,47.6821751],[16.4720124,47.6823017],[16.4729407,47.6813327],[16.4746589,47.6812582],[16.4749127,47.6816392],[16.4748455,47.6822999],[16.4751074,47.6822911],[16.4755093,47.6831881],[16.4749631,47.6840736],[16.4750745,47.6844824],[16.4753799,47.6847109],[16.4753989,47.6854257],[16.4758484,47.6862243],[16.4759678,47.6870664],[16.47613,47.6872447],[16.4756781,47.6880595],[16.4757597,47.6882546],[16.4755285,47.6891623],[16.4760169,47.6901214],[16.4772371,47.6907619],[16.478424,47.6903183],[16.4788188,47.6904189],[16.4793568,47.6902221],[16.4809538,47.6902764],[16.480899,47.6904391],[16.4816227,47.690516],[16.4819794,47.6908657],[16.4829523,47.6909048],[16.4835282,47.6910506],[16.4839339,47.6913437],[16.4845884,47.6914448],[16.4845294,47.691629],[16.4847627,47.6916687],[16.4860607,47.6927732],[16.4854413,47.6934416],[16.4854084,47.6937761],[16.4852011,47.6937534],[16.485098,47.6940428],[16.4847585,47.6941912],[16.4843594,47.6949884],[16.4844747,47.6954013],[16.4846915,47.6958911],[16.4859781,47.6966092],[16.4862925,47.6973578],[16.4871958,47.6980469],[16.4900887,47.6980974],[16.4904021,47.6982067],[16.4903793,47.6983484],[16.4913361,47.6982879],[16.4925769,47.6986432],[16.4931192,47.6984993],[16.4937058,47.6987123],[16.4948444,47.6993983],[16.4948184,47.6996186],[16.4956531,47.7004223],[16.4963601,47.7015348],[16.4966836,47.7017691],[16.497289,47.7016161],[16.4971653,47.7019444],[16.4972573,47.7027161],[16.4975366,47.7032591],[16.4994291,47.7041858],[16.4998365,47.70472],[16.5006787,47.7046835],[16.5008048,47.7043912],[16.5018118,47.7039221],[16.50409,47.7034972],[16.5054609,47.7038879],[16.5051229,47.7043054],[16.5052244,47.7044182],[16.5067321,47.7043546],[16.5074018,47.7048305],[16.5080603,47.7048106],[16.5082643,47.7050706],[16.5088757,47.7053466],[16.5095293,47.7054338],[16.5109037,47.7064986],[16.510984,47.7069964],[16.5126997,47.706679],[16.5141936,47.7076489],[16.5169186,47.7069254],[16.520629,47.7122541],[16.521945,47.7114519],[16.5235208,47.7108916],[16.5275085,47.7103547],[16.5306521,47.7107879],[16.5336607,47.7107369],[16.5342921,47.7105993],[16.5347202,47.7111795],[16.5354667,47.7114188],[16.5376572,47.7118115],[16.5404487,47.7118403],[16.5422032,47.7129487],[16.5413132,47.713649],[16.544601,47.7170494],[16.5477703,47.7197006],[16.5522184,47.7225134],[16.5507068,47.7238291],[16.5487895,47.7260309],[16.5364648,47.7366327],[16.5388326,47.7383048],[16.538021,47.7391671],[16.5375661,47.7399922],[16.5427184,47.7423461],[16.540378,47.745964],[16.539072,47.74745],[16.536878,47.752006],[16.534558,47.755558],[16.531829,47.7608413],[16.5304725,47.7626313],[16.5287474,47.7645367],[16.527849,47.7658599],[16.5271726,47.7672745],[16.5272334,47.7675126],[16.5275642,47.7677359],[16.5310242,47.7691266],[16.5320095,47.7691685],[16.5348006,47.7699883],[16.5368664,47.7698036],[16.5381923,47.769326],[16.5417306,47.7672605],[16.5427196,47.7666155],[16.5438318,47.7656184],[16.5450991,47.764832],[16.5476302,47.7613711],[16.5490075,47.7614572],[16.5523299,47.7608383],[16.5543837,47.7608627],[16.5570838,47.76065],[16.5591615,47.7594118],[16.5607865,47.7590156],[16.5620695,47.758424],[16.5637849,47.7578589],[16.5686235,47.7568113],[16.5738347,47.7574477],[16.5753963,47.7583],[16.5776414,47.7589156],[16.5783282,47.7590236],[16.5807954,47.758888],[16.5826099,47.7592992],[16.5843937,47.7593704],[16.5883541,47.7585595],[16.5901481,47.7584355],[16.590952,47.7579673],[16.5925622,47.7591037],[16.5961287,47.7577483],[16.5987795,47.7561319],[16.6022189,47.7580905],[16.6044272,47.758548],[16.6071478,47.7597561],[16.6091111,47.7603722],[16.6122831,47.7602447],[16.6157255,47.7595595],[16.6174061,47.7589988],[16.6201533,47.757674],[16.622144,47.7572443],[16.6254104,47.7569356],[16.6279993,47.7570824],[16.6304519,47.7584163],[16.6325312,47.7589187],[16.6343,47.7590763],[16.6345591,47.7577596],[16.6352801,47.757209],[16.6361572,47.7569179],[16.6373792,47.7560336],[16.6383899,47.7545654],[16.6389773,47.7528267],[16.6390159,47.7518298],[16.6384129,47.7502605],[16.6385519,47.7495929],[16.6397433,47.7482637],[16.6452061,47.7456232],[16.6504829,47.7442412],[16.6527695,47.7433905],[16.654656,47.7422151],[16.6560139,47.7416628],[16.6571758,47.7415563],[16.6581541,47.7432733],[16.6715535,47.7404339],[16.6809519,47.7395866],[16.7209415,47.7353349],[16.7215112,47.7226116],[16.7490282,47.6814296],[16.7554273,47.6727603],[16.7582425,47.672816],[16.7888563,47.6747897],[16.8069552,47.6490007],[16.8196465,47.6331684],[16.8233594,47.626645],[16.8225652,47.6262803],[16.8233297,47.6252531],[16.8183265,47.6228994],[16.819629,47.6211256],[16.8193717,47.6210169],[16.8199166,47.6205661],[16.8194934,47.6203618],[16.8206446,47.619687],[16.8199384,47.6191264],[16.8177272,47.6202967],[16.814389,47.6187658],[16.81493,47.6175141],[16.8152129,47.6160982],[16.8162621,47.6145913],[16.822205,47.6114179],[16.8233808,47.6114506],[16.8265188,47.6099541],[16.8289335,47.6075236],[16.8332745,47.6018196],[16.8339979,47.5950459],[16.832756,47.594561],[16.8328857,47.5927765],[16.8321174,47.5912295],[16.8321513,47.5902522],[16.8326209,47.588142],[16.8345115,47.5851855],[16.834957,47.5841525],[16.8350347,47.5826734],[16.8356335,47.582654],[16.8297468,47.5803188],[16.8300576,47.5789686],[16.8307561,47.578017],[16.8308015,47.5763253],[16.8305594,47.5760014],[16.826735,47.5754492],[16.8303755,47.566899],[16.8302752,47.5667675],[16.8306402,47.5637534],[16.8263008,47.5630619],[16.8258617,47.563396],[16.8254395,47.5630838],[16.8251571,47.5631244],[16.8247561,47.5636755],[16.8230838,47.5634324],[16.8224305,47.5635518],[16.8223261,47.5638048],[16.8203335,47.5644274],[16.8202517,47.5629533],[16.8206982,47.5619612],[16.8205448,47.5614728],[16.8224565,47.5580936],[16.8229791,47.5565153],[16.8238925,47.5545042],[16.8248572,47.5528773],[16.8242719,47.552504],[16.825306,47.5513556],[16.8246769,47.5511242],[16.8260934,47.549137],[16.8251734,47.5478493],[16.8231958,47.5457831],[16.8203203,47.5475097],[16.8103911,47.5462203],[16.8104995,47.5439552],[16.8117213,47.5416913],[16.8126191,47.5404367],[16.8146738,47.5385338],[16.8156432,47.5362269],[16.8184484,47.5354941],[16.8183677,47.5353232],[16.8191647,47.5350388],[16.8196533,47.5346789],[16.8274796,47.5268022],[16.8455565,47.5093813],[16.8493066,47.5074027],[16.8284412,47.5017484],[16.8193566,47.5075134],[16.8186341,47.5088073],[16.8151692,47.5136097],[16.806359,47.5275025],[16.7989173,47.5254416],[16.797096,47.5284563],[16.7941427,47.531827],[16.7930178,47.531805],[16.7918768,47.5321609],[16.790761,47.5321391],[16.7858881,47.5302598],[16.7852504,47.5315652],[16.7851796,47.5322108],[16.7846443,47.5326228],[16.7841073,47.5342391],[16.7829938,47.5355728],[16.7755557,47.5326033],[16.7701558,47.5314473],[16.7703274,47.5310583],[16.7695012,47.5308136],[16.7695561,47.530599],[16.762456,47.5266833],[16.7600955,47.5258256],[16.7575078,47.5251587],[16.7569299,47.5257008],[16.7565162,47.5265169],[16.756229,47.5281915],[16.756312,47.5287704],[16.7538407,47.5276047],[16.7521653,47.5271932],[16.7516241,47.5267981],[16.7488167,47.5267422],[16.7443839,47.5251287],[16.7416427,47.523555],[16.7400266,47.5219976],[16.7372933,47.5200396],[16.7367855,47.5188825],[16.7356942,47.5180981],[16.7343635,47.5164107],[16.7240065,47.5281486],[16.7216825,47.5300051],[16.7227648,47.5307895],[16.7145072,47.5396456],[16.7145237,47.5399337],[16.7123281,47.5418018],[16.7112461,47.5430878],[16.7101889,47.5432495],[16.7095003,47.5430366],[16.7093119,47.5432379],[16.7078739,47.5427],[16.7058796,47.5423837],[16.7045197,47.5444943],[16.7041281,47.5457398],[16.7026082,47.5455692],[16.7010135,47.5463089],[16.6981815,47.5456289],[16.6946875,47.5497352],[16.6939031,47.5516036],[16.6932288,47.5524274],[16.6916833,47.5533688],[16.6913639,47.5541418],[16.6900433,47.5555462],[16.6905835,47.5565856],[16.6907592,47.5577537],[16.6909838,47.5579036],[16.6889017,47.5594881],[16.6863208,47.5606751],[16.6837237,47.560751],[16.6840091,47.5613058],[16.6797938,47.5608929],[16.6779126,47.5610663],[16.6761409,47.5603164]]]}}]}