{"type":"FeatureCollection","crs":{"type":"name","properties":{"name":"urn:ogc:def:crs:EPSG::4326"}},"features":[{"type":"Feature","properties":{"region_id":21,"name":"Kunság","name_hu":"Kunsági borvidék","region_group":"Alföld (Great Plain)","area_ha_approx":22000,"notable_grapes":"Olaszrizling, Chardonnay, Kékfrankos, Cabernet Sauvignon","notes":"Largest wine region in Hungary; sandy soils; high-volume production"},"geometry":{"type":"MultiPolygon","coordinates":[[[[19.3431146,46.5184544],[19.3364777,46.5146599],[19.3364798,46.5150442],[19.332054,46.511628],[19.332052,46.5112499],[19.3243057,46.5078417],[19.3237621,46.5085992],[19.3160238,46.5048123],[19.3149274,46.5063396],[19.3000031,46.4991349],[19.3005595,46.4991336],[19.2867461,46.4926931],[19.2867444,46.4923089],[19.2712572,46.4816803],[19.2701585,46.4828229],[19.2546994,46.4756194],[19.2541508,46.4752423],[19.2502878,46.4737247],[19.2386803,46.4661278],[19.2364829,46.4661315],[19.2353837,46.4672737],[19.2348263,46.4668966],[19.2337258,46.4676607],[19.233176,46.4668993],[19.2331773,46.4672774],[19.2326302,46.4672783],[19.2315309,46.4684267],[19.2293271,46.4691926],[19.2293284,46.4695707],[19.2276818,46.4707137],[19.2282302,46.4710971],[19.2265824,46.4718621],[19.2249192,46.4707181],[19.2205212,46.4726339],[19.217765,46.4718757],[19.2161008,46.4703536],[19.2144528,46.4711184],[19.2100349,46.466557],[19.1951731,46.473048],[19.1929707,46.4745756],[19.1913252,46.4764804],[19.1902228,46.4768599],[19.1902198,46.4757195],[19.190766,46.4753407],[19.1907619,46.4738161],[19.1902127,46.4730544],[19.1901955,46.4665839],[19.1896375,46.4658222],[19.1901875,46.4635345],[19.1896294,46.4627729],[19.1896284,46.4623948],[19.1885233,46.4616339],[19.1879723,46.4601099],[19.1868653,46.4585866],[19.1516016,46.4571001],[19.1504672,46.4407326],[19.1466159,46.4426388],[19.1466166,46.4430169],[19.1460711,46.4437797],[19.1422208,46.4464481],[19.1416663,46.4472109],[19.1405628,46.4468337],[19.1394542,46.4434072],[19.1394535,46.443023],[19.1389073,46.4434077],[19.1383528,46.4441705],[19.1383599,46.448354],[19.1378136,46.4487387],[19.1367095,46.4479773],[19.1323115,46.4506458],[19.1312092,46.4510246],[19.1306539,46.4514093],[19.1290075,46.4536975],[19.1279052,46.4540764],[19.1257038,46.4571211],[19.1240527,46.4563661],[19.122946,46.4537018],[19.119639,46.4483676],[19.1190826,46.4479899],[19.1163286,46.4468512],[19.1163276,46.4460889],[19.1168725,46.4445639],[19.1130161,46.4434258],[19.1119134,46.4434264],[19.109716,46.4426653],[19.1064079,46.4426671],[19.1053048,46.4422834],[19.1058602,46.4419051],[19.1047567,46.4411433],[19.1036541,46.4411439],[19.1019925,46.4380954],[19.1008977,46.4369555],[19.1008954,46.4346685],[19.1003397,46.4346687],[19.0997925,46.4342909],[19.0970407,46.4342922],[19.094836,46.4346712],[19.0915284,46.4346726],[19.0887768,46.4350579],[19.0882231,46.4377232],[19.0876766,46.4381014],[19.0865754,46.4400108],[19.0865757,46.4403888],[19.0876795,46.4419131],[19.09264,46.4453386],[19.0926416,46.4472414],[19.092095,46.4476197],[19.0915397,46.4483822],[19.0893341,46.4483831],[19.0865804,46.4468656],[19.0865779,46.4434382],[19.0860305,46.442676],[19.0838246,46.4419144],[19.0832777,46.4419146],[19.0821753,46.442293],[19.0816202,46.4434398],[19.0816205,46.4438179],[19.0810736,46.443818],[19.0794148,46.4434405],[19.0794136,46.4415315],[19.0788666,46.4411536],[19.0766612,46.4411542],[19.0755588,46.4415326],[19.0744655,46.4422952],[19.073363,46.4426797],[19.0722603,46.44268],[19.0717043,46.4422958],[19.0695067,46.4396312],[19.0689514,46.4407779],[19.068952,46.4422964],[19.0700552,46.4434428],[19.0728086,46.445723],[19.0739114,46.4457227],[19.0766642,46.4464844],[19.0673065,46.4529632],[19.0662036,46.4529634],[19.0634514,46.4548666],[19.0628957,46.455629],[19.0623487,46.4556291],[19.0628958,46.4560071],[19.0623504,46.4617216],[19.0656507,46.4617211],[19.0656522,46.4659108],[19.0640019,46.4659111],[19.0640022,46.4666734],[19.0590423,46.466674],[19.0584956,46.4685768],[19.0573926,46.4697174],[19.0617965,46.4693388],[19.0617968,46.4704792],[19.0612497,46.4704793],[19.0617976,46.4731443],[19.0651075,46.4731438],[19.0651087,46.4765712],[19.0579412,46.4769502],[19.058498,46.4796214],[19.0513301,46.48],[19.0507828,46.48],[19.0502264,46.4769507],[19.0491231,46.4780973],[19.0485759,46.4780973],[19.0474724,46.477335],[19.0447184,46.477335],[19.0419642,46.4792376],[19.0408608,46.4788595],[19.0414079,46.4807623],[19.037003,46.480762],[19.0370029,46.4811401],[19.0325889,46.4815239],[19.0325881,46.484567],[19.0320407,46.4849512],[19.0314842,46.4857135],[19.0270777,46.4887559],[19.0248692,46.4918049],[19.0248691,46.4921829],[19.0254161,46.4929454],[19.0243212,46.4933232],[19.023217,46.4944696],[19.0215576,46.4929446],[19.0171529,46.4906565],[18.9989537,46.4929373],[18.9984071,46.4921747],[18.9984077,46.4914124],[19.0022662,46.4914139],[19.0022671,46.4902735],[18.9995134,46.489132],[18.9984112,46.4876069],[18.9978552,46.4872224],[19.0022696,46.4872242],[19.0033739,46.4864623],[19.0039221,46.4853221],[19.0061306,46.4834202],[19.0094441,46.4792316],[19.0105481,46.4784696],[19.0094449,46.4780912],[19.0116455,46.4739021],[19.0149564,46.4723784],[19.0182687,46.4678115],[19.0111041,46.4651444],[19.012208,46.4639981],[19.006703,46.4617155],[19.0028347,46.4655195],[18.9989801,46.4632372],[18.9967811,46.4651389],[18.994018,46.4659],[18.9923662,46.4674177],[18.9912606,46.4697042],[18.989609,46.4708438],[18.9885045,46.4719898],[18.9874008,46.4723673],[18.9879544,46.4746546],[18.9896025,46.4769363],[18.9896017,46.4776986],[18.9890435,46.4796072],[18.9890415,46.48151],[18.9906984,46.4841759],[18.990698,46.484554],[18.9901406,46.4857003],[18.9901394,46.4868407],[18.9895892,46.4895055],[18.9857288,46.4914062],[18.975797,46.4971148],[18.9741453,46.4974919],[18.9741443,46.4982542],[18.9735879,46.4982538],[18.9713786,46.4993928],[18.9713781,46.4997771],[18.9697257,46.5005383],[18.9675157,46.5020614],[18.960347,46.5062397],[18.9603452,46.5073863],[18.9592344,46.5115752],[18.9570217,46.5142386],[18.9570167,46.5172817],[18.9575611,46.5191849],[18.958661,46.5218509],[18.9559028,46.5229953],[18.9531438,46.5245177],[18.9542469,46.5252748],[18.9531412,46.5260362],[18.9498225,46.5290827],[18.9498218,46.5294608],[18.948716,46.5302222],[18.947056,46.5344105],[18.9476114,46.5351733],[18.9481543,46.5378389],[18.9498067,46.5378403],[18.9503642,46.5374565],[18.9503649,46.5370784],[18.9509134,46.5367008],[18.9531226,46.5367027],[18.9542279,46.5363193],[18.9569856,46.5359435],[18.9591948,46.5359452],[18.959742,46.5363237],[18.9415176,46.5469748],[18.9541555,46.5556461],[18.9548762,46.5556298],[18.960791,46.550604],[18.9639927,46.5483069],[18.9670756,46.5457423],[18.9688425,46.545198],[18.9720225,46.5450088],[18.9753657,46.5444472],[18.9779183,46.5442049],[18.9794224,46.5438502],[18.9806985,46.5470044],[18.981246,46.5473828],[18.9823503,46.5477615],[18.9867583,46.5580462],[18.9911699,46.5576704],[19.0005593,46.5565342],[19.0071782,46.5595799],[19.0104919,46.561868],[19.01104,46.5618682],[19.0143565,46.5599664],[19.0143563,46.5603445],[19.0149041,46.5607227],[19.0165573,46.5607232],[19.0176622,46.5611077],[19.0182188,46.5618702],[19.0199904,46.5629816],[19.021524,46.5645361],[19.0226285,46.566061],[19.0231849,46.5675796],[19.0237331,46.5675797],[19.0231868,46.5633898],[19.0215256,46.5611086],[19.0253895,46.559969],[19.0264934,46.5630124],[19.0270505,46.5630125],[19.0298095,46.5611102],[19.0320184,46.5660626],[19.0309131,46.5660625],[19.0303559,46.5664404],[19.0298076,46.5672027],[19.0292593,46.5675807],[19.0292591,46.568343],[19.0275964,46.5691051],[19.027048,46.5698673],[19.0248366,46.5717697],[19.0198671,46.5717686],[19.0193187,46.5721527],[19.0187612,46.5729087],[19.0182126,46.5736709],[19.0182124,46.5740552],[19.017655,46.5744331],[19.0165494,46.5748171],[19.0182114,46.5759579],[19.0176517,46.5805256],[19.0193127,46.5839535],[19.0193123,46.5847158],[19.0182065,46.5850998],[19.0171,46.586618],[19.0182043,46.5892833],[19.0187524,46.5896677],[19.022069,46.5908089],[19.0204037,46.5953764],[19.0126717,46.5957586],[19.0121242,46.5942337],[19.0093661,46.5915678],[19.0071541,46.5923294],[19.0005272,46.5938515],[18.9955564,46.593087],[18.9911333,46.593085],[18.9795366,46.5926944],[18.9811871,46.5957447],[18.9817413,46.5984101],[18.9811824,46.5995502],[18.9811787,46.6025995],[18.9800723,46.602977],[18.9806293,46.6033616],[18.981175,46.6056427],[18.97897,46.6071661],[18.9767574,46.607549],[18.9726069,46.6074188],[18.9717302,46.6076668],[18.9705786,46.6085524],[18.9685589,46.6097274],[18.9676994,46.610489],[18.9620442,46.6121952],[18.9612707,46.6122956],[18.9598354,46.6120299],[18.9556928,46.6120476],[18.9521433,46.6117642],[18.950665,46.6113687],[18.9455865,46.6106781],[18.9445973,46.6110617],[18.9438687,46.6116949],[18.9428565,46.6116914],[18.9417009,46.6126203],[18.950775,46.6143848],[18.954093,46.6147656],[18.9612681,46.6159117],[18.9706559,46.6235355],[18.9701039,46.6258222],[18.9678821,46.6319132],[18.9667733,46.633437],[18.9612324,46.6383789],[18.9606811,46.6399032],[18.9601322,46.6399027],[18.9595731,46.6406646],[18.9584651,46.6414261],[18.9568057,46.6437056],[18.9562484,46.6486573],[18.9573457,46.6490424],[18.9595577,46.6501845],[18.9617704,46.6509486],[18.9639819,46.6524749],[18.9678491,46.6543804],[18.971158,46.6566634],[18.9728205,46.6585735],[18.9739271,46.6589523],[18.9783408,46.6635228],[18.9827633,46.6688618],[18.9849655,46.6719061],[18.9866281,46.6745721],[18.9893889,46.6776229],[18.9932554,46.6829549],[18.9960174,46.6856213],[18.9993384,46.6879097],[19.002101,46.6905759],[19.0037573,46.691717],[19.0048627,46.6947667],[19.0054205,46.6955231],[19.0059682,46.6978103],[19.0065256,46.6993351],[19.0065213,46.7050433],[19.0059598,46.7088548],[19.0042985,46.713422],[19.0020782,46.717989],[19.0009682,46.7198975],[18.9993092,46.7210372],[18.9981987,46.7233237],[18.9937604,46.7278895],[18.9865606,46.7347408],[18.9859996,46.7366432],[18.9837867,46.7404475],[18.9826702,46.7469236],[18.9826674,46.7492106],[18.9798867,46.7522521],[18.9787837,46.7545385],[18.9782237,46.7553004],[18.9771097,46.7591052],[18.9771087,46.7598676],[18.9776648,46.7621549],[18.9776634,46.7632953],[18.9782111,46.7651984],[18.9710061,46.7644315],[18.9704527,46.7667181],[18.9671133,46.7743329],[18.9660027,46.7750945],[18.9660021,46.7754725],[18.9621149,46.7807998],[18.9615621,46.7823241],[18.9604512,46.7830856],[18.9604506,46.7834637],[18.9587887,46.784609],[18.957679,46.7846081],[18.956568,46.7853634],[18.9554505,46.7899365],[18.9537817,46.794881],[18.9526704,46.7956424],[18.9498946,46.7986894],[18.9537711,46.8009796],[18.9498877,46.8024948],[18.9471142,46.8040171],[18.9443322,46.805155],[18.9404474,46.8070604],[18.9354522,46.8089583],[18.9321248,46.8116201],[18.9287873,46.8146598],[18.9265598,46.8177068],[18.92489,46.8215105],[18.9243332,46.8241749],[18.9248736,46.8287495],[18.9254175,46.8317932],[18.9248623,46.8336953],[18.9248485,46.8397878],[18.9281811,46.8397913],[18.928737,46.8375111],[18.9315071,46.8386543],[18.9365107,46.8340915],[18.9370729,46.8329516],[18.9381769,46.8318061],[18.939849,46.8310454],[18.9404013,46.8302835],[18.9420748,46.8287666],[18.9454063,46.8241957],[18.9537235,46.8283925],[18.9553843,46.8287781],[18.9570432,46.8302979],[18.9576018,46.8310607],[18.9581526,46.8310611],[18.9581539,46.8302988],[18.9625911,46.8337295],[18.9637001,46.8348769],[18.9648103,46.8352558],[18.9653617,46.8348781],[18.966473,46.8344946],[18.9709054,46.8356443],[18.9714648,46.8360227],[18.972575,46.8364077],[18.9731243,46.8375485],[18.9742346,46.8379272],[18.9736832,46.8383111],[18.9720098,46.8402128],[18.9708962,46.8421148],[18.9714551,46.8428775],[18.9964254,46.8459406],[19.00086,46.8463205],[19.0008597,46.8466986],[19.0025214,46.8470835],[19.0047428,46.8478467],[19.0108479,46.8493672],[19.0113984,46.8501297],[19.0130688,46.8512768],[19.0130686,46.8516549],[19.0197235,46.8569868],[19.0208338,46.8588959],[19.0247171,46.8627022],[19.025267,46.8657454],[19.0247155,46.8665076],[19.024715,46.8676542],[19.0236031,46.8687944],[19.0236021,46.8710814],[19.0230504,46.8722217],[19.0236011,46.8733622],[19.0236003,46.8752649],[19.022488,46.8767893],[19.0191608,46.8794536],[19.0158233,46.8836424],[19.0141595,46.8847823],[19.0108228,46.8866902],[19.0069348,46.8882074],[19.0063834,46.8882072],[19.0030462,46.8901149],[18.998043,46.8946806],[18.9935931,46.8965813],[18.9880412,46.8973409],[18.984705,46.8973391],[18.9769287,46.898097],[18.9769282,46.898475],[18.969151,46.8996166],[18.9669257,46.9003774],[18.9630378,46.9003746],[18.9619251,46.9007518],[18.9597099,46.9007501],[18.9624785,46.90532],[18.9582818,46.9059562],[18.9591381,46.9076044],[18.9598963,46.9117721],[18.9606603,46.9177912],[18.9619511,46.9213476],[18.9618475,46.9223007],[18.9624481,46.924104],[18.9624408,46.9250559],[18.9633227,46.9278895],[18.9645235,46.9298578],[18.964918,46.9309099],[18.9657273,46.9350826],[18.9646264,46.9414891],[18.9640981,46.9428949],[18.9639163,46.9445701],[18.9627847,46.9488995],[18.9615689,46.9525334],[18.9598392,46.9567851],[18.9594514,46.9583274],[18.9588931,46.9595709],[18.9576448,46.9611806],[18.9546224,46.964422],[18.9537858,46.9651154],[18.9531251,46.9664438],[18.951356,46.9689635],[18.949483,46.9807644],[18.9486704,46.9916034],[18.9491423,46.993213],[18.9506884,46.9961865],[18.9535369,47.0000212],[18.9580108,47.0035796],[18.9598611,47.0053667],[18.96169,47.0068065],[18.9647428,47.0103642],[18.9658118,47.0129225],[18.9662138,47.014498],[18.9660887,47.0149585],[18.9665262,47.0157501],[18.9672532,47.0184947],[18.9674887,47.020025],[18.9666724,47.0244061],[18.9666613,47.026716],[18.9664069,47.0279818],[18.9655184,47.0301374],[18.9672065,47.0308349],[18.9691322,47.0312801],[18.9706261,47.0321309],[18.9745179,47.036323],[18.9750768,47.0386103],[18.9756283,47.039751],[18.9773038,47.0408924],[18.9773033,47.0412767],[18.9761858,47.0431787],[18.9733232,47.0461842],[18.9689345,47.048504],[18.9672639,47.0500274],[18.9627994,47.052305],[18.9594589,47.0545894],[18.9577788,47.0561127],[18.9566564,47.0603014],[18.95665,47.0641056],[18.9569067,47.0688509],[18.9579653,47.0716826],[18.9588591,47.0727616],[18.9603521,47.074134],[18.9619386,47.0749643],[18.9635087,47.0753793],[18.9728247,47.0770703],[18.9765203,47.0783155],[18.9800374,47.080497],[18.985663,47.0843972],[18.9909562,47.0868611],[18.9932852,47.0895215],[18.9950862,47.0940516],[18.999232,47.0995435],[19.0012631,47.1017311],[19.0013699,47.1035259],[19.0009843,47.1055334],[18.9995524,47.1069375],[19.0006086,47.1073222],[19.0023964,47.1076908],[19.0009142,47.1109731],[18.9939234,47.1170622],[18.9888394,47.1185857],[18.9785151,47.1270196],[18.9814704,47.1289693],[18.9704298,47.1373748],[18.9945083,47.1382722],[19.0243007,47.1434675],[19.0212538,47.1512919],[19.0208135,47.1565809],[19.0189059,47.1566142],[19.0177115,47.1575704],[19.0174929,47.1597568],[18.9642364,47.1596875],[18.9582443,47.1604775],[18.9562103,47.1675558],[18.9533724,47.1672347],[18.9534144,47.1673301],[18.9528215,47.167412],[18.9529235,47.170434],[18.9523976,47.1730248],[18.9524332,47.1733494],[18.9531929,47.1747006],[18.9498856,47.1758445],[18.9507231,47.1786167],[18.9555542,47.1858923],[18.956964,47.1916087],[18.9575749,47.1978992],[18.9587538,47.2028176],[18.9584419,47.2061759],[18.9597835,47.208786],[18.9656105,47.2175641],[18.9666333,47.2197382],[18.967675,47.2229221],[18.9765257,47.2254539],[19.0122338,47.2119985],[19.0180221,47.210171],[19.0469392,47.2029384],[19.0435477,47.2086985],[19.0430259,47.2117555],[19.0419824,47.2204826],[19.0386562,47.2262408],[19.0356112,47.2297999],[19.0248091,47.237965],[19.0123518,47.2454912],[19.0168893,47.2497748],[19.0200542,47.2535227],[19.0240063,47.2623948],[19.0297986,47.2603157],[19.0391777,47.2565585],[19.0400704,47.2573889],[19.0413749,47.2565035],[19.0392552,47.2528515],[19.0304504,47.2457679],[19.0509133,47.2334801],[19.0507503,47.230989],[19.0692199,47.2205638],[19.0803073,47.2083367],[19.0943949,47.2166213],[19.0936775,47.2172415],[19.1021904,47.2209252],[19.111077,47.2287553],[19.1187883,47.2349172],[19.115573,47.2393234],[19.1022077,47.2487459],[19.0999495,47.2500496],[19.1044862,47.2526873],[19.1080256,47.2536975],[19.1081312,47.2562127],[19.1044791,47.25758],[19.0994391,47.2606186],[19.0942761,47.2616849],[19.0903287,47.270156],[19.0878899,47.272914],[19.0860421,47.273939],[19.092705,47.2736778],[19.1032087,47.2781624],[19.1065063,47.2804825],[19.1079295,47.2830787],[19.1092943,47.2843356],[19.1135693,47.2864352],[19.1185978,47.289679],[19.1292725,47.2945579],[19.1332191,47.2972761],[19.1358911,47.2998021],[19.1615733,47.2662829],[19.1627139,47.2616949],[19.1559869,47.2563981],[19.147666,47.2522732],[19.1436769,47.2499656],[19.1441245,47.2495579],[19.2035343,47.2567149],[19.1963741,47.249772],[19.205709,47.2335443],[19.2064219,47.229938],[19.2385815,47.2510518],[19.2606173,47.2382936],[19.2845338,47.2558145],[19.2868223,47.2546639],[19.2884884,47.2527578],[19.294061,47.2474161],[19.3102106,47.235574],[19.3118862,47.2340456],[19.3157773,47.229847],[19.3181129,47.2282741],[19.3215329,47.2237018],[19.3235536,47.2206935],[19.3279976,47.2164931],[19.3291082,47.2149658],[19.3324745,47.2168601],[19.3358431,47.2191386],[19.337527,47.2210369],[19.3414299,47.2195024],[19.3520359,47.2179563],[19.3565042,47.2167978],[19.359283,47.2145096],[19.3965498,47.1888867],[19.4341689,47.2154215],[19.4397869,47.21997],[19.4297626,47.2249557],[19.428097,47.2261016],[19.4264341,47.2276317],[19.426989,47.2276299],[19.4309172,47.2299037],[19.4365233,47.2314032],[19.4393303,47.2333024],[19.4407052,47.2338262],[19.4350142,47.2379616],[19.4401059,47.2408562],[19.4388335,47.2424393],[19.438298,47.245106],[19.4377367,47.2454922],[19.4399865,47.2470091],[19.4191138,47.2596723],[19.4237781,47.2632474],[19.4781321,47.2324923],[19.4975392,47.2365717],[19.5005051,47.2424534],[19.5056584,47.2492557],[19.5088076,47.2510047],[19.5258419,47.2562513],[19.5325697,47.2559599],[19.5395839,47.2562513],[19.545596,47.2569314],[19.5483157,47.2513933],[19.5473137,47.2437168],[19.5533258,47.2384688],[19.555099,47.249197],[19.5596261,47.2453904],[19.5613022,47.2446206],[19.5646324,47.242703],[19.5674149,47.2415501],[19.574066,47.2350432],[19.5700715,47.2266886],[19.5728454,47.224767],[19.5795152,47.221309],[19.5878629,47.2174646],[19.5911905,47.2155462],[19.6034032,47.2074926],[19.6044978,47.2052004],[19.6245084,47.1955818],[19.6311587,47.1909804],[19.6361774,47.1901924],[19.6573379,47.1851297],[19.6623205,47.1812977],[19.678134,47.1956771],[19.6803795,47.1971894],[19.6933321,47.2051121],[19.7035395,47.2180011],[19.7131089,47.2333653],[19.7038845,47.2361944],[19.7259909,47.269662],[19.7768653,47.2692951],[19.8067827,47.2830861],[19.8278009,47.2690108],[19.844505,47.2639502],[19.8757357,47.2583927],[19.886898,47.2567931],[19.9334905,47.2335913],[19.9437064,47.2426538],[19.9571966,47.2471154],[19.9633744,47.2485909],[19.9667389,47.248942],[19.9706652,47.2496728],[19.9811469,47.2528595],[19.9857714,47.2535019],[19.9914024,47.2524683],[19.9975116,47.2516091],[20.0036088,47.2499565],[20.0079616,47.2485257],[20.0337575,47.2427939],[20.0446657,47.2382317],[20.0505324,47.234929],[20.0544166,47.2313037],[20.058857,47.229064],[20.0657636,47.2247097],[20.0795586,47.2204027],[20.080167,47.2101504],[20.0849625,47.2079764],[20.0895703,47.1971541],[20.0955525,47.1884559],[20.0985436,47.1818556],[20.0985409,47.181494],[20.0989508,47.1814601],[20.0987174,47.1810291],[20.0942026,47.1761258],[20.0872152,47.1676465],[20.0846453,47.1648483],[20.0758001,47.1590496],[20.0710254,47.1562019],[20.0635709,47.1490774],[20.0558343,47.1456452],[20.0554292,47.1418591],[20.0477077,47.1250606],[20.0559484,47.1148032],[20.0586075,47.108493],[20.0532655,47.1056336],[20.0661576,47.0937087],[20.0647999,47.0891441],[20.0753187,47.0839532],[20.0765001,47.0805092],[20.0796649,47.0755412],[20.0918724,47.0440919],[20.1027412,47.042041],[20.1080063,47.0396139],[20.1126537,47.0329531],[20.0945144,47.007552],[20.1160519,46.9989724],[20.1292806,46.9923768],[20.1391438,46.983859],[20.1346321,46.982043],[20.1306846,46.9794153],[20.1278511,46.9767769],[20.1266914,46.9745007],[20.1271976,46.9722149],[20.1282725,46.9702957],[20.1299151,46.9691396],[20.1321188,46.9679782],[20.133747,46.9656755],[20.1337006,46.9633888],[20.1331086,46.9618758],[20.132541,46.9611188],[20.1308357,46.9596103],[20.1302681,46.9588532],[20.1285952,46.958491],[20.122477,46.9585488],[20.1185776,46.9582012],[20.1124367,46.9571182],[20.106833,46.9552675],[20.1057139,46.9545155],[20.1045706,46.9530013],[20.1034123,46.9507249],[20.1033898,46.9495846],[20.1038741,46.9461525],[20.1049043,46.9419529],[20.1071546,46.9381163],[20.1082523,46.9373437],[20.108789,46.9365763],[20.1110145,46.9365555],[20.1126943,46.9373023],[20.1165531,46.9407038],[20.1215946,46.9425593],[20.1260693,46.9436638],[20.1299599,46.9436269],[20.1338428,46.9432057],[20.1404878,46.9420017],[20.148775,46.9392567],[20.1504082,46.9377161],[20.1515053,46.9369431],[20.1563898,46.9311808],[20.1585519,46.9281164],[20.1600896,46.9220084],[20.1600579,46.9204839],[20.1594825,46.919349],[20.1594587,46.9182025],[20.1571709,46.9151814],[20.1554753,46.9136731],[20.1481875,46.9107003],[20.1459551,46.9103376],[20.1425952,46.9092294],[20.1364685,46.9081476],[20.1292361,46.9078322],[20.1230855,46.9059875],[20.1230549,46.904463],[20.1235236,46.8998904],[20.1234777,46.8976036],[20.1223275,46.8957116],[20.1206246,46.8942028],[20.1178038,46.8919484],[20.1150059,46.8908279],[20.1138789,46.8900761],[20.1048959,46.8852135],[20.0998378,46.8822108],[20.093073,46.8769425],[20.0869197,46.8747116],[20.0858082,46.8747218],[20.0895828,46.8689787],[20.0890316,46.8689837],[20.0944231,46.8609322],[20.098278,46.8593781],[20.0988381,46.8593729],[20.1070829,46.8554845],[20.1113987,46.8489732],[20.1125172,46.8493408],[20.1152066,46.8451255],[20.1146012,46.8428502],[20.1139745,46.8390441],[20.1150853,46.8390337],[20.1116397,46.8333572],[20.1115868,46.8306924],[20.1126671,46.8291575],[20.1126293,46.827255],[20.1096764,46.81814],[20.1011516,46.8079361],[20.0994387,46.8052867],[20.0870158,46.7939773],[20.0873569,46.7884983],[20.0863548,46.7882684],[20.0824753,46.7883038],[20.0819087,46.7879309],[20.0802633,46.7887082],[20.0758481,46.7895106],[20.0708516,46.7891714],[20.0691898,46.7895707],[20.0669847,46.7903466],[20.0664416,46.7907358],[20.0642726,46.7934205],[20.0627062,46.798387],[20.0616466,46.8010617],[20.0611681,46.8048718],[20.0611969,46.8063963],[20.0359058,46.78834],[20.024679,46.7808194],[19.9997956,46.7528469],[19.9941702,46.7483257],[19.9812593,46.7385339],[19.9750542,46.7321076],[19.9694289,46.7268228],[19.9798332,46.7202607],[19.9825688,46.7179572],[19.9885839,46.7140956],[19.9935193,46.7113893],[19.9946208,46.711002],[19.9989925,46.7075378],[20.0055639,46.7036768],[20.0088265,46.7002215],[20.0109582,46.6960134],[20.0115029,46.6952464],[20.0109445,46.6952511],[20.0109035,46.6929643],[20.009117,46.685746],[20.0090897,46.6842215],[20.0079005,46.6796634],[20.0039341,46.6743663],[19.998285,46.6675584],[19.9931999,46.661508],[19.9920794,46.6607549],[19.9991631,46.6546028],[20.0029788,46.6515211],[20.0051225,46.6480754],[20.0056533,46.6465461],[20.0083478,46.6427175],[20.0099761,46.6411789],[20.0132209,46.6369613],[20.0176472,46.6369235],[20.0275539,46.6349354],[20.0336074,46.6333581],[20.0423591,46.6283354],[20.0473051,46.6267671],[20.0589103,46.6262798],[20.0627565,46.6251049],[20.0726175,46.620448],[20.0770043,46.6188834],[20.0814647,46.6066026],[20.0849074,46.5986293],[20.084812,46.5936777],[20.089761,46.5924917],[20.0918821,46.5882821],[20.091319,46.5875249],[20.0945839,46.5848294],[20.0737753,46.565594],[20.0748804,46.565584],[20.0754157,46.5644387],[20.0764391,46.5606235],[20.0764246,46.5598613],[20.075862,46.559104],[20.0731041,46.559129],[20.0698108,46.5602993],[20.0692483,46.5595419],[20.0670456,46.5599461],[20.0637018,46.5584514],[20.0605969,46.5573892],[20.0606327,46.5571219],[20.0645053,46.5552299],[20.0645909,46.5544929],[20.063139,46.5536331],[20.05894,46.5541038],[20.0588438,46.5539671],[20.0592989,46.5497254],[20.0587394,46.5497199],[20.0563717,46.5505437],[20.0555973,46.5491098],[20.0699414,46.5378289],[20.0688297,46.5374608],[20.0823597,46.523627],[20.0817885,46.5228699],[20.0845152,46.5213201],[20.0822793,46.5194377],[20.0850059,46.5178879],[20.1105327,46.4974688],[20.111065,46.4967014],[20.1127161,46.4966858],[20.1149311,46.4970493],[20.1160423,46.4974169],[20.1176933,46.4974013],[20.1193459,46.4970075],[20.1220855,46.4962191],[20.1280673,46.4919719],[20.1312926,46.488129],[20.1328758,46.484308],[20.1344191,46.4789625],[20.1344113,46.4785783],[20.1338476,46.4782056],[20.1332851,46.4774486],[20.1338246,46.4770653],[20.1193484,46.4695855],[20.1160013,46.4677143],[20.1047868,46.4575366],[20.1064217,46.4567589],[20.1019283,46.4526107],[20.1003008,46.4537664],[20.0941808,46.4507799],[20.0941881,46.4511579],[20.0936412,46.451163],[20.0925459,46.4515574],[20.0897934,46.4515828],[20.0864924,46.4519913],[20.0820683,46.4508914],[20.0804533,46.4531872],[20.0671152,46.4468372],[20.0633392,46.4510613],[20.0436828,46.460757],[20.0366225,46.4665277],[20.0243389,46.4578763],[20.0129352,46.4671168],[20.0062781,46.4645082],[20.002942,46.4630117],[19.9979493,46.4611509],[19.9801877,46.4536812],[19.9812774,46.4529098],[19.9818201,46.4521429],[19.9829163,46.4517557],[19.9845396,46.4502175],[19.9866921,46.44715],[19.9645329,46.4400987],[19.959653,46.4447063],[19.9384563,46.4620137],[19.9379218,46.4627803],[19.9203405,46.465967],[19.9047035,46.4653745],[19.9010496,46.4661143],[19.9010797,46.4680169],[19.8952142,46.4806249],[19.8859671,46.4883114],[19.873377,46.4941189],[19.863545,46.5002831],[19.8482679,46.5110532],[19.837745,46.508462],[19.830577,46.5081337],[19.8184258,46.5070706],[19.809587,46.50599],[19.7916115,46.5224852],[19.7801594,46.5320803],[19.7697671,46.538618],[19.7577157,46.5455494],[19.742933,46.5547834],[19.7363707,46.5593915],[19.7298025,46.5636212],[19.7221186,46.5670948],[19.7159594,46.5602763],[19.6958157,46.5391234],[19.6786097,46.5296429],[19.6807694,46.5254471],[19.6670528,46.5319939],[19.6484516,46.5461824],[19.6193074,46.5558536],[19.6027782,46.5586072],[19.5845281,46.5556459],[19.5811919,46.5526123],[19.5739437,46.5454131],[19.569473,46.5401036],[19.567791,46.5370619],[19.5683278,46.535919],[19.5732308,46.5294256],[19.5781363,46.5233101],[19.591306,46.5160082],[19.6022799,46.5102465],[19.6198014,46.498352],[19.6290716,46.4891626],[19.6361574,46.4815085],[19.6595914,46.4577756],[19.6468276,46.4494643],[19.6263738,46.4434784],[19.6191996,46.4416121],[19.6087131,46.44014],[19.5943855,46.4390699],[19.5637692,46.4632064],[19.5566701,46.4693313],[19.5511754,46.471643],[19.5407566,46.4770192],[19.5352762,46.4800862],[19.5100653,46.4977139],[19.5073298,46.5000059],[19.5034934,46.5026866],[19.5047233,46.5175319],[19.5019705,46.5179273],[19.4882124,46.5217873],[19.4832168,46.5180011],[19.4804179,46.5126817],[19.4798461,46.5107811],[19.4156045,46.4717819],[19.4002214,46.4786859],[19.3958364,46.4817489],[19.3931025,46.4863251],[19.3898177,46.4890002],[19.3854199,46.4916786],[19.3815827,46.4951175],[19.3777614,46.5012212],[19.3844043,46.5057695],[19.3860743,46.5072892],[19.3689985,46.5111508],[19.3624186,46.5172619],[19.3569194,46.5210826],[19.3519761,46.5249015],[19.3420145,46.5192197],[19.3431146,46.5184544]]],[[[18.9129553,46.505814],[18.9129222,46.5054312],[18.9145727,46.5058174],[18.9156767,46.5058187],[18.9151301,46.5054338],[18.9167816,46.5054357],[18.9178865,46.5050589],[18.9167898,46.5020145],[18.9167908,46.5016302],[18.917341,46.5004905],[18.9184439,46.5008698],[18.9195514,46.4993464],[18.9195568,46.4970656],[18.9190121,46.4959183],[18.9184566,46.4955396],[18.9179065,46.4966794],[18.9162426,46.4982022],[18.9162417,46.4985865],[18.9156952,46.4982016],[18.9151422,46.5004879],[18.9145858,46.5004873],[18.9145848,46.5008653],[18.9134772,46.5023887],[18.9085023,46.5069506],[18.9085014,46.5073348],[18.9096034,46.5080985],[18.9101628,46.5069526],[18.9107104,46.5069533],[18.9118172,46.5058142],[18.9129553,46.505814]]]]}}]}