{"type": "FeatureCollection", "features": [{"type": "Feature", "properties": {"id": "AOC-Alsace-Grand-Cru-Bruderthal", "name": "Bruderthal", "commune": "Molsheim", "family": "石灰岩", "familyColor": "#95a5a6", "lessonId": "AL2M4L1"}, "geometry": {"type": "MultiPolygon", "coordinates": [[[[7.483868, 48.546715], [7.48348, 48.546722], [7.483333, 48.546725], [7.483279, 48.546728], [7.482952, 48.546736], [7.482893, 48.546739], [7.482801, 48.54674], [7.482423, 48.546746], [7.482193, 48.54673], [7.482141, 48.546726], [7.482075, 48.546717], [7.481572, 48.546652], [7.481543, 48.546648], [7.481113, 48.546609], [7.481067, 48.546612], [7.480652, 48.546969], [7.480588, 48.547044], [7.480474, 48.547167], [7.480464, 48.547175], [7.480174, 48.547422], [7.479876, 48.54766], [7.479863, 48.547671], [7.479792, 48.547749], [7.479568, 48.547963], [7.479405, 48.548096], [7.479185, 48.548247], [7.478968, 48.548446], [7.478957, 48.548453], [7.478783, 48.548678], [7.47877, 48.548693], [7.478665, 48.548816], [7.47895, 48.548869], [7.478931, 48.548917], [7.478938, 48.548922], [7.479047, 48.548972], [7.479255, 48.549069], [7.479415, 48.549123], [7.479422, 48.549134], [7.479449, 48.549174], [7.479478, 48.549219], [7.479481, 48.549225], [7.479525, 48.549266], [7.479221, 48.549321], [7.479293, 48.549355], [7.479452, 48.549429], [7.479495, 48.549453], [7.479619, 48.549514], [7.479732, 48.549568], [7.479775, 48.549586], [7.479789, 48.549594], [7.479814, 48.549603], [7.480015, 48.54968], [7.480102, 48.549715], [7.480137, 48.54973], [7.480226, 48.549775], [7.480262, 48.549791], [7.480376, 48.549847], [7.480386, 48.549857], [7.480403, 48.549897], [7.480422, 48.549911], [7.480462, 48.54994], [7.480475, 48.549953], [7.480513, 48.549984], [7.48054, 48.549994], [7.480592, 48.550016], [7.480632, 48.550035], [7.48069, 48.550059], [7.480752, 48.550088], [7.480795, 48.550106], [7.480848, 48.55013], [7.480957, 48.550178], [7.480981, 48.550187], [7.481143, 48.550258], [7.481206, 48.550287], [7.481391, 48.550365], [7.481416, 48.550379], [7.481568, 48.550441], [7.481648, 48.550476], [7.481924, 48.550095], [7.482162, 48.550228], [7.482367, 48.550343], [7.48277, 48.550571], [7.482885, 48.550672], [7.482945, 48.550727], [7.483063, 48.550851], [7.483191, 48.550991], [7.48386, 48.550672], [7.484233, 48.550537], [7.484367, 48.550428], [7.484754, 48.550214], [7.485206, 48.550008], [7.485289, 48.549968], [7.485625, 48.549804], [7.48587, 48.549713], [7.486103, 48.549652], [7.486306, 48.549602], [7.48649, 48.549559], [7.486876, 48.549453], [7.487225, 48.549396], [7.48725, 48.549392], [7.487671, 48.549342], [7.487702, 48.549336], [7.487728, 48.549288], [7.48777, 48.54921], [7.487773, 48.549196], [7.487787, 48.549128], [7.487688, 48.549022], [7.487669, 48.549002], [7.487606, 48.548949], [7.487465, 48.54883], [7.487368, 48.548759], [7.487359, 48.548752], [7.487245, 48.54867], [7.487166, 48.548612], [7.487055, 48.548532], [7.486967, 48.548447], [7.486903, 48.548384], [7.486863, 48.548346], [7.486608, 48.548228], [7.486556, 48.548204], [7.486399, 48.548107], [7.48626, 48.547992], [7.4862, 48.547942], [7.486193, 48.547919], [7.486175, 48.547864], [7.48618, 48.547847], [7.486227, 48.547656], [7.486245, 48.547584], [7.48608, 48.547448], [7.486073, 48.547442], [7.485571, 48.547456], [7.485532, 48.547455], [7.485406, 48.547453], [7.485178, 48.547449], [7.484652, 48.547433], [7.484499, 48.547429], [7.48436, 48.54745], [7.484228, 48.547495], [7.484183, 48.547457], [7.484083, 48.547382], [7.484047, 48.547367], [7.484269, 48.547346], [7.484274, 48.547306], [7.48438, 48.546711], [7.484378, 48.546704], [7.484292, 48.546708], [7.484079, 48.546712], [7.48397, 48.546714], [7.483868, 48.546715]]]]}}]}