{"type": "FeatureCollection", "features": [{"type": "Feature", "properties": {"id": "AOC-Alsace-Grand-Cru-Rosacker", "name": "Rosacker", "commune": "Hunawihr", "family": "石灰岩", "familyColor": "#e91e8c", "lessonId": "AL2M4L1"}, "geometry": {"type": "MultiPolygon", "coordinates": [[[[7.308787, 48.183317], [7.30877, 48.183284], [7.308666, 48.183093], [7.308655, 48.183056], [7.308598, 48.18285], [7.308541, 48.182517], [7.308475, 48.182136], [7.308474, 48.181732], [7.308474, 48.181573], [7.308385, 48.181506], [7.308295, 48.181515], [7.308179, 48.181525], [7.308086, 48.181534], [7.307915, 48.181549], [7.307899, 48.181551], [7.307776, 48.181532], [7.307631, 48.18151], [7.307484, 48.181489], [7.307369, 48.181473], [7.307026, 48.181453], [7.306872, 48.181455], [7.306642, 48.181446], [7.306393, 48.181435], [7.306139, 48.181424], [7.306066, 48.181422], [7.306069, 48.181422], [7.306072, 48.181362], [7.306078, 48.181362], [7.306269, 48.181366], [7.306482, 48.181369], [7.30669, 48.181372], [7.306917, 48.181376], [7.307143, 48.181379], [7.307378, 48.181385], [7.307599, 48.181418], [7.307807, 48.181452], [7.307916, 48.181468], [7.308029, 48.18146], [7.30799, 48.180888], [7.307927, 48.180647], [7.307754, 48.180668], [7.307754, 48.180666], [7.30753, 48.180694], [7.307496, 48.180351], [7.307495, 48.180333], [7.307375, 48.18035], [7.30729, 48.180366], [7.307276, 48.180366], [7.307191, 48.180382], [7.307032, 48.180404], [7.307013, 48.180407], [7.30688, 48.180426], [7.306842, 48.180289], [7.306839, 48.180289], [7.306484, 48.180327], [7.306347, 48.180343], [7.306249, 48.180353], [7.306159, 48.180077], [7.306074, 48.180095], [7.305928, 48.180089], [7.305805, 48.180105], [7.3057, 48.180103], [7.305659, 48.180094], [7.305554, 48.180071], [7.305402, 48.180017], [7.305324, 48.179987], [7.305066, 48.179894], [7.304766, 48.179786], [7.304678, 48.17973], [7.304437, 48.179812], [7.304369, 48.179845], [7.304136, 48.179958], [7.303578, 48.180053], [7.303567, 48.180057], [7.303565, 48.180058], [7.303512, 48.180142], [7.303444, 48.180258], [7.303089, 48.180831], [7.303092, 48.180833], [7.303103, 48.180843], [7.303246, 48.180813], [7.303662, 48.180794], [7.304136, 48.180813], [7.304224, 48.180836], [7.304285, 48.180856], [7.304687, 48.18103], [7.304352, 48.180886], [7.304378, 48.180975], [7.304398, 48.180992], [7.304469, 48.181064], [7.304557, 48.181151], [7.304633, 48.181225], [7.304714, 48.181332], [7.304763, 48.181395], [7.304823, 48.181472], [7.304859, 48.181516], [7.304865, 48.181527], [7.30494, 48.181625], [7.304949, 48.181634], [7.305012, 48.181716], [7.305053, 48.181785], [7.305078, 48.181824], [7.305226, 48.181797], [7.305248, 48.181832], [7.305259, 48.181893], [7.305291, 48.181924], [7.305304, 48.181959], [7.305321, 48.181999], [7.305365, 48.182105], [7.305399, 48.18219], [7.305432, 48.182333], [7.305422, 48.182341], [7.3055, 48.182477], [7.30556, 48.182586], [7.30557, 48.1826], [7.305649, 48.182747], [7.305706, 48.182853], [7.305706, 48.182855], [7.305772, 48.182934], [7.305783, 48.182942], [7.30587, 48.183008], [7.305875, 48.183013], [7.305926, 48.183072], [7.305929, 48.183078], [7.306017, 48.183231], [7.306058, 48.183302], [7.306127, 48.18329], [7.306207, 48.183381], [7.306267, 48.183447], [7.30628, 48.183445], [7.306286, 48.183454], [7.30642, 48.183611], [7.306692, 48.183571], [7.306694, 48.18357], [7.306691, 48.183659], [7.306695, 48.18368], [7.306714, 48.183772], [7.306719, 48.183806], [7.306719, 48.183809], [7.30677, 48.183899], [7.306804, 48.183958], [7.306838, 48.184036], [7.306938, 48.184115], [7.307002, 48.184167], [7.307077, 48.184225], [7.307091, 48.184237], [7.307216, 48.18428], [7.30729, 48.18443], [7.30729, 48.184432], [7.307283, 48.184544], [7.307283, 48.184546], [7.3072, 48.184814], [7.307193, 48.184893], [7.307219, 48.184977], [7.307283, 48.1852], [7.307362, 48.185476], [7.307375, 48.185669], [7.307375, 48.185728], [7.307431, 48.185753], [7.307555, 48.185761], [7.307704, 48.185772], [7.307815, 48.185779], [7.307826, 48.18578], [7.307964, 48.185788], [7.30807, 48.185797], [7.308628, 48.185832], [7.308998, 48.18584], [7.30906, 48.185832], [7.309132, 48.185794], [7.30933, 48.185586], [7.30934, 48.185577], [7.309575, 48.185385], [7.309849, 48.185232], [7.309826, 48.18512], [7.309823, 48.185111], [7.309774, 48.185013], [7.309719, 48.1849], [7.309716, 48.184895], [7.30967, 48.184832], [7.309627, 48.184768], [7.309582, 48.184705], [7.309551, 48.184661], [7.309475, 48.184554], [7.309415, 48.184446], [7.309311, 48.184259], [7.309286, 48.184215], [7.309242, 48.184135], [7.30921, 48.184073], [7.309165, 48.183987], [7.309143, 48.183948], [7.309133, 48.183932], [7.309009, 48.183733], [7.308952, 48.18362], [7.308913, 48.183547], [7.308891, 48.183508], [7.308787, 48.183317]]], [[[7.313315, 48.182242], [7.31331, 48.182242], [7.313111, 48.182215], [7.313027, 48.182204], [7.313032, 48.182303], [7.31297, 48.182299], [7.312971, 48.182481], [7.312808, 48.182464], [7.312623, 48.182447], [7.312438, 48.182422], [7.311986, 48.182334], [7.311964, 48.182329], [7.311649, 48.182259], [7.311492, 48.182227], [7.311345, 48.182202], [7.311285, 48.182192], [7.311082, 48.182156], [7.310952, 48.182139], [7.310954, 48.182463], [7.310951, 48.182132], [7.311026, 48.181866], [7.311032, 48.181839], [7.311043, 48.181806], [7.310722, 48.181765], [7.310572, 48.181747], [7.310428, 48.181707], [7.310368, 48.181692], [7.310217, 48.181629], [7.310111, 48.181584], [7.310008, 48.181541], [7.309695, 48.181466], [7.309572, 48.181456], [7.309453, 48.181444], [7.30945, 48.181446], [7.309161, 48.181469], [7.308993, 48.181482], [7.308883, 48.181492], [7.308776, 48.181501], [7.308628, 48.181512], [7.308571, 48.181564], [7.308575, 48.181718], [7.308585, 48.182141], [7.308691, 48.18284], [7.308692, 48.182847], [7.308699, 48.182868], [7.308762, 48.183044], [7.308791, 48.18311], [7.308838, 48.183222], [7.308869, 48.183298], [7.308903, 48.183353], [7.308975, 48.183475], [7.309068, 48.183626], [7.309236, 48.183907], [7.309392, 48.184191], [7.309508, 48.184399], [7.309575, 48.184523], [7.309808, 48.184868], [7.30994, 48.185124], [7.309955, 48.185252], [7.309969, 48.185354], [7.310025, 48.185375], [7.310786, 48.185292], [7.310802, 48.185291], [7.310925, 48.185283], [7.311038, 48.185275], [7.311204, 48.185266], [7.311462, 48.185249], [7.311481, 48.185248], [7.311602, 48.185246], [7.312156, 48.18524], [7.312328, 48.185225], [7.31237, 48.185189], [7.312443, 48.185181], [7.312484, 48.18526], [7.312568, 48.185263], [7.313322, 48.185154], [7.313481, 48.185121], [7.313656, 48.185086], [7.313518, 48.184624], [7.31347, 48.18446], [7.313376, 48.18404], [7.313412, 48.184022], [7.313336, 48.183382], [7.313351, 48.183334], [7.31335, 48.182792], [7.313333, 48.182528], [7.313325, 48.182393], [7.313323, 48.182371], [7.313315, 48.182242]]], [[[7.309888, 48.185553], [7.309846, 48.185368], [7.309733, 48.18537], [7.309652, 48.185429], [7.309508, 48.185548], [7.309425, 48.185617], [7.309222, 48.185848], [7.309212, 48.185854], [7.309224, 48.185864], [7.309227, 48.185875], [7.309927, 48.185732], [7.309906, 48.185636], [7.309888, 48.185553]]]]}}]}