{"type": "FeatureCollection", "features": [{"type": "Feature", "properties": {"id": "AOC-Alsace-Grand-Cru-Steinklotz", "name": "Steinklotz", "commune": "Marlenheim", "family": "石灰岩", "familyColor": "#7f8c8d", "lessonId": "AL2M4L1"}, "geometry": {"type": "MultiPolygon", "coordinates": [[[[7.48456, 48.6227], [7.484337, 48.622831], [7.484321, 48.622836], [7.484281, 48.62285], [7.483574, 48.623006], [7.483434, 48.623052], [7.483279, 48.623115], [7.483257, 48.623082], [7.483257, 48.623064], [7.483253, 48.622871], [7.483195, 48.622856], [7.483004, 48.622807], [7.482895, 48.622785], [7.48279, 48.622764], [7.482836, 48.622664], [7.482714, 48.622653], [7.482631, 48.622646], [7.482583, 48.622637], [7.482564, 48.622633], [7.482503, 48.622622], [7.482439, 48.622611], [7.482399, 48.622603], [7.482374, 48.622599], [7.482326, 48.622589], [7.482197, 48.622574], [7.481966, 48.622547], [7.48187, 48.622536], [7.481845, 48.622604], [7.481704, 48.62298], [7.481684, 48.623035], [7.481475, 48.62301], [7.481455, 48.623111], [7.481394, 48.623358], [7.481381, 48.623412], [7.481222, 48.623746], [7.481175, 48.62383], [7.481097, 48.623861], [7.480669, 48.624291], [7.480348, 48.624554], [7.480284, 48.624612], [7.480179, 48.624691], [7.480164, 48.624721], [7.480176, 48.624748], [7.480193, 48.624787], [7.480221, 48.624875], [7.480108, 48.625354], [7.47997, 48.625567], [7.479817, 48.625805], [7.479949, 48.625821], [7.480068, 48.625835], [7.480235, 48.625855], [7.480367, 48.62587], [7.480357, 48.625904], [7.480209, 48.626593], [7.480205, 48.62661], [7.480262, 48.626622], [7.4806, 48.626688], [7.480601, 48.626697], [7.480732, 48.626716], [7.480629, 48.62703], [7.480831, 48.627057], [7.480906, 48.627066], [7.480977, 48.627076], [7.481109, 48.627093], [7.481212, 48.627106], [7.481354, 48.627124], [7.481546, 48.627147], [7.481636, 48.627152], [7.481681, 48.627153], [7.481816, 48.627159], [7.481865, 48.62716], [7.481929, 48.62716], [7.482057, 48.627158], [7.482114, 48.627162], [7.482175, 48.627167], [7.482261, 48.627175], [7.482388, 48.627195], [7.482573, 48.627225], [7.482652, 48.627238], [7.482714, 48.627249], [7.482866, 48.627274], [7.483065, 48.627308], [7.483107, 48.627315], [7.483182, 48.627336], [7.483261, 48.627358], [7.483629, 48.62746], [7.483813, 48.627512], [7.484045, 48.627576], [7.484066, 48.627582], [7.484081, 48.627586], [7.484335, 48.627658], [7.484377, 48.627669], [7.484481, 48.627698], [7.484544, 48.627716], [7.484618, 48.627736], [7.484682, 48.627754], [7.484748, 48.627772], [7.484794, 48.627785], [7.484883, 48.62781], [7.484924, 48.627822], [7.484964, 48.627832], [7.485017, 48.627848], [7.485222, 48.627904], [7.485284, 48.627921], [7.485498, 48.627976], [7.48556, 48.627992], [7.485621, 48.627999], [7.485719, 48.62801], [7.485815, 48.628019], [7.485857, 48.628018], [7.486027, 48.628016], [7.486251, 48.628014], [7.486339, 48.628012], [7.486439, 48.628009], [7.486515, 48.628006], [7.486716, 48.627998], [7.486945, 48.628011], [7.487065, 48.628017], [7.487124, 48.628021], [7.487179, 48.628034], [7.487291, 48.628062], [7.487894, 48.62821], [7.487923, 48.628216], [7.488061, 48.628251], [7.488133, 48.628268], [7.488269, 48.6283], [7.488375, 48.628328], [7.488537, 48.628366], [7.488656, 48.628397], [7.48874, 48.628417], [7.48882, 48.62842], [7.488893, 48.628413], [7.488984, 48.628386], [7.489432, 48.627966], [7.489596, 48.627839], [7.489776, 48.627701], [7.489785, 48.627649], [7.489819, 48.627666], [7.489851, 48.627682], [7.489904, 48.627681], [7.489949, 48.627676], [7.490151, 48.627617], [7.4901, 48.627632], [7.49019, 48.627664], [7.49019, 48.627681], [7.490219, 48.627698], [7.490437, 48.627782], [7.490518, 48.627814], [7.490643, 48.627862], [7.490804, 48.627924], [7.490903, 48.627962], [7.491005, 48.628002], [7.491112, 48.628041], [7.491114, 48.628042], [7.491214, 48.628076], [7.491311, 48.628109], [7.491363, 48.628127], [7.492122, 48.628391], [7.492304, 48.628444], [7.49254, 48.628512], [7.492854, 48.628582], [7.492975, 48.628596], [7.493335, 48.628696], [7.493472, 48.628734], [7.493639, 48.62878], [7.493865, 48.628863], [7.493895, 48.628874], [7.493949, 48.628893], [7.494006, 48.628912], [7.494153, 48.628962], [7.494206, 48.628981], [7.494321, 48.629023], [7.494443, 48.629067], [7.494577, 48.629099], [7.494643, 48.62908], [7.494772, 48.629003], [7.494936, 48.628892], [7.495188, 48.628674], [7.495457, 48.628429], [7.495607, 48.628331], [7.495821, 48.628083], [7.495692, 48.628033], [7.495664, 48.628022], [7.495441, 48.627935], [7.495366, 48.627906], [7.495418, 48.627843], [7.495352, 48.627817], [7.495263, 48.627782], [7.494967, 48.62816], [7.494929, 48.628146], [7.49501, 48.628042], [7.494882, 48.627984], [7.494978, 48.627868], [7.494903, 48.627841], [7.494864, 48.627827], [7.494831, 48.627815], [7.494793, 48.627866], [7.494708, 48.627833], [7.494648, 48.627811], [7.494614, 48.627798], [7.494548, 48.627773], [7.494409, 48.62772], [7.49437, 48.627705], [7.494332, 48.62769], [7.494542, 48.627481], [7.493773, 48.627157], [7.493721, 48.627136], [7.493675, 48.627118], [7.493652, 48.627109], [7.493592, 48.627085], [7.493587, 48.627083], [7.493426, 48.627019], [7.493413, 48.627014], [7.493402, 48.627006], [7.493427, 48.626947], [7.493414, 48.626862], [7.493411, 48.62685], [7.493329, 48.62675], [7.493263, 48.626701], [7.493415, 48.626483], [7.493575, 48.62621], [7.493315, 48.626103], [7.493246, 48.626074], [7.493132, 48.626027], [7.493082, 48.626011], [7.493035, 48.625998], [7.492971, 48.625981], [7.492817, 48.625939], [7.492715, 48.625919], [7.492398, 48.625856], [7.492375, 48.625851], [7.492223, 48.625816], [7.492143, 48.625797], [7.492092, 48.625786], [7.492056, 48.625776], [7.491882, 48.625728], [7.491801, 48.625705], [7.491739, 48.625685], [7.491411, 48.625573], [7.491333, 48.625545], [7.491254, 48.625517], [7.49119, 48.625493], [7.490991, 48.625393], [7.490862, 48.625327], [7.490798, 48.625294], [7.490729, 48.625258], [7.490348, 48.625074], [7.490338, 48.625069], [7.490311, 48.625128], [7.490276, 48.625115], [7.490267, 48.625112], [7.490122, 48.625078], [7.490019, 48.625053], [7.489893, 48.625016], [7.489707, 48.624961], [7.489384, 48.624866], [7.489247, 48.624868], [7.489163, 48.624885], [7.489109, 48.62486], [7.489137, 48.624792], [7.489101, 48.624777], [7.489058, 48.624763], [7.489021, 48.624752], [7.488963, 48.624735], [7.488471, 48.624584], [7.488364, 48.624551], [7.488311, 48.624536], [7.488254, 48.624521], [7.488172, 48.624499], [7.488059, 48.624468], [7.487972, 48.624453], [7.487921, 48.624445], [7.487753, 48.624416], [7.487632, 48.624396], [7.487425, 48.624361], [7.487344, 48.624347], [7.487234, 48.624329], [7.487054, 48.624298], [7.486947, 48.624281], [7.486845, 48.624256], [7.486798, 48.624245], [7.486698, 48.624221], [7.486501, 48.624166], [7.486431, 48.624146], [7.486372, 48.62413], [7.486344, 48.624122], [7.486269, 48.624102], [7.486073, 48.62404], [7.486029, 48.624026], [7.485993, 48.624015], [7.485951, 48.624002], [7.485892, 48.623983], [7.485798, 48.623953], [7.485786, 48.623948], [7.485754, 48.623936], [7.485619, 48.623813], [7.485596, 48.623794], [7.485551, 48.623787], [7.48544, 48.623766], [7.485367, 48.623751], [7.485329, 48.623743], [7.485295, 48.623736], [7.485236, 48.623724], [7.485031, 48.623683], [7.484825, 48.623641], [7.484749, 48.623626], [7.484534, 48.623583], [7.484545, 48.623563], [7.484752, 48.623089], [7.48473, 48.623077], [7.484841, 48.622831], [7.485007, 48.622463], [7.484974, 48.622454], [7.484677, 48.622633], [7.48456, 48.6227]]]]}}]}