{"type": "FeatureCollection", "features": [{"type": "Feature", "properties": {"id": "AOC-Alsace-Grand-Cru-Steinert", "name": "Steinert", "commune": "Pfaffenheim & Westhalten", "family": "石灰岩", "familyColor": "#bdc3c7", "lessonId": "AL2M4L1"}, "geometry": {"type": "MultiPolygon", "coordinates": [[[[7.282427, 47.977804], [7.282434, 47.977827], [7.28244, 47.977894], [7.282456, 47.978065], [7.282444, 47.977948], [7.282371, 47.977945], [7.282342, 47.977746], [7.282313, 47.977628], [7.28138, 47.977504], [7.281305, 47.977479], [7.280814, 47.977479], [7.280728, 47.97748], [7.280707, 47.977479], [7.280423, 47.977488], [7.280375, 47.977499], [7.280379, 47.977506], [7.280333, 47.97741], [7.2803, 47.977334], [7.28029, 47.977304], [7.280226, 47.977304], [7.279823, 47.977303], [7.279028, 47.977299], [7.278971, 47.977299], [7.27891, 47.9773], [7.278722, 47.977299], [7.278719, 47.977303], [7.278185, 47.977299], [7.277871, 47.977298], [7.277699, 47.977297], [7.277425, 47.977296], [7.277428, 47.977298], [7.277368, 47.977293], [7.277505, 47.977524], [7.277347, 47.977259], [7.276909, 47.977351], [7.277374, 47.977666], [7.276909, 47.977353], [7.276888, 47.977393], [7.276733, 47.977399], [7.276378, 47.977531], [7.276307, 47.977548], [7.276108, 47.97751], [7.275901, 47.977409], [7.275893, 47.977404], [7.275819, 47.977349], [7.275728, 47.977325], [7.27535, 47.977328], [7.275184, 47.977302], [7.274919, 47.977312], [7.274976, 47.977486], [7.274987, 47.977525], [7.275046, 47.977727], [7.275158, 47.977977], [7.275299, 47.978091], [7.275359, 47.978208], [7.275388, 47.978264], [7.27541, 47.978307], [7.27542, 47.978303], [7.275461, 47.978446], [7.275515, 47.978743], [7.275529, 47.978778], [7.275391, 47.978773], [7.275285, 47.978755], [7.274992, 47.978713], [7.274973, 47.978712], [7.274973, 47.978741], [7.274962, 47.978947], [7.2748, 47.978962], [7.274606, 47.978958], [7.274692, 47.97925], [7.274818, 47.979491], [7.274953, 47.979466], [7.274962, 47.979506], [7.275038, 47.979813], [7.27504, 47.979813], [7.275059, 47.979978], [7.275069, 47.980102], [7.275114, 47.980554], [7.275144, 47.980561], [7.27522, 47.980572], [7.275536, 47.980627], [7.275579, 47.980662], [7.275426, 47.980738], [7.275392, 47.98078], [7.275355, 47.98082], [7.275145, 47.98095], [7.27488, 47.980992], [7.274884, 47.981107], [7.274925, 47.981116], [7.275683, 47.981192], [7.275796, 47.981224], [7.275799, 47.981225], [7.275824, 47.981241], [7.275959, 47.981346], [7.276062, 47.981423], [7.27619, 47.981519], [7.276383, 47.981714], [7.276748, 47.982083], [7.276891, 47.982346], [7.276925, 47.982376], [7.277024, 47.982365], [7.277346, 47.982333], [7.277428, 47.982325], [7.277482, 47.982319], [7.277588, 47.982308], [7.277592, 47.982294], [7.278006, 47.982266], [7.27804, 47.982258], [7.278077, 47.982245], [7.278213, 47.982028], [7.278341, 47.981686], [7.278405, 47.981453], [7.278425, 47.981333], [7.278426, 47.981317], [7.278441, 47.981205], [7.278489, 47.980936], [7.278506, 47.98084], [7.278529, 47.980699], [7.27855, 47.980521], [7.278553, 47.980498], [7.278578, 47.98027], [7.278588, 47.979961], [7.278575, 47.9799], [7.278586, 47.979835], [7.27868, 47.979808], [7.279066, 47.979771], [7.27908, 47.979772], [7.279232, 47.979792], [7.279254, 47.979795], [7.279305, 47.97976], [7.279402, 47.979607], [7.27945, 47.979504], [7.279458, 47.97947], [7.279465, 47.979421], [7.279472, 47.979372], [7.279474, 47.979327], [7.279504, 47.979241], [7.279515, 47.979208], [7.279558, 47.979208], [7.279612, 47.979217], [7.279579, 47.979036], [7.279616, 47.979233], [7.279578, 47.979289], [7.279535, 47.979355], [7.279521, 47.979421], [7.279506, 47.979501], [7.279507, 47.979509], [7.279495, 47.97953], [7.279455, 47.979625], [7.279333, 47.979813], [7.279324, 47.97983], [7.279351, 47.979872], [7.279327, 47.979835], [7.27926, 47.979874], [7.279022, 47.979846], [7.279011, 47.979847], [7.278896, 47.979856], [7.278665, 47.97989], [7.278642, 47.979929], [7.278638, 47.979985], [7.278636, 47.980053], [7.278627, 47.980281], [7.278586, 47.980706], [7.278558, 47.980882], [7.278533, 47.981016], [7.278524, 47.98107], [7.278516, 47.981134], [7.27851, 47.981163], [7.2785, 47.981231], [7.278479, 47.981366], [7.278466, 47.981444], [7.278464, 47.981458], [7.278431, 47.981571], [7.278423, 47.981609], [7.2784, 47.981693], [7.278324, 47.981912], [7.278283, 47.982036], [7.278154, 47.982297], [7.276954, 47.982404], [7.276934, 47.982419], [7.276981, 47.982498], [7.277043, 47.982606], [7.27709, 47.982683], [7.277149, 47.982786], [7.277212, 47.982899], [7.277339, 47.98304], [7.277409, 47.983119], [7.277459, 47.983135], [7.277763, 47.983111], [7.278092, 47.983092], [7.278314, 47.983048], [7.278611, 47.983007], [7.278733, 47.982989], [7.278808, 47.983017], [7.278915, 47.982983], [7.279093, 47.98289], [7.279213, 47.982884], [7.279191, 47.982672], [7.279241, 47.983128], [7.279275, 47.983155], [7.28058, 47.983184], [7.279321, 47.983157], [7.279308, 47.983192], [7.279031, 47.983618], [7.27892, 47.983842], [7.278857, 47.983987], [7.278794, 47.984069], [7.278787, 47.984083], [7.27873, 47.984313], [7.278778, 47.984313], [7.278956, 47.984313], [7.279076, 47.984313], [7.279243, 47.984312], [7.279439, 47.984312], [7.279848, 47.98429], [7.280415, 47.98426], [7.280487, 47.984261], [7.28093, 47.984227], [7.281184, 47.984209], [7.281378, 47.984194], [7.281501, 47.984185], [7.281736, 47.984167], [7.281973, 47.984148], [7.282172, 47.984151], [7.282439, 47.984165], [7.282981, 47.984192], [7.283016, 47.984124], [7.283056, 47.984123], [7.283019, 47.983992], [7.282971, 47.983834], [7.282961, 47.983578], [7.282958, 47.983504], [7.282954, 47.983427], [7.282949, 47.983369], [7.282937, 47.983245], [7.28293, 47.983166], [7.282882, 47.983001], [7.282876, 47.982994], [7.282848, 47.982939], [7.282822, 47.982887], [7.28272, 47.982752], [7.282656, 47.982699], [7.282673, 47.982642], [7.28278, 47.982629], [7.282786, 47.982607], [7.28289, 47.98233], [7.28292, 47.982244], [7.28294, 47.982189], [7.282967, 47.98212], [7.282991, 47.982056], [7.282993, 47.98205], [7.283019, 47.981975], [7.283039, 47.981886], [7.283058, 47.981794], [7.283064, 47.981696], [7.283067, 47.981436], [7.283051, 47.981266], [7.283043, 47.981176], [7.283038, 47.981111], [7.283018, 47.980858], [7.283011, 47.980772], [7.282953, 47.980453], [7.282931, 47.980322], [7.282902, 47.980154], [7.282923, 47.979992], [7.282935, 47.979902], [7.282988, 47.979657], [7.283008, 47.979546], [7.283038, 47.979386], [7.283025, 47.979261], [7.28296, 47.979148], [7.28304, 47.979074], [7.282962, 47.979041], [7.283187, 47.979134], [7.283288, 47.979123], [7.283418, 47.978909], [7.283481, 47.978716], [7.283475, 47.978651], [7.28347, 47.97859], [7.283465, 47.978525], [7.283465, 47.978523], [7.283428, 47.978465], [7.28335, 47.978324], [7.28334, 47.978305], [7.283298, 47.978221], [7.283296, 47.978097], [7.283295, 47.978043], [7.283289, 47.977877], [7.283287, 47.977784], [7.282976, 47.977784], [7.282427, 47.977804]], [[7.281664, 47.982008], [7.281754, 47.981993], [7.281645, 47.981878], [7.281786, 47.982024], [7.281866, 47.982089], [7.281803, 47.982101], [7.281723, 47.982044], [7.281619, 47.982052], [7.2812, 47.98209], [7.281057, 47.982113], [7.280977, 47.982149], [7.280947, 47.982116], [7.280951, 47.982063], [7.280718, 47.982041], [7.280645, 47.982035], [7.280321, 47.982012], [7.279836, 47.981989], [7.279796, 47.981954], [7.279761, 47.981957], [7.279765, 47.981906], [7.279808, 47.98191], [7.279825, 47.981917], [7.279876, 47.981953], [7.280049, 47.981968], [7.280419, 47.981989], [7.280584, 47.982003], [7.2806, 47.982006], [7.2812, 47.982052], [7.281632, 47.98202], [7.281664, 47.982008]], [[7.279505, 47.97832], [7.279357, 47.978343], [7.278884, 47.978413], [7.279306, 47.978351], [7.279309, 47.978316], [7.279325, 47.978249], [7.279032, 47.978179], [7.278846, 47.978137], [7.278539, 47.978097], [7.278448, 47.978092], [7.278356, 47.978088], [7.2783, 47.978086], [7.278293, 47.97804], [7.278541, 47.978047], [7.278901, 47.978093], [7.279007, 47.978107], [7.279024, 47.978112], [7.279035, 47.978114], [7.279084, 47.978128], [7.279095, 47.978133], [7.279109, 47.978136], [7.279222, 47.978168], [7.279392, 47.978216], [7.279513, 47.978249], [7.279505, 47.97832]]]]}}]}