{"type":"FeatureCollection","crs":{"type":"name","properties":{"name":"urn:ogc:def:crs:EPSG::4326"}},"features":[{"type":"Feature","properties":{"region_id":15,"name":"Mór","name_hu":"Móri borvidék","region_group":"Dunántúl (Transdanubia)","area_ha_approx":1900,"notable_grapes":"Ezerjó, Olaszrizling","notes":"Known for unique Ezerjó variety; steep limestone slopes"},"geometry":{"type":"Polygon","coordinates":[[[18.1041878,47.2483788],[18.1030887,47.2472294],[18.1003155,47.24606],[18.0953038,47.2448781],[18.0891937,47.2425403],[18.0825015,47.2417219],[18.0786029,47.2409267],[18.0797635,47.2386557],[18.0792223,47.2378888],[18.0792569,47.2359863],[18.0815757,47.2310537],[18.0827222,47.2295386],[18.0855493,47.2276596],[18.0844442,47.226888],[18.0833551,47.2257384],[18.0811451,47.2241952],[18.0789214,47.2234141],[18.079506,47.2222786],[18.079513,47.2218944],[18.0852145,47.2154717],[18.0857898,47.2143361],[18.0857964,47.21395],[18.0852558,47.213185],[18.0830461,47.2116479],[18.0802613,47.2112402],[18.0662935,47.2111217],[18.0584588,47.2118168],[18.0562217,47.2117975],[18.0539917,47.2114001],[18.0500744,47.2117442],[18.0400096,47.2120344],[18.0366487,47.2127672],[18.0338404,47.2131267],[18.0310341,47.2138642],[18.028806,47.2138445],[18.0271092,47.2145855],[18.0254066,47.2160951],[18.0214666,47.2175847],[18.0202966,47.2202393],[18.015785,47.2221017],[18.0146458,47.2236161],[18.0078886,47.2258422],[18.0028585,47.2257965],[18.0000585,47.2261491],[17.9989243,47.226902],[17.9983474,47.2280362],[17.9988723,47.2295658],[17.9976708,47.2337446],[17.9976558,47.2345068],[17.9970934,47.2348798],[17.9964933,47.2371613],[17.9959142,47.2379184],[17.9942176,47.2390433],[17.9919568,47.2401629],[17.9902524,47.241672],[17.987999,47.2424136],[17.9857379,47.2435331],[17.98516,47.2446744],[17.9823361,47.2461729],[17.9794953,47.2480493],[17.969949,47.250241],[17.9693693,47.250998],[17.9665369,47.2528741],[17.9643135,47.252097],[17.9609646,47.2520654],[17.9603849,47.2528161],[17.9592823,47.2524275],[17.9592668,47.2531897],[17.9598063,47.2539572],[17.9581085,47.2550816],[17.9597675,47.2558596],[17.9603304,47.2554869],[17.9635802,47.2608479],[17.9579682,47.2619352],[17.9506093,47.266055],[17.9488401,47.2706061],[17.9482678,47.2709849],[17.94826,47.2713629],[17.9477046,47.2713576],[17.9459022,47.2770549],[17.945331,47.2778117],[17.9436479,47.2781737],[17.9408199,47.2792869],[17.9391206,47.2804171],[17.937969,47.2819245],[17.9385256,47.2823142],[17.9385336,47.28193],[17.9429648,47.2838816],[17.9440612,47.2850326],[17.9451812,47.2850434],[17.9474449,47.2839246],[17.9501854,47.286616],[17.9518767,47.2858697],[17.9529811,47.2866426],[17.9546255,47.2881768],[17.9540543,47.2889337],[17.9546019,47.2893232],[17.9562477,47.2912416],[17.9579001,47.2923977],[17.9573366,47.2927766],[17.9578922,47.2927819],[17.9567564,47.2935335],[17.9584179,47.2946896],[17.9595213,47.2950782],[17.9606493,47.2947108],[17.961214,47.2947161],[17.9623498,47.2939645],[17.9634686,47.293597],[17.9651535,47.2936128],[17.9679574,47.2932549],[17.9724613,47.2921567],[17.9730246,47.2917777],[17.9735954,47.2910269],[17.9753033,47.2898962],[17.9769559,47.2910583],[17.9791581,47.2929815],[17.9797137,47.2929867],[17.981916,47.2949099],[17.9824793,47.2945308],[17.9835843,47.2953034],[17.9813299,47.2964291],[17.9779461,47.2975381],[17.97732,47.3005817],[17.9755903,47.3032307],[17.9767032,47.3036191],[17.9772435,47.3043865],[17.9772359,47.3047645],[17.978341,47.3055371],[17.978318,47.3066835],[17.979408,47.3082121],[17.9799498,47.3093638],[17.9765498,47.3112349],[17.9765269,47.3123751],[17.9736299,47.3173003],[17.9741703,47.3180676],[17.9741395,47.319592],[17.9724245,47.3214788],[17.9712882,47.3222305],[17.9701443,47.3233602],[17.9683903,47.3271493],[17.966698,47.3278957],[17.9655615,47.3286474],[17.9643863,47.3313014],[17.9632264,47.3331933],[17.9615415,47.3335616],[17.9626147,47.3354745],[17.9631487,47.3370042],[17.9625603,47.3381391],[17.9631099,47.3389066],[17.9630943,47.3396688],[17.9619499,47.3407984],[17.9613704,47.3419396],[17.9624204,47.3449926],[17.9612771,47.3465065],[17.9612615,47.3472687],[17.961802,47.3480362],[17.9578194,47.3510417],[17.9566589,47.3529334],[17.9532474,47.3551881],[17.9509899,47.356307],[17.9487153,47.35781],[17.9453189,47.3593022],[17.9396882,47.3607728],[17.9357193,47.3630153],[17.9346055,47.3626265],[17.9329196,47.3629883],[17.9312325,47.3629719],[17.9295706,47.3621934],[17.9284489,47.3621825],[17.9273352,47.3617936],[17.9273112,47.3629338],[17.9284248,47.3633289],[17.9306442,47.3644909],[17.9339855,47.3656637],[17.9384474,47.3664691],[17.9412473,47.366496],[17.9457264,47.3669233],[17.9485027,47.3680902],[17.9507148,47.369636],[17.9512476,47.3707815],[17.9500707,47.3734353],[17.9500235,47.3757219],[17.9488622,47.3776136],[17.9488386,47.3787537],[17.9493962,47.3791433],[17.9515853,47.3818293],[17.9526826,47.382602],[17.953209,47.3845098],[17.954292,47.3864228],[17.9548406,47.3868123],[17.9553907,47.3875736],[17.953107,47.3894609],[17.9519455,47.3913526],[17.954684,47.3944217],[17.9563251,47.3967243],[17.9602257,47.3979015],[17.9646674,47.3998523],[17.9685683,47.4010293],[17.9708056,47.4014283],[17.9746913,47.4033735],[17.9774701,47.4045397],[17.9825096,47.4049645],[17.9841812,47.4053642],[17.9864036,47.4065251],[17.9903813,47.4038966],[17.9920848,47.4031499],[17.9932225,47.402398],[17.996077,47.3997591],[17.9977787,47.3986342],[17.9983129,47.3997795],[17.9977186,47.4016768],[17.9965583,47.4035751],[17.9970865,47.4054826],[17.996483,47.4073798],[17.9970338,47.4081472],[17.9964604,47.40852],[17.9964528,47.4089042],[17.9958885,47.4092771],[17.9958809,47.4096613],[17.9953075,47.4100341],[17.9953,47.4104121],[17.9947432,47.410407],[17.9947205,47.4115534],[17.9941546,47.4115482],[17.9941471,47.4119262],[17.9935903,47.4119211],[17.9935525,47.4138235],[17.992988,47.4142026],[17.9929805,47.4145806],[17.9923843,47.4160998],[17.9912311,47.4176139],[17.9912388,47.4172297],[17.9901159,47.4172194],[17.9878641,47.417961],[17.9861524,47.4190918],[17.9844575,47.4198323],[17.9833346,47.419822],[17.9816395,47.4205686],[17.979363,47.4220722],[17.9765448,47.4228083],[17.9748249,47.424317],[17.9748019,47.4254572],[17.9742219,47.4265922],[17.9730834,47.4273439],[17.9730526,47.4288682],[17.9736033,47.4296357],[17.9718755,47.4315223],[17.9707292,47.432652],[17.9690412,47.4330204],[17.9667716,47.4341396],[17.965068,47.4352701],[17.9628061,47.436005],[17.9616672,47.4367566],[17.959383,47.439022],[17.9570973,47.4409031],[17.9559191,47.443557],[17.9541915,47.4458276],[17.9524389,47.4488541],[17.9512997,47.4496056],[17.9490066,47.4522488],[17.9467278,47.4537517],[17.9450311,47.4544978],[17.944441,47.4556325],[17.944433,47.4560167],[17.9438599,47.4567735],[17.9415729,47.4586543],[17.9358997,47.4616428],[17.9324563,47.4650369],[17.9296271,47.4661561],[17.9245016,47.4695337],[17.9244775,47.4706738],[17.9198521,47.4767211],[17.9192703,47.4778558],[17.918655,47.4801367],[17.9191163,47.4850932],[17.9185334,47.4858498],[17.9140047,47.4877081],[17.9256434,47.4950546],[17.9328278,47.5008384],[17.9374222,47.5049893],[17.938929,47.5047026],[17.938354,47.5050813],[17.9365957,47.5084219],[17.935467,47.5088589],[17.9337444,47.5107449],[17.9326036,47.5114962],[17.9331374,47.5126418],[17.9337044,47.5126472],[17.9331054,47.5141661],[17.9319484,47.5156795],[17.9302495,47.5164254],[17.9296916,47.51642],[17.9285344,47.5179334],[17.9273613,47.5202028],[17.9267781,47.5209594],[17.9261798,47.5228563],[17.9256057,47.523613],[17.9267217,47.5236238],[17.9266894,47.5251481],[17.926083,47.5274292],[17.92716,47.5297204],[17.9282128,47.5331579],[17.927023,47.5361955],[17.9247077,47.5392161],[17.9241415,47.5395948],[17.9229756,47.5414861],[17.9223759,47.5430049],[17.9229271,47.5437726],[17.9234772,47.544156],[17.9273798,47.5457185],[17.9301822,47.546508],[17.9346434,47.5480694],[17.9363352,47.5477077],[17.9368946,47.5480911],[17.9368786,47.5488533],[17.9362793,47.5503721],[17.9334457,47.5514852],[17.9305878,47.5537445],[17.9288555,47.5560146],[17.9359116,47.5678829],[17.9628778,47.5696637],[17.9854728,47.5653061],[17.9964508,47.5505573],[17.998292,47.5473552],[18.0071533,47.5420569],[18.014437,47.5394056],[18.0176615,47.5369699],[18.0215,47.535171],[18.0277051,47.5337014],[18.0290129,47.5332035],[18.0292745,47.532887],[18.0309242,47.5337216],[18.0312812,47.5357999],[18.0326259,47.5409772],[18.0342968,47.5421384],[18.0387607,47.5436959],[18.0415555,47.5444825],[18.0427027,47.5433522],[18.0482586,47.5472056],[18.047684,47.5475849],[18.0537917,47.5518271],[18.0526446,47.5529575],[18.0543164,47.5541122],[18.0537274,47.5552537],[18.054839,47.5560193],[18.0565089,47.556796],[18.0582733,47.5530059],[18.0739944,47.5542797],[18.0784884,47.5543175],[18.0807378,47.5546655],[18.0880114,47.5566839],[18.0929838,47.5616768],[18.0995803,47.5701037],[18.1001274,47.5712547],[18.1011491,47.5765928],[18.1028295,47.5773688],[18.1067195,47.5800654],[18.1090194,47.5774193],[18.112416,47.5759223],[18.1129702,47.576689],[18.1151867,47.5782315],[18.1179804,47.5797723],[18.1202572,47.577888],[18.1225696,47.5744794],[18.1248619,47.5722109],[18.1271606,47.5695644],[18.1288649,47.5684376],[18.1294366,47.5676799],[18.1317217,47.5657955],[18.1306088,47.5650244],[18.131183,47.5646509],[18.130622,47.5642622],[18.132999,47.5570487],[18.133577,47.555913],[18.1358876,47.5525041],[18.1381784,47.5502353],[18.1416076,47.5472132],[18.1444496,47.5453328],[18.1484428,47.5419368],[18.1495941,47.5404212],[18.155831,47.5374266],[18.1586719,47.5355459],[18.1603809,47.5340345],[18.1615699,47.5302385],[18.159976,47.5248903],[18.1702068,47.5181141],[18.1809741,47.5124877],[18.1799739,47.5048635],[18.1811297,47.5029696],[18.1800175,47.502199],[18.1777869,47.5010419],[18.1778306,47.4983773],[18.1806687,47.4964898],[18.1817995,47.4961203],[18.1823663,47.4961245],[18.1852041,47.4942432],[18.1857742,47.4934851],[18.1857865,47.4927229],[18.1852413,47.4919566],[18.1869419,47.490829],[18.1869543,47.4900668],[18.1880911,47.489313],[18.1886702,47.488555],[18.1909222,47.4878094],[18.1925826,47.4897244],[18.1947733,47.4927897],[18.1936089,47.495824],[18.1941482,47.4969745],[18.1980369,47.4996681],[18.1985794,47.5011967],[18.199125,47.5019568],[18.1996584,47.5034852],[18.1996401,47.5046316],[18.1990396,47.5072921],[18.1967473,47.5099401],[18.1950217,47.5125922],[18.1944486,47.512966],[18.1949911,47.5144946],[18.1961038,47.5152651],[18.1966372,47.5167936],[18.19775,47.5175641],[18.2022319,47.5187373],[18.2027716,47.5198815],[18.2027595,47.5206437],[18.201604,47.5225379],[18.2010399,47.522918],[18.2010339,47.523296],[18.2015797,47.5240622],[18.2004423,47.5248162],[18.1981645,47.5270863],[18.1998235,47.5286168],[18.1940991,47.5346666],[18.1974385,47.5369781],[18.1968804,47.536974],[18.2029837,47.5415862],[18.2068973,47.5435235],[18.2159525,47.5397777],[18.2283734,47.5360613],[18.2372686,47.542594],[18.2502961,47.5362147],[18.2564984,47.5351109],[18.257077,47.5343588],[18.2644401,47.5302195],[18.2796675,47.5268947],[18.2819125,47.5272876],[18.2874749,47.5311357],[18.2908835,47.5288713],[18.2920087,47.5288786],[18.2931286,47.529264],[18.2947957,47.5304214],[18.2970355,47.5311982],[18.2975882,47.5315798],[18.2987082,47.5319651],[18.2998335,47.5319724],[18.3031934,47.5331406],[18.3037462,47.5335222],[18.3043135,47.5335259],[18.3054243,47.5339172],[18.307101,47.5350683],[18.3070851,47.5362085],[18.3081998,47.5369779],[18.3081945,47.5373621],[18.3087474,47.5377436],[18.3093055,47.5377472],[18.3104257,47.5381324],[18.3121026,47.5392896],[18.3126607,47.5392931],[18.3150713,47.5408283],[18.3154699,47.539311],[18.3160425,47.5389304],[18.3166216,47.5374157],[18.3161529,47.5309366],[18.3167635,47.5271354],[18.3162107,47.5267476],[18.3162159,47.5263696],[18.317411,47.5258331],[18.3241821,47.5191814],[18.3253383,47.516908],[18.3270368,47.5157722],[18.3315933,47.5116173],[18.3350152,47.5074491],[18.33614,47.5074561],[18.3394992,47.508617],[18.3528743,47.5166927],[18.3556723,47.5174718],[18.3550994,47.5186149],[18.3576133,47.5191934],[18.3595012,47.5198102],[18.366124,47.5229166],[18.3684854,47.5232973],[18.3702244,47.5239851],[18.372806,47.5260436],[18.374555,47.5278898],[18.3766348,47.5296283],[18.378578,47.5282722],[18.3797081,47.5278945],[18.3814149,47.5267641],[18.3825545,47.5256303],[18.3865024,47.5245065],[18.3893344,47.5226201],[18.3921616,47.5211117],[18.3932914,47.5207401],[18.3972574,47.5180977],[18.3995075,47.5181103],[18.4011951,47.5177356],[18.4023202,47.5177418],[18.4034498,47.5173701],[18.406802,47.5185291],[18.4073691,47.5185322],[18.409633,47.5174044],[18.4118785,47.5170326],[18.4130126,47.5162766],[18.4141331,47.5166669],[18.4152627,47.5162889],[18.4169592,47.5151579],[18.4186557,47.5147891],[18.4203522,47.5136519],[18.4209056,47.5140391],[18.4243074,47.5117707],[18.4259946,47.5114018],[18.4282444,47.5114139],[18.431061,47.5106667],[18.4305607,47.5057124],[18.4390485,47.5000498],[18.4424443,47.4981589],[18.4452642,47.4970334],[18.4498142,47.4924897],[18.4520803,47.4909769],[18.4548954,47.4902291],[18.4560326,47.4890946],[18.4554956,47.4864271],[18.4532511,47.4860313],[18.4515819,47.4848824],[18.4493246,47.485633],[18.4487584,47.4863923],[18.4476254,47.4871487],[18.4459391,47.487518],[18.4442349,47.4886494],[18.4397027,47.4924369],[18.4369573,47.4870928],[18.4347042,47.4874589],[18.4296711,47.4855295],[18.4324863,47.4847822],[18.4364433,47.4825165],[18.4370188,47.4817573],[18.4387094,47.4810039],[18.4398423,47.4802538],[18.4415285,47.4798785],[18.4432368,47.4783629],[18.44606,47.4768593],[18.448325,47.4745843],[18.4500501,47.4715442],[18.4523196,47.4696534],[18.4534558,47.4677566],[18.454584,47.4673844],[18.4562916,47.4658686],[18.4613742,47.4632297],[18.4636422,47.4605764],[18.461961,47.4605679],[18.4597049,47.4613187],[18.4591475,47.4613158],[18.4591518,47.4609316],[18.4569168,47.4597799],[18.4535751,47.4570979],[18.4524904,47.4544275],[18.4496981,47.4525043],[18.4486173,47.4486935],[18.4548052,47.4475852],[18.4593164,47.4460838],[18.4621374,47.4445736],[18.4655204,47.4434504],[18.4767902,47.4385551],[18.4807428,47.43705],[18.484682,47.435929],[18.4903334,47.4317671],[18.4988003,47.4272402],[18.512371,47.4162604],[18.5225244,47.4105993],[18.5264683,47.4087085],[18.532672,47.4053092],[18.5371938,47.4011399],[18.5305489,47.3927377],[18.5407432,47.3821173],[18.5385972,47.3718326],[18.546608,47.3608423],[18.5421152,47.3558526],[18.5410116,47.3539452],[18.536024,47.3482091],[18.5321551,47.3428621],[18.5271359,47.3405527],[18.5243447,47.3397839],[18.5215611,47.3382467],[18.5220758,47.3424385],[18.5131639,47.3374457],[18.5037132,47.3309251],[18.5076518,47.329041],[18.5059773,47.3278928],[18.5032065,47.3252148],[18.4993348,47.3206227],[18.4960128,47.3175639],[18.473173,47.3060301],[18.4668173,47.3082764],[18.459508,47.3183739],[18.4574081,47.3165856],[18.4507591,47.308581],[18.4485307,47.3074291],[18.448535,47.3070448],[18.4424543,47.3001585],[18.4424629,47.2993963],[18.434498,47.2901925],[18.4351943,47.2897219],[18.4362458,47.2886738],[18.4367575,47.2879127],[18.4353602,47.2859755],[18.4334522,47.2843777],[18.4325302,47.2818137],[18.4322814,47.2804817],[18.4310438,47.278549],[18.4305462,47.27718],[18.4298944,47.2765397],[18.4297964,47.2755726],[18.4302697,47.2698328],[18.4300298,47.2683796],[18.429834,47.2644423],[18.4291168,47.2616685],[18.428683,47.2609244],[18.4281085,47.2575695],[18.4223717,47.2586299],[18.4150222,47.2604366],[18.413753,47.2597041],[18.4125811,47.2592902],[18.4122064,47.2589382],[18.4077242,47.2564818],[18.4071813,47.2551175],[18.404577,47.2504669],[18.404527,47.2500333],[18.4049502,47.2494031],[18.3986283,47.2460863],[18.3950076,47.2445715],[18.3865649,47.2405265],[18.3864438,47.2403231],[18.3872946,47.2389471],[18.3875647,47.2383487],[18.3874748,47.2380851],[18.3845624,47.2359067],[18.3843451,47.235223],[18.3760068,47.2293197],[18.3760923,47.2292414],[18.3751555,47.2283463],[18.3741038,47.2276833],[18.3738133,47.2278605],[18.369856,47.2262796],[18.3650531,47.2316572],[18.3648579,47.2315918],[18.3637396,47.2326744],[18.3621472,47.2307044],[18.3616012,47.2291359],[18.3600716,47.2280295],[18.3593917,47.2270982],[18.3590496,47.2260816],[18.3566488,47.2232252],[18.3539263,47.2215239],[18.3500459,47.218588],[18.3523436,47.2167295],[18.3481792,47.2144546],[18.3511886,47.2135262],[18.3472646,47.2124564],[18.3398455,47.2111219],[18.3287434,47.2077221],[18.3278086,47.2103942],[18.3272229,47.2126775],[18.3255135,47.2153318],[18.3210389,47.2153036],[18.3188069,47.2149052],[18.3131231,47.2221079],[18.3119623,47.2251436],[18.3069637,47.2228307],[18.3047208,47.2231942],[18.2997212,47.2216371],[18.2980546,47.2204859],[18.2930625,47.2177882],[18.2908034,47.2192979],[18.2885589,47.2204235],[18.2863322,47.2196465],[18.2840948,47.2196316],[18.2824158,47.2199985],[18.2773915,47.2195868],[18.26895,47.2233353],[18.2667103,47.2240824],[18.2661464,47.2240786],[18.2616409,47.2267129],[18.2582673,47.2278363],[18.2565766,47.2289651],[18.2543104,47.2308522],[18.2509421,47.2315912],[18.2464524,47.2330846],[18.2442144,47.233069],[18.2419706,47.2334313],[18.2357915,47.2352967],[18.2305793,47.23824],[18.2182336,47.2274476],[18.2180043,47.2265797],[18.2166754,47.2254284],[18.2165746,47.2246177],[18.2113672,47.2244551],[18.2063491,47.2236561],[18.1963231,47.2227508],[18.1960868,47.2237939],[18.1936086,47.2256172],[18.190665,47.2274414],[18.1869218,47.2301814],[18.1833409,47.2325082],[18.1824932,47.233698],[18.1806398,47.235502],[18.178253,47.2373037],[18.1773619,47.2375187],[18.1732011,47.2391689],[18.17136,47.2422112],[18.1708989,47.2432512],[18.1690654,47.2495578],[18.1704787,47.252418],[18.171165,47.2529104],[18.1710958,47.2532013],[18.1692985,47.2541221],[18.1683872,47.2549952],[18.1671893,47.2565953],[18.1635363,47.2583331],[18.1622072,47.2591751],[18.1614654,47.2598456],[18.1606387,47.260924],[18.1572,47.2642264],[18.150394,47.2644567],[18.1450832,47.2643526],[18.1414067,47.2631504],[18.1375252,47.2612108],[18.1370599,47.260851],[18.1369804,47.2600661],[18.1351813,47.2583704],[18.134095,47.2583185],[18.1330861,47.2588948],[18.130847,47.2588769],[18.1280791,47.2573301],[18.1203114,47.2538403],[18.1158803,47.2511394],[18.112538,47.2507279],[18.1092067,47.2491823],[18.1058512,47.2495329],[18.1041878,47.2483788]]]}}]}