{"type":"FeatureCollection","crs":{"type":"name","properties":{"name":"urn:ogc:def:crs:EPSG::4326"}},"features":[{"type":"Feature","properties":{"region_id":2,"name":"Eger","name_hu":"Egri borvidék","region_group":"Észak-Magyarország","area_ha_approx":3200,"notable_grapes":"Kékfrankos, Egri Bikavér blend, Leányka, Olaszrizling","notes":"Home of Bull's Blood (Bikavér); volcanic and limestone soils"},"geometry":{"type":"Polygon","coordinates":[[[20.0582118,47.7074009],[20.0570754,47.7070266],[20.0565948,47.7070734],[20.0530849,47.7047808],[20.051367,47.7032712],[20.0462625,47.7017909],[20.0440046,47.7018104],[20.0355566,47.7026451],[20.032172,47.7022959],[20.0276349,47.701188],[20.025932,47.7004401],[20.0225314,47.6997128],[20.0191539,47.6997412],[20.0117999,47.6986563],[20.0072914,47.699078],[20.0045014,47.7006194],[20.0017045,47.7017889],[19.9927574,47.7060516],[19.9866269,47.7102846],[19.9838562,47.712978],[19.9810647,47.7145188],[19.9766151,47.7183658],[19.9749592,47.7202816],[19.9738165,47.7195285],[19.9704019,47.7180313],[19.96701,47.7172961],[19.9641583,47.7154162],[19.9635891,47.7154207],[19.9630225,47.7150472],[19.9607575,47.7146808],[19.957939,47.714703],[19.949429,47.712105],[19.943786,47.7117708],[19.9403791,47.7106507],[19.9318898,47.7091976],[19.9274016,47.7103721],[19.9240016,47.7096356],[19.924008,47.7100198],[19.923448,47.710024],[19.9228725,47.7096442],[19.9189756,47.7127225],[19.9178493,47.7123468],[19.9145245,47.7161829],[19.9134015,47.7165693],[19.9117372,47.7181062],[19.9083679,47.7192716],[19.9055989,47.7223411],[19.9028109,47.7242642],[19.8994534,47.7261914],[19.8989425,47.7292441],[19.8989732,47.7311463],[19.888944,47.7409125],[19.8861817,47.7434229],[19.8884325,47.7445192],[19.8907763,47.7464673],[19.8919041,47.7479484],[19.8930524,47.7490864],[19.8947917,47.7521164],[19.8942435,47.7528826],[19.8937718,47.7589776],[19.89549,47.7601053],[19.894372,47.7608757],[19.8926783,47.7612723],[19.8893151,47.762437],[19.8887575,47.7632033],[19.8876333,47.7635894],[19.8876455,47.7643515],[19.8882213,47.7647316],[19.8899122,47.7647193],[19.8893881,47.7670035],[19.8967338,47.7677121],[19.8945864,47.7742036],[19.8877973,47.7738688],[19.8878156,47.7750151],[19.887267,47.7757751],[19.8866912,47.7754013],[19.8850181,47.7765536],[19.8816779,47.7792423],[19.883936,47.7796103],[19.8867883,47.7814921],[19.888501,47.7822418],[19.8896377,47.7826116],[19.8930267,47.7829711],[19.8947334,47.7833367],[19.8958641,47.7833284],[19.896431,47.7837084],[19.8970041,47.7844664],[19.8975884,47.7844707],[19.8975986,47.7859803],[19.8964801,47.7867507],[19.8959378,47.7879011],[19.8965047,47.788275],[19.8965108,47.7886529],[19.8948437,47.7901895],[19.8942921,47.7913338],[19.8909026,47.7909805],[19.8903448,47.7917468],[19.890357,47.7925089],[19.8898084,47.7932751],[19.8909453,47.7936448],[19.8898327,47.7947931],[19.8887261,47.7963256],[19.8892992,47.7970836],[19.8932898,47.7993412],[19.8972745,47.8012144],[19.8989911,47.8023419],[19.8967812,47.8054071],[19.8951136,47.8069437],[19.8923482,47.8111467],[19.8917933,47.811535],[19.8884602,47.815364],[19.8873532,47.8168964],[19.8862856,47.8203309],[19.8851966,47.8230034],[19.8852027,47.8233876],[19.8830363,47.8294946],[19.8824932,47.8306387],[19.8813796,47.8317869],[19.8808333,47.8333152],[19.8786178,47.8363737],[19.8764234,47.8402003],[19.872544,47.8451791],[19.869751,47.8478635],[19.8675377,47.8505438],[19.863633,47.853998],[19.8636625,47.8559002],[19.8647974,47.8566544],[19.8642417,47.8570363],[19.8637157,47.8593266],[19.8648507,47.8600808],[19.8654452,47.8616009],[19.865457,47.8623568],[19.864898,47.863123],[19.8637866,47.863893],[19.8649099,47.8638851],[19.8660483,47.8642612],[19.8660542,47.8646392],[19.8649454,47.8661714],[19.8610218,47.8684855],[19.8604718,47.8692453],[19.8582302,47.8707854],[19.8549119,47.8753754],[19.8549412,47.8772837],[19.8538202,47.8780537],[19.853826,47.8784316],[19.8532608,47.8788136],[19.8521631,47.8811077],[19.8521748,47.8818698],[19.8493648,47.8830294],[19.8493706,47.8834136],[19.8482494,47.8841835],[19.8482628,47.8856915],[19.8477169,47.8860893],[19.8471691,47.8868622],[19.8471697,47.8872274],[19.8477481,47.8876114],[19.8477481,47.8879954],[19.8488991,47.8891198],[19.849468,47.8898769],[19.8494775,47.8902717],[19.850611,47.8906439],[19.8522879,47.8906321],[19.8534447,47.8902443],[19.8545749,47.8906089],[19.8556845,47.8890768],[19.8687593,47.8927959],[19.8715873,47.8927759],[19.8732855,47.8923796],[19.8732975,47.8931417],[19.8738655,47.8935219],[19.8750044,47.8938918],[19.8767235,47.8954038],[19.8770552,47.8966044],[19.8774045,47.8969455],[19.878087,47.8972546],[19.8818602,47.8980316],[19.8825288,47.8984055],[19.8841568,47.8999174],[19.8841689,47.9006795],[19.884737,47.9010534],[19.8847552,47.9021996],[19.8841932,47.9022036],[19.8825161,47.9033559],[19.8819691,47.9048842],[19.8819812,47.9056462],[19.8825524,47.9056421],[19.88426,47.906392],[19.8854054,47.9071397],[19.8854236,47.908286],[19.8859979,47.909044],[19.8860161,47.910184],[19.8865874,47.9101799],[19.8871556,47.9105538],[19.8871617,47.9109379],[19.886624,47.9124661],[19.8866361,47.9132282],[19.8877817,47.9139759],[19.8883439,47.9139719],[19.8900274,47.9132037],[19.8905987,47.9131995],[19.8928534,47.912421],[19.8934094,47.9120327],[19.8962323,47.9116342],[19.8968097,47.9120079],[19.8973842,47.9127659],[19.8973965,47.913528],[19.8979863,47.9146638],[19.8979926,47.915048],[19.8991169,47.9150397],[19.899123,47.9154177],[19.9002689,47.9161714],[19.9048031,47.9161381],[19.9065237,47.9176497],[19.9093531,47.9176287],[19.9114843,47.9164975],[19.9121511,47.9157056],[19.914393,47.9141646],[19.9145223,47.9138511],[19.9169684,47.9138057],[19.9174205,47.9134162],[19.9190674,47.9104701],[19.9197738,47.9104266],[19.9201262,47.9107521],[19.9232924,47.909713],[19.9239061,47.9087165],[19.9248783,47.9085495],[19.9256359,47.9091291],[19.926198,47.9091248],[19.9273378,47.9095004],[19.9279155,47.909874],[19.9284967,47.9110097],[19.927376,47.9117804],[19.9273888,47.9125425],[19.9262681,47.9133132],[19.9274207,47.9144446],[19.9269224,47.9182592],[19.9274846,47.918255],[19.9269287,47.9186372],[19.9252266,47.9182721],[19.9229594,47.9182892],[19.9229657,47.9186671],[19.9218305,47.9183068],[19.9224659,47.9232355],[19.9202311,47.9232599],[19.9207789,47.9236319],[19.9202238,47.9236368],[19.9167427,47.9194811],[19.9161827,47.9194683],[19.915571,47.9164372],[19.9144244,47.9160652],[19.9122776,47.916963],[19.9121749,47.9183707],[19.9105079,47.9191379],[19.908236,47.9184],[19.9037068,47.9184327],[19.903713,47.9188106],[19.9031602,47.9199548],[19.902598,47.919959],[19.9020482,47.9207252],[19.9015015,47.9222535],[19.9009517,47.9230198],[19.9009826,47.9249219],[19.8998798,47.9268323],[19.9004544,47.9275902],[19.9010631,47.9298723],[19.900504,47.9306385],[19.9011003,47.9321585],[19.900541,47.9329186],[19.8994442,47.9352131],[19.8989127,47.9371193],[19.8989313,47.9382655],[19.8984121,47.9409338],[19.8978405,47.940938],[19.8961624,47.9420904],[19.895658,47.9422386],[19.894475,47.9432429],[19.8922222,47.9436434],[19.8919769,47.9439193],[19.8913913,47.9441572],[19.8911064,47.9447917],[19.8894188,47.9459441],[19.8883,47.9463363],[19.8877283,47.9463405],[19.8871718,47.9467225],[19.8877343,47.9467184],[19.887178,47.9471066],[19.887184,47.9474845],[19.8871902,47.9478687],[19.8877527,47.9478646],[19.8877587,47.9482425],[19.8872084,47.9490087],[19.8872267,47.9501487],[19.8866549,47.9501528],[19.8861046,47.950919],[19.885539,47.9513072],[19.8855632,47.9528252],[19.8850068,47.9532133],[19.8850189,47.9539754],[19.8838906,47.9543615],[19.8827562,47.9543697],[19.881634,47.9551399],[19.8810654,47.954766],[19.879931,47.9547741],[19.879937,47.955152],[19.8788026,47.9551602],[19.8788086,47.9555381],[19.8782581,47.9563042],[19.8771297,47.9566964],[19.8765579,47.9567005],[19.8765639,47.9570784],[19.8760133,47.9578445],[19.8760074,47.9574666],[19.8743283,47.9586187],[19.8743223,47.9582407],[19.8731938,47.9586267],[19.8731998,47.9590047],[19.872634,47.9593929],[19.8715234,47.9609251],[19.8704101,47.9616951],[19.8698501,47.962455],[19.8675989,47.9636172],[19.8676108,47.9643793],[19.8670599,47.9651392],[19.8665297,47.9678135],[19.8659848,47.9689575],[19.8665594,47.9697156],[19.8648916,47.9716296],[19.8649094,47.9727696],[19.8637806,47.9731617],[19.8632178,47.9731657],[19.8637865,47.9735396],[19.8638042,47.9746796],[19.8632474,47.9750677],[19.8632651,47.9762077],[19.8627049,47.9769738],[19.863277,47.9769698],[19.863283,47.9773539],[19.8638517,47.9777279],[19.8638754,47.979252],[19.8644534,47.9796259],[19.8644652,47.980388],[19.863905,47.9811541],[19.86504,47.9811461],[19.8650459,47.9815241],[19.865618,47.98152],[19.8661868,47.9819002],[19.8679144,47.9837903],[19.8673575,47.9841784],[19.8679204,47.9841744],[19.8684985,47.9845483],[19.8685104,47.9853104],[19.8696574,47.9860644],[19.8696633,47.9864424],[19.8702323,47.9868225],[19.8702382,47.9872004],[19.8708163,47.9875743],[19.8708223,47.9879585],[19.8696932,47.9883444],[19.8696992,47.9887285],[19.8691329,47.9891105],[19.8697051,47.9891065],[19.8697112,47.9894906],[19.868588,47.9902607],[19.8600553,47.9887963],[19.8600612,47.9891742],[19.8589673,47.9918463],[19.8589968,47.9937545],[19.8612554,47.9929766],[19.8640888,47.9929568],[19.8663652,47.9933187],[19.8652596,47.9952288],[19.8698186,47.9963429],[19.8766391,47.9974347],[19.8789218,47.9981805],[19.8834721,47.999288],[19.8823549,48.0004362],[19.8800814,47.9996965],[19.878416,48.0023728],[19.8789883,48.0023687],[19.8778769,48.0038947],[19.8812923,48.0050166],[19.8795997,48.0054067],[19.8773469,48.0065691],[19.8762325,48.007333],[19.8762446,48.008095],[19.8813528,48.0088207],[19.8847716,48.0095583],[19.8870672,48.011066],[19.8876426,48.011824],[19.8870794,48.0118281],[19.8876791,48.014104],[19.8888148,48.0140958],[19.8877341,48.0175301],[19.8860351,48.0175423],[19.8820767,48.0183329],[19.8815104,48.0187212],[19.8809592,48.0194872],[19.8815467,48.0210011],[19.8815528,48.0213852],[19.8809955,48.0217672],[19.8804322,48.0217712],[19.8804685,48.0240574],[19.8832975,48.0236529],[19.8838669,48.024033],[19.8844517,48.0247909],[19.8833279,48.0255611],[19.8833461,48.0267011],[19.880529,48.0278614],[19.8776845,48.0278817],[19.8765698,48.0286518],[19.8771393,48.0290319],[19.8765879,48.0297918],[19.8760093,48.0294179],[19.8754639,48.0305619],[19.8748974,48.0309501],[19.874346,48.0317161],[19.874364,48.0328561],[19.8749274,48.0328521],[19.875506,48.033226],[19.8755181,48.033988],[19.8806501,48.0354757],[19.8823437,48.0350856],[19.8834676,48.0343154],[19.8857277,48.033537],[19.8879906,48.0335207],[19.8902566,48.0331201],[19.8936648,48.0330954],[19.8970514,48.0323086],[19.8998652,48.0303858],[19.900992,48.0303776],[19.9021343,48.0307533],[19.9032703,48.030745],[19.906087,48.029578],[19.9077894,48.0291874],[19.9094887,48.0291749],[19.9100898,48.0314568],[19.9117984,48.0314441],[19.9123555,48.0310558],[19.9134915,48.0310474],[19.9146402,48.031801],[19.9163459,48.0321662],[19.9186433,48.0336733],[19.9180926,48.0344396],[19.9186624,48.0348195],[19.9243337,48.0347769],[19.9203745,48.0355626],[19.9192321,48.0351932],[19.9141368,48.0359934],[19.9113137,48.0367765],[19.9090568,48.0371712],[19.9090631,48.0375553],[19.9084966,48.0379374],[19.9073605,48.0379458],[19.906822,48.0394741],[19.903432,48.0406391],[19.9028748,48.0410274],[19.902302,48.0410316],[19.9000635,48.0425661],[19.8983855,48.0444868],[19.8983916,48.0448647],[19.8967226,48.0467791],[19.8955985,48.0475494],[19.8927622,48.04757],[19.8921771,48.0468122],[19.8916135,48.0468162],[19.8899136,48.0468286],[19.8887834,48.0472209],[19.8859531,48.0476193],[19.8865228,48.0479993],[19.8865411,48.0491393],[19.8825986,48.0510698],[19.8826047,48.051454],[19.8814802,48.0522179],[19.8820682,48.053738],[19.8826532,48.0544959],[19.8826592,48.0548738],[19.8809712,48.055648],[19.879292,48.0575685],[19.879304,48.0583243],[19.8781916,48.0598565],[19.8787706,48.0602365],[19.87764,48.0606225],[19.8770943,48.0617665],[19.8776762,48.0629086],[19.8771305,48.0640526],[19.8760179,48.0655848],[19.8737443,48.0656009],[19.8726135,48.0659869],[19.8720678,48.067137],[19.8743562,48.0686388],[19.8760661,48.0686267],[19.8760721,48.0690108],[19.8783487,48.0697567],[19.8806406,48.0708804],[19.8812258,48.0716384],[19.8812318,48.0720163],[19.8818078,48.0727743],[19.882396,48.0742943],[19.882402,48.0746722],[19.8829813,48.0750522],[19.8852552,48.0750359],[19.8858313,48.0757939],[19.8875505,48.0769216],[19.8875627,48.0776836],[19.8886998,48.0776754],[19.890416,48.0780409],[19.8955837,48.0814299],[19.8967115,48.0814217],[19.8984157,48.0810313],[19.9012539,48.0810105],[19.9024034,48.0817642],[19.9024283,48.0832883],[19.9030046,48.08404],[19.9035841,48.0844199],[19.9036152,48.0863218],[19.9059055,48.0878292],[19.9070614,48.0889608],[19.9088096,48.0912342],[19.9111064,48.0931194],[19.9116923,48.0938772],[19.9082989,48.0950423],[19.9014837,48.0950925],[19.899776,48.094727],[19.8980653,48.0947395],[19.8952387,48.0955222],[19.8964008,48.0970318],[19.896407,48.0974159],[19.8969835,48.0981738],[19.8981334,48.0989275],[19.8981643,48.1008295],[19.8976187,48.1019735],[19.8964935,48.1027438],[19.8964996,48.1031217],[19.8959293,48.1027479],[19.8948102,48.1038961],[19.8942738,48.1061863],[19.9028638,48.109928],[19.9068163,48.1083809],[19.908537,48.1095083],[19.9096685,48.109122],[19.910242,48.1091177],[19.9102357,48.1087336],[19.909656,48.1083599],[19.9113516,48.1079632],[19.9119314,48.1083431],[19.9119502,48.109483],[19.9131006,48.1102366],[19.9125397,48.1110029],[19.9119691,48.1106229],[19.9102671,48.1106355],[19.9102734,48.1110197],[19.9114081,48.1113892],[19.9125585,48.1121428],[19.9125648,48.1125207],[19.9131447,48.1129005],[19.9154299,48.1140236],[19.9165741,48.1143992],[19.9183045,48.1155264],[19.9188688,48.1155222],[19.9183299,48.1170504],[19.9171983,48.1174368],[19.9166311,48.1178252],[19.9172047,48.1178209],[19.9183489,48.1181903],[19.9183553,48.1185744],[19.9200638,48.1189396],[19.9223525,48.1196846],[19.9217852,48.1200668],[19.9206409,48.1196974],[19.9200701,48.1193175],[19.9189322,48.119326],[19.9183616,48.1189524],[19.9172236,48.1189608],[19.9166563,48.119343],[19.9178069,48.1200966],[19.9183932,48.1208543],[19.918964,48.1212342],[19.9201273,48.1227435],[19.9201337,48.1231276],[19.9206981,48.1231234],[19.9218489,48.1238768],[19.9224225,48.1238725],[19.9229805,48.1234842],[19.9235414,48.1227179],[19.924673,48.1223314],[19.9252311,48.1219493],[19.9263626,48.1215566],[19.926927,48.1215524],[19.9274942,48.1211701],[19.9297545,48.1207689],[19.9308924,48.1207603],[19.9308732,48.1196204],[19.9319982,48.1188497],[19.9319919,48.1184718],[19.9348126,48.1173041],[19.9359441,48.1169176],[19.9382198,48.1169002],[19.9427583,48.1161033],[19.9438934,48.1164726],[19.9444605,48.1160903],[19.9455918,48.1156974],[19.9472874,48.1153064],[19.9473549,48.1126191],[19.9477214,48.1117538],[19.9477824,48.1107361],[19.9471892,48.1095944],[19.94715,48.1073146],[19.9459861,48.1057993],[19.9454219,48.1058037],[19.9453892,48.1039017],[19.9465072,48.1027468],[19.9469107,48.1007214],[19.9497823,48.0999397],[19.9492875,48.0993052],[19.9492678,48.098159],[19.9498187,48.0973927],[19.9497991,48.0962527],[19.9503593,48.0954863],[19.9503461,48.0947243],[19.9508905,48.09358],[19.9514572,48.0931914],[19.9520212,48.093187],[19.9520279,48.0935711],[19.9537293,48.0935579],[19.954296,48.0931694],[19.9588163,48.091994],[19.9599604,48.0923692],[19.9616485,48.0915939],[19.9627924,48.0919629],[19.9627858,48.091585],[19.9639098,48.090814],[19.964463,48.0896634],[19.9644563,48.0892855],[19.9661443,48.0885101],[19.966715,48.0888897],[19.9672883,48.0888852],[19.9684322,48.0892541],[19.9684584,48.0900142],[19.9690356,48.0907773],[19.9701809,48.0911414],[19.9718549,48.0911284],[19.9736134,48.0930319],[19.9741794,48.0933861],[19.9747772,48.0945308],[19.9765192,48.0956665],[19.97707,48.0956666],[19.9781711,48.0945169],[19.9775918,48.0937436],[19.9787289,48.0929802],[19.980427,48.092963],[19.9809887,48.0925812],[19.9827006,48.0929504],[19.9838572,48.0936959],[19.9844016,48.0936962],[19.9855516,48.0933155],[19.9889777,48.0940512],[19.9907171,48.0966853],[19.9912865,48.0966867],[19.9912874,48.0963067],[19.9930016,48.0970562],[19.9958427,48.0970206],[19.9998396,48.0992721],[20.0015863,48.0992712],[20.0032827,48.0996296],[20.0032846,48.1000217],[20.0038761,48.1011333],[20.00389,48.1015332],[20.005603,48.1022764],[20.0061828,48.1022731],[20.0084354,48.1014916],[20.0101364,48.1014753],[20.0112804,48.1022264],[20.0152685,48.1021954],[20.016415,48.1025722],[20.016409,48.1029521],[20.0186856,48.1025551],[20.0192709,48.1029389],[20.0198454,48.1036837],[20.0209847,48.1044315],[20.0215522,48.1040448],[20.0226822,48.1036692],[20.0232505,48.1040251],[20.0261022,48.1051394],[20.0272429,48.1059011],[20.0295665,48.1066628],[20.029577,48.1070296],[20.0301262,48.1070296],[20.0324147,48.1077647],[20.0352381,48.1069731],[20.0358401,48.1069802],[20.0363365,48.1066064],[20.0392173,48.106194],[20.0403333,48.1061782],[20.041554,48.1065711],[20.0420574,48.1069109],[20.0420716,48.1073117],[20.0426419,48.1084612],[20.0426731,48.1088256],[20.0438354,48.1103441],[20.0443846,48.1103371],[20.0444057,48.1107038],[20.0455569,48.1114583],[20.0455886,48.112227],[20.0461484,48.1122129],[20.0461484,48.1125796],[20.0472891,48.1133482],[20.0478488,48.1133482],[20.0496094,48.1152404],[20.0484825,48.1160066],[20.047376,48.1171621],[20.0473419,48.1175297],[20.0479545,48.1178963],[20.047965,48.1182841],[20.0468531,48.1190401],[20.0468671,48.120587],[20.0474301,48.1205827],[20.0474949,48.123227],[20.0480652,48.1232402],[20.0503534,48.1239756],[20.0526104,48.1231906],[20.0560041,48.1231638],[20.057172,48.123915],[20.0588561,48.1239093],[20.0600089,48.1231291],[20.0639745,48.1230991],[20.0645406,48.1227212],[20.066239,48.1230766],[20.0673896,48.123073],[20.0690819,48.122293],[20.0702039,48.1215236],[20.070775,48.1215178],[20.0713246,48.1211363],[20.0736101,48.1226357],[20.0736498,48.1230183],[20.0742068,48.1237763],[20.0748191,48.1260508],[20.0765636,48.1268015],[20.0782711,48.1267841],[20.0783142,48.1282881],[20.0766254,48.1294614],[20.0766203,48.129833],[20.0771771,48.1305956],[20.0789212,48.1313408],[20.0789523,48.1324867],[20.0783846,48.1332533],[20.0790051,48.1340198],[20.0789787,48.1351476],[20.0784439,48.136305],[20.0790447,48.1370595],[20.0807532,48.1374202],[20.08299,48.1366382],[20.0847481,48.1373855],[20.0847481,48.1381168],[20.0882245,48.1403994],[20.0887758,48.14115],[20.0905249,48.142289],[20.091661,48.1426494],[20.0922316,48.1430445],[20.0933671,48.1434017],[20.0945055,48.1433914],[20.0956364,48.1430033],[20.0962102,48.1429982],[20.0967824,48.143371],[20.0979208,48.1433608],[20.0984701,48.1425937],[20.0984012,48.1391679],[20.1006549,48.1380075],[20.1012287,48.1380023],[20.1035115,48.1387438],[20.106362,48.1387179],[20.1069341,48.1390907],[20.108637,48.1390752],[20.1097832,48.139449],[20.110357,48.1394437],[20.1109292,48.1398165],[20.1114953,48.1394334],[20.1120599,48.1394282],[20.1126321,48.139801],[20.1149088,48.1397802],[20.1166194,48.1401425],[20.1183316,48.1401268],[20.118904,48.1405057],[20.118943,48.1424075],[20.1200814,48.142397],[20.1206709,48.1431537],[20.1218078,48.1435212],[20.1240847,48.1435003],[20.126393,48.1450032],[20.1269576,48.144998],[20.1292188,48.1442149],[20.1297848,48.1438317],[20.130914,48.1438212],[20.1314799,48.1434318],[20.1343134,48.1430275],[20.1360164,48.1430116],[20.1365981,48.1433841],[20.1377446,48.1437576],[20.1384621,48.1434827],[20.139972,48.1432664],[20.1429626,48.1420655],[20.144526,48.1417918],[20.1450825,48.1414024],[20.1456563,48.141397],[20.1467787,48.1406244],[20.1476059,48.1404704],[20.1488892,48.1397478],[20.1490153,48.138701],[20.1495638,48.1379337],[20.1501204,48.1375505],[20.1500882,48.1360266],[20.150662,48.1360211],[20.1512185,48.1356379],[20.1523486,48.1352431],[20.1551735,48.1344541],[20.1557554,48.1348328],[20.1569016,48.1351999],[20.1580318,48.1348111],[20.1585882,48.1344217],[20.1608646,48.1344],[20.1620191,48.1351511],[20.1631563,48.1355244],[20.16373,48.1355189],[20.1637218,48.1351348],[20.1648601,48.1351239],[20.1648357,48.133984],[20.166514,48.1328279],[20.1664977,48.1320659],[20.1670388,48.1305364],[20.167595,48.1301469],[20.1675625,48.1286292],[20.1658436,48.1278835],[20.1652537,48.1271271],[20.1675054,48.1259654],[20.1680535,48.125198],[20.1680452,48.1248139],[20.1691588,48.1236631],[20.1691343,48.1225232],[20.1685618,48.1221445],[20.1685537,48.1217667],[20.1702232,48.1202263],[20.1702151,48.1198484],[20.1707887,48.1198429],[20.1707641,48.1186968],[20.1713203,48.1183135],[20.1712957,48.1171675],[20.1701497,48.1168005],[20.1701252,48.1156606],[20.173514,48.1144817],[20.1757814,48.1140818],[20.1769017,48.1136868],[20.177467,48.1133033],[20.1780313,48.1132979],[20.180905,48.1144101],[20.1831384,48.1128703],[20.1837119,48.1128647],[20.1870909,48.1116854],[20.1888021,48.1116687],[20.1899316,48.1112796],[20.1910516,48.1108845],[20.1921644,48.1097335],[20.1932938,48.1093444],[20.1955691,48.109322],[20.1955607,48.1089379],[20.1966984,48.1089267],[20.197271,48.1093053],[20.1995379,48.1088987],[20.2029257,48.1077251],[20.2040465,48.1069518],[20.2040382,48.1065739],[20.2034562,48.1061955],[20.2011642,48.1054561],[20.2005665,48.1039377],[20.1999764,48.1031876],[20.199968,48.1028035],[20.2027744,48.1008735],[20.2039034,48.1004781],[20.2032965,48.098966],[20.203288,48.0985819],[20.2038445,48.0978143],[20.2043834,48.0966688],[20.2066582,48.0966462],[20.2083258,48.0951053],[20.2094717,48.0954781],[20.2122936,48.0946878],[20.2134139,48.0939144],[20.2151153,48.0938974],[20.2173645,48.0927347],[20.2179378,48.092729],[20.2185103,48.0931012],[20.2196476,48.0930898],[20.2207764,48.0927004],[20.2213318,48.0923107],[20.2241876,48.093044],[20.2253249,48.0930325],[20.2253164,48.0926546],[20.225881,48.0922648],[20.2270183,48.0922533],[20.227591,48.0926316],[20.2292923,48.0926144],[20.2315582,48.0922072],[20.2327128,48.0929577],[20.2338501,48.0929461],[20.2349961,48.0933186],[20.2355514,48.0929288],[20.2366887,48.0929172],[20.2389807,48.0936559],[20.240118,48.0936443],[20.2417846,48.0921029],[20.241776,48.091725],[20.2412032,48.0913467],[20.2411946,48.0909688],[20.2423226,48.0909573],[20.2434685,48.0913235],[20.2440331,48.0909397],[20.2445971,48.090934],[20.245179,48.091306],[20.2462896,48.0905324],[20.2468628,48.0905265],[20.2479828,48.089759],[20.2485293,48.0889912],[20.2491025,48.0889853],[20.2502746,48.0904913],[20.2514114,48.0908638],[20.2525662,48.091614],[20.2525925,48.0927539],[20.255475,48.0946263],[20.2566036,48.0942367],[20.257741,48.0942249],[20.2600244,48.0945791],[20.2600774,48.096865],[20.2691672,48.0967701],[20.2714241,48.0959843],[20.2731077,48.0952045],[20.2748091,48.0951866],[20.2782749,48.0974365],[20.2799943,48.0981805],[20.2805586,48.0977904],[20.281696,48.0977783],[20.284499,48.0962305],[20.285036,48.0950785],[20.2861553,48.0943044],[20.2889759,48.0935123],[20.2900952,48.0927444],[20.2917696,48.0912022],[20.2923336,48.0911962],[20.2928613,48.0896662],[20.2945536,48.0888859],[20.2950904,48.0877401],[20.2967734,48.0865757],[20.2973193,48.0858139],[20.2978741,48.0854237],[20.2990022,48.0850336],[20.3007125,48.0850153],[20.3035232,48.0838387],[20.303505,48.0830829],[20.3051511,48.0807786],[20.305715,48.0803884],[20.3051054,48.0788768],[20.3050962,48.0784927],[20.306797,48.0784744],[20.3079249,48.0780842],[20.308498,48.078078],[20.3084888,48.0776939],[20.3096257,48.0776816],[20.3107443,48.0769073],[20.3107077,48.0753895],[20.3112622,48.0749994],[20.3123624,48.0734693],[20.311771,48.0727135],[20.312344,48.0727073],[20.314017,48.0715428],[20.313444,48.071171],[20.3139985,48.0707808],[20.3139802,48.070025],[20.3162169,48.0684763],[20.3156346,48.0680985],[20.3156254,48.0677206],[20.3178804,48.0669339],[20.3184349,48.0661656],[20.3189986,48.0661595],[20.3212258,48.0642328],[20.3234991,48.0642079],[20.3245708,48.0615317],[20.3273518,48.0592146],[20.3278968,48.0584465],[20.329597,48.0584278],[20.3301047,48.0557576],[20.3305814,48.0546112],[20.3277666,48.0531045],[20.326113,48.055025],[20.3226758,48.0539225],[20.3226666,48.0535446],[20.3220845,48.0527888],[20.3220659,48.0520268],[20.322611,48.0512587],[20.3231838,48.0512524],[20.3231744,48.0508683],[20.3237288,48.0504843],[20.3237102,48.0497223],[20.3242738,48.0493381],[20.3242644,48.048954],[20.3253915,48.0489417],[20.3259551,48.0485575],[20.3253823,48.0485638],[20.3253729,48.0481797],[20.3259457,48.0481734],[20.3259273,48.0474176],[20.324791,48.0474301],[20.3253451,48.0470398],[20.3253359,48.0466619],[20.3247724,48.0466681],[20.3253173,48.0459],[20.3247538,48.0459061],[20.3247166,48.0443822],[20.3252709,48.0439981],[20.325243,48.042852],[20.3258157,48.0428457],[20.3252337,48.0424741],[20.3251966,48.0409502],[20.3240696,48.0409625],[20.3240604,48.0405846],[20.3234784,48.0402068],[20.3234413,48.0386829],[20.3250666,48.0356225],[20.3266266,48.029514],[20.326608,48.0287521],[20.3254071,48.0261006],[20.3259518,48.0253324],[20.3259426,48.0249545],[20.3287868,48.0234829],[20.3298574,48.0226249],[20.3292663,48.0214912],[20.3292476,48.0207292],[20.3285018,48.0201035],[20.3286471,48.0195894],[20.328513,48.0193139],[20.3280746,48.0192177],[20.3273311,48.0196593],[20.3255626,48.021082],[20.325305,48.0219127],[20.3248166,48.0222844],[20.3247697,48.023443],[20.324225,48.0242112],[20.3242342,48.0245891],[20.3240085,48.0249382],[20.3231261,48.0257414],[20.3230142,48.0263026],[20.3225907,48.0268936],[20.3203559,48.0284363],[20.3203652,48.0288205],[20.3198018,48.0292046],[20.3169482,48.0284735],[20.315249,48.028492],[20.3129681,48.0281388],[20.3089329,48.025518],[20.307788,48.0251524],[20.3055072,48.0247929],[20.3037807,48.0236713],[20.3032175,48.0236774],[20.3032082,48.0232933],[20.3026357,48.0232995],[20.3026267,48.0229216],[20.3020361,48.0217878],[20.3014636,48.021794],[20.3020269,48.0214037],[20.3014454,48.021032],[20.3014362,48.0206479],[20.300873,48.0206539],[20.299719,48.0199042],[20.2951493,48.018435],[20.2940226,48.0188251],[20.2934411,48.0184533],[20.2933958,48.0165452],[20.2928236,48.0161734],[20.2938959,48.0134973],[20.292697,48.0108456],[20.2932239,48.0093156],[20.2960762,48.0100472],[20.2966304,48.0092791],[20.2971845,48.0088951],[20.3000003,48.0081027],[20.3022803,48.0084561],[20.3028436,48.008072],[20.3039333,48.0061517],[20.3033246,48.0046401],[20.3044234,48.0031038],[20.3071932,48.0004093],[20.3066209,48.0000313],[20.3066118,47.9996534],[20.3088549,47.9984889],[20.3110978,47.9977023],[20.3116608,47.997312],[20.3116424,47.99655],[20.3127594,47.9957819],[20.313304,47.9950138],[20.3138577,47.9946235],[20.3138392,47.9938615],[20.3155466,47.993843],[20.3161004,47.9934589],[20.3160912,47.993081],[20.3177892,47.9926783],[20.3183615,47.9930562],[20.3183246,47.9915322],[20.3160451,47.9911729],[20.3143104,47.9896736],[20.3143011,47.9892895],[20.313729,47.9892957],[20.3131477,47.9885399],[20.3102689,47.9866687],[20.3102506,47.9859067],[20.3096694,47.985535],[20.3090882,47.9847791],[20.3085161,47.9844011],[20.308507,47.9840232],[20.3079257,47.9836453],[20.3079166,47.9832674],[20.3073354,47.9825115],[20.3067543,47.9821398],[20.3067451,47.9817557],[20.3084246,47.9805973],[20.3094952,47.9782991],[20.3100581,47.977915],[20.3105935,47.976769],[20.3110646,47.9725748],[20.3115997,47.9714226],[20.3132512,47.9695022],[20.3154744,47.9675756],[20.3154007,47.9645275],[20.3142296,47.9630221],[20.3164341,47.9603334],[20.316969,47.9588031],[20.316923,47.9569012],[20.3201413,47.9496281],[20.320086,47.9473482],[20.3206114,47.9454338],[20.3233773,47.9427388],[20.3249626,47.9381543],[20.3260779,47.9373798],[20.3271469,47.9347034],[20.3282622,47.9339289],[20.3282436,47.9331669],[20.3276628,47.9327953],[20.3264827,47.9309058],[20.3270356,47.9301375],[20.3270077,47.9289914],[20.3280764,47.9263149],[20.3280486,47.925175],[20.3291265,47.9228764],[20.3319559,47.9228452],[20.3325088,47.922461],[20.3319466,47.9224673],[20.331928,47.9217052],[20.3302044,47.920584],[20.3273659,47.9206153],[20.3261952,47.9191038],[20.3267109,47.9168114],[20.326121,47.9160557],[20.3259727,47.9099657],[20.3197532,47.910034],[20.3192004,47.9108022],[20.3146671,47.9104737],[20.3129532,47.9101082],[20.3112396,47.9093708],[20.3129074,47.9082206],[20.3134603,47.9074524],[20.3145385,47.9051602],[20.3156441,47.9040016],[20.3172657,47.9009412],[20.3175477,47.9008918],[20.3178184,47.9005509],[20.3206558,47.9005199],[20.3217706,47.9001296],[20.3217891,47.9008917],[20.322697,47.9015494],[20.3227214,47.9017843],[20.3223879,47.9020253],[20.3223972,47.9024095],[20.3240924,47.9023908],[20.3245764,47.9021373],[20.3235119,47.901635],[20.3235025,47.9012509],[20.3240553,47.9008668],[20.3240368,47.9001048],[20.3228482,47.8978311],[20.3228113,47.8963133],[20.321632,47.8944175],[20.3207659,47.893705],[20.3227465,47.8936431],[20.3227282,47.8928872],[20.3221385,47.8917472],[20.3210055,47.8917597],[20.3209779,47.8906197],[20.3204161,47.8906259],[20.320941,47.8890957],[20.3214936,47.8887116],[20.3243489,47.8894425],[20.3266147,47.8897955],[20.3277384,47.8894051],[20.3283186,47.8897768],[20.3283094,47.8893988],[20.3288619,47.8890085],[20.3293957,47.8874782],[20.3305287,47.8878499],[20.331109,47.8882215],[20.3322419,47.8882089],[20.3344704,47.887044],[20.3350415,47.8870377],[20.3361369,47.8855011],[20.3361182,47.884739],[20.3383745,47.8843359],[20.3389268,47.8839456],[20.3406214,47.8839267],[20.3406121,47.8835488],[20.3423158,47.8835298],[20.3440385,47.8846509],[20.345733,47.8846319],[20.3462852,47.8838635],[20.3462996,47.8832666],[20.3482641,47.88034],[20.3502383,47.8789066],[20.3512961,47.8784647],[20.3520837,47.8776915],[20.3542528,47.8764178],[20.3540065,47.8757826],[20.352855,47.8750333],[20.350571,47.8742968],[20.3477442,47.8743285],[20.3471638,47.8735789],[20.3465835,47.8732012],[20.3459937,47.8720675],[20.3470978,47.8709087],[20.3459183,47.8690194],[20.3441682,47.8671364],[20.3463953,47.865587],[20.3492687,47.8674574],[20.3559551,47.865306],[20.3597336,47.8655614],[20.3620193,47.8651245],[20.3621197,47.8645927],[20.3611467,47.8645317],[20.3609544,47.8626495],[20.3646603,47.8573032],[20.361478,47.857801],[20.3563877,47.8578585],[20.3546563,47.8563597],[20.3535241,47.8563725],[20.3518399,47.8567694],[20.3512787,47.8571599],[20.3495755,47.8567948],[20.3501181,47.8560265],[20.3495473,47.8556549],[20.344476,47.8564739],[20.3428011,47.8572549],[20.340119,47.8558695],[20.3406286,47.8551136],[20.340988,47.8534074],[20.3400278,47.8533174],[20.3393304,47.853069],[20.3380698,47.8533714],[20.337213,47.8533529],[20.336898,47.8528886],[20.3381509,47.8523552],[20.3394158,47.8512746],[20.3395548,47.8505314],[20.3389197,47.850257],[20.3378199,47.8502516],[20.3325868,47.8524663],[20.3317258,47.8526341],[20.3320528,47.8512689],[20.3326521,47.8509625],[20.3328876,47.8499422],[20.3322866,47.8496647],[20.3300776,47.8492828],[20.329993,47.8481479],[20.3293724,47.8476395],[20.3279649,47.847219],[20.327823,47.8463778],[20.3272884,47.8461752],[20.3281872,47.845343],[20.3260741,47.8441103],[20.3255128,47.8445007],[20.3226877,47.8445318],[20.3192734,47.8434228],[20.3187121,47.8438132],[20.3181508,47.8438193],[20.317028,47.8442096],[20.3164483,47.843838],[20.3158961,47.844222],[20.3130709,47.8442529],[20.3108254,47.8450396],[20.3096934,47.8450519],[20.3063341,47.8466129],[20.3063159,47.8458508],[20.3080001,47.8450703],[20.3113318,47.8427473],[20.3129793,47.8404488],[20.3140836,47.8392903],[20.3118383,47.840077],[20.3106974,47.8397114],[20.3095473,47.8389617],[20.3089586,47.8378278],[20.3078176,47.837456],[20.3077721,47.835554],[20.3105236,47.8324751],[20.3110574,47.831329],[20.3110208,47.8298049],[20.3104322,47.828671],[20.3104049,47.827531],[20.309807,47.8263911],[20.3086756,47.8260253],[20.3086482,47.8248854],[20.3074985,47.8241356],[20.3074802,47.8233735],[20.3063396,47.8230017],[20.3063215,47.8222458],[20.3051718,47.8214961],[20.3006008,47.819643],[20.298311,47.8181432],[20.2977226,47.8173873],[20.2976955,47.8162473],[20.2988177,47.815851],[20.3004829,47.8146927],[20.3010258,47.8135404],[20.3009805,47.8116383],[20.3015052,47.8101082],[20.3026002,47.808578],[20.3048261,47.8070294],[20.3053416,47.8051212],[20.3064362,47.8035848],[20.3064089,47.8024448],[20.3079004,47.7936719],[20.3077726,47.7883375],[20.2951636,47.7808637],[20.2999747,47.769384],[20.3010235,47.7659456],[20.3026689,47.7640252],[20.3054262,47.7613304],[20.3143482,47.7566658],[20.3215875,47.752397],[20.3232594,47.7516163],[20.3243708,47.7508418],[20.3353907,47.739676],[20.3403389,47.7342911],[20.3436527,47.7312111],[20.3430834,47.7312175],[20.350251,47.7242827],[20.3529942,47.7212026],[20.345621,47.7197609],[20.342784,47.7190366],[20.3393961,47.7186903],[20.3303161,47.7168886],[20.3110654,47.7136732],[20.2934699,47.7092965],[20.289505,47.7085768],[20.2838242,47.7071131],[20.2804198,47.7060091],[20.2751225,47.6965462],[20.2807036,47.6941999],[20.2834583,47.6915057],[20.2806235,47.6907736],[20.2789173,47.6900295],[20.274954,47.6893093],[20.2728031,47.6939058],[20.2682533,47.6920451],[20.2647971,47.6890386],[20.2551654,47.6868527],[20.2444141,47.6854399],[20.2427864,47.6881278],[20.2428036,47.6888837],[20.241675,47.6888954],[20.2405723,47.6900533],[20.2310354,47.6920538],[20.2304665,47.6920596],[20.2293549,47.6928333],[20.2281841,47.6946348],[20.2214633,47.6929136],[20.2220153,47.6921458],[20.2203007,47.6914009],[20.2203093,47.691785],[20.2186039,47.69104],[20.2151926,47.689928],[20.212995,47.692237],[20.2113479,47.6945404],[20.2102611,47.6964539],[20.2080546,47.6983786],[20.1958209,47.7064952],[20.1958293,47.7068794],[20.1935879,47.7076639],[20.1953936,47.7125914],[20.195402,47.7129756],[20.2050443,47.7155444],[20.2061902,47.7162952],[20.207938,47.7189425],[20.2079548,47.7197046],[20.1938196,47.7183209],[20.1884544,47.7309358],[20.1867484,47.7301965],[20.18293,47.7367039],[20.1823616,47.7363315],[20.1823697,47.7367094],[20.1591066,47.7308432],[20.1495195,47.7309349],[20.1483979,47.7313236],[20.1444254,47.730221],[20.1416682,47.7336741],[20.133684,47.72956],[20.1262859,47.7262022],[20.1217605,47.7258662],[20.1172641,47.7249573],[20.1095625,47.7084655],[20.1022283,47.7085326],[20.1005316,47.7081638],[20.096008,47.7078269],[20.0909394,47.7082507],[20.0898029,47.7078829],[20.0818938,47.7071917],[20.0779319,47.7064648],[20.0745244,47.7049705],[20.0582118,47.7074009]]]}}]}