{"type":"FeatureCollection","crs":{"type":"name","properties":{"name":"urn:ogc:def:crs:EPSG::4326"}},"features":[{"type":"Feature","properties":{"region_id":1,"name":"Tokaj","name_hu":"Tokaj-hegyalja","region_group":"Észak-Magyarország","area_ha_approx":5500,"notable_grapes":"Furmint, Hárslevelű, Sárga Muskotály","notes":"UNESCO World Heritage; famous for Aszú botrytised sweet wines"},"geometry":{"type":"Polygon","coordinates":[[[21.1390947,47.9073288],[21.1391098,47.9077066],[21.1421047,47.9118428],[21.1427517,47.913734],[21.1433441,47.9144857],[21.1434961,47.918295],[21.1429949,47.9198288],[21.1430251,47.9205845],[21.1441949,47.9217101],[21.145945,47.922819],[21.1460059,47.9243427],[21.1386436,47.9244754],[21.1386586,47.9248532],[21.1380965,47.9248633],[21.1375405,47.9252576],[21.1363918,47.924894],[21.1330009,47.9249548],[21.1324448,47.9253491],[21.1318827,47.9253592],[21.1312962,47.9249854],[21.1307038,47.9242337],[21.1306284,47.9223321],[21.105618,47.9201125],[21.1045145,47.9208944],[21.1039731,47.9216664],[21.1034707,47.9232],[21.1034855,47.9235779],[21.1029142,47.923588],[21.1027653,47.9197849],[21.1022033,47.9197948],[21.1010402,47.919053],[21.0970041,47.9172214],[21.0942497,47.9191728],[21.0936635,47.9187988],[21.0908202,47.9184707],[21.0914804,47.9207463],[21.0915395,47.9222638],[21.0921165,47.9226379],[21.093324,47.9245196],[21.0933387,47.9248974],[21.0945168,47.9260233],[21.0956799,47.9267652],[21.097405,47.927491],[21.1036793,47.9285268],[21.1054048,47.9292587],[21.1077017,47.9299804],[21.1117691,47.9325734],[21.1129923,47.9348327],[21.1135696,47.9352067],[21.1150031,47.9427989],[21.1181931,47.9518783],[21.1207016,47.9579264],[21.1220012,47.9620932],[21.1132065,47.9691049],[21.1114862,47.9697023],[21.1100489,47.9708325],[21.1094953,47.9716092],[21.1091157,47.971844],[21.1067849,47.9705769],[21.1065388,47.9705516],[21.1052351,47.9713427],[21.1042006,47.9707892],[21.1035663,47.9706856],[21.1023942,47.9711793],[21.1019386,47.9711047],[21.1061067,47.9760859],[21.1055739,47.9768577],[21.1046184,47.9814426],[21.0991629,47.9868693],[21.0964107,47.9892049],[21.0859934,47.9968876],[21.0860138,47.9989076],[21.0832989,48.0019984],[21.0787586,48.0020777],[21.078803,48.0032235],[21.0793898,48.0035914],[21.0794635,48.0054929],[21.0824593,48.0096304],[21.0846698,48.0100875],[21.0869657,48.0100821],[21.0887432,48.010667],[21.0915342,48.010283],[21.0918616,48.0104404],[21.0918411,48.0121248],[21.091393,48.0151873],[21.0910455,48.0163368],[21.0913103,48.0182331],[21.0920119,48.0189122],[21.0936676,48.0196601],[21.0943647,48.0208742],[21.0954285,48.0219725],[21.1011414,48.0230123],[21.1028401,48.0229823],[21.1045779,48.023714],[21.1057134,48.0236939],[21.1085177,48.0228819],[21.1096683,48.0232459],[21.1102315,48.0232359],[21.1108187,48.0236036],[21.1109536,48.0270287],[21.1115617,48.0281583],[21.113968,48.0315431],[21.1174711,48.034146],[21.1203906,48.0360031],[21.1215623,48.0371227],[21.1256537,48.040093],[21.1273621,48.0400625],[21.128483,48.0396644],[21.1304405,48.0415765],[21.1311161,48.0418209],[21.1282679,48.045029],[21.1279009,48.0457769],[21.1252167,48.0459669],[21.1208615,48.0469381],[21.1177102,48.0480999],[21.1149544,48.0497411],[21.1086277,48.0507069],[21.1084298,48.0495409],[21.1078423,48.0491732],[21.1072789,48.0491832],[21.1062091,48.0487507],[21.1050928,48.0486381],[21.1045861,48.0489161],[21.104285,48.0497354],[21.1033668,48.0507708],[21.1026236,48.0520164],[21.1026564,48.0526385],[21.1034864,48.0538181],[21.1040946,48.0549477],[21.1041097,48.0553317],[21.101906,48.0568891],[21.1019211,48.0572731],[21.103078,48.058015],[21.1025293,48.0584028],[21.0822424,48.0625705],[21.0865559,48.0712526],[21.0595247,48.0774305],[21.0567168,48.0782413],[21.0602149,48.0804679],[21.0619741,48.0819621],[21.0637186,48.0830724],[21.0683542,48.0852791],[21.0652661,48.0937057],[21.0658393,48.0936957],[21.0663886,48.0933082],[21.0669618,48.0932983],[21.0715448,48.0943592],[21.0878851,48.090647],[21.0983856,48.1121673],[21.0978514,48.112939],[21.0984155,48.1129291],[21.0978664,48.113323],[21.0932419,48.1114953],[21.0905814,48.1161159],[21.0905962,48.1164937],[21.0980738,48.1182643],[21.1001663,48.1201692],[21.1021031,48.1330474],[21.0993112,48.1357642],[21.0976834,48.1376955],[21.0896968,48.1370732],[21.0891826,48.1386069],[21.089184,48.1389883],[21.0909536,48.1400943],[21.091667,48.1438933],[21.0922852,48.1450228],[21.0923448,48.1465464],[21.0929241,48.1469143],[21.093037,48.1509443],[21.0940761,48.1545704],[21.0965609,48.1578555],[21.1006379,48.1656203],[21.10681,48.1745319],[21.1072958,48.1749655],[21.1060479,48.1818587],[21.1059215,48.1821419],[21.1055933,48.1821803],[21.10591,48.1826603],[21.1057488,48.1847719],[21.1047614,48.1874553],[21.1037568,48.190894],[21.1014488,48.1901785],[21.1004442,48.1936234],[21.1021784,48.1943713],[21.101763,48.1981677],[21.0994245,48.1966843],[21.096551,48.1959724],[21.0960904,48.1986454],[21.0962697,48.203216],[21.0935003,48.2051671],[21.0923756,48.2055648],[21.0906617,48.2055948],[21.0827538,48.2072574],[21.0810788,48.2080488],[21.0805137,48.2080586],[21.0805284,48.2084364],[21.0794481,48.2099798],[21.078298,48.2123085],[21.0776073,48.2149857],[21.0836378,48.2236377],[21.0839517,48.2232319],[21.0850916,48.2232121],[21.0879216,48.2227785],[21.0933596,48.230678],[21.0950502,48.2302704],[21.0956097,48.2298763],[21.0972405,48.2279452],[21.0995655,48.2290509],[21.1013457,48.2309222],[21.1031111,48.2324157],[21.104311,48.233913],[21.1071266,48.2331012],[21.1105469,48.2330409],[21.1111275,48.2334148],[21.1130381,48.2383328],[21.1130981,48.2398501],[21.1137392,48.2417476],[21.1194405,48.2416467],[21.126303,48.242281],[21.1280241,48.2426346],[21.1274989,48.2437769],[21.1275293,48.2445386],[21.1269999,48.2456883],[21.1261477,48.252942],[21.124578,48.256397],[21.1247648,48.2609685],[21.1083438,48.2639238],[21.1049459,48.2643678],[21.103245,48.2647758],[21.1044007,48.2651335],[21.1038501,48.2655274],[21.1032751,48.2655375],[21.1027393,48.2663092],[21.1027842,48.2674487],[21.1022392,48.2682205],[21.1022841,48.26936],[21.1017183,48.2693699],[21.1006074,48.2701517],[21.1006225,48.2705357],[21.1000715,48.2709234],[21.1006374,48.2709134],[21.1000864,48.2713011],[21.1012573,48.2720429],[21.102389,48.272023],[21.1029941,48.2727746],[21.1018532,48.2727947],[21.1013025,48.2731885],[21.1024342,48.2731687],[21.1030393,48.2739203],[21.1041952,48.274278],[21.104776,48.2746458],[21.1053362,48.274258],[21.1065222,48.2753774],[21.1088552,48.2768608],[21.1088703,48.2772448],[21.1077892,48.2787822],[21.1078044,48.2791661],[21.1089455,48.279146],[21.1084398,48.2806794],[21.1062025,48.2818591],[21.1091862,48.2852336],[21.1098066,48.286363],[21.1158507,48.295013],[21.1164866,48.2965263],[21.1045959,48.2990226],[21.1040447,48.2994103],[21.1034993,48.3001821],[21.1029332,48.3001921],[21.1023521,48.2998242],[21.1001288,48.3013815],[21.0956223,48.3029849],[21.0911396,48.3049658],[21.090594,48.3057376],[21.0923559,48.3068471],[21.097198,48.3140006],[21.1001978,48.3177531],[21.1008335,48.3192664],[21.0923928,48.3224631],[21.1006027,48.3280269],[21.1006178,48.3284109],[21.0995298,48.3295702],[21.0978567,48.3307397],[21.0984476,48.3311136],[21.0933718,48.3327206],[21.0945739,48.3342241],[21.0917585,48.3354197],[21.0857128,48.3412325],[21.0841284,48.3446869],[21.0831495,48.3488931],[21.0820962,48.3511981],[21.0821257,48.3519536],[21.0799388,48.3542782],[21.0793777,48.3546721],[21.0794072,48.3554276],[21.0766884,48.3589016],[21.0767478,48.360425],[21.0762848,48.3630977],[21.0765518,48.3699468],[21.078336,48.3718184],[21.0795683,48.3740837],[21.0796278,48.375607],[21.0802543,48.3771206],[21.0802988,48.3782601],[21.0792,48.3794193],[21.079215,48.3798033],[21.0764355,48.3817538],[21.0742969,48.3855956],[21.0749179,48.3867313],[21.0749474,48.3874868],[21.0772938,48.3889706],[21.0773235,48.3897323],[21.0767915,48.3908817],[21.077368,48.3908718],[21.0796755,48.391594],[21.0831361,48.3922962],[21.0837182,48.3926703],[21.0848766,48.3930282],[21.0854531,48.3930182],[21.0859605,48.3914849],[21.0870893,48.3910873],[21.0881133,48.3880206],[21.0897644,48.3864737],[21.0891822,48.3860996],[21.0880239,48.3857418],[21.0868356,48.384616],[21.086806,48.3838605],[21.0878299,48.3807939],[21.0911105,48.3769319],[21.0916026,48.3750147],[21.091543,48.3734975],[21.0926411,48.3723319],[21.0936796,48.3696491],[21.0947627,48.3681058],[21.0969947,48.3669265],[21.0969647,48.3661648],[21.0991758,48.3642237],[21.1013417,48.3611431],[21.1035522,48.3591957],[21.104695,48.3591756],[21.1070167,48.3602813],[21.1088713,48.3636756],[21.1077433,48.3640734],[21.1050561,48.3683097],[21.107363,48.3690315],[21.1084607,48.3678657],[21.1107168,48.36707],[21.1130481,48.3681692],[21.1180962,48.3657935],[21.1285717,48.3705593],[21.1291081,48.3697876],[21.1302361,48.3693895],[21.130742,48.3678561],[21.1367233,48.37001],[21.1377683,48.3719202],[21.1407592,48.3752937],[21.1425917,48.3783037],[21.1437505,48.3786672],[21.14444,48.3816976],[21.1467421,48.3820406],[21.1473029,48.3816463],[21.1495495,48.3808439],[21.1489518,48.3800923],[21.155756,48.3788299],[21.1608961,48.3787374],[21.1620084,48.3779551],[21.1637032,48.3775465],[21.1653917,48.3767538],[21.1676532,48.3763287],[21.1705159,48.3762769],[21.1705004,48.3758992],[21.1767429,48.3750237],[21.1801412,48.3741997],[21.1812843,48.3741789],[21.1812688,48.3738012],[21.1794652,48.3715473],[21.1879149,48.3687286],[21.1935358,48.3663391],[21.1958124,48.3662974],[21.1980513,48.365116],[21.1986274,48.3651055],[21.2014486,48.3642914],[21.200841,48.3635403],[21.2059322,48.3623064],[21.2083444,48.365311],[21.2111654,48.3644967],[21.2111495,48.3641127],[21.2157054,48.3636505],[21.2150342,48.3613762],[21.2156102,48.3613655],[21.2191248,48.3635872],[21.2191406,48.363965],[21.2231043,48.3631292],[21.2253901,48.3630867],[21.2272047,48.3653398],[21.2278193,48.3664686],[21.2289942,48.367209],[21.2374726,48.3651484],[21.2351161,48.3632899],[21.2350841,48.3625282],[21.2338933,48.3614101],[21.2338772,48.3610262],[21.234444,48.3610156],[21.234412,48.360254],[21.234956,48.3594815],[21.2355069,48.3590932],[21.236083,48.3590825],[21.2360351,48.3579431],[21.2365856,48.3575486],[21.2388712,48.3575059],[21.23947,48.3582569],[21.2400622,48.3586301],[21.2423385,48.3585875],[21.2423703,48.3593429],[21.2429464,48.3593321],[21.2434972,48.3589438],[21.245232,48.3592893],[21.2452482,48.3596732],[21.2464139,48.3604136],[21.2464942,48.3623147],[21.2448326,48.3634861],[21.2459917,48.3638486],[21.2490051,48.3675972],[21.2450575,48.3688115],[21.2428198,48.3699999],[21.2399989,48.370815],[21.2400307,48.3715705],[21.2377608,48.3719971],[21.2366911,48.3735416],[21.2333574,48.3758844],[21.2311031,48.3766886],[21.229409,48.3771044],[21.2299918,48.3774716],[21.2306,48.3782225],[21.2329504,48.3797032],[21.2347247,48.3811946],[21.2364829,48.3823021],[21.2388976,48.3852998],[21.2401532,48.3879411],[21.241377,48.3898269],[21.242665,48.3932298],[21.2433283,48.3954979],[21.2428576,48.3977935],[21.2513887,48.3968712],[21.2530511,48.3956997],[21.2530349,48.3953158],[21.2535953,48.3949272],[21.2575284,48.3933287],[21.2569613,48.3933394],[21.2586396,48.3925455],[21.2585912,48.3914061],[21.2636513,48.3894081],[21.2692455,48.3866374],[21.2645838,48.3844389],[21.2684833,48.3820783],[21.2684672,48.3817006],[21.2678746,48.3813276],[21.2678584,48.3809499],[21.2678423,48.3805722],[21.2684022,48.3801773],[21.2684186,48.3805612],[21.2695941,48.381295],[21.2707119,48.3808958],[21.2735747,48.3808415],[21.2769138,48.3788755],[21.2778775,48.3746678],[21.2784049,48.3735175],[21.2783884,48.3731336],[21.2772127,48.3723937],[21.2760535,48.3720377],[21.2742945,48.3709246],[21.2725753,48.3709573],[21.2725591,48.3705795],[21.2731192,48.3701909],[21.273054,48.3686676],[21.2713349,48.3687002],[21.2701755,48.368338],[21.2701268,48.3671986],[21.26956,48.3672093],[21.2695439,48.3668316],[21.2683684,48.3660916],[21.2689281,48.3656968],[21.2689136,48.3653568],[21.2683428,48.3649621],[21.2677041,48.3638174],[21.2682709,48.3638067],[21.2688309,48.363418],[21.274536,48.3633098],[21.2762292,48.3628933],[21.2779481,48.3628606],[21.2790748,48.3624612],[21.2830701,48.362385],[21.2836204,48.3619903],[21.2841872,48.3619795],[21.284747,48.3615908],[21.2859061,48.3619467],[21.2864729,48.3619358],[21.288159,48.3611413],[21.2898523,48.3607309],[21.2927047,48.3606763],[21.2938312,48.3602767],[21.2943814,48.3598819],[21.2995193,48.3597833],[21.2994863,48.3590217],[21.2988044,48.3563699],[21.2987222,48.3544689],[21.3003986,48.3536744],[21.3003656,48.3529127],[21.3026179,48.3521071],[21.3037772,48.3524691],[21.3049528,48.3532087],[21.3072288,48.3531648],[21.3077881,48.3527698],[21.3089307,48.3527478],[21.3089638,48.3535094],[21.3101231,48.3538713],[21.3118489,48.354216],[21.3123991,48.3538273],[21.3129751,48.3538162],[21.3141342,48.3541718],[21.3147173,48.3545386],[21.3147505,48.3553002],[21.3153432,48.355673],[21.3153597,48.3560507],[21.3159763,48.3571853],[21.3160092,48.3579407],[21.3165927,48.3583137],[21.3166755,48.3602147],[21.3172848,48.3609652],[21.317318,48.3617268],[21.309377,48.3630206],[21.3075538,48.3737152],[21.3076697,48.3763841],[21.3082695,48.3771286],[21.3065594,48.3771615],[21.3065924,48.3779232],[21.3096939,48.3835773],[21.3100004,48.3838176],[21.3108372,48.3835552],[21.31259,48.3842837],[21.3126064,48.3846614],[21.3143832,48.3861516],[21.3149337,48.3857629],[21.3185297,48.3894985],[21.3208166,48.3894541],[21.3208664,48.3905935],[21.3214667,48.3913441],[21.3215166,48.3924835],[21.3232605,48.3932119],[21.3232271,48.3924503],[21.323787,48.3920614],[21.3232106,48.3920726],[21.3231608,48.3909332],[21.3237204,48.3905381],[21.3236207,48.3882594],[21.3230443,48.3882706],[21.3235705,48.3871139],[21.323554,48.3867362],[21.3241042,48.3863413],[21.3235207,48.3859746],[21.3240712,48.3855858],[21.3235042,48.3855969],[21.3234207,48.3836897],[21.3239712,48.383301],[21.3239379,48.3825393],[21.3245142,48.3825282],[21.3250977,48.3828949],[21.325674,48.3828837],[21.3256908,48.3832676],[21.3262743,48.3836343],[21.3268506,48.3836231],[21.327451,48.3843737],[21.3280348,48.3847466],[21.3297545,48.3847131],[21.3315483,48.3865808],[21.3321153,48.3865697],[21.3350118,48.3872755],[21.3367222,48.3872421],[21.3373394,48.3883704],[21.3379493,48.3891208],[21.3390761,48.3887207],[21.3396262,48.3883257],[21.340169,48.3875528],[21.3406522,48.3856408],[21.3423459,48.3852296],[21.3418292,48.3863801],[21.3418458,48.3867578],[21.3424464,48.3875083],[21.3430228,48.387497],[21.3435731,48.3871082],[21.3435562,48.3867243],[21.3440822,48.3855737],[21.3446326,48.3851849],[21.3452089,48.3851736],[21.3452592,48.3863129],[21.3458262,48.3863018],[21.3457423,48.3844008],[21.3463093,48.3843897],[21.3469696,48.3862794],[21.3475703,48.3870299],[21.3481296,48.3866347],[21.3486967,48.3866235],[21.348663,48.3858619],[21.3492226,48.3854729],[21.3492059,48.3850952],[21.3497729,48.385084],[21.3508992,48.3846777],[21.3496718,48.3827992],[21.3438975,48.3813879],[21.3415774,48.380671],[21.343254,48.3798759],[21.3443805,48.3794758],[21.3449568,48.3794645],[21.3449401,48.3790868],[21.3477764,48.3786469],[21.3500798,48.378986],[21.3540763,48.3789074],[21.3557694,48.3784899],[21.3569125,48.3784673],[21.3580728,48.3788287],[21.3582416,48.3826306],[21.3576821,48.3830197],[21.3576991,48.3834036],[21.3583093,48.3841538],[21.358326,48.3845316],[21.3589101,48.3849043],[21.3590113,48.3871829],[21.3647527,48.3878319],[21.3659132,48.3881932],[21.3664725,48.3877979],[21.3676158,48.3877753],[21.3682,48.388148],[21.3704867,48.3881027],[21.3710366,48.3877076],[21.3727394,48.3872958],[21.3732893,48.3869006],[21.3784638,48.3875602],[21.382444,48.3871029],[21.3830031,48.3867076],[21.3835701,48.3866963],[21.3851781,48.3843835],[21.3874131,48.3831924],[21.3884539,48.380891],[21.3889866,48.3801181],[21.3889693,48.3797342],[21.3878434,48.3801409],[21.3867095,48.3801635],[21.3867264,48.3805412],[21.3855832,48.380564],[21.38499,48.3801978],[21.3838468,48.3802206],[21.3838296,48.3798367],[21.3832626,48.379848],[21.3832457,48.3794703],[21.3809421,48.3791319],[21.3803582,48.3787655],[21.379782,48.3787769],[21.3803413,48.3783878],[21.3797479,48.3780153],[21.3796796,48.3764921],[21.3791127,48.3765034],[21.3790958,48.3761257],[21.3785196,48.3761371],[21.3790786,48.3757418],[21.3790106,48.3742247],[21.3795603,48.3738295],[21.3794751,48.3719286],[21.3800512,48.3719171],[21.3800343,48.3715394],[21.3805839,48.3711443],[21.3805157,48.369621],[21.3821153,48.3669242],[21.3820984,48.3665465],[21.3826479,48.3661513],[21.3820642,48.3657849],[21.3884389,48.3679447],[21.389049,48.3686886],[21.3936631,48.3697429],[21.3976932,48.3704244],[21.4000135,48.3711402],[21.3994638,48.3715293],[21.4000477,48.3718956],[21.4000651,48.3722795],[21.4006756,48.3730296],[21.4023855,48.3729952],[21.4024026,48.3733729],[21.4018438,48.3737684],[21.4007272,48.3741689],[21.4007445,48.3745528],[21.405204,48.3721763],[21.4080568,48.3721189],[21.41036,48.3724505],[21.4103429,48.3720728],[21.4108751,48.3712998],[21.4108059,48.3697766],[21.4113821,48.3697649],[21.4113475,48.3690033],[21.4119143,48.3689919],[21.4118797,48.3682303],[21.4130226,48.3682072],[21.4234386,48.3710458],[21.4262394,48.3698487],[21.4308633,48.3708951],[21.4314302,48.3708836],[21.4314475,48.3712613],[21.4320236,48.3712496],[21.432608,48.3716219],[21.4337334,48.3712148],[21.4343003,48.3712032],[21.4354086,48.3704245],[21.4359498,48.3696512],[21.4359321,48.3692673],[21.436464,48.3684942],[21.4363767,48.3665933],[21.4369355,48.3662038],[21.4369005,48.3654422],[21.4374323,48.3646691],[21.437415,48.3642914],[21.437991,48.3642796],[21.4379561,48.363518],[21.43738,48.3635298],[21.4367783,48.3627797],[21.4367607,48.3623958],[21.4373274,48.3623843],[21.4378685,48.3616109],[21.4372924,48.3616227],[21.4372228,48.3601056],[21.4412177,48.3600241],[21.4401726,48.3745108],[21.4493428,48.3750856],[21.4499274,48.3754579],[21.4504858,48.3750622],[21.4510527,48.3750506],[21.4510352,48.3746729],[21.4504684,48.3746845],[21.4504506,48.3743006],[21.456139,48.3738058],[21.4635994,48.3744146],[21.4642016,48.3751645],[21.4658854,48.3743675],[21.4664523,48.3743558],[21.4666115,48.3777798],[21.4671877,48.3777679],[21.4672231,48.3785295],[21.4666469,48.3785414],[21.4666823,48.379303],[21.4672761,48.3796688],[21.4673115,48.3804304],[21.467896,48.3807964],[21.4673645,48.3815697],[21.4690746,48.3815344],[21.4695707,48.3799995],[21.4695176,48.3788602],[21.4706608,48.3788366],[21.4706786,48.3792205],[21.4712549,48.3792086],[21.4718394,48.3795745],[21.4724063,48.3795628],[21.473567,48.3799169],[21.4736205,48.3810623],[21.4707672,48.3811213],[21.4707848,48.381499],[21.4702178,48.3815107],[21.4702357,48.3818946],[21.4708026,48.3818829],[21.4713965,48.3822487],[21.4708557,48.3830222],[21.4868421,48.3826907],[21.4868598,48.3830684],[21.4857259,48.383092],[21.4857795,48.3842374],[21.4852033,48.3842494],[21.485239,48.385011],[21.4846897,48.3854005],[21.484743,48.3865397],[21.485328,48.3869118],[21.4853994,48.388435],[21.4848501,48.3888245],[21.4854348,48.3891904],[21.4855776,48.3922367],[21.4861716,48.3926024],[21.4861896,48.3929863],[21.4868101,48.3941137],[21.4869173,48.3963985],[21.4881142,48.3975139],[21.4898787,48.3986238],[21.4904551,48.3986118],[21.49213,48.3978146],[21.4954353,48.3950806],[21.4970741,48.3935217],[21.5022508,48.3941758],[21.502782,48.3934024],[21.5027638,48.3930185],[21.5033402,48.3930064],[21.5049969,48.3918314],[21.5049609,48.3910698],[21.5054834,48.3899185],[21.5123882,48.3909139],[21.515809,48.390842],[21.5175108,48.3904281],[21.5192212,48.390392],[21.5232362,48.3906854],[21.5249649,48.3910332],[21.5267206,48.3917522],[21.5284857,48.3928614],[21.5296471,48.3932149],[21.5302505,48.3939645],[21.5302869,48.3947261],[21.5308632,48.3947138],[21.5314667,48.3954634],[21.5320431,48.3954512],[21.5349515,48.3965299],[21.5378785,48.3979925],[21.5395891,48.3979561],[21.5412726,48.397158],[21.542416,48.3971337],[21.5447303,48.3978468],[21.5464502,48.3978102],[21.550393,48.3965857],[21.5509601,48.3965736],[21.551518,48.3961774],[21.5520851,48.3961653],[21.5531919,48.3953793],[21.5554606,48.3949528],[21.5565855,48.3945444],[21.558296,48.3945078],[21.5583145,48.3948917],[21.5594762,48.3952449],[21.559513,48.3960064],[21.5589734,48.3967803],[21.5584613,48.3979317],[21.5601719,48.3978951],[21.5619286,48.3986198],[21.5694213,48.3999836],[21.5700347,48.4007327],[21.5706202,48.4010982],[21.5706571,48.4018597],[21.5724234,48.4029683],[21.5730366,48.4037113],[21.5736224,48.4040829],[21.5736407,48.4044606],[21.5742358,48.4048321],[21.5753979,48.4051851],[21.575965,48.4051729],[21.5765602,48.4055443],[21.5776945,48.4055198],[21.5777129,48.4058975],[21.5782894,48.4058851],[21.5783081,48.4062689],[21.5794701,48.4066219],[21.5806138,48.4065972],[21.5806322,48.4069749],[21.581181,48.406585],[21.5811994,48.4069627],[21.5817482,48.4065727],[21.5823247,48.4065603],[21.5823431,48.406938],[21.5829103,48.4069257],[21.5828919,48.406548],[21.5840172,48.4061456],[21.5845936,48.4061332],[21.5846121,48.4065108],[21.5880338,48.4064368],[21.5891959,48.4067897],[21.5914464,48.4059848],[21.59259,48.4059599],[21.5931384,48.4055638],[21.5959371,48.4043626],[21.5964947,48.4039662],[21.5970619,48.4039539],[21.5998882,48.4031301],[21.6015619,48.4023375],[21.6049833,48.4022629],[21.6049644,48.4018791],[21.6037927,48.4011423],[21.602668,48.4015511],[21.6026492,48.4011672],[21.6020727,48.4011797],[21.6014871,48.4008144],[21.6002502,48.3989386],[21.6007799,48.3981647],[21.6019234,48.3981398],[21.602481,48.3977434],[21.6019046,48.3977559],[21.6013189,48.3973906],[21.6013001,48.3970068],[21.6018112,48.3958552],[21.6017927,48.3954775],[21.6029361,48.3954526],[21.6040421,48.3946662],[21.6040233,48.3942823],[21.6023128,48.3943196],[21.6017179,48.3939545],[21.6010202,48.3913045],[21.6009828,48.390543],[21.5985841,48.3883081],[21.5950427,48.3861043],[21.5950054,48.3853427],[21.592096,48.3842593],[21.5915106,48.3838939],[21.5907854,48.3808602],[21.589531,48.3786066],[21.5883785,48.3782473],[21.5872354,48.378272],[21.5872726,48.3790336],[21.5861482,48.3794422],[21.5815759,48.3795411],[21.5815572,48.3791573],[21.5821334,48.3791448],[21.5815201,48.3783957],[21.5814462,48.3768788],[21.5808607,48.3765072],[21.5802845,48.3765196],[21.5797363,48.3769157],[21.5791695,48.376928],[21.5797547,48.3772934],[21.5791878,48.3773057],[21.5797731,48.3776711],[21.5792249,48.3780672],[21.5798102,48.3784326],[21.5798472,48.3791942],[21.5804328,48.3795658],[21.5804699,48.3803274],[21.5810461,48.3803149],[21.5810645,48.3806926],[21.5799397,48.381095],[21.5792433,48.3784449],[21.5769942,48.3792558],[21.5769758,48.3788781],[21.577524,48.378482],[21.5781002,48.3784696],[21.5780818,48.3780919],[21.57863,48.3776958],[21.5785933,48.3769404],[21.5802104,48.3749965],[21.580694,48.3730833],[21.5789842,48.3731202],[21.5790029,48.3735041],[21.5784081,48.3731327],[21.5772838,48.3735412],[21.5761778,48.3743274],[21.5761408,48.3735659],[21.5772651,48.3731573],[21.5766983,48.3731696],[21.5749332,48.3720672],[21.5743201,48.3713181],[21.5754447,48.3709157],[21.5776378,48.3689595],[21.5776194,48.3685818],[21.5787068,48.3674179],[21.5786882,48.367034],[21.5780751,48.3662849],[21.5786511,48.3662724],[21.5791808,48.3654986],[21.5786141,48.3655109],[21.5791625,48.365121],[21.5797292,48.3651087],[21.5802498,48.363957],[21.5813184,48.3624092],[21.5818296,48.3612577],[21.581811,48.3608739],[21.5824056,48.3612453],[21.5819222,48.3631585],[21.5819777,48.3642978],[21.5825721,48.364663],[21.5831388,48.3646507],[21.5841334,48.361586],[21.5835296,48.3608367],[21.5835519,48.3596921],[21.5895775,48.3561377],[21.5907014,48.355729],[21.5907201,48.3561129],[21.591296,48.3561004],[21.5913333,48.356862],[21.5925315,48.3579764],[21.5936833,48.3583294],[21.5959686,48.3582798],[21.5976686,48.3578647],[21.597706,48.3586263],[21.600707,48.3616042],[21.6012737,48.3615918],[21.6012925,48.3619757],[21.6030204,48.3623161],[21.6036712,48.3638267],[21.6049262,48.3660864],[21.6061065,48.366823],[21.6066732,48.3668106],[21.6123214,48.3655405],[21.6134456,48.3651378],[21.6140592,48.3658868],[21.6163823,48.3665982],[21.6177012,48.3663757],[21.6178029,48.366147],[21.617206,48.3656223],[21.6173135,48.3649656],[21.6169931,48.3640771],[21.6169673,48.3633136],[21.6167611,48.3627781],[21.616228,48.3621003],[21.6157669,48.3606404],[21.6151156,48.359619],[21.6148166,48.3582625],[21.6148965,48.3575623],[21.6153371,48.3571008],[21.6153142,48.3559286],[21.6143438,48.3547519],[21.6142138,48.3538698],[21.6133704,48.3533362],[21.6130035,48.3529142],[21.6133354,48.3525775],[21.6142127,48.3523068],[21.6143348,48.3519892],[21.6140797,48.3510365],[21.6147042,48.3500534],[21.6146751,48.3496985],[21.6131755,48.3486383],[21.6129382,48.3482072],[21.6132205,48.3478796],[21.6136886,48.3478028],[21.6151664,48.3480696],[21.6157301,48.3477583],[21.6158679,48.3474757],[21.6156913,48.3468071],[21.6153874,48.3464327],[21.61433,48.3459967],[21.6134939,48.3452573],[21.6135569,48.3441919],[21.6149516,48.3405473],[21.6138861,48.3393284],[21.6138138,48.3377092],[21.6201473,48.3387107],[21.6234705,48.3367348],[21.6228664,48.3359857],[21.6228287,48.3352242],[21.6198842,48.333386],[21.6180727,48.3315229],[21.6154415,48.3253647],[21.6154324,48.3243475],[21.6159769,48.3236859],[21.6170747,48.3227867],[21.6187452,48.3219877],[21.6209912,48.321176],[21.6260682,48.3199238],[21.627191,48.3195148],[21.6283327,48.3194896],[21.6347293,48.3210495],[21.637571,48.3215728],[21.63948,48.3222122],[21.6405154,48.3234106],[21.6407254,48.3239732],[21.6405725,48.324556],[21.6397891,48.3252755],[21.6389117,48.3257332],[21.63441,48.3269732],[21.6336902,48.3279119],[21.6335845,48.3283113],[21.6338093,48.3286551],[21.6341894,48.3288356],[21.6350708,48.3288615],[21.6378736,48.3276591],[21.6395631,48.3272436],[21.6414813,48.3272356],[21.6430076,48.3275454],[21.6447539,48.3282691],[21.6472846,48.329662],[21.6514072,48.3315658],[21.6531735,48.3332156],[21.6533227,48.3339122],[21.6532124,48.3347122],[21.649183,48.336929],[21.649221,48.3376906],[21.6487022,48.3388426],[21.6477783,48.3430531],[21.6483448,48.3430405],[21.6545274,48.3410002],[21.6590677,48.3405148],[21.6602291,48.3408732],[21.6602481,48.3412509],[21.6614668,48.3427485],[21.6626472,48.3434846],[21.6654982,48.3434209],[21.6678018,48.3437475],[21.6694915,48.3433316],[21.671776,48.3432804],[21.6728992,48.3428772],[21.6734463,48.3424806],[21.6739646,48.3413285],[21.6733311,48.340196],[21.6721125,48.3387047],[21.6674192,48.3361445],[21.6656148,48.3342757],[21.6661622,48.3338854],[21.6661239,48.3331239],[21.6683507,48.3319336],[21.6694927,48.331908],[21.675155,48.3310187],[21.6780053,48.3309548],[21.6803277,48.331665],[21.6820937,48.3327658],[21.6821131,48.3331496],[21.6827464,48.3342759],[21.6828426,48.3361766],[21.6812687,48.3388773],[21.6808856,48.3426979],[21.6798009,48.3438628],[21.6787356,48.3454115],[21.6782267,48.3465635],[21.6782652,48.347325],[21.6788702,48.3480738],[21.680646,48.3491744],[21.6817692,48.348771],[21.6823549,48.349136],[21.6851676,48.3483103],[21.6908602,48.3478039],[21.692569,48.3477654],[21.6937306,48.3481172],[21.6943166,48.3484883],[21.6948924,48.3484753],[21.6949116,48.348853],[21.6943745,48.3496275],[21.6960835,48.3495889],[21.6950278,48.3511375],[21.6950665,48.351899],[21.696814,48.3526158],[21.6979564,48.3525899],[21.6980535,48.3544968],[21.7065497,48.3531576],[21.7148405,48.3476386],[21.7182091,48.3464213],[21.7163348,48.3434144],[21.7162374,48.3415137],[21.7168132,48.3415006],[21.716179,48.3403745],[21.7155152,48.3384867],[21.7154372,48.3369637],[21.7159255,48.3354277],[21.7158865,48.3346662],[21.7175261,48.333104],[21.7186395,48.3327005],[21.719723,48.3315353],[21.7202399,48.3303768],[21.7196449,48.3300122],[21.7167363,48.328938],[21.7172718,48.3285981],[21.7121124,48.3274762],[21.7104867,48.3266383],[21.7098539,48.3264671],[21.7081307,48.3261413],[21.7029161,48.3265868],[21.6989242,48.3266773],[21.6960261,48.3259804],[21.693118,48.3248994],[21.691352,48.3237988],[21.6907765,48.3238118],[21.6896248,48.3234597],[21.6889911,48.3223273],[21.6906219,48.3207656],[21.6900365,48.3204008],[21.6894317,48.319652],[21.6893544,48.3181289],[21.6899015,48.3177385],[21.689882,48.3173546],[21.6887212,48.3170027],[21.6886634,48.3158635],[21.6874637,48.3147438],[21.6874255,48.3139885],[21.6885671,48.3139627],[21.6908308,48.3135273],[21.6919532,48.3131239],[21.6930948,48.3130981],[21.6936414,48.3127014],[21.6936222,48.3123238],[21.6930366,48.3119527],[21.6924225,48.3112041],[21.6922646,48.3101363],[21.6911846,48.3093292],[21.6900239,48.3089773],[21.6894578,48.30899],[21.6888722,48.3086189],[21.6871554,48.3086577],[21.6870785,48.3071408],[21.6864739,48.306392],[21.6864544,48.3060081],[21.6850768,48.305846],[21.6836055,48.3060723],[21.6824835,48.3064819],[21.6819272,48.3068725],[21.6796345,48.3065459],[21.6766801,48.3047032],[21.676114,48.3047159],[21.6760949,48.3043382],[21.6777449,48.3031606],[21.677668,48.3016376],[21.6781858,48.3004854],[21.6781664,48.3001015],[21.6775721,48.2997368],[21.6780514,48.2978231],[21.6774762,48.297836],[21.6768524,48.2967033],[21.6790198,48.2943735],[21.6795664,48.2939769],[21.6789134,48.2810429],[21.6783476,48.2810556],[21.6770917,48.2788028],[21.6764973,48.2784318],[21.6759316,48.2784445],[21.6758357,48.2765437],[21.6752033,48.2754174],[21.6746182,48.2750462],[21.6745415,48.2735231],[21.6767655,48.2723326],[21.6767464,48.2719549],[21.676133,48.2712063],[21.674973,48.270848],[21.6738324,48.2708736],[21.673286,48.2712702],[21.672126,48.2709119],[21.6720877,48.2701503],[21.6726436,48.2697598],[21.6726053,48.2689982],[21.6811446,48.2573822],[21.6821797,48.2554559],[21.6821413,48.2546944],[21.6836448,48.2504702],[21.6852929,48.2492925],[21.6852544,48.2485309],[21.6863752,48.2481213],[21.6860288,48.2412734],[21.6832028,48.2417214],[21.6809227,48.2417728],[21.6778663,48.2376513],[21.6765729,48.2346306],[21.6760076,48.2346433],[21.6759885,48.2342656],[21.6765538,48.2342529],[21.6759695,48.2338879],[21.687447,48.2016313],[21.6844985,48.1997948],[21.6698723,48.1921275],[21.6800945,48.1915195],[21.6829846,48.1922106],[21.689944,48.1947251],[21.6962038,48.1945833],[21.7035546,48.193654],[21.7075363,48.1935634],[21.7109336,48.1931016],[21.7108559,48.1915785],[21.7113627,48.1904263],[21.7113434,48.1900486],[21.7124823,48.1900226],[21.7135823,48.1892351],[21.7163666,48.1880309],[21.7180209,48.1868463],[21.7185274,48.1856941],[21.7156269,48.1846198],[21.7104294,48.1832134],[21.707684,48.1851791],[21.7060193,48.1859794],[21.7055032,48.1871318],[21.7049579,48.1875285],[21.7043839,48.1875416],[21.7037996,48.1871705],[21.7025833,48.1856733],[21.7019514,48.184547],[21.7019322,48.1841693],[21.7040548,48.1810712],[21.7005901,48.1800093],[21.6959391,48.1782118],[21.6941777,48.177105],[21.6860822,48.1746226],[21.6865699,48.1730867],[21.686397,48.1696626],[21.6869234,48.1688944],[21.6868465,48.1673712],[21.6874009,48.1669743],[21.6885778,48.1677102],[21.695399,48.1675557],[21.6970828,48.1671394],[21.6954522,48.1572704],[21.6885817,48.1452388],[21.6917363,48.1402206],[21.689412,48.1391264],[21.6875856,48.1368865],[21.6819826,48.1385319],[21.6809026,48.1397031],[21.6809409,48.1404647],[21.6786653,48.140516],[21.6774315,48.1386345],[21.6756149,48.1363942],[21.6742476,48.1318502],[21.675328,48.1306852],[21.6739229,48.1253857],[21.6719923,48.1208604],[21.6744489,48.1131865],[21.6753376,48.1082134],[21.6707509,48.1075542],[21.6688975,48.1045521],[21.6616281,48.0955717],[21.6610551,48.0955845],[21.6598614,48.0944706],[21.6597284,48.091808],[21.6591075,48.0906751],[21.6590695,48.0899135],[21.6584489,48.0887867],[21.6589366,48.0872508],[21.6588798,48.0861115],[21.6610201,48.0833979],[21.6615649,48.0830075],[21.6643445,48.0817983],[21.6675827,48.0782975],[21.6670002,48.0779324],[21.6669051,48.0760314],[21.6662749,48.0748987],[21.6662179,48.0737594],[21.6588361,48.073925],[21.6581777,48.0720366],[21.6530688,48.0721509],[21.6528983,48.0687266],[21.6523157,48.0683553],[21.6522212,48.0664543],[21.6515727,48.0649438],[21.6515539,48.064566],[21.6520699,48.0634139],[21.6519563,48.0611289],[21.651289,48.0592407],[21.6512326,48.0568894],[21.6490035,48.0474823],[21.6488147,48.0436802],[21.6492266,48.040621],[21.6497234,48.0390849],[21.6497046,48.0387072],[21.6507646,48.0371585],[21.6501165,48.035648],[21.6509874,48.0302972],[21.6548243,48.0275456],[21.6657505,48.018919],[21.6657127,48.0181636],[21.6673728,48.0173637],[21.6747422,48.0157423],[21.6787631,48.0154654],[21.6836654,48.0139459],[21.6870517,48.0133979],[21.6881515,48.0134051],[21.686764,48.0077816],[21.6867257,48.00702],[21.6878606,48.0069943],[21.6878032,48.0058549],[21.6855229,48.006127],[21.6827391,48.0067321],[21.682272,48.0060552],[21.6846338,48.0056652],[21.6843219,48.0044087],[21.6835602,48.0043003],[21.6832284,48.0037708],[21.6741744,48.0057788],[21.6727152,48.0013711],[21.6726344,48.0005773],[21.6716629,48.0005749],[21.6688412,48.0011565],[21.6675219,47.9960242],[21.662089,47.9961743],[21.6620972,47.9941941],[21.6632871,47.9941413],[21.6630892,47.991739],[21.6624141,47.9917301],[21.6623456,47.991176],[21.6632657,47.9907434],[21.6630037,47.9897121],[21.6639915,47.9891778],[21.6633321,47.9885705],[21.666909,47.9867205],[21.6652781,47.9852296],[21.6651589,47.984678],[21.6630074,47.9852301],[21.6557791,47.9875911],[21.6493841,47.9892297],[21.6490673,47.9879672],[21.6450188,47.9900607],[21.6410784,47.9908263],[21.6379563,47.9809884],[21.625262,47.9842525],[21.6046892,47.9890446],[21.5999704,47.9898808],[21.5988917,47.9872517],[21.6006667,47.9869334],[21.597299,47.9770191],[21.5961647,47.9770439],[21.5954822,47.9747775],[21.5922633,47.9668448],[21.5933974,47.9668199],[21.5920602,47.9626585],[21.5912951,47.9584907],[21.5900364,47.9586873],[21.5850733,47.9471952],[21.5816264,47.9461297],[21.5816082,47.9457519],[21.5790472,47.9397138],[21.5789656,47.9386962],[21.5799641,47.9385896],[21.5793367,47.9358902],[21.5812984,47.9361685],[21.5781639,47.9332547],[21.5775836,47.9328892],[21.5718708,47.9318665],[21.5683979,47.9304231],[21.5666475,47.9293142],[21.5655327,47.9297227],[21.5627861,47.9301442],[21.558746,47.9310268],[21.5554426,47.932228],[21.5454115,47.935116],[21.5290959,47.938881],[21.5235512,47.9405193],[21.5207429,47.9409658],[21.5196291,47.9413596],[21.5162208,47.9414437],[21.513731,47.9369336],[21.5113317,47.9339312],[21.5096177,47.93396],[21.5096507,47.9343525],[21.5085207,47.9347521],[21.5033249,47.9340831],[21.4994341,47.9341796],[21.4993546,47.9322939],[21.4981255,47.9304011],[21.4980462,47.9288869],[21.4974911,47.9285016],[21.497392,47.9266021],[21.4967503,47.925477],[21.4945869,47.9258953],[21.4827009,47.9261409],[21.4723941,47.9256178],[21.4611912,47.9277601],[21.4566658,47.9278412],[21.4533406,47.9282749],[21.4407666,47.9274196],[21.4362654,47.9275006],[21.4311794,47.9287452],[21.4297699,47.922699],[21.42069,47.9221143],[21.418437,47.9225335],[21.4167318,47.9221816],[21.4138268,47.9207285],[21.4098877,47.9208147],[21.4070379,47.9212299],[21.4048196,47.9212844],[21.4025102,47.9205692],[21.4002852,47.9206154],[21.3945416,47.9199731],[21.3928431,47.9203899],[21.3877432,47.9201036],[21.3809915,47.9210052],[21.3775307,47.9199329],[21.3758158,47.9191991],[21.3706583,47.9181705],[21.3616044,47.9187217],[21.3588085,47.9191729],[21.3582613,47.9195503],[21.357167,47.9199488],[21.356041,47.92073],[21.3560886,47.9215006],[21.3487146,47.9216464],[21.3401834,47.9214426],[21.320399,47.9199288],[21.304288,47.9160326],[21.3041645,47.9130052],[21.2978035,47.9104006],[21.2709473,47.9048785],[21.2649173,47.9095639],[21.2616295,47.9118779],[21.2630421,47.9187556],[21.2625098,47.9191231],[21.2614392,47.9214481],[21.2615892,47.9244644],[21.2599092,47.9252701],[21.2548849,47.9268897],[21.2532237,47.927688],[21.2299905,47.9003261],[21.2276143,47.8977053],[21.2247395,47.8966125],[21.2225529,47.8985627],[21.2203186,47.8993607],[21.2169294,47.899424],[21.2077666,47.8969294],[21.20322,47.8966358],[21.2009233,47.895916],[21.1952688,47.8960206],[21.1884661,47.8957681],[21.1867777,47.8961773],[21.1833887,47.8962397],[21.1811541,47.8970432],[21.1794905,47.8978361],[21.1783268,47.8970951],[21.1766077,47.8967485],[21.1754533,47.8960072],[21.1753299,47.8929598],[21.1747281,47.8922085],[21.1741819,47.8926028],[21.1736109,47.8926132],[21.1736262,47.892991],[21.1725091,47.8933958],[21.1702221,47.8926752],[21.1602513,47.8981876],[21.1580773,47.9005082],[21.1354233,47.9005395],[21.1349068,47.9016892],[21.1343358,47.9016995],[21.1349371,47.9024511],[21.1349523,47.9028351],[21.1367075,47.9043222],[21.1373241,47.9054578],[21.1390947,47.9073288]]]}}]}