{"type":"FeatureCollection","crs":{"type":"name","properties":{"name":"urn:ogc:def:crs:EPSG::4326"}},"features":[{"type":"Feature","properties":{"region_id":20,"name":"Hajós-Baja","name_hu":"Hajós-Bajai borvidék","region_group":"Alföld (Great Plain)","area_ha_approx":2800,"notable_grapes":"Kadarka, Kékfrankos, Olaszrizling, Chardonnay","notes":"Sandy Great Plain soils; Hajós Pincefalu wine-cellar village"},"geometry":{"type":"Polygon","coordinates":[[[18.8226149,46.2086473],[18.8269761,46.213986],[18.8297104,46.2178029],[18.8324437,46.2197109],[18.8362769,46.2212428],[18.8395685,46.2220112],[18.8423053,46.2231566],[18.8450365,46.2258266],[18.8477651,46.2292588],[18.849948,46.2330681],[18.8510423,46.2342166],[18.8537772,46.236124],[18.8554205,46.2361268],[18.8620153,46.2349974],[18.8647622,46.2334773],[18.8669641,46.2319561],[18.869147,46.2334843],[18.8729797,46.235771],[18.8751695,46.2380614],[18.8768032,46.2411132],[18.8767889,46.2456809],[18.8762416,46.2464424],[18.8729345,46.2498647],[18.8696372,46.2529027],[18.8690808,46.2536641],[18.8674332,46.2548019],[18.8652253,46.2578477],[18.8630055,46.2643146],[18.8624591,46.264698],[18.8624552,46.2658383],[18.8629977,46.2666016],[18.864093,46.2677437],[18.8673828,46.270036],[18.8690259,46.2704229],[18.8739665,46.2708086],[18.8750657,46.2708103],[18.8761661,46.2704339],[18.8783692,46.2689126],[18.8805745,46.2666289],[18.8844238,46.2643475],[18.8860736,46.2624471],[18.8893762,46.2605491],[18.8921214,46.2597906],[18.9003533,46.2586612],[18.9052942,46.2586675],[18.9069451,46.2594319],[18.9085881,46.259812],[18.9091321,46.2601969],[18.9096861,46.2601976],[18.9113282,46.2609557],[18.9107717,46.265529],[18.9123951,46.2739041],[18.9129308,46.2777164],[18.9140208,46.2815232],[18.9178435,46.2902851],[18.9178353,46.2937125],[18.9189359,46.2933357],[18.9216629,46.3009558],[18.9216515,46.3059078],[18.9222006,46.3081893],[18.9210901,46.3127558],[18.9194382,46.3154252],[18.9155831,46.3192262],[18.9188729,46.3199924],[18.9183264,46.3203698],[18.9188702,46.3211327],[18.9210697,46.3215195],[18.9210688,46.3218976],[18.9205223,46.322275],[18.9199659,46.3230367],[18.919957,46.3268484],[18.9205116,46.326849],[18.9232597,46.3260897],[18.9238054,46.3260903],[18.923808,46.3249499],[18.9243635,46.3245662],[18.9243644,46.3241882],[18.9265543,46.3249529],[18.9287541,46.3253333],[18.9303976,46.3264754],[18.9309506,46.3272383],[18.9314955,46.3276231],[18.9303935,46.3283843],[18.9276445,46.3295218],[18.9254484,46.3314222],[18.9237933,46.3314204],[18.922692,46.3317973],[18.9221454,46.3321809],[18.9221436,46.3329433],[18.9215872,46.333705],[18.9221401,46.3344679],[18.9221384,46.335224],[18.9237821,46.3363725],[18.9248817,46.3367517],[18.9270803,46.3379007],[18.9287241,46.3390428],[18.9314695,46.339808],[18.9320235,46.3401866],[18.9320227,46.3405709],[18.9314663,46.3413326],[18.9309204,46.3413321],[18.929819,46.341709],[18.9287183,46.3417079],[18.9276169,46.3420848],[18.9270702,46.3424684],[18.9270668,46.3439931],[18.9265111,46.3443706],[18.9259653,46.34437],[18.9248663,46.3436065],[18.9237691,46.3420806],[18.9232241,46.341702],[18.9221235,46.3417008],[18.9215678,46.3420782],[18.9204708,46.344364],[18.9204681,46.3455044],[18.9210113,46.3466516],[18.9226553,46.3477938],[18.9232102,46.3477944],[18.9237552,46.3481731],[18.9248551,46.3485585],[18.9270567,46.3485609],[18.9281558,46.3493244],[18.9281524,46.3508491],[18.9286976,46.3512277],[18.9292524,46.3512283],[18.9303427,46.3519917],[18.9303394,46.3535164],[18.9281433,46.3550326],[18.9281357,46.35846],[18.9286818,46.3584605],[18.9275799,46.3588436],[18.9248311,46.3592188],[18.9237301,46.3592176],[18.9226282,46.3596006],[18.9215272,46.3595994],[18.9171304,46.3603568],[18.9165745,46.3607342],[18.9149283,46.3603542],[18.9143832,46.3599693],[18.9138273,46.3603529],[18.9116352,46.3599661],[18.9094332,46.3599634],[18.9094341,46.3595853],[18.9072302,46.360345],[18.9066841,46.3603443],[18.9055841,46.3599587],[18.9050291,46.359958],[18.9028391,46.3588148],[18.898431,46.3603337],[18.8934788,46.3610833],[18.8940162,46.3641333],[18.8934561,46.3690846],[18.8973005,46.3709925],[18.8972963,46.3725172],[18.8989385,46.3744221],[18.8983892,46.3755618],[18.8994885,46.3763256],[18.8994781,46.380131],[18.9000233,46.380516],[18.9000223,46.3808941],[18.9011227,46.3812797],[18.9027752,46.3828065],[18.9033215,46.3828072],[18.9055225,46.3835661],[18.9055215,46.3839504],[18.9060687,46.3835668],[18.9066239,46.3835675],[18.9099223,46.3824312],[18.9104775,46.3824318],[18.9209254,46.3835844],[18.9209236,46.3843467],[18.9220242,46.3847322],[18.9225714,46.3843485],[18.9225731,46.3835862],[18.9231284,46.3835868],[18.9236737,46.3839717],[18.924229,46.3839723],[18.925327,46.3854981],[18.9264179,46.3862616],[18.9280747,46.3862634],[18.9291754,46.3866426],[18.9313671,46.3877853],[18.9335687,46.3885498],[18.9363143,46.3904553],[18.9368673,46.3916024],[18.9352064,46.3935035],[18.9352017,46.3957905],[18.9363003,46.3973101],[18.9368549,46.3976949],[18.9379566,46.397696],[18.9389111,46.3992194],[18.9405668,46.3999771],[18.9416649,46.401887],[18.9416635,46.4026432],[18.9412426,46.4030292],[18.9423393,46.4056953],[18.9423386,46.4060734],[18.9412352,46.4068347],[18.9406857,46.4083589],[18.9384794,46.4094972],[18.9384786,46.4098814],[18.9395791,46.4106448],[18.9395784,46.4110229],[18.9384733,46.4125465],[18.9428816,46.4125506],[18.9456273,46.4152182],[18.9478309,46.4155982],[18.9478288,46.4167448],[18.948374,46.4175076],[18.9500221,46.4178871],[18.9522252,46.4186513],[18.9560771,46.4194168],[18.9604842,46.4205607],[18.9626744,46.4239898],[18.9450467,46.4285431],[18.9455938,46.4331176],[18.9340247,46.4361498],[18.9329261,46.4342459],[18.9180528,46.4353703],[18.9185978,46.4361333],[18.9213444,46.4384234],[18.9163761,46.4429856],[18.920224,46.4498448],[18.9234992,46.4605087],[18.9240465,46.464321],[18.9223628,46.4749795],[18.9173629,46.4913486],[18.9212204,46.4917373],[18.9217759,46.4921159],[18.9223197,46.4936412],[18.9245229,46.4955464],[18.926174,46.4955481],[18.9272795,46.494787],[18.9283841,46.4944101],[18.9305916,46.4944124],[18.9344518,46.4936539],[18.9366593,46.4936561],[18.9394126,46.4944211],[18.9443721,46.4959442],[18.9553881,46.5035708],[18.960347,46.5062397],[18.9675157,46.5020614],[18.9697257,46.5005383],[18.9713781,46.4997771],[18.9713786,46.4993928],[18.9735879,46.4982538],[18.9741443,46.4982542],[18.9741453,46.4974919],[18.975797,46.4971148],[18.9857288,46.4914062],[18.9895892,46.4895055],[18.9901394,46.4868407],[18.9901406,46.4857003],[18.990698,46.484554],[18.9906984,46.4841759],[18.9890415,46.48151],[18.9890435,46.4796072],[18.9896017,46.4776986],[18.9896025,46.4769363],[18.9879544,46.4746546],[18.9874008,46.4723673],[18.9885045,46.4719898],[18.989609,46.4708438],[18.9912606,46.4697042],[18.9923662,46.4674177],[18.994018,46.4659],[18.9967811,46.4651389],[18.9989801,46.4632372],[19.0028347,46.4655195],[19.006703,46.4617155],[19.012208,46.4639981],[19.0111041,46.4651444],[19.0182687,46.4678115],[19.0149564,46.4723784],[19.0116455,46.4739021],[19.0094449,46.4780912],[19.0105481,46.4784696],[19.0094441,46.4792316],[19.0061306,46.4834202],[19.0039221,46.4853221],[19.0033739,46.4864623],[19.0022696,46.4872242],[18.9978552,46.4872224],[18.9984112,46.4876069],[18.9995134,46.489132],[19.0022671,46.4902735],[19.0022662,46.4914139],[18.9984077,46.4914124],[18.9984071,46.4921747],[18.9989537,46.4929373],[19.0171529,46.4906565],[19.0215576,46.4929446],[19.023217,46.4944696],[19.0243212,46.4933232],[19.0254161,46.4929454],[19.0248691,46.4921829],[19.0248692,46.4918049],[19.0270777,46.4887559],[19.0314842,46.4857135],[19.0320407,46.4849512],[19.0325881,46.484567],[19.0325889,46.4815239],[19.0370029,46.4811401],[19.037003,46.480762],[19.0414079,46.4807623],[19.0408608,46.4788595],[19.0419642,46.4792376],[19.0447184,46.477335],[19.0474724,46.477335],[19.0485759,46.4780973],[19.0491231,46.4780973],[19.0502264,46.4769507],[19.0507828,46.48],[19.0513301,46.48],[19.058498,46.4796214],[19.0579412,46.4769502],[19.0651087,46.4765712],[19.0651075,46.4731438],[19.0617976,46.4731443],[19.0612497,46.4704793],[19.0617968,46.4704792],[19.0617965,46.4693388],[19.0573926,46.4697174],[19.0584956,46.4685768],[19.0590423,46.466674],[19.0640022,46.4666734],[19.0640019,46.4659111],[19.0656522,46.4659108],[19.0656507,46.4617211],[19.0623504,46.4617216],[19.0628958,46.4560071],[19.0623487,46.4556291],[19.0628957,46.455629],[19.0634514,46.4548666],[19.0662036,46.4529634],[19.0673065,46.4529632],[19.0766642,46.4464844],[19.0739114,46.4457227],[19.0728086,46.445723],[19.0700552,46.4434428],[19.068952,46.4422964],[19.0689514,46.4407779],[19.0695067,46.4396312],[19.0717043,46.4422958],[19.0722603,46.44268],[19.073363,46.4426797],[19.0744655,46.4422952],[19.0755588,46.4415326],[19.0766612,46.4411542],[19.0788666,46.4411536],[19.0794136,46.4415315],[19.0794148,46.4434405],[19.0810736,46.443818],[19.0816205,46.4438179],[19.0816202,46.4434398],[19.0821753,46.442293],[19.0832777,46.4419146],[19.0838246,46.4419144],[19.0860305,46.442676],[19.0865779,46.4434382],[19.0865804,46.4468656],[19.0893341,46.4483831],[19.0915397,46.4483822],[19.092095,46.4476197],[19.0926416,46.4472414],[19.09264,46.4453386],[19.0876795,46.4419131],[19.0865757,46.4403888],[19.0865754,46.4400108],[19.0876766,46.4381014],[19.0882231,46.4377232],[19.0887768,46.4350579],[19.0915284,46.4346726],[19.094836,46.4346712],[19.0970407,46.4342922],[19.0997925,46.4342909],[19.1003397,46.4346687],[19.1008954,46.4346685],[19.1008977,46.4369555],[19.1019925,46.4380954],[19.1036541,46.4411439],[19.1047567,46.4411433],[19.1058602,46.4419051],[19.1053048,46.4422834],[19.1064079,46.4426671],[19.109716,46.4426653],[19.1119134,46.4434264],[19.1130161,46.4434258],[19.1168725,46.4445639],[19.1163276,46.4460889],[19.1163286,46.4468512],[19.1190826,46.4479899],[19.119639,46.4483676],[19.122946,46.4537018],[19.1240527,46.4563661],[19.1257038,46.4571211],[19.1279052,46.4540764],[19.1290075,46.4536975],[19.1306539,46.4514093],[19.1312092,46.4510246],[19.1323115,46.4506458],[19.1367095,46.4479773],[19.1378136,46.4487387],[19.1383599,46.448354],[19.1383528,46.4441705],[19.1389073,46.4434077],[19.1394535,46.443023],[19.1394542,46.4434072],[19.1405628,46.4468337],[19.1416663,46.4472109],[19.1422208,46.4464481],[19.1460711,46.4437797],[19.1466166,46.4430169],[19.1466159,46.4426388],[19.1504672,46.4407326],[19.1516016,46.4571001],[19.1868653,46.4585866],[19.1879723,46.4601099],[19.1885233,46.4616339],[19.1896284,46.4623948],[19.1896294,46.4627729],[19.1901875,46.4635345],[19.1896375,46.4658222],[19.1901955,46.4665839],[19.1902127,46.4730544],[19.1907619,46.4738161],[19.190766,46.4753407],[19.1902198,46.4757195],[19.1902228,46.4768599],[19.1913252,46.4764804],[19.1929707,46.4745756],[19.1951731,46.473048],[19.2100349,46.466557],[19.2144528,46.4711184],[19.2161008,46.4703536],[19.217765,46.4718757],[19.2205212,46.4726339],[19.2249192,46.4707181],[19.2265824,46.4718621],[19.2282302,46.4710971],[19.2276818,46.4707137],[19.2293284,46.4695707],[19.2293271,46.4691926],[19.2315309,46.4684267],[19.2326302,46.4672783],[19.2331773,46.4672774],[19.233176,46.4668993],[19.2337218,46.4665203],[19.2326224,46.4649975],[19.23427,46.4642324],[19.2331616,46.4627096],[19.2304135,46.4642387],[19.2293065,46.4631001],[19.2315062,46.4611876],[19.2298432,46.4600499],[19.2303992,46.460049],[19.231501,46.4596691],[19.2298368,46.4581472],[19.2441432,46.4516463],[19.2496372,46.4485935],[19.2551586,46.4504862],[19.2601125,46.4516173],[19.2794026,46.4523417],[19.2821404,46.4489086],[19.2870681,46.4420434],[19.2798839,46.4371125],[19.2815124,46.4302543],[19.2831449,46.4264392],[19.2836783,46.4233949],[19.2874861,46.4131046],[19.2891147,46.4066243],[19.2907425,46.402053],[19.2841353,46.4009267],[19.2830318,46.4005447],[19.2709174,46.3998071],[19.2533005,46.3983221],[19.24612,46.3895713],[19.236718,46.3774025],[19.2279059,46.3743738],[19.2141402,46.3702053],[19.2020084,46.3607028],[19.1987036,46.3569018],[19.2135049,46.3412686],[19.2288381,46.3241079],[19.2485883,46.3141702],[19.2639394,46.3061465],[19.2808117,46.2684114],[19.2659482,46.2589215],[19.2615418,46.2562649],[19.2516405,46.2509532],[19.2532598,46.2421928],[19.2586473,46.2174289],[19.2580301,46.1987747],[19.2514408,46.1980246],[19.2294683,46.184731],[19.2217877,46.1824625],[19.2256154,46.1797914],[19.225056,46.1778834],[19.2157008,46.1645727],[19.2140238,46.1558178],[19.1975991,46.1596465],[19.17898,46.1642438],[19.1724111,46.166154],[19.1674829,46.1680621],[19.1581732,46.1692121],[19.1400779,46.1658012],[19.1181582,46.1620118],[19.1148677,46.1623919],[19.1093911,46.1620171],[19.1022655,46.1623988],[19.0929448,46.1616407],[19.0902065,46.1612638],[19.0814384,46.1593641],[19.0660987,46.1586055],[19.0699288,46.1475604],[19.0633575,46.1475616],[19.0545929,46.1483249],[19.0573295,46.144135],[19.0343186,46.1414698],[19.0288431,46.1460367],[19.0151503,46.1422283],[18.9948899,46.1376531],[18.9554656,46.1292487],[18.9488978,46.1284808],[18.944514,46.1277146],[18.9379489,46.1258057],[18.9324765,46.1258003],[18.9324773,46.1254222],[18.9313795,46.1261772],[18.9308252,46.126939],[18.9302807,46.1273227],[18.9279245,46.1280681],[18.9290183,46.1292096],[18.9312021,46.1334015],[18.9311988,46.1349262],[18.9306429,46.136444],[18.9300934,46.1391085],[18.9300893,46.1410173],[18.9306299,46.1425363],[18.9306291,46.1429206],[18.9317216,46.1448244],[18.9360873,46.1551108],[18.936085,46.1562512],[18.9366266,46.1573983],[18.937178,46.1581549],[18.9377167,46.1608267],[18.9355227,46.1608245],[18.9344315,46.1623419],[18.937709,46.1646321],[18.938262,46.1646326],[18.9382612,46.1650107],[18.9366097,46.1657714],[18.9355142,46.165008],[18.928405,46.1611953],[18.9229253,46.1589025],[18.9218284,46.1589013],[18.9196443,46.1585207],[18.9174495,46.1588963],[18.9158086,46.1588944],[18.9103249,46.1585098],[18.8988206,46.1584953],[18.8873185,46.1577173],[18.8840289,46.1573345],[18.8829332,46.1569486],[18.8823903,46.1565698],[18.8818398,46.1558067],[18.8818525,46.151617],[18.8807739,46.1485662],[18.8796784,46.1481865],[18.8763966,46.1455165],[18.873663,46.144372],[18.8714734,46.143222],[18.8638125,46.1413071],[18.8605254,46.1405394],[18.8572459,46.1401559],[18.8539563,46.1401503],[18.8501214,46.1405217],[18.8457324,46.1412763],[18.8418945,46.1424097],[18.8386137,46.1424037],[18.83752,46.1416455],[18.8364219,46.1420215],[18.8358751,46.1427828],[18.83822,46.1431796],[18.8398606,46.1454696],[18.8403987,46.1469952],[18.8403944,46.1481356],[18.8409368,46.1485146],[18.8409195,46.1530885],[18.8403596,46.1572771],[18.8398128,46.1580323],[18.839804,46.1603192],[18.8392467,46.1614586],[18.8397953,46.1626062],[18.839791,46.1637465],[18.8408733,46.1652732],[18.841422,46.1664145],[18.840322,46.1671749],[18.8392234,46.1675571],[18.8430217,46.1774618],[18.8430159,46.1789865],[18.8441033,46.1816535],[18.8440962,46.1835562],[18.8501262,46.1839449],[18.8517652,46.1847101],[18.8512127,46.1869961],[18.8512044,46.1892831],[18.8517446,46.1904244],[18.8528368,46.1919509],[18.854476,46.1927161],[18.8572232,46.1930988],[18.8681828,46.1927387],[18.87093,46.193121],[18.8709152,46.1976888],[18.8676145,46.1999705],[18.866513,46.2011092],[18.8665105,46.2018715],[18.8659609,46.2033952],[18.865947,46.2075849],[18.8664889,46.2083481],[18.867036,46.2102517],[18.8681226,46.2110157],[18.8692168,46.2121579],[18.8714104,46.2129236],[18.8713968,46.2171133],[18.8719365,46.2186388],[18.8719242,46.2224442],[18.8675403,46.2224373],[18.8669982,46.2216741],[18.8664446,46.2216732],[18.8626132,46.21938],[18.8565965,46.2140399],[18.8538626,46.2121326],[18.8505796,46.2090838],[18.8494844,46.2083196],[18.8467483,46.2071681],[18.8423742,46.2048795],[18.8401799,46.2044912],[18.8385406,46.2037259],[18.8368938,46.2025824],[18.8352545,46.201817],[18.8330619,46.2010506],[18.8314197,46.2010474],[18.8275757,46.2025647],[18.82373,46.2044598],[18.822083,46.2056031],[18.8220751,46.2075058],[18.8226149,46.2086473]]]}}]}