{"type":"FeatureCollection","features":[{"type":"Feature","properties":{"OBJECTID":1851,"ZON_CO_ID":2,"ZON_DS_NOM":"Alella","CAL_DS_NOM":"D.O.Alella","TPR_DS_DES":"Denominación de Origen","TPR_DS_GRU":"CALIDAD DIFERENCIADA","FAM_DS_NOM":"Vinos","classification":"DO","normalizedName":"Alella"},"geometry":{"type":"Polygon","coordinates":[[[2.352725650000025,41.63555580000002],[2.3526690900000062,41.634874249999996],[2.3529629399999976,41.6340773],[2.3528892100000007,41.633333540000024],[2.354995889999998,41.633703260000004],[2.3556211200000234,41.634007139999994],[2.3568852600000127,41.63376800999998],[2.3581627600000274,41.63383433000001],[2.358268989999999,41.6332352],[2.3586135599999807,41.632471880000026],[2.3580603899999915,41.630724240000006],[2.357686940000008,41.630417609999995],[2.3577417299999865,41.629343740000024],[2.3571935800000006,41.62866717000003],[2.356974820000005,41.62820026000003],[2.3572238799999923,41.62700928999999],[2.357405500000027,41.62659567999998],[2.3579562300000134,41.62585874000001],[2.3579294900000036,41.62524782000003],[2.3572698899999978,41.62525163999999],[2.3571269899999834,41.626131569999984],[2.3558466200000225,41.62617340000003],[2.3531959700000016,41.62473978999998],[2.3514498900000262,41.625820610000005],[2.3500069199999984,41.62520377999999],[2.34873484000002,41.62505608999999],[2.3472417500000233,41.62470263],[2.346659690000024,41.62506287999997],[2.3463577300000225,41.625473080000006],[2.346521540000026,41.626725799999974],[2.346460859999979,41.627151749999996],[2.3457811100000185,41.62705742000003],[2.344989269999985,41.62705833000001],[2.3450672499999996,41.62640650999998],[2.3450158499999816,41.62607581999998],[2.3445394400000055,41.62568391000002],[2.3455015900000262,41.623973569999976],[2.3478662100000065,41.62109048000002],[2.3487200199999734,41.61908808999999],[2.3505016299999966,41.616556249999974],[2.355909899999972,41.61898642],[2.3602247200000193,41.61951392999998],[2.3608595700000023,41.619646279999984],[2.3618822700000237,41.61881521999999],[2.363634359999992,41.61535730000003],[2.3697157400000037,41.61073335999998],[2.3720555699999863,41.60915632000001],[2.374090599999988,41.60737746000001],[2.3754444799999987,41.606638780000026],[2.375984379999977,41.60592027000001],[2.3773866899999803,41.60101116999999],[2.3772291299999893,41.599695199999985],[2.376680340000007,41.59929783000001],[2.3761681299999964,41.599051780000025],[2.3755611099999783,41.598243019999984],[2.375446150000016,41.59743818999999],[2.3763697499999807,41.597151810000014],[2.3771529699999974,41.59719609000001],[2.3785462100000245,41.59750882999998],[2.3797206500000243,41.59706661000001],[2.381711180000025,41.59706318999997],[2.3827004699999748,41.59698973000002],[2.382400270000005,41.596409670000014],[2.382110560000001,41.59609918000001],[2.3814034800000172,41.59567326000001],[2.380608300000006,41.59505340999999],[2.378393850000009,41.59510332000002],[2.3750676700000213,41.59534036000002],[2.3784266800000182,41.59362537999999],[2.3789657300000044,41.59405020000003],[2.3796436399999834,41.59398238],[2.3799661900000046,41.59425532],[2.380584370000008,41.59419028999997],[2.3813794399999892,41.59322572000002],[2.383502749999991,41.59323404999998],[2.3850623499999983,41.593097769999986],[2.385915699999998,41.59312068999998],[2.386525640000002,41.59295700000001],[2.3871571000000245,41.59190103999998],[2.3871211599999924,41.59118253999998],[2.387209949999999,41.59080927000002],[2.3878996700000243,41.59016467999999],[2.388144479999994,41.58979307999999],[2.3881406500000253,41.58917208999998],[2.387635799999998,41.587863459999994],[2.387691650000022,41.58695159000001],[2.3880468799999903,41.58617869],[2.388060189999976,41.58533183999998],[2.388204949999988,41.58491092000003],[2.389025100000026,41.58338696999999],[2.3891691200000196,41.58310111999998],[2.3904558799999904,41.58228442000001],[2.390998350000018,41.581169620000026],[2.3920177399999716,41.57987933999999],[2.3927903000000015,41.579942029999984],[2.3930679200000213,41.57967689999998],[2.394435069999986,41.57838823999998],[2.394569390000015,41.57827388999999],[2.3960119899999768,41.57745879999999],[2.399495580000007,41.575530300000025],[2.4055629200000226,41.57941247000002],[2.409610980000025,41.578357289999985],[2.4116433899999947,41.57828835999999],[2.415185029999975,41.5769148],[2.4163083099999767,41.576870740000004],[2.4195892600000093,41.574249029999976],[2.4207247200000097,41.57349316],[2.422819479999987,41.57431233],[2.425024580000013,41.57273162000001],[2.4251242199999865,41.57006221],[2.426705570000024,41.567907830000024],[2.4246204099999886,41.56448661000002],[2.42338792999999,41.563797729999976],[2.425995680000028,41.553591729999994],[2.426141350000023,41.55275661000002],[2.425926199999992,41.54904878999997],[2.424529819999975,41.54825963000002],[2.4231690999999955,41.547180690000005],[2.4184822999999938,41.54544876],[2.4179576000000225,41.54361905000002],[2.4178365099999723,41.543174650000026],[2.4152226200000086,41.54329812999998],[2.4201777200000265,41.534502669999995],[2.421295339999972,41.53239728],[2.4197565499999882,41.53090359999999],[2.4196987000000263,41.53150049999999],[2.4193414499999903,41.53152638],[2.4151820100000236,41.531929960000014],[2.4136016300000165,41.53380507999998],[2.4129447099999766,41.534259210000016],[2.4083250099999987,41.535179400000004],[2.4079964100000097,41.53612214999998],[2.4080390699999725,41.53648923999998],[2.409263590000023,41.537664810000024],[2.409603930000003,41.53815288999999],[2.4093900299999973,41.538604109999994],[2.4088603999999805,41.53857507999999],[2.408413670000016,41.53882120999998],[2.407919839999977,41.53879049],[2.407690940000009,41.53906236],[2.4073552599999744,41.53906017999998],[2.4068644299999846,41.53906533000003],[2.4060819599999945,41.53916523999999],[2.405032329999983,41.538935649999985],[2.404285619999996,41.53888982000001],[2.403526269999986,41.53897962999997],[2.4023366299999793,41.53951282000003],[2.4009066500000245,41.53960719000003],[2.3987278100000253,41.540060900000014],[2.3978086600000097,41.53952801999998],[2.3968156999999906,41.539115630000026],[2.3955147099999863,41.53888877999998],[2.3946523100000263,41.538461229999996],[2.3930634999999825,41.538950090000014],[2.3925063199999954,41.53930938000002],[2.3916350800000146,41.539638430000025],[2.391115130000003,41.53958186],[2.389844690000018,41.53900241000002],[2.3867720499999905,41.538507630000026],[2.38537488999998,41.539140420000024],[2.3828781199999867,41.541103169999985],[2.3806058800000187,41.540147520000005],[2.379864349999991,41.540452389999984],[2.3789684100000272,41.54062945999999],[2.3769735800000262,41.54128118],[2.3759747899999866,41.54036474999998],[2.375431830000025,41.539453949999995],[2.375013519999982,41.53802415000001],[2.3754127400000016,41.537060180000026],[2.3760519900000077,41.53725527],[2.3769188599999893,41.53658445000002],[2.3783943999999906,41.53574103],[2.3789270799999827,41.53465375000002],[2.3782050699999786,41.534183480000024],[2.378741439999999,41.533429119999994],[2.3789510999999948,41.532780109999976],[2.3794396999999776,41.53217202000002],[2.379521029999978,41.531853119999994],[2.3789348299999915,41.53099838000003],[2.3788185099999737,41.53060771999998],[2.379129589999991,41.530025980000005],[2.3798792499999877,41.52909956000002],[2.380251450000003,41.52882102000001],[2.380019530000027,41.52819273],[2.3815574700000184,41.52795851000002],[2.3818670200000156,41.52735882000002],[2.382630039999981,41.52644977],[2.383923299999992,41.52572286999998],[2.3850009999999884,41.52470899000002],[2.3854880000000094,41.524371040000005],[2.385834779999982,41.522779309999976],[2.38652012,41.52165781999997],[2.387845289999973,41.52016416999999],[2.389291949999972,41.51883584000001],[2.3904723900000135,41.51819518999997],[2.391024189999996,41.517773139999974],[2.391366430000005,41.51727992000002],[2.391684010000006,41.51620269],[2.389063599999986,41.51565969000001],[2.387433509999994,41.51507011000001],[2.384766930000012,41.51497929999999],[2.3835663899999986,41.51451352999999],[2.3828251799999975,41.514530320000006],[2.3825306400000272,41.514445120000005],[2.3821347200000105,41.51386052999999],[2.381327180000028,41.51351132999997],[2.380898469999977,41.51296429000001],[2.380256480000014,41.5125893],[2.3799798599999917,41.512431230000004],[2.378062909999983,41.51126980999999],[2.3771957499999985,41.51106741000001],[2.3757747099999733,41.510107749999975],[2.374444600000004,41.50952192],[2.3731771700000195,41.508825100000024],[2.372234789999993,41.50843714000001],[2.371623549999981,41.50770956000002],[2.370522610000023,41.50641975000002],[2.370363989999987,41.50566196],[2.369881009999972,41.50503638999999],[2.369865559999994,41.50427189999999],[2.3689412100000027,41.50366699],[2.368225499999994,41.50355645000002],[2.367931849999991,41.50319209000003],[2.367389839999987,41.503154429999995],[2.3663439700000026,41.50267222000002],[2.365620289999981,41.50188684],[2.368006610000009,41.50004670999999],[2.373022540000022,41.49670594999998],[2.3736911799999802,41.496971710000025],[2.3747165400000085,41.49547423000001],[2.3759624699999904,41.49418247],[2.3761939699999743,41.49394244000001],[2.376144409999995,41.49392187000001],[2.3760072599999944,41.49385626999998],[2.3758715899999743,41.49380861999998],[2.3757135600000083,41.493780019999974],[2.375577899999996,41.493732360000024],[2.375451940000005,41.493657240000005],[2.3753654700000197,41.49362528],[2.3752931600000124,41.49361966999999],[2.3752461999999923,41.493630870000004],[2.3751232100000266,41.493591630000026],[2.3750725300000113,41.49355799],[2.374915240000007,41.49353836],[2.3747683999999936,41.493500229999995],[2.374621549999972,41.49346209999999],[2.374473959999989,41.49341500000003],[2.374337560000015,41.49335837000001],[2.374179529999992,41.49332977],[2.3740446200000065,41.493291080000006],[2.373897769999985,41.49325293999999],[2.37375166999999,41.493223779999994],[2.373605569999995,41.49319462],[2.3734587299999816,41.49315647999998],[2.373311880000017,41.493118349999975],[2.3731866699999955,41.49305220000002],[2.373061450000023,41.492986040000005],[2.3729362299999934,41.492919889999996],[2.3728005699999812,41.49287222999999],[2.3726753500000086,41.49280607999998],[2.372538210000016,41.49274048000001],[2.3723913700000026,41.49270235],[2.372244529999989,41.49266420999999],[2.372134210000013,41.49263337000002],[2.372019430000023,41.49254872],[2.3718942200000015,41.492482559999985],[2.37178093,41.492415849999986],[2.371643039999981,41.49234129000001],[2.371517830000016,41.492275129999996],[2.3714030500000263,41.49219047999998],[2.371300949999977,41.49211423999998],[2.371174989999986,41.49203911000001],[2.3710609600000225,41.49196343],[2.370935750000001,41.49189726999998],[2.37080979000001,41.49182215000002],[2.3706838300000186,41.49174701999999],[2.3705593600000157,41.491689829999984],[2.370434149999994,41.491623670000024],[2.3703089399999726,41.49155751000001],[2.3702060900000106,41.4914723],[2.370102499999973,41.49137811999998],[2.3700756800000136,41.49134336999998],[2.370080920000021,41.49126209999997],[2.3701010600000245,41.491216140000006],[2.370098089999999,41.49118026999997],[2.3699728799999775,41.49111411000001],[2.369835739999985,41.491048509999985],[2.369760460000009,41.491007019999984],[2.36967549000002,41.490992989999995],[2.3696158500000024,41.49099579],[2.3694913799999995,41.490938589999985],[2.369365430000016,41.49086347000002],[2.3693274199999905,41.490838240000016],[2.3692939100000103,41.49072276999999],[2.3692872299999976,41.49064206000003],[2.369258919999993,41.49058937000001],[2.3691806699999916,41.490512009999975],[2.369043540000007,41.490446410000004],[2.368907139999976,41.49038976999998],[2.368771489999972,41.49034210000002],[2.3686239099999966,41.490295],[2.3684882599999924,41.49024732999999],[2.368340690000025,41.49020022000002],[2.3682050400000207,41.490152550000005],[2.368058200000007,41.49011440999999],[2.3679113700000016,41.490076269999975],[2.367752610000025,41.49003868],[2.3676176999999825,41.48999997999999],[2.367470869999977,41.48996183999998],[2.367334470000003,41.48990521000002],[2.3671868999999788,41.489858089999984],[2.3670512499999745,41.48981042999998],[2.366915600000027,41.48976276000002],[2.3667687700000215,41.489724609999996],[2.3666443000000186,41.48966741999999],[2.3665086600000222,41.489619749999974],[2.3663603400000284,41.489563669999995],[2.366224690000024,41.48951599999998],[2.3660659299999907,41.489478410000004],[2.366005560000019,41.48947222999999],[2.3659243000000174,41.48950303999999],[2.365878070000008,41.489523210000016],[2.36585045999999,41.48962353000002],[2.365856399999984,41.48969527000003],[2.365884699999981,41.489747969999996],[2.3659987199999932,41.48982366000001],[2.3661105200000065,41.48987244],[2.3662566099999935,41.48990162000001],[2.366403439999999,41.48993976000003],[2.3665502800000127,41.48997790999999],[2.366685920000009,41.49002558000001],[2.366822319999983,41.490082210000025],[2.3669691499999885,41.49012035999999],[2.367104799999993,41.49016803000001],[2.3672516299999984,41.49020617000002],[2.3673977199999854,41.49023534000003],[2.3675333699999896,41.490283009999985],[2.367669019999994,41.49033068],[2.3678054200000247,41.490387320000025],[2.367941069999972,41.490434979999975],[2.3680886500000042,41.49048209],[2.3682362199999716,41.490529200000026],[2.368371869999976,41.490576869999984],[2.3685179700000276,41.49060603999999],[2.368665550000003,41.490653150000014],[2.368801200000007,41.49070081999997],[2.3688265399999864,41.490717640000014],[2.3688190699999723,41.49077199999999],[2.368748939999989,41.49093733000001],[2.3686989600000175,41.49105671000001],[2.368635569999981,41.49115870000003],[2.368596029999992,41.49125958000002],[2.3685639600000172,41.491306099999974],[2.36851101000002,41.49138959999999],[2.368490129999998,41.49142659],[2.368329879999976,41.491371070000014],[2.368292610000026,41.49135481000002],[2.3682553500000267,41.49133855000002],[2.3683075499999973,41.491246079999996],[2.368392570000026,41.491116060000024],[2.3684656699999778,41.490986599999985],[2.368517880000013,41.490894130000015],[2.36854993999998,41.49084762000001],[2.3685007500000097,41.490831920000005],[2.3684523000000013,41.49082518],[2.368432900000016,41.49088010000003],[2.368401580000011,41.49093558999999],[2.3683501099999944,41.49103702000002],[2.3682971599999973,41.49112052999999],[2.3682240699999966,41.49124998000002],[2.3681815599999823,41.49131498999998],[2.368107020000025,41.49128246999999],[2.3680451600000083,41.49125835000001],[2.3679713700000207,41.49123479999997],[2.368023579999999,41.49114233],[2.3680757899999776,41.491049859999976],[2.368139929999984,41.490956830000016],[2.3681913899999927,41.49085539999999],[2.368255529999999,41.49076237000003],[2.368218259999992,41.490746109999975],[2.3681809999999928,41.49072984999998],[2.3681071600000223,41.49085034000001],[2.3680661399999963,41.49093327999998],[2.3680146699999796,41.491034720000016],[2.3679617199999825,41.491118219999976],[2.3679303900000264,41.49117369999999],[2.367909510000004,41.49121069],[2.3677865299999894,41.49117143000001],[2.367700070000012,41.49113946],[2.3675890100000174,41.491099650000024],[2.367641219999996,41.49100718],[2.3677031299999953,41.490887250000014],[2.367744899999991,41.49081326999999],[2.3678187300000104,41.49069278000002],[2.367849320000005,41.49062832999999],[2.3678128000000243,41.49062104000001],[2.367776269999979,41.49061375000002],[2.3677136200000177,41.490724709999995],[2.3676412699999787,41.49086312999998],[2.3675987600000212,41.490928139999994],[2.3675353599999767,41.49103014000002],[2.367503290000002,41.491076650000025],[2.367429510000022,41.49105309999999],[2.3673065199999996,41.491013839999994],[2.367244659999983,41.490989720000016],[2.367195470000013,41.49097402000001],[2.3672253099999807,41.490900599999975],[2.367289449999987,41.49080758000002],[2.367352100000005,41.490696609999986],[2.367414750000023,41.490585650000014],[2.36746770000002,41.49050215],[2.3674311799999828,41.490494850000005],[2.3673939199999836,41.49047859000001],[2.367330519999996,41.49058058999998],[2.367245500000024,41.4907106],[2.367193289999989,41.49080307000003],[2.3671507799999745,41.490868079999984],[2.3670970800000077,41.49094260999999],[2.3670121100000188,41.49092858],[2.3669003100000054,41.490879800000016],[2.36684587000002,41.49094536000001],[2.3667586700000243,41.49090443],[2.3667899999999804,41.490848949999986],[2.3667400599999837,41.49082428000003],[2.3666416799999865,41.49079287000001],[2.3666044099999795,41.49077661000001],[2.3666006999999922,41.490731770000025],[2.366652170000009,41.49063032999999],[2.3666723100000127,41.49058437999997],[2.366740909999976,41.49054516000001],[2.366846759999987,41.49052219999999],[2.366892240000027,41.490493060000006],[2.3669011999999725,41.49045662999998],[2.366882589999989,41.49037648000001],[2.3668557699999724,41.49034172],[2.3667096799999854,41.49031255],[2.366564330000017,41.490292339999996],[2.3665158800000086,41.49028559999999],[2.3664704500000084,41.49017070000002],[2.3664682200000016,41.49014378999999],[2.3663325699999973,41.490096119999976],[2.366260269999998,41.49009050000001],[2.3661350599999764,41.49002433999999],[2.3660970600000155,41.489999109999985],[2.3660240099999896,41.48998452000001],[2.3658838599999967,41.49002709000001],[2.3657302899999877,41.490052279999986],[2.365575990000025,41.49006850000001],[2.365420200000017,41.49006678000001],[2.3652770699999905,41.49007347000003],[2.3651212799999826,41.49007175999998],[2.364966229999993,41.49007900999999],[2.364810439999985,41.49007728999999],[2.3646561300000144,41.49009351000001],[2.3645965000000047,41.490096300000005],[2.3644712400000003,41.49017418],[2.3644138299999895,41.490203870000016],[2.3643549399999984,41.49021563000002],[2.3642081099999928,41.49017748],[2.3640605300000175,41.490130369999974],[2.363924880000013,41.490082700000016],[2.363777309999989,41.49003557999998],[2.3636424100000113,41.48999687999998],[2.3634955699999978,41.48995873000001],[2.363348739999992,41.48992057999999],[2.363212350000026,41.48986394000002],[2.3630759600000033,41.489807299999995],[2.3629291299999977,41.48976914999997],[2.362782299999992,41.489731000000006],[2.362645919999977,41.48967435999998],[2.362509530000011,41.489617710000005],[2.3623731399999883,41.48956106999998],[2.3622486799999933,41.48950387000002],[2.3621115500000087,41.489438259999986],[2.3619759100000124,41.48939059000003],[2.361840260000008,41.489342910000005],[2.3617150599999945,41.48927673999998],[2.361601790000009,41.48921001000002],[2.3615377099999932,41.48915899000002],[2.361522069999978,41.489114710000024],[2.361539989999983,41.48904184999998],[2.361524359999976,41.48899756999998],[2.3614729399999987,41.48895496],[2.3613253699999746,41.488907840000024],[2.3611792899999955,41.48887866000001],[2.361095060000025,41.488873590000026],[2.361036160000026,41.488885349999975],[2.3609690499999942,41.48894250000001],[2.3609272799999985,41.489016470000024],[2.3608825399999773,41.48905457000001],[2.3607632700000067,41.48906015],[2.3606790399999795,41.489055080000014],[2.3605426600000214,41.48899843999999],[2.3604182000000264,41.48894123000002],[2.360271370000021,41.48890308],[2.3601357300000245,41.48885539999998],[2.3599896399999807,41.48882622000002],[2.359842809999975,41.48878807],[2.359684800000025,41.488759440000024],[2.359623689999978,41.48874429],[2.359470120000026,41.48876947000002],[2.3594231600000057,41.48878066999998],[2.35927633,41.48874251000001],[2.359128759999976,41.488695389999975],[2.3589931199999796,41.48864771000001],[2.3588574799999833,41.488600029999986],[2.3587106499999777,41.48856188000002],[2.3585630800000104,41.48851475999999],[2.358415519999994,41.48846764000001],[2.358269430000007,41.48843844999999],[2.35811142,41.488409820000015],[2.3579645899999946,41.488371659999984],[2.357817769999997,41.48833351000002],[2.3576709399999913,41.48829534999999],[2.3575360500000215,41.488256639999975],[2.3573884799999973,41.48820952],[2.357240909999973,41.488162390000014],[2.357105269999977,41.48811470999999],[2.3569689000000267,41.488058060000014],[2.3568213300000025,41.48801093999998],[2.356685690000006,41.48796325000001],[2.3565269399999806,41.48792565000002],[2.356380119999983,41.4878875],[2.3562332899999774,41.487849340000025],[2.3560984000000076,41.487810620000005],[2.3559500900000216,41.48775453000002],[2.3558144500000253,41.487706849999995],[2.3556564500000263,41.48767821000001],[2.3555103599999825,41.48764901999999],[2.3553754700000127,41.48761030999998],[2.355289760000005,41.48758729999997],[2.3552271600000267,41.487554209999985],[2.3550907900000198,41.48749756000001],[2.354977519999977,41.487430829999994],[2.354841889999989,41.48738314000002],[2.3547062499999925,41.48733546],[2.354607880000003,41.487304040000026],[2.3545698699999775,41.48727881000002],[2.3545535000000086,41.487225550000005],[2.3545923199999947,41.48711571000001],[2.354631139999981,41.48700587000002],[2.3546393699999726,41.486960469999985],[2.3546118099999944,41.48691674000003],[2.3545507000000043,41.48690159],[2.354478400000005,41.48689596000003],[2.3544202499999756,41.48691667999998],[2.354354609999973,41.486991769999975],[2.3543031300000052,41.487093200000004],[2.354272530000003,41.48715764999997],[2.354250900000011,41.48718566000002],[2.354092890000004,41.48715702999999],[2.3539579999999773,41.48711831000003],[2.353822359999981,41.48707062],[2.3536755399999834,41.48703246000002],[2.3535294600000043,41.48700327],[2.353381899999988,41.48695614000002],[2.3532462699999996,41.486908459999995],[2.3531098899999847,41.48685180000001],[2.3529854500000056,41.48679458999999],[2.3528490699999907,41.486737930000004],[2.3527126999999837,41.48668128000003],[2.3525882499999966,41.486624070000005],[2.3524406899999803,41.48657694000002],[2.3522946100000013,41.48654773999999],[2.352137350000021,41.48652807000002],[2.351991269999985,41.48649888],[2.3518444499999873,41.48646071000002],[2.351708819999999,41.486413029999994],[2.3515739299999723,41.48637430000002],[2.351426370000013,41.48632716999998],[2.351280289999977,41.48629798000002],[2.351134220000006,41.48626877999999],[2.3509866599999896,41.486221650000005],[2.350839839999992,41.48618348000002],[2.350777989999983,41.48615935999999],[2.350675179999996,41.48607413000002],[2.3506483699999876,41.486039370000015],[2.350676739999983,41.48594802000002],[2.3507401599999866,41.485846030000005],[2.350815510000018,41.485743490000004],[2.3508572900000217,41.48566951999999],[2.350862559999996,41.48558824999998],[2.350843970000028,41.485508089999996],[2.3507754600000226,41.48540326],[2.350695760000008,41.485307939999984],[2.350616070000001,41.48521262999998],[2.350524440000015,41.48511788000002],[2.3504328199999804,41.485023119999994],[2.350382159999981,41.484989470000016],[2.3502957100000117,41.48495749],[2.350236080000002,41.484960279999996],[2.350178669999991,41.48498996000001],[2.3501465900000085,41.48503647000001],[2.3501390999999785,41.48509084],[2.350195690000021,41.485196229999985],[2.350275380000028,41.48529153999999],[2.3503789299999767,41.48538574000003],[2.350431080000021,41.48543732000002],[2.3504467000000204,41.48548161000002],[2.350416110000026,41.48554604999998],[2.3503385399999956,41.485621690000016],[2.350281129999985,41.48565137999998],[2.3501275699999837,41.485676549999994],[2.349973260000013,41.48569273999999],[2.3498301500000025,41.48569942],[2.349675839999975,41.48571562000001],[2.3495207999999934,41.48572285],[2.349375469999984,41.485702619999984],[2.3492301300000236,41.48568239000002],[2.349083310000026,41.48564421999998],[2.348937239999998,41.48561502000001],[2.348791160000019,41.48558581999998],[2.3486458300000095,41.48556559000002],[2.3484997499999736,41.48553638999999],[2.3483417499999746,41.48550775000001],[2.3481956800000034,41.48547854999998],[2.3481107100000145,41.48546449999998],[2.347984789999998,41.48538934999999],[2.347860350000019,41.48533213000002],[2.34772399000002,41.485275469999976],[2.347577909999984,41.485246270000005],[2.3474310999999943,41.48520810000002],[2.3472842900000046,41.485169929999984],[2.347137470000007,41.48513176],[2.3470025899999882,41.48509302999997],[2.34685503999998,41.48504589999999],[2.3467313400000194,41.484997650000025],[2.3465914299999895,41.48495294999998],[2.346583780000003,41.484950509999976],[2.346437709999975,41.484921299999996],[2.3462908999999854,41.484883130000014],[2.3461440899999957,41.484844959999975],[2.3459965399999874,41.48479781999998],[2.3458497199999897,41.48475965],[2.345714840000028,41.48472091999997],[2.345578479999972,41.48466425999999],[2.3454309300000205,41.484617119999996],[2.345295299999975,41.484569420000014],[2.3451477500000237,41.48452228000002],[2.3450136100000236,41.48449252],[2.344866799999977,41.48445435000002],[2.3447199899999873,41.48441617999998],[2.3445731799999976,41.48437799999999],[2.3444271000000185,41.48434880000002],[2.344280289999972,41.484310619999974],[2.3441334799999822,41.48427244999999],[2.343987410000011,41.48424324000001],[2.3438406000000214,41.48420506999997],[2.3437057200000027,41.48416634],[2.343558910000013,41.48412816000001],[2.3434113600000046,41.48408102000002],[2.343276479999986,41.48404228999999],[2.3431289299999776,41.48399515],[2.3429828600000064,41.48396594000002],[2.3428367999999864,41.48393672999998],[2.3426907300000153,41.48390753000001],[2.3425558399999886,41.483868789999974],[2.3424082999999882,41.48382164999998],[2.3422614899999985,41.48378346999999],[2.34212660999998,41.48374474000002],[2.34197979999999,41.48370655999997],[2.3418940999999904,41.48368355000002],[2.3417398000000276,41.48369974000002],[2.341692099999989,41.48370196000002],[2.3416429100000187,41.48368624],[2.341614629999981,41.48363354000003],[2.3414902000000097,41.48357632],[2.3413426500000014,41.48352917],[2.3411958500000196,41.48349099000001],[2.3410505200000102,41.48347074999998],[2.3409044499999823,41.48344154],[2.340758380000011,41.48341233000002],[2.340612309999983,41.483383119999985],[2.34046625000002,41.483353910000005],[2.3403194399999734,41.483315730000015],[2.340174110000021,41.48329548999999],[2.340016119999973,41.48326682999999],[2.339870050000002,41.48323762000001],[2.33972325000002,41.48319944000002],[2.339577179999992,41.483170229999985],[2.339431110000021,41.483141020000005],[2.339285050000001,41.483111810000025],[2.339138979999973,41.48308258999998],[2.338992179999991,41.48304440999999],[2.33884611000002,41.48301520000001],[2.33870005,41.482985989999975],[2.33855324000001,41.482947809999985],[2.3384064400000284,41.482909629999995],[2.3382603700000004,41.48288041000001],[2.3381143099999804,41.48285120000003],[2.3379682400000092,41.48282197999998],[2.337822179999989,41.48279277],[2.3376753699999995,41.48275459000001],[2.3375173800000084,41.482725930000015],[2.3373832400000083,41.48269615999999],[2.3372252500000172,41.48266749999999],[2.3371641499999782,41.482652340000016],[2.337011319999988,41.48268645000002],[2.336892799999987,41.482700969999996],[2.336819769999977,41.48268636],[2.3366953400000057,41.48262913000002],[2.3365478000000053,41.48258198000002],[2.336412189999976,41.482534269999974],[2.3362661200000048,41.482505059999994],[2.336107389999995,41.482467429999986],[2.3359620699999937,41.48244718000001],[2.3358167399999843,41.482426929999974],[2.3356699400000025,41.482388749999984],[2.3355231400000207,41.482350559999986],[2.3353778100000113,41.48233031000001],[2.3352317499999913,41.48230109000002],[2.335085690000028,41.482271879999985],[2.334939630000008,41.48224266],[2.33479355999998,41.48221344000001],[2.3346363100000076,41.482193740000014],[2.334490990000006,41.48217348999998],[2.334344919999978,41.48214428],[2.334186939999995,41.482115609999994],[2.3340416099999857,41.48209536000002],[2.3338955500000225,41.48206613999997],[2.3337494900000024,41.482036919999985],[2.3336034199999744,41.4820077],[2.3334573600000112,41.48197848000001],[2.3333105599999726,41.48194029000001],[2.33317495,41.48189258000002],[2.3330281500000183,41.481854390000024],[2.3328820899999982,41.48182516999998],[2.332745740000007,41.48176848999998],[2.3325989499999764,41.48173029999998],[2.332452890000013,41.48170107999999],[2.3323068199999852,41.481671860000006],[2.3321600300000114,41.48163367000001],[2.3320139699999913,41.48160445000002],[2.331868639999982,41.481584199999986],[2.331710659999999,41.48155552999998],[2.3315772600000173,41.48153472000001],[2.3314334099999883,41.48153239999999],[2.331325339999978,41.48152842000002],[2.331179280000015,41.48149919999997],[2.3310220299999855,41.48147949999998],[2.3308752300000037,41.48144130999998],[2.330728439999973,41.48140311999998],[2.33058238000001,41.481373889999986],[2.3304370600000084,41.48135364000001],[2.3302909999999883,41.48132441000001],[2.3301442000000065,41.481286220000015],[2.330008589999977,41.48123850000002],[2.329862530000014,41.48120927999997],[2.329716469999994,41.481180059999986],[2.329558490000011,41.48115137999997],[2.32942362,41.48111263999999],[2.3292782999999986,41.48109238000001],[2.329121050000026,41.48107268000001],[2.3289742599999954,41.481034480000005],[2.3288885599999958,41.48101145999999],[2.3288379100000043,41.480977800000005],[2.328796979999993,41.48091668000001],[2.3287202600000114,41.48085722000002],[2.328596590000018,41.48080894999998],[2.328450529999998,41.480779729999995],[2.328303730000016,41.48074152999999],[2.3281584100000146,41.480721270000004],[2.328011619999984,41.480683080000006],[2.3278655600000207,41.48065385000001],[2.3277195100000085,41.480624620000015],[2.3275727100000267,41.48058643000002],[2.3274266500000067,41.48055720000002],[2.327291790000004,41.48051844999998],[2.327144990000022,41.48048025000003],[2.3269981999999914,41.48044205999997],[2.3268514100000175,41.480403860000024],[2.3267165400000067,41.48036510999998],[2.326569749999976,41.480326909999974],[2.326423690000013,41.48029767999998],[2.326276899999982,41.48025947999997],[2.3261420399999793,41.480220729999985],[2.3259952399999975,41.48018252999998],[2.3258491899999854,41.480153299999984],[2.325703130000022,41.48012406999999],[2.325555609999981,41.48007690999998],[2.3254095500000176,41.480047669999976],[2.325262759999987,41.48000947999998],[2.3251167099999748,41.479980239999975],[2.3249706500000116,41.47995100999998],[2.3248357900000087,41.47991225999999],[2.3246778100000256,41.47988357999998],[2.324532490000024,41.47986331999999],[2.3244117599999754,41.47985091999999],[2.3242768900000215,41.479812159999994],[2.32412936999998,41.47976498999998],[2.323983310000017,41.47973575999998],[2.323836519999986,41.47969755999998],[2.3236897300000123,41.47965936000003],[2.3235548700000095,41.479620599999976],[2.3234088199999974,41.47959136999998],[2.3232508400000143,41.47956269000002],[2.323104790000002,41.47953346000003],[2.3229580000000283,41.479495250000014],[2.3228231300000175,41.479456500000026],[2.322687540000004,41.47940877000002],[2.3225519399999826,41.47936105000002],[2.32240440999999,41.47931388000001],[2.3222688199999766,41.47926615],[2.3221324799999934,41.47920945999999],[2.3220073400000274,41.479143239999985],[2.321893380000006,41.47906750999999],[2.3217794299999923,41.47899176999999],[2.321716120000019,41.47894968999998],[2.3215812600000163,41.478910929999984],[2.321424019999995,41.47889121999998],[2.321339070000022,41.47887715000002],[2.3212146600000096,41.47881991000003],[2.321089519999987,41.47875369000002],[2.320964380000021,41.47868747000001],[2.3208384999999794,41.47861229],[2.3207252899999844,41.47854552000001],[2.3206001500000184,41.478479300000004],[2.3204749999999876,41.478413079999996],[2.3204474799999844,41.47836933999997],[2.3203223400000184,41.47830312999997],[2.3201860099999863,41.47824643000001],[2.320049680000011,41.47818973],[2.319913349999979,41.47813303999999],[2.3197770200000036,41.47807633999997],[2.3196399500000098,41.47801067],[2.319514809999987,41.47794446],[2.319377750000001,41.47787878999998],[2.3192414200000258,41.47782209000002],[2.3191170200000215,41.47776484000002],[2.3189799500000277,41.47769918],[2.3188548200000128,41.477632959999994],[2.31872967999999,41.477566739999986],[2.3185933500000147,41.47751004000003],[2.3184570199999825,41.47745334000001],[2.3183318900000245,41.47738712],[2.3182067500000016,41.477320899999995],[2.318081609999979,41.47725467999999],[2.317955740000002,41.477179490000026],[2.3178417999999965,41.477103750000026],[2.3177166599999737,41.47703753000002],[2.317602720000025,41.47696178000001],[2.3174649200000204,41.47688714999998],[2.3173517100000254,41.476820369999984],[2.3172377700000197,41.476744629999985],[2.317123820000006,41.476668889999985],[2.3170851099999936,41.47663467000001],[2.3170643600000176,41.4765276],[2.3170562700000232,41.476428940000005],[2.317012410000018,41.476331949999974],[2.316943970000011,41.47622709000001],[2.3168755199999964,41.47612222999999],[2.3167839600000093,41.476027439999996],[2.316681200000005,41.475942180000004],[2.3165553399999794,41.475866989999986],[2.3164302100000214,41.47580076000003],[2.31628268999998,41.47575358],[2.3161351800000034,41.47570639999998],[2.3159884099999886,41.47566819000002],[2.315840890000004,41.47562101],[2.3157053099999985,41.47557327999999],[2.315569719999985,41.47552553999998],[2.315422950000027,41.47548733000002],[2.3152754299999856,41.47544015],[2.3151286600000276,41.47540193999998],[2.3149833499999772,41.47538165999998],[2.3148358400000006,41.475334480000015],[2.3146897999999965,41.47530524000001],[2.3145437599999923,41.47527599],[2.314397719999988,41.47524675],[2.314250940000022,41.47520853999998],[2.314104900000018,41.47517929000003],[2.3139581199999952,41.475141080000014],[2.313812079999991,41.47511183],[2.313654120000024,41.47508313999998],[2.3135080800000196,41.47505389000003],[2.313361299999997,41.47501568000001],[2.3132532399999945,41.47501168000002],[2.3131943500000034,41.475023410000006],[2.313115279999977,41.47508109],[2.3130608000000166,41.47514662999998],[2.313033099999984,41.475246949999985],[2.3130270500000165,41.475319249999984],[2.3130553099999815,41.47537195000001],[2.3131193400000143,41.47542299999998],[2.3132556599999816,41.47547971],[2.3133406100000116,41.47549378000002],[2.313447940000003,41.47548881],[2.3135187500000143,41.47547651999997],[2.313564250000013,41.475447410000015],[2.3137475400000085,41.47549292999997],[2.3139062399999943,41.47553060000001],[2.314053010000009,41.47556881000003],[2.3142363000000046,41.475614329999985],[2.314370419999989,41.47564412999998],[2.314492610000002,41.47567448000001],[2.314627459999997,41.47571325000001],[2.3147980900000107,41.47575035],[2.314920280000024,41.47578069999997],[2.3151035700000193,41.475826229999996],[2.3152257599999757,41.47585658000003],[2.315359139999998,41.4758774],[2.315493989999993,41.475916170000005],[2.315701869999998,41.47596955],[2.315848640000013,41.476007770000024],[2.315971569999988,41.47604708],[2.3160594600000195,41.476097030000005],[2.316195779999987,41.47615373000002],[2.3162717399999906,41.47620422],[2.316374489999987,41.47628949],[2.316477980000002,41.47638372],[2.3165211099999965,41.47647174999997],[2.3165657000000124,41.47657772000002],[2.316587179999999,41.47669375999999],[2.3165967400000227,41.476810349999994],[2.3165950999999723,41.47693645999999],[2.316613640000014,41.47701662999998],[2.3166239299999916,41.477142189999995],[2.3166468900000154,41.47727616999998],[2.3166401099999803,41.47733950000003],[2.3166414099999884,41.47750149000001],[2.3166383099999734,41.477609659999985],[2.316641249999975,41.477645540000026],[2.3165592400000037,41.47766733999998],[2.316404939999984,41.47768350000001],[2.3162499100000105,41.47769068000002],[2.3161060699999894,41.477688339999986],[2.3160225899999887,41.47769220999999],[2.3158765399999766,41.47766296999998],[2.3157185700000014,41.47763428000002],[2.315572529999997,41.47760503000001],[2.315426479999985,41.47757579],[2.315292360000001,41.47754600000002],[2.3151343900000256,41.47751729999999],[2.314987599999995,41.477479089999974],[2.314914579999993,41.47746446999997],[2.314963920000025,41.477336149999985],[2.314993080000022,41.477253770000004],[2.3150349100000085,41.477179809999996],[2.31513252000002,41.47720229999999],[2.3152547099999765,41.47723265000002],[2.3154007599999886,41.47726189000002],[2.3155475400000114,41.47730009999998],[2.3156935800000156,41.47732933999998],[2.3158284400000184,41.477368109999986],[2.315961819999984,41.477388940000026],[2.3160102599999846,41.47739568999998],[2.3160431000000017,41.477358159999994],[2.315981270000009,41.47733402],[2.3158836599999972,41.47731153000001],[2.315749540000013,41.47728174000002],[2.3157011000000125,41.477274980000004],[2.3156392700000197,41.47725084000001],[2.3154812999999876,41.47722214999999],[2.315310669999974,41.477185039999995],[2.315175810000028,41.47714626999999],[2.3151154500000075,41.47714007000002],[2.3150543500000254,41.47712489000003],[2.315082039999993,41.47702457999998],[2.3151112099999978,41.476942210000004],[2.315153759999987,41.476877220000006],[2.31532365999999,41.47690534999998],[2.315470440000013,41.47694357],[2.315616490000025,41.47697281000001],[2.3157640000000015,41.477019989999974],[2.315897380000024,41.47704082000001],[2.3159830700000157,41.47706384999998],[2.316013699999985,41.47699942000003],[2.315952600000003,41.47698423999998],[2.3158311400000002,41.476962860000015],[2.315720870000007,41.47693196],[2.315562170000021,41.476894300000026],[2.31542804999998,41.476864509999984],[2.3153177799999867,41.47683360000002],[2.3152328300000136,41.47681954000001],[2.3151717399999825,41.47680436000002],[2.315223279999998,41.476702939999996],[2.315275559999975,41.476610489999985],[2.315324729999986,41.476626220000014],[2.315410410000027,41.47664925999999],[2.315568380000002,41.47667795000001],[2.3157270899999958,41.476715609999985],[2.315837359999989,41.47674651],[2.3159349599999928,41.47676898999998],[2.315958079999973,41.47675892000001],[2.3159685300000206,41.47674043000001],[2.3159782600000085,41.476712969999994],[2.315868720000026,41.47669103999999],[2.3157212099999924,41.476643860000024],[2.315587090000008,41.476614059999974],[2.3154283900000223,41.4765764],[2.315318849999983,41.476554469999996],[2.315327840000009,41.476518039999974],[2.3153696599999876,41.47644408000002],[2.315272049999976,41.47642159999998],[2.3151625200000012,41.47639966999998],[2.315143809999995,41.476463550000005],[2.315112450000015,41.47651902000001],[2.315037949999976,41.47648645999999],[2.3148919099999716,41.476457219999986],[2.3147451300000057,41.47641900999997],[2.3145990900000015,41.47638976000002],[2.3145260699999994,41.476375140000016],[2.314515610000001,41.47639363000002],[2.3145066199999746,41.476430059999984],[2.3146295500000065,41.476469380000026],[2.31473982,41.47650027999998],[2.314897789999975,41.476528970000004],[2.315008789999979,41.47656884000003],[2.315081809999981,41.47658345999997],[2.315072090000001,41.476610919999985],[2.315052649999984,41.47666584000001],[2.3150346799999966,41.47673868999999],[2.3150130299999887,41.476766699999985],[2.3148550600000135,41.47673801000002],[2.314659849999998,41.47669303999999],[2.3145011400000044,41.47665538000001],[2.314390870000011,41.47662448],[2.3142813399999795,41.47660253999999],[2.3142596899999717,41.47663055999999],[2.3142380499999717,41.476658569999984],[2.314372170000013,41.476688360000026],[2.3144705099999783,41.47671982000003],[2.3145926999999915,41.47675017],[2.3147752599999762,41.47678672000001],[2.3149093800000173,41.47681652],[2.3149824000000194,41.47683114],[2.3149614899999733,41.476868120000006],[2.3149337899999978,41.47696843],[2.314914349999981,41.477023350000024],[2.3148160100000155,41.47699189999997],[2.3146699600000034,41.47696265000002],[2.3145112600000175,41.476924989999986],[2.3143764000000147,41.47688622999999],[2.3142065100000195,41.47685809000001],[2.3140478000000257,41.476820429999975],[2.3139256100000125,41.47679008],[2.313816079999981,41.47676813999999],[2.313718470000026,41.476745660000006],[2.31370948,41.47678208000002],[2.31369976000002,41.47680953999998],[2.3138100300000133,41.47684043999999],[2.3139560700000175,41.47686969],[2.3141028499999834,41.476907900000015],[2.3142377099999862,41.47694667000002],[2.3144075999999814,41.47697481],[2.3145298000000025,41.477005159999976],[2.3146519900000158,41.47703551000001],[2.314798040000028,41.47706475000001],[2.3148837200000116,41.477087789999985],[2.314844830000027,41.47719762000003],[2.3148127300000283,41.47724412000002],[2.3147835699999746,41.477326500000004],[2.314785040000004,41.477344440000024],[2.3147648600000252,41.477390379999974],[2.3147566100000176,41.47743578000001],[2.3145122199999832,41.47737508],[2.3144265399999995,41.47735204000003],[2.314305079999997,41.47733066000001],[2.3141344399999753,41.47729355000001],[2.3139757399999894,41.47725588999998],[2.313792449999994,41.47721037000002],[2.3137186899999733,41.47718678000001],[2.3135719100000074,41.47714855999999],[2.3134251299999846,41.477110349999975],[2.3132790799999725,41.47708110000002],[2.31324257,41.47707379000002],[2.313238169999977,41.47701998000002],[2.3132486200000244,41.47700149000002],[2.3132225699999935,41.47697569000002],[2.3131137699999726,41.47696272000002],[2.3130787299999724,41.47697334999998],[2.313028089999989,41.47693967999999],[2.3129990900000053,41.47687801000001],[2.3129849599999943,41.47685166000002],[2.312924599999974,41.476845449999985],[2.313017070000001,41.47680515000002],[2.31315797000002,41.47677162000002],[2.313193749999982,41.47676996000001],[2.3132124599999884,41.476706079999985],[2.3132102499999974,41.47667917000001],[2.3131253099999753,41.47666509999999],[2.3130895300000134,41.47666676],[2.3130330100000265,41.47656133999999],[2.313018150000005,41.476526019999994],[2.313062909999985,41.47648794000003],[2.313215000000014,41.476444879999974],[2.313356639999995,41.47642030999998],[2.313510199999996,41.47639520000001],[2.3136511000000155,41.47636166000001],[2.313791999999978,41.47632813000001],[2.3138740100000064,41.47630631999999],[2.3139163999999823,41.47638538000001],[2.313944660000004,41.47643808999999],[2.3140385899999956,41.476415729999985],[2.3140855600000236,41.476404549999984],[2.3141519700000117,41.47633846000002],[2.3141908599999965,41.47622861999997],[2.3141998400000148,41.476192200000014],[2.3141917600000284,41.47609354000002],[2.314164240000025,41.4760498],[2.3141143299999953,41.47602511000002],[2.3139697600000204,41.476013799999976],[2.3138162000000193,41.47603892000001],[2.3136753,41.476072450000004],[2.3135343999999805,41.47610599000001],[2.31338156999999,41.47614007999999],[2.3132287399999996,41.47617416000003],[2.3130871100000263,41.47619873000002],[2.312933550000025,41.47622385],[2.312779990000024,41.47624896999997],[2.312697979999996,41.476270769999985],[2.3126018400000135,41.476266220000014],[2.3125541399999747,41.476268430000005],[2.312407360000009,41.47623020999998],[2.3122978299999772,41.47620827999998],[2.3122136200000227,41.47620318000003],[2.3121666499999947,41.47621435000002],[2.3121240899999975,41.47627934000002],[2.3121053799999913,41.47634323],[2.312138779999998,41.47645871999998],[2.312167030000012,41.47651142000001],[2.3121699700000136,41.47654729999999],[2.3121132800000055,41.47658594000001],[2.312055120000025,41.47660662999999],[2.31195366999998,41.47668334999997],[2.3118977099999825,41.47673096],[2.3118410199999744,41.47676960000001],[2.3117582799999923,41.476782430000014],[2.311624160000008,41.47675263000002],[2.311487839999984,41.47669592],[2.3113895000000184,41.47666447],[2.3112643700000035,41.47659823999999],[2.3112003400000276,41.47654719000002],[2.3111511700000165,41.47653145999999],[2.3111251099999777,41.47650565999999],[2.31112748999999,41.47638850999999],[2.3111306100000206,41.47628033000001],[2.3111381300000176,41.47622596999997],[2.3111605099999792,41.47620692999999],[2.3113058199999728,41.47622720999999],[2.3113795699999855,41.4762508],[2.311439930000006,41.47625700999998],[2.3114980899999864,41.47623630999999],[2.3115428599999746,41.47619823000002],[2.3115503800000283,41.47614385999998],[2.311534779999988,41.476099569999974],[2.3114588199999844,41.47604906999999],[2.311323239999979,41.476001329999974],[2.311176460000013,41.47596312000002],[2.31102967999999,41.475924899999995],[2.3108829099999753,41.475886679999974],[2.3107480599999803,41.47584791000003],[2.3106012800000144,41.475809690000006],[2.3104552400000102,41.475780439999994],[2.310309200000006,41.47575118999998],[2.3102376499999764,41.47575451],[2.310167560000025,41.475775759999976],[2.310100420000026,41.475832879999984],[2.3100683100000197,41.47587937999998],[2.3100727199999938,41.47593318999998],[2.3101106899999877,41.47595844],[2.3102321499999903,41.47597983000003],[2.3102925100000107,41.47598604000001],[2.310341680000022,41.47600176999998],[2.3103565399999866,41.47603708999998],[2.31031471,41.476111049999986],[2.3102371100000028,41.476186659999996],[2.310122990000025,41.476254960000006],[2.309982820000016,41.47629746000001],[2.3098299999999767,41.47633155],[2.3097353300000236,41.47634492999998],[2.309614599999975,41.47633251000002],[2.3095661699999823,41.47632575],[2.3095096600000034,41.47622034],[2.3094933300000093,41.47616707999998],[2.3094553500000075,41.47614183000002],[2.309418839999978,41.47613451000001],[2.309366549999993,41.47622696000002],[2.30934031999999,41.47634520999998],[2.309329859999991,41.47636369999998],[2.3092113399999903,41.47637818999999],[2.3090660299999968,41.47635790999999],[2.308919249999974,41.476319690000025],[2.308845500000018,41.476296090000005],[2.3087381700000265,41.476301060000026],[2.308680009999989,41.47632176000002],[2.308522040000014,41.47629305999999],[2.308387190000019,41.47625427999998],[2.308229229999995,41.476225580000005],[2.3080936399999814,41.47617783999999],[2.307958059999976,41.47613009999998],[2.3078105499999992,41.47608291],[2.3076637799999844,41.47604468999998],[2.307515539999997,41.475988529999995],[2.3073687599999744,41.47595030000002],[2.3072331800000256,41.47590256000001],[2.307085669999992,41.47585536999998],[2.3069508199999973,41.47581659999997],[2.3068152399999917,41.47576885000001],[2.306668469999977,41.47573062999999],[2.306533619999982,41.475691849999976],[2.3063980399999764,41.47564411000002],[2.30625053,41.47559691999999],[2.3061149499999942,41.47554917000002],[2.3059800999999993,41.47551040000002],[2.305832599999974,41.47546319999998],[2.305708939999988,41.475414909999984],[2.305560700000001,41.47535873999999],[2.3054243899999847,41.47530203000002],[2.305288809999979,41.47525428],[2.3051525000000197,41.47519756999998],[2.3050049899999863,41.47515038],[2.3048694099999807,41.47510262999998],[2.304721910000012,41.475055440000006],[2.3046243100000083,41.475032940000006],[2.3045103800000106,41.47495719],[2.3043740699999944,41.47490047000002],[2.30422802999999,41.47487121],[2.3040812599999754,41.47483298999998],[2.3039344900000174,41.47479476000001],[2.3037877200000025,41.47475652999998],[2.303652139999997,41.474708780000014],[2.3035158299999807,41.47465206999999],[2.3034011699999724,41.47456734000002],[2.3032760599999733,41.4745011],[2.3031524099999956,41.474452799999995],[2.303004900000019,41.47440561000002],[2.3028588700000228,41.47437635],[2.3027135699999803,41.47435605999999],[2.3025668000000223,41.47431783000002],[2.3024312200000168,41.47427008],[2.302295650000019,41.474222329999975],[2.3021488800000043,41.4741841],[2.3020132999999987,41.47413634999998],[2.301877730000001,41.474088600000016],[2.3017302299999756,41.474041399999976],[2.3015841900000282,41.47401214000001],[2.301509710000005,41.47397956999998],[2.30145761,41.473927960000026],[2.3013950600000044,41.473894840000014],[2.3012512199999833,41.473892490000026],[2.3011185799999794,41.47388060999998],[2.300982999999974,41.473832860000016],[2.300824309999996,41.473795180000025],[2.3006782799999996,41.473765920000005],[2.300530779999974,41.47371872000002],[2.3003944800000227,41.47366199999999],[2.300247710000008,41.47362377000002],[2.3001002099999823,41.473576560000026],[2.299966100000006,41.473546750000025],[2.2998186099999884,41.473499549999985],[2.29967111000002,41.47345235],[2.299524350000013,41.47341411000002],[2.2993902399999797,41.47338430000002],[2.2992539300000203,41.47332757999999],[2.2991183600000227,41.473279820000016],[2.298982790000025,41.473232069999995],[2.298836759999972,41.473202800000024],[2.2986892600000033,41.473155599999984],[2.2985417699999857,41.4731084],[2.2984173899999973,41.47305111999998],[2.298269160000018,41.472994949999986],[2.298134319999974,41.472956169999975],[2.2979980200000227,41.47289943999999],[2.2978617200000144,41.47284272000002],[2.297714229999997,41.472795510000026],[2.297578659999999,41.472747760000004],[2.2974788600000124,41.47269834999997],[2.2973768699999937,41.472622039999976],[2.2973388999999997,41.47259678],[2.2972308399999974,41.472592770000006],[2.297183870000026,41.47260394],[2.2970363800000086,41.472556740000016],[2.2969000800000003,41.472500009999976],[2.2967645100000027,41.47245225],[2.296628940000005,41.47240449999998],[2.2964926399999968,41.47234777],[2.2963814400000047,41.47230860000002],[2.296357080000007,41.47230001999998],[2.2962327000000187,41.47224274000001],[2.2960844799999904,41.47218656000001],[2.295948909999993,41.47213880999999],[2.295813339999995,41.47209105000002],[2.2956658499999776,41.472043840000026],[2.29553027999998,41.47199608],[2.295442419999972,41.471946119999984],[2.295296389999976,41.471916850000014],[2.2951600900000244,41.47186012999998],[2.295035719999987,41.47180285000002],[2.294899419999979,41.47174611999998],[2.294763859999989,41.471698360000005],[2.294627559999981,41.47164163000002],[2.294491989999983,41.47159386999999],[2.29444282999998,41.47157814000002],[2.2943520399999784,41.47149230000002],[2.2943252599999937,41.47145753000001],[2.2941792400000054,41.471428249999974],[2.29402202,41.471408499999995],[2.2939356200000134,41.47137648],[2.2938759900000036,41.471379230000025],[2.2937508900000125,41.47131297999999],[2.2936145900000042,41.47125625000001],[2.293490220000024,41.47119896999999],[2.293355389999988,41.47116018000003],[2.293231750000018,41.471111870000016],[2.2931677400000012,41.47106080999998],[2.293057490000024,41.47102988],[2.2929971300000034,41.471023660000014],[2.2928720300000123,41.47095741999999],[2.292735740000012,41.47090068],[2.2925882499999943,41.47085347000001],[2.2924526900000046,41.47080570999998],[2.2923164000000043,41.470748979999996],[2.2921808400000145,41.470701220000024],[2.2920445400000062,41.470644489999984],[2.291908250000006,41.47058774999999],[2.2917719600000055,41.47053102000001],[2.291625940000017,41.47050174999998],[2.291477719999989,41.47044556999998],[2.2913414299999886,41.47038882999999],[2.291205139999988,41.47033210000001],[2.29106883999998,41.470275370000024],[2.2909325499999795,41.470218639999985],[2.290808190000007,41.47016135000001],[2.290683090000016,41.47009509999998],[2.2905356100000063,41.47004788999999],[2.2903881199999887,41.47000066999999],[2.290263760000016,41.469943390000026],[2.290127470000016,41.46988664999998],[2.2899799799999982,41.46983943999999],[2.2898794700000167,41.469781049999995],[2.2897327200000177,41.469742810000014],[2.289585240000008,41.469695590000015],[2.2894489500000077,41.469638859999975],[2.2893126600000073,41.469582119999984],[2.289176370000007,41.46952539],[2.2890400800000066,41.46946865000001],[2.288903790000006,41.46941192000003],[2.2887682400000244,41.46936414999999],[2.2886312200000134,41.46929845],[2.2884837400000038,41.46925123],[2.2883593799999744,41.469193940000025],[2.288223089999974,41.469137209999985],[2.28808607000002,41.469071499999984],[2.28796097999998,41.46900524],[2.2878366200000073,41.46894795999998],[2.287711530000024,41.4688817],[2.287574510000013,41.468816000000004],[2.2874382300000207,41.46875926000001],[2.2873019400000203,41.46870252000002],[2.287165660000028,41.468645779999974],[2.2870293700000275,41.46858903999998],[2.286893819999989,41.46854128000001],[2.2868074200000024,41.46850925000001],[2.286758259999999,41.46849350999997],[2.2866339099999777,41.46843622],[2.2865088199999946,41.46836996000002],[2.2863837300000114,41.46830369999998],[2.286259369999982,41.468246420000014],[2.2861230799999817,41.46818968000002],[2.285998730000017,41.468132389999994],[2.285861710000006,41.46806667999999],[2.2857261600000243,41.46801891000001],[2.285677000000021,41.468003169999974],[2.285624919999975,41.46795155000001],[2.2855013000000213,41.46790322999999],[2.2853762099999813,41.46783697000001],[2.285228000000018,41.46778078],[2.285104380000007,41.46773245999998],[2.2849680900000067,41.46767571999999],[2.284820620000005,41.46762849999999],[2.284685070000023,41.46758073000001],[2.2845376000000215,41.4675335],[2.284401319999972,41.46747676000001],[2.2842538400000194,41.46742954000001],[2.284118289999981,41.467381769999974],[2.2839715499999897,41.46734350999998],[2.2838352699999973,41.46728676999999],[2.2836885300000063,41.46724850999999],[2.2835529800000245,41.46720074000001],[2.283405510000023,41.46715352000001],[2.283258760000024,41.467115260000014],[2.283111290000022,41.467068040000015],[2.2829757399999835,41.46702026000003],[2.2828506600000082,41.46695399999999],[2.282737499999996,41.46688719000002],[2.28261169000001,41.46681195999997],[2.2824754100000177,41.466755209999974],[2.2823391300000253,41.46669846999998],[2.2822021299999733,41.46663275999998],[2.2820777800000087,41.46657546],[2.2819407700000056,41.46650975],[2.2818156899999735,41.46644349000002],[2.2816898799999876,41.466368250000016],[2.2815648000000124,41.46630198999998],[2.2814509099999896,41.46622621],[2.2813370200000236,41.46615043000003],[2.2812231400000087,41.466074649999996],[2.2810980599999766,41.466008380000005],[2.2809841700000106,41.465932599999974],[2.2808590899999786,41.46586633999999],[2.2807340100000033,41.46580007],[2.2806313199999977,41.46571476999998],[2.280517439999983,41.46563899],[2.2804035600000248,41.46556321000003],[2.280289670000002,41.46548741999999],[2.280175789999987,41.46541164000001],[2.2800730999999814,41.46532633999999],[2.279970409999976,41.46524104000002],[2.2798789199999874,41.46514622000001],[2.279787419999991,41.46505139999999],[2.279661620000013,41.46497615999999],[2.279583510000009,41.464898730000016],[2.2795560100000216,41.464854979999984],[2.279553089999979,41.46481911000001],[2.2796419200000173,41.46473399000001],[2.279756050000003,41.46466572000003],[2.2798954900000012,41.464614289999986],[2.2799417200000107,41.46459415999999],[2.2799514600000066,41.46456669999998],[2.2798733500000026,41.46448927],[2.2798234699999966,41.46446456000001],[2.279763119999984,41.464458330000014],[2.279623679999986,41.46450976],[2.2794968900000185,41.46456962000002],[2.2793574500000204,41.464621050000005],[2.279218739999976,41.46468145],[2.2791725100000235,41.464701579999996],[2.279027229999997,41.46468126000002],[2.278917729999989,41.464659289999986],[2.278792650000014,41.464593019999995],[2.27864519000002,41.46454578999999],[2.278584109999997,41.46453059999999],[2.2784290999999826,41.46453773000002],[2.2782986700000265,41.46455272999998],[2.2782390500000247,41.46455548],[2.278134650000027,41.464596289999974],[2.2780219699999975,41.46468249999998],[2.277942150000001,41.46473119000001],[2.2778847199999745,41.46476084],[2.2777401800000234,41.46474948000002],[2.277594169999986,41.46472018999998],[2.2774369699999966,41.46470040999998],[2.277291699999978,41.46468009],[2.277156160000004,41.464632300000005],[2.2770206199999734,41.46458452000002],[2.276884349999989,41.46452777000002],[2.276796509999997,41.4644778],[2.2767169399999716,41.46438241999999],[2.276626179999994,41.46429656999999],[2.2765130399999975,41.464229750000015],[2.276462419999973,41.464196070000014],[2.2764468500000135,41.46415177],[2.276464869999984,41.46407892000002],[2.2764962699999955,41.46402346000002],[2.276505269999973,41.463987040000006],[2.276414520000003,41.46390117999999],[2.276300639999988,41.46382539000001],[2.2761770299999853,41.463777059999984],[2.276104029999999,41.46376242000002],[2.275990149999984,41.463686629999984],[2.275876270000026,41.46361084],[2.275751200000002,41.46354457000001],[2.275626129999978,41.46347830000002],[2.275501790000021,41.46342099999998],[2.275364799999977,41.46335527000002],[2.27523973000001,41.463288999999975],[2.2751146599999856,41.463222729999984],[2.2749896000000263,41.46315645999999],[2.274864530000002,41.46309019],[2.274739459999978,41.46302392000001],[2.2746024699999907,41.462958189999995],[2.2744781299999772,41.462900890000014],[2.2743523299999993,41.46282565000001],[2.274239190000003,41.462758829999984],[2.274113390000025,41.46268358999998],[2.273987599999998,41.46260834999998],[2.273862529999974,41.462542069999984],[2.273736740000004,41.46246682999998],[2.2736236000000076,41.46240001000001],[2.2734985299999835,41.46233374000002],[2.2733727400000134,41.46225850000002],[2.2732476699999893,41.46219222000002],[2.273122609999973,41.46212594999997],[2.273008740000023,41.46205015999999],[2.272883669999999,41.46198387999999],[2.272783189999984,41.46192547999999],[2.272734029999981,41.46190974000001],[2.272662490000016,41.46191302],[2.2725692899999785,41.461944319999986],[2.27246925999998,41.462038940000014],[2.272459529999992,41.462066400000026],[2.27241183000001,41.46206859],[2.2723463899999956,41.46199958],[2.2722213200000283,41.4619333],[2.2720969900000227,41.46187599000001],[2.271983120000016,41.46180020000003],[2.2718468599999824,41.46174344000002],[2.271733719999986,41.46167661999999],[2.2715967400000068,41.461610889999974],[2.2714716799999906,41.461544619999984],[2.2713466100000232,41.461478339999985],[2.271221550000007,41.461412069999994],[2.2711188800000173,41.46132676000002],[2.271065360000023,41.461257190000026],[2.270950770000013,41.461172429999976],[2.270825709999997,41.46110614999998],[2.2707006499999807,41.46103987999999],[2.2705755900000213,41.46097359999999],[2.270439329999988,41.46091683999998],[2.270325469999989,41.46084105],[2.2702917699999716,41.460823189999985],[2.268725159999974,41.462449530000015],[2.2686546099999987,41.462520289999986],[2.2679782899999736,41.463919780000026],[2.2661968499999716,41.46453273999998],[2.2658696799999802,41.46492587],[2.26565592999998,41.465057220000006],[2.2655160400000227,41.465140169999984],[2.264904709999996,41.465276259999996],[2.2646768500000007,41.46556580999999],[2.2642754999999966,41.46578228999999],[2.263938010000004,41.46649099000001],[2.2640030399999773,41.46714521000001],[2.261317360000021,41.47004128999998],[2.2614502900000275,41.47064738],[2.260801660000027,41.47076715999998],[2.2557830900000226,41.476241370000025],[2.254279639999993,41.47788123999999],[2.2482401099999834,41.48461279000003],[2.247472529999982,41.48518808],[2.2474577899999986,41.48544984],[2.2476530800000205,41.48579202000002],[2.2475751599999967,41.48630874000003],[2.247379319999993,41.48655178000001],[2.2475429599999757,41.487390559999994],[2.2473320600000193,41.48803941],[2.247266379999985,41.48841153000001],[2.24695195999999,41.48866899000001],[2.246493579999992,41.48862694000002],[2.246256140000014,41.48879985000002],[2.246111880000001,41.48997681999998],[2.245668089999981,41.49041125000002],[2.244975459999978,41.490433929999995],[2.244403900000009,41.49032502],[2.2439531699999975,41.49052569000003],[2.243528060000017,41.49059913999997],[2.242866470000024,41.490413320000016],[2.2425660700000094,41.49040004],[2.2415297300000248,41.490762510000025],[2.241030930000022,41.49110940000003],[2.240582410000002,41.491634060000024],[2.2399877700000275,41.49183227999998],[2.2395188899999994,41.49180869000003],[2.2391287799999873,41.491574430000014],[2.2381056799999897,41.49136007999999],[2.23651615,41.49139665000001],[2.2361781500000006,41.491511109999976],[2.235136720000014,41.49210783000001],[2.234735080000007,41.49202713],[2.2325519400000076,41.492423840000015],[2.2310231299999828,41.49291671999998],[2.230585689999998,41.492837640000005],[2.2300444900000116,41.492511200000024],[2.228769409999984,41.49199315999999],[2.2278236999999876,41.49184721],[2.227026560000013,41.49191055],[2.226083370000026,41.492241620000016],[2.225444209999978,41.49233376000001],[2.2248614499999917,41.49223426999998],[2.2238013699999897,41.494533279999985],[2.2233179400000154,41.49581570999999],[2.220462110000028,41.49648590999999],[2.2190184699999804,41.49655160999998],[2.2138456299999802,41.497894239999994],[2.210670960000016,41.49892080000001],[2.209145270000022,41.50005245],[2.20800238999999,41.50132875000003],[2.2073029700000006,41.50186467999998],[2.2048717299999794,41.503055389999986],[2.20395099000001,41.50352031],[2.2061063099999956,41.50634844000001],[2.20727574,41.507636779999984],[2.207996620000017,41.50826125999998],[2.208406210000021,41.50873782000002],[2.2088150100000234,41.509502510000004],[2.2095016999999757,41.511190880000015],[2.209933680000006,41.511945509999975],[2.211134319999985,41.51361952000002],[2.2134755299999824,41.51859975999997],[2.2138359100000002,41.51995181000001],[2.214206890000014,41.52069118999998],[2.214977719999979,41.522825839999996],[2.2154590100000178,41.523893310000005],[2.2168611700000156,41.52538702999999],[2.2178829200000223,41.526321859999996],[2.219258400000001,41.52837495],[2.2204968699999768,41.53095643],[2.220624559999976,41.531202699999994],[2.220898019999993,41.531622389999995],[2.222232120000001,41.53301111000002],[2.2258678900000177,41.536491650000016],[2.226638180000009,41.53757289999999],[2.2277662999999848,41.53878187999999],[2.229149140000004,41.53988020000003],[2.230838819999974,41.54091949000002],[2.232622279999987,41.54208052000001],[2.2348819900000194,41.54349887000001],[2.2368088000000057,41.54435619999998],[2.238830029999974,41.54504711999999],[2.2409970799999996,41.54561431000002],[2.2432885399999805,41.54594169000001],[2.2468571300000235,41.54605755],[2.2478029600000013,41.546194319999984],[2.2484494999999924,41.54619623999997],[2.2516866500000106,41.54620557999999],[2.2540211099999965,41.546323710000024],[2.2543796599999837,41.546311779999996],[2.255394869999975,41.54626975999997],[2.2564380800000094,41.54583481999998],[2.2576709900000083,41.549946610000006],[2.258028089999982,41.550506410000025],[2.258477350000021,41.550872930000025],[2.2577551800000037,41.55157226],[2.2574280300000282,41.55211843000001],[2.25956063000001,41.552551789999995],[2.2587259700000004,41.554134060000024],[2.2585323700000117,41.554498550000005],[2.2583134600000108,41.55502173999997],[2.257799920000025,41.55625164999998],[2.257302480000021,41.55647252],[2.257768989999988,41.55719835000002],[2.259058830000015,41.55861563000002],[2.25940331999999,41.559167],[2.2594583800000123,41.55925450000001],[2.2609273400000234,41.56110468000003],[2.262475670000015,41.56245603999997],[2.263313690000018,41.56332684],[2.2650215900000035,41.56398662999999],[2.2663651600000208,41.56473516],[2.267199860000005,41.56541702999999],[2.268558349999978,41.564701920000005],[2.2693722299999877,41.56427289999999],[2.2735496700000226,41.567285760000004],[2.2743335499999944,41.568077949999974],[2.277573689999997,41.570341540000015],[2.277778720000015,41.570485150000025],[2.278673099999992,41.57130823],[2.279299569999978,41.571639489999995],[2.2793629500000065,41.57168158000002],[2.281762640000011,41.57317352000001],[2.2820771400000126,41.57350113000001],[2.282756029999973,41.57373992999999],[2.2886329400000136,41.57201054000001],[2.288884199999984,41.57273716999998],[2.28956144,41.57310203999998],[2.289702279999972,41.573797739999975],[2.290419770000028,41.574214770000026],[2.291451259999974,41.57700298999998],[2.2931623599999966,41.580768120000016],[2.2922867699999756,41.58237501000002],[2.292137509999975,41.58289504999999],[2.292345339999997,41.58323655999999],[2.292451920000019,41.583366669999975],[2.292547290000016,41.58350631000002],[2.293159609999975,41.583955179999975],[2.2930006099999787,41.584502680000014],[2.293914089999987,41.58643208000001],[2.294644059999996,41.587145580000026],[2.2947293299999956,41.58760078],[2.2944137599999976,41.58799346000001],[2.294981450000023,41.58950669000001],[2.2946212100000025,41.58979341000003],[2.2945201200000156,41.59002314999998],[2.2946583199999964,41.59053891999997],[2.295182870000019,41.590793770000005],[2.295132869999975,41.59193941000001],[2.295359860000019,41.591928929999995],[2.2957717499999717,41.59271113],[2.295789950000028,41.59307940000002],[2.2955561499999817,41.59373839],[2.2960116200000016,41.594320530000005],[2.2961114400000042,41.59509914],[2.295900990000007,41.59618918000001],[2.2962311300000238,41.597290250000015],[2.2962846400000103,41.59867419],[2.296348260000002,41.59974255999998],[2.2963821000000166,41.60015512000001],[2.2965613200000234,41.60014683999998],[2.2966330099999936,41.60014352000002],[2.296669599999973,41.600150840000026],[2.2967069100000117,41.60016711999998],[2.2967210699999896,41.60019347000002],[2.296736689999989,41.60023776000003],[2.2967418399999815,41.60030053999998],[2.296758940000018,41.600362770000004],[2.2967684999999847,41.60047936000001],[2.296790009999995,41.600595399999975],[2.296801049999999,41.60072993],[2.2968181400000276,41.600792160000026],[2.296767960000011,41.60091151],[2.2967446200000268,41.60106564],[2.2966802899999834,41.601158639999994],[2.2966518000000065,41.60124997999998],[2.2966471999999953,41.60134022],[2.2966306600000053,41.60143101],[2.296612649999986,41.60150385999998],[2.2966453700000216,41.60161038000001],[2.296676620000028,41.60169896000002],[2.2967564100000004,41.601794299999995],[2.296879400000023,41.601977680000005],[2.2969889600000215,41.602143660000024],[2.2971000000000004,41.602327590000016],[2.2972012999999833,41.60253897000001],[2.297302600000023,41.60275035000001],[2.29734947999998,41.602883220000024],[2.297436629999993,41.60306824999998],[2.2974932500000023,41.60317366999999],[2.297586459999991,41.603286389999994],[2.297538309999993,41.60357670000002],[2.2976774900000123,41.60395738],[2.29776978000001,41.604205190000016],[2.2979387500000144,41.60465651999999],[2.298065249999979,41.60502878],[2.2982320200000004,41.6054532],[2.2983272600000078,41.605736879999995],[2.298424720000014,41.60604747000002],[2.2986271600000237,41.606614279999974],[2.2994606899999894,41.60653974000002],[2.2998550300000034,41.60652150999999],[2.3000454900000022,41.60650370000002],[2.3001881499999968,41.60648809999998],[2.3002695800000197,41.60645733000001],[2.300350289999983,41.60641758000003],[2.3004751099999794,41.606330790000015],[2.300667200000021,41.60618686999999],[2.3010124400000223,41.606008859999974],[2.3011148300000173,41.605941099999995],[2.301206009999987,41.605882870000016],[2.301320350000026,41.60581456],[2.3013881900000115,41.60591046000002],[2.30148582999999,41.60607699000002],[2.301568569999972,41.606208200000026],[2.301582730000007,41.60623456000002],[2.301624469999979,41.60630465000003],[2.301651320000019,41.60633941999998],[2.3017154799999844,41.60639046],[2.301819920000014,41.60649366000001],[2.3019736200000125,41.60661259],[2.302254189999985,41.60681568000001],[2.302496700000006,41.60699352],[2.30270041,41.60713714000002],[2.303089839999984,41.60749722999998],[2.310164900000018,41.60776387999999],[2.312592680000023,41.610154120000004],[2.3189042999999856,41.61265223999999],[2.317348939999988,41.61808996000002],[2.32400604999998,41.62708964000001],[2.326486050000028,41.632420990000014],[2.330549010000027,41.635410019999995],[2.3309487000000217,41.634293119999995],[2.332903520000002,41.633698030000005],[2.3346981000000255,41.63363251999999],[2.3375036400000226,41.63331284999998],[2.337842799999976,41.63335107],[2.338291609999999,41.63369927999997],[2.3394484699999794,41.63303321000001],[2.3401104499999974,41.632912350000026],[2.3408410399999866,41.63304034999999],[2.3413528300000053,41.63298950000001],[2.3421498700000143,41.63319541999999],[2.342951649999975,41.63287896999998],[2.3427935500000103,41.63386760999998],[2.3430353300000206,41.634468519999984],[2.345136000000025,41.63491071999999],[2.346725470000024,41.63584487000003],[2.3492043200000126,41.636071300000026],[2.3508292899999788,41.63613049000003],[2.3507875700000227,41.63577233000001],[2.35040072999999,41.63530424999999],[2.3506503699999826,41.634986509999976],[2.351042619999987,41.634941190000006],[2.3514359199999717,41.636210189999986],[2.3525580699999864,41.636283830000025],[2.352725650000025,41.63555580000002]]]}}]}