{"type": "FeatureCollection", "features": [{"type": "Feature", "properties": {"OBJECTID": 1887, "ZON_CO_ID": 9, "ZON_DS_NOM": "Bierzo", "CAL_DS_NOM": "D.O.Bierzo", "TPR_DS_DES": "Denominación de Origen", "TPR_DS_GRU": "CALIDAD DIFERENCIADA", "FAM_DS_NOM": "Vinos"}, "geometry": {"type": "Polygon", "coordinates": [[[-6.816548179999984, 42.845085770000026], [-6.815346599999998, 42.84464866000002], [-6.81419999000002, 42.84411066000001], [-6.8134591200000045, 42.843604140000025], [-6.80854063999999, 42.83863581999998], [-6.80812622000002, 42.838064359999976], [-6.807428179999988, 42.837655419999976], [-6.803167340000016, 42.83700485999998], [-6.800133650000021, 42.83621433000002], [-6.797979180000027, 42.835196429999996], [-6.796780920000003, 42.83420976999997], [-6.796539859999996, 42.833470439999985], [-6.796524890000001, 42.833425920000025], [-6.796147239999982, 42.83285319999999], [-6.796533679999982, 42.83117463999997], [-6.795275609999976, 42.82901045], [-6.792708179999977, 42.82663754999999], [-6.791557669999975, 42.82602742], [-6.790378939999982, 42.824355749999995], [-6.788784210000017, 42.823481189999995], [-6.789300809999986, 42.82152824000002], [-6.788755299999991, 42.815207550000025], [-6.786287300000026, 42.812245959999984], [-6.785318010000026, 42.811593749999986], [-6.779791320000015, 42.80820197999998], [-6.774545289999992, 42.80619630000001], [-6.772455069999978, 42.80500470999999], [-6.769678259999978, 42.80438495999999], [-6.768024210000021, 42.80433141999998], [-6.765886770000009, 42.80396963999999], [-6.762985230000027, 42.803912079999975], [-6.7603427899999815, 42.80328767999998], [-6.757965259999992, 42.80340183999999], [-6.756762550000019, 42.8035314], [-6.754142709999996, 42.80307719000001], [-6.753093060000026, 42.802301279999995], [-6.750866770000016, 42.80168100999998], [-6.750098799999989, 42.80192228999999], [-6.745534669999984, 42.80166667999998], [-6.742599859999984, 42.80044817999999], [-6.7417727600000035, 42.79889954999999], [-6.7417275000000245, 42.79713626], [-6.7413863799999945, 42.79675125], [-6.740095409999981, 42.78953629], [-6.740097059999982, 42.789158069999985], [-6.7403207699999825, 42.78861051000001], [-6.741443030000028, 42.78715118000002], [-6.7419353999999885, 42.786801930000024], [-6.743087679999974, 42.78644908000001], [-6.7444931300000235, 42.783404759999996], [-6.7465393800000015, 42.78166300999999], [-6.747504929999991, 42.779839589999995], [-6.746158349999973, 42.777983860000006], [-6.746812739999996, 42.77789039999999], [-6.746290600000009, 42.77693506999998], [-6.746346949999975, 42.77584374000003], [-6.746274009999979, 42.77524285999999], [-6.745644550000009, 42.77331859999998], [-6.738010139999972, 42.77217274999998], [-6.737726539999983, 42.772740269999986], [-6.735269070000015, 42.772928620000016], [-6.73434881999998, 42.772868630000005], [-6.733407039999975, 42.77346663999998], [-6.732925070000022, 42.775004060000015], [-6.730951049999987, 42.77408703999998], [-6.730712799999992, 42.773986760000014], [-6.730433140000002, 42.77482426], [-6.730204200000003, 42.77548902000001], [-6.7300952699999925, 42.77530349], [-6.728958299999988, 42.773467719999985], [-6.728084469999999, 42.77316306], [-6.729364159999989, 42.77208587000001], [-6.729659360000028, 42.77089670999999], [-6.729142089999982, 42.77022026999998], [-6.727825740000014, 42.769668920000015], [-6.726767049999978, 42.76954135], [-6.725228979999997, 42.76997863999998], [-6.724499760000015, 42.769435139999985], [-6.723309210000025, 42.76894265999999], [-6.71118752000001, 42.765699040000015], [-6.700147379999976, 42.76274326999999], [-6.6982232199999885, 42.762238260000004], [-6.695575319999989, 42.762918119999995], [-6.695378259999984, 42.76227619000002], [-6.689183949999972, 42.76085545000001], [-6.689850089999993, 42.76240066999998], [-6.691805480000028, 42.76528189999999], [-6.692720679999979, 42.767314279999994], [-6.692665620000014, 42.76864866], [-6.692529589999992, 42.76923832], [-6.69214820000002, 42.770223069999986], [-6.690609929999994, 42.772100550000005], [-6.689025700000002, 42.77464579000002], [-6.687768720000008, 42.77611797999998], [-6.68768713999998, 42.77639073], [-6.68671968000001, 42.77924015999997], [-6.686498630000017, 42.77963446000001], [-6.68624570999998, 42.77990373], [-6.686149709999995, 42.779933830000004], [-6.685849519999977, 42.78002454], [-6.683871969999984, 42.77821544], [-6.68247709000002, 42.7769548], [-6.680807000000016, 42.77579301999998], [-6.679481319999979, 42.77507933999999], [-6.678270209999994, 42.77423590000001], [-6.677940639999974, 42.77341812999998], [-6.67765412, 42.77291410999999], [-6.677344839999989, 42.77264493000001], [-6.677300119999984, 42.77189003000001], [-6.676611499999979, 42.77099375], [-6.676868650000017, 42.77058929999998], [-6.675863349999986, 42.76929802000001], [-6.674379760000022, 42.768184169999984], [-6.6735640900000135, 42.768237390000024], [-6.671156680000024, 42.766793010000015], [-6.670777460000011, 42.76658007999998], [-6.670825060000027, 42.76531798000002], [-6.670728409999981, 42.76409653000002], [-6.670699210000009, 42.763809330000015], [-6.67088947000002, 42.76268671999998], [-6.670898480000005, 42.76263239999997], [-6.670652819999987, 42.761370709999994], [-6.6705991900000186, 42.76067010999998], [-6.6706548199999816, 42.7601641], [-6.670840380000016, 42.759788979999996], [-6.671096420000026, 42.75895237999998], [-6.671136680000018, 42.75859993], [-6.670840209999994, 42.75813223], [-6.669469939999999, 42.75706869999999], [-6.667924669999991, 42.75490325999999], [-6.664497240000003, 42.75396866], [-6.66332491999998, 42.753565019999996], [-6.660498770000004, 42.75433082000001], [-6.657957689999989, 42.756203949999986], [-6.657031389999986, 42.75582838999998], [-6.654992719999996, 42.75502917], [-6.654617340000016, 42.754879089999974], [-6.654079710000019, 42.75467115999999], [-6.651486429999977, 42.75420473999998], [-6.6504324300000235, 42.75602120999997], [-6.648645600000009, 42.75763594], [-6.648235569999997, 42.75814424999999], [-6.647845529999984, 42.75920116999998], [-6.648064320000003, 42.760013560000004], [-6.643799269999988, 42.75833970999997], [-6.640841410000007, 42.755615620000015], [-6.638730290000012, 42.753575850000004], [-6.638670460000014, 42.753388659999985], [-6.638525340000001, 42.752997100000016], [-6.635617410000009, 42.751117669999985], [-6.634651780000013, 42.75027497000002], [-6.6345320400000105, 42.75010768999999], [-6.634070000000008, 42.749519099999986], [-6.6342043500000045, 42.749100639999995], [-6.633313419999979, 42.74744518], [-6.6325683200000185, 42.746820549999995], [-6.631251679999991, 42.746241069999996], [-6.630671959999972, 42.74572823], [-6.628606409999975, 42.74487536999999], [-6.627572810000004, 42.744538990000024], [-6.626367329999994, 42.74439713999999], [-6.625392610000006, 42.74402285999997], [-6.624642499999993, 42.74393858000002], [-6.623590530000001, 42.739514869999994], [-6.623555179999983, 42.73848951999997], [-6.627769730000011, 42.73388984000002], [-6.628817490000017, 42.730705150000006], [-6.626837449999982, 42.72795866000001], [-6.626460329999986, 42.72756543999998], [-6.625747409999974, 42.72685869999998], [-6.621004710000022, 42.724271699999974], [-6.620900919999997, 42.724166930000024], [-6.61607398000001, 42.720123709999996], [-6.615233629999977, 42.71301897000001], [-6.611337110000022, 42.70920725000002], [-6.597877789999984, 42.70575062], [-6.593753719999995, 42.70473673999999], [-6.590589899999998, 42.70364755000003], [-6.587960510000016, 42.70356799000001], [-6.58359686, 42.702840390000006], [-6.579258569999979, 42.70149053], [-6.57592175000002, 42.69802023], [-6.572534780000012, 42.69537077000001], [-6.5696411100000205, 42.69514597], [-6.559602499999983, 42.689939219999985], [-6.5476465699999835, 42.68553842], [-6.545494220000023, 42.677744440000026], [-6.545551049999972, 42.67253821000003], [-6.545559109999999, 42.67180861999998], [-6.54607759999999, 42.666768160000004], [-6.546467199999995, 42.66075024000003], [-6.546628100000021, 42.64813928000001], [-6.5350036500000215, 42.640818420000016], [-6.525373679999973, 42.63853136], [-6.5252956200000085, 42.63850224999999], [-6.524239910000006, 42.63810706999999], [-6.523806180000008, 42.63776926000003], [-6.523525640000003, 42.637336689999984], [-6.523342179999986, 42.63686511999998], [-6.523254740000027, 42.63664269999998], [-6.521014200000025, 42.63713488000002], [-6.520507959999975, 42.637456610000015], [-6.520055990000003, 42.63809182], [-6.51988504000002, 42.63873638000001], [-6.5198769200000015, 42.63924086999998], [-6.520151349999992, 42.639997789999995], [-6.520228970000005, 42.64094086], [-6.520032140000012, 42.641559210000025], [-6.5195410700000025, 42.64236669000002], [-6.518330359999993, 42.64386263], [-6.517910540000003, 42.64437978000001], [-6.517826319999983, 42.644616489999976], [-6.517742100000021, 42.64485318999999], [-6.51803984999998, 42.646239700000024], [-6.517959179999991, 42.64653931999999], [-6.517416299999979, 42.64729437], [-6.51714179999999, 42.648050160000025], [-6.516966219999972, 42.64904603000002], [-6.516927609999982, 42.65009171999998], [-6.517121879999991, 42.651589460000025], [-6.515687189999994, 42.65092222999999], [-6.514094810000017, 42.650178779999976], [-6.512649590000024, 42.64950282000001], [-6.512102679999998, 42.64932152], [-6.50748384000002, 42.64852678], [-6.504110640000022, 42.64775673999998], [-6.500392599999998, 42.646709009999995], [-6.499892939999995, 42.646499189999986], [-6.4974304300000085, 42.647609999999986], [-6.497197990000018, 42.647815200000025], [-6.496785690000024, 42.648728240000025], [-6.496161990000019, 42.64913447999999], [-6.495588590000011, 42.64935009999999], [-6.495274429999995, 42.64962083], [-6.493881160000001, 42.65218458999999], [-6.493453769999974, 42.65261185000003], [-6.492080540000018, 42.653140010000016], [-6.491702929999974, 42.65336764], [-6.490835310000023, 42.65442961000002], [-6.490243829999997, 42.65519502000001], [-6.489417419999995, 42.65590456000001], [-6.489146570000003, 42.65673220999997], [-6.489051539999991, 42.658085760000006], [-6.489233899999988, 42.65981803], [-6.487469130000022, 42.66054716000002], [-6.486620889999983, 42.66108627], [-6.486118959999999, 42.66214606], [-6.485365609999974, 42.66263723999998], [-6.485536109999998, 42.66313629000001], [-6.486780870000018, 42.666781119999996], [-6.492725220000011, 42.67814328999998], [-6.495282299999985, 42.67869547999999], [-6.494360889999996, 42.68032640000001], [-6.494158760000005, 42.68194433999997], [-6.493655479999973, 42.68385061999999], [-6.4934034899999915, 42.68436255], [-6.492639859999997, 42.68467400999998], [-6.491574060000005, 42.68525581], [-6.490444570000022, 42.68513720999999], [-6.489887549999992, 42.68543333000002], [-6.48962425000002, 42.686179719999984], [-6.48799790999999, 42.68677858000001], [-6.48688482, 42.68734827999998], [-6.484900809999999, 42.68835868999997], [-6.475331159999996, 42.690315629999986], [-6.478004390000024, 42.69490760999997], [-6.4761084799999935, 42.69571259999998], [-6.474303340000006, 42.69661384], [-6.4731705099999886, 42.69665724999999], [-6.47290627000001, 42.69695340999999], [-6.473256059999983, 42.69775318000001], [-6.4723688400000015, 42.69869855000002], [-6.471714640000016, 42.69966385999999], [-6.4710051299999805, 42.699856469999986], [-6.470952749999981, 42.70066845000002], [-6.47011821000001, 42.70168424000002], [-6.4694324000000165, 42.70274053999998], [-6.469719919999989, 42.70395639999998], [-6.46857712000002, 42.70557581000003], [-6.468338710000012, 42.707212819999995], [-6.467330070000003, 42.70795472999998], [-6.466852019999976, 42.708797619999984], [-6.465685899999983, 42.70890499000001], [-6.464699600000017, 42.70895288000003], [-6.463977600000021, 42.70936193], [-6.462732640000013, 42.70958872], [-6.461788769999998, 42.71105797000001], [-6.459425259999989, 42.71202991000001], [-6.455310499999996, 42.71776396000001], [-6.438088339999979, 42.74174808999999], [-6.436947910000015, 42.741890409999996], [-6.434933469999976, 42.741248600000006], [-6.430329389999997, 42.741936039999985], [-6.4304941400000075, 42.74337178000002], [-6.428340009999999, 42.74861382], [-6.427810079999972, 42.74963817999998], [-6.427511620000018, 42.75011085], [-6.427181070000017, 42.75063849999998], [-6.42542622000002, 42.75315823], [-6.42463613000001, 42.75301080999998], [-6.422422299999994, 42.75474286999997], [-6.418898619999993, 42.75576668999997], [-6.417308839999976, 42.75574217000002], [-6.415173209999978, 42.75667936999997], [-6.41202174, 42.75714260000001], [-6.411212299999988, 42.75731081999999], [-6.409592410000016, 42.75787236000002], [-6.408730009999999, 42.7581682], [-6.406886199999974, 42.75863733], [-6.404190350000022, 42.759167820000016], [-6.40288855, 42.759494700000005], [-6.4024632499999825, 42.75998457999998], [-6.401782249999997, 42.76049107], [-6.399944290000008, 42.76017654999998], [-6.399770049999972, 42.76011870000002], [-6.395676209999976, 42.760114269999974], [-6.394729530000006, 42.76023242000002], [-6.393837469999994, 42.76023187999999], [-6.392335820000028, 42.76003331999999], [-6.388907399999994, 42.75923454000002], [-6.3852152200000205, 42.75919981999999], [-6.383707619999996, 42.75821795000002], [-6.381941369999993, 42.75674846999999], [-6.380526529999997, 42.75522354999998], [-6.378142679999996, 42.75362819999998], [-6.372755680000012, 42.75027552], [-6.37236729, 42.75009788], [-6.37036439000002, 42.74921146999998], [-6.370474240000021, 42.74763247999999], [-6.370334749999984, 42.74663712], [-6.369576110000025, 42.74593913000001], [-6.36845790000001, 42.74536877999998], [-6.364062750000016, 42.743616239999994], [-6.368270789999997, 42.737180369999976], [-6.3680563600000255, 42.73502565000001], [-6.3684023999999795, 42.73307052000001], [-6.366423740000016, 42.73058956], [-6.364108030000011, 42.72909994999998], [-6.361237870000025, 42.72751853], [-6.354345930000022, 42.72450631999999], [-6.353770979999979, 42.72426204999999], [-6.352713709999989, 42.72390586], [-6.348459160000004, 42.72291396000003], [-6.347144370000024, 42.719359699999984], [-6.345572300000015, 42.716695370000025], [-6.344652870000004, 42.71299443999999], [-6.3430552199999966, 42.70848493], [-6.340882449999981, 42.700534489999995], [-6.3394720399999756, 42.695407139999986], [-6.338939600000003, 42.69390093999999], [-6.3381045699999845, 42.69221447000001], [-6.336403099999984, 42.68939169999999], [-6.337479519999988, 42.68305720000001], [-6.337906019999991, 42.68304475999997], [-6.338643079999997, 42.681312409999975], [-6.338665750000018, 42.678547390000006], [-6.339505180000003, 42.676676980000025], [-6.340238969999973, 42.67534090999999], [-6.339864700000021, 42.67450542], [-6.341028349999988, 42.673904160000006], [-6.341892719999976, 42.672501239999974], [-6.3437959999999975, 42.67204042999998], [-6.344523630000026, 42.67195613000001], [-6.34549045, 42.67200889999998], [-6.347059950000016, 42.67237720000003], [-6.348255380000012, 42.672369230000015], [-6.3495600599999875, 42.672123940000006], [-6.350728699999991, 42.67207171000001], [-6.353429800000015, 42.672379750000005], [-6.354348949999974, 42.672226739999985], [-6.3548328900000115, 42.672149520000005], [-6.356468899999982, 42.671939450000025], [-6.358233989999974, 42.67186063999998], [-6.362645530000009, 42.67039839], [-6.365295000000003, 42.67042853999999], [-6.367640320000021, 42.67092680000002], [-6.368926250000015, 42.671465220000016], [-6.369945200000018, 42.67157928], [-6.370735579999973, 42.67197920000001], [-6.372155980000002, 42.673423060000005], [-6.374290369999983, 42.67520603000003], [-6.377161279999996, 42.676390930000025], [-6.3781408500000225, 42.67622693999999], [-6.37914674000001, 42.6765484], [-6.379801289999989, 42.67736646999998], [-6.3809027400000105, 42.67787419000001], [-6.380146780000018, 42.67653687000001], [-6.381498120000003, 42.67535336999998], [-6.3831862000000115, 42.67475418999999], [-6.383832799999993, 42.67385264000001], [-6.384374159999993, 42.67326034000001], [-6.385357499999998, 42.672717999999975], [-6.385531370000024, 42.67187544000001], [-6.385992750000014, 42.671159450000005], [-6.385965339999984, 42.67020579000001], [-6.3860987900000055, 42.66974262000002], [-6.387491660000023, 42.66775643], [-6.387648409999997, 42.666824340000005], [-6.387658149999993, 42.66677902999999], [-6.3880505700000185, 42.664795449999986], [-6.390648240000019, 42.66298064], [-6.399468990000003, 42.66096300999999], [-6.402963609999972, 42.65301628999998], [-6.401663810000002, 42.64886790000003], [-6.395669440000006, 42.64048279000002], [-6.395525710000015, 42.64030696999998], [-6.393662979999988, 42.63722869999998], [-6.3894994899999915, 42.63848667000002], [-6.387352169999986, 42.63914455999998], [-6.384907989999988, 42.637479050000024], [-6.380694049999988, 42.63398386], [-6.379582190000008, 42.63416977999998], [-6.37472004, 42.631305810000015], [-6.374536519999992, 42.630392770000014], [-6.373431359999984, 42.62754393], [-6.3724401599999965, 42.62544810000003], [-6.371715750000021, 42.624226840000006], [-6.390267660000006, 42.614692219999995], [-6.3914742200000205, 42.61244137], [-6.3916421700000114, 42.61239137000001], [-6.392446310000025, 42.61171021000001], [-6.3964816000000155, 42.60924934000002], [-6.396056789999989, 42.6079383], [-6.394711359999974, 42.60381816], [-6.394705450000004, 42.60348517], [-6.394696609999983, 42.60309824000001], [-6.394947339999987, 42.60098376000002], [-6.394750950000002, 42.599837019999995], [-6.394223169999975, 42.599096299999985], [-6.392930130000025, 42.60042228999998], [-6.392335370000012, 42.60069204000001], [-6.391722539999989, 42.60062916999999], [-6.391320940000014, 42.60041596000002], [-6.389405380000028, 42.59880688999999], [-6.3892057799999975, 42.59849765000001], [-6.3891069200000175, 42.59802334], [-6.389205170000025, 42.597363099999995], [-6.3894454200000155, 42.595726179999986], [-6.3892638099999886, 42.59507423000002], [-6.38890164999998, 42.59468876], [-6.387624459999984, 42.59383513], [-6.386842800000011, 42.59357913000002], [-6.385628979999979, 42.593669079999984], [-6.3856099800000266, 42.59331845999998], [-6.385557880000022, 42.59280675000002], [-6.385230750000005, 42.59104255], [-6.384374630000025, 42.589185929999985], [-6.384242719999975, 42.58855052000001], [-6.38407964999999, 42.58666440000002], [-6.384285970000008, 42.58574884000001], [-6.384754559999976, 42.584276260000024], [-6.384770600000024, 42.58344736999999], [-6.384776919999979, 42.58311401999998], [-6.385038169999973, 42.58118833999998], [-6.387137940000002, 42.574291800000026], [-6.387587940000003, 42.573378030000015], [-6.3880865500000255, 42.572012599999994], [-6.388201770000023, 42.57076656999999], [-6.389393849999976, 42.566238020000014], [-6.389588310000022, 42.56465648], [-6.3898805800000105, 42.56353125999999], [-6.392253149999988, 42.56033639999998], [-6.3965442800000005, 42.55658932], [-6.400157569999976, 42.55158359000001], [-6.400129289999995, 42.55128728], [-6.399959490000015, 42.55107622000003], [-6.392297199999973, 42.54587385999997], [-6.3912511400000085, 42.546120970000004], [-6.386360630000013, 42.54756242000002], [-6.384952189999979, 42.547640100000024], [-6.385036329999991, 42.546944259999975], [-6.385204120000026, 42.54666916999997], [-6.391133819999993, 42.544854810000004], [-6.392175220000013, 42.54205056000001], [-6.39337531000001, 42.53723359000003], [-6.392380349999996, 42.536398650000024], [-6.389691239999991, 42.53418217000001], [-6.388649699999974, 42.5336097], [-6.387077710000028, 42.533133969999994], [-6.386599260000025, 42.53284196999999], [-6.3863123900000005, 42.53249027999999], [-6.383970350000027, 42.52993021999998], [-6.3815667100000155, 42.52802925999998], [-6.378640200000007, 42.525234230000024], [-6.3761764700000185, 42.51859853000002], [-6.375582109999982, 42.51773360999999], [-6.368847749999986, 42.51201600000002], [-6.372075010000003, 42.50526660000003], [-6.3721815200000265, 42.504984320000005], [-6.373266030000025, 42.502070909999986], [-6.373357639999995, 42.50105968999998], [-6.373296620000019, 42.50015202999998], [-6.375014060000012, 42.50018245000001], [-6.376367449999975, 42.50045770000003], [-6.378175189999979, 42.50103468999998], [-6.378912440000022, 42.50094089999999], [-6.38034663000002, 42.50045733000002], [-6.3813919400000145, 42.50066057999999], [-6.38163006000002, 42.50078861999998], [-6.3824941899999885, 42.500114759999974], [-6.389669990000016, 42.49576941999999], [-6.394554130000017, 42.49563370999999], [-6.402340159999994, 42.492917320000004], [-6.410972679999986, 42.491012599999976], [-6.4137669099999925, 42.48937152000002], [-6.413756850000027, 42.48851638999997], [-6.413704339999981, 42.484646010000006], [-6.41463680999999, 42.48255616], [-6.4159821999999735, 42.478220850000014], [-6.415520979999997, 42.47533514999998], [-6.411150039999995, 42.472575010000014], [-6.407170559999997, 42.470073189999994], [-6.4076707500000225, 42.46606928], [-6.407899499999985, 42.464234550000015], [-6.4271016000000145, 42.438367529999994], [-6.427956940000001, 42.43822487], [-6.433863159999987, 42.44019098000001], [-6.436616609999987, 42.44185525], [-6.440233719999981, 42.441305399999976], [-6.442168209999977, 42.439779509999994], [-6.446097160000022, 42.438490720000004], [-6.448272589999988, 42.43847925], [-6.45173767, 42.43870801000003], [-6.459312950000026, 42.43675050000002], [-6.463595479999981, 42.43482911000001], [-6.4662122299999965, 42.43290397999999], [-6.469999229999985, 42.43104238000001], [-6.4706683699999985, 42.43083300000001], [-6.471701470000028, 42.430171359999974], [-6.4736972499999865, 42.42999377000001], [-6.47609405999998, 42.429155630000025], [-6.477733010000009, 42.428241420000006], [-6.480754139999988, 42.42792450000002], [-6.4826600700000085, 42.42744333000002], [-6.484605699999975, 42.42658272], [-6.488767789999997, 42.42623986000001], [-6.492363179999984, 42.425761050000006], [-6.493596449999984, 42.423895500000015], [-6.493904840000027, 42.42310269000001], [-6.494074909999995, 42.42200795000002], [-6.493676579999999, 42.421182680000015], [-6.49288974000001, 42.42080148000002], [-6.492664880000007, 42.419160499999975], [-6.488897109999982, 42.41740242999998], [-6.488850549999995, 42.41678252999998], [-6.488300089999996, 42.41540358999998], [-6.4883369699999776, 42.414754140000014], [-6.487384879999979, 42.412486969999975], [-6.487331030000007, 42.41151610999998], [-6.4849020600000244, 42.41000525999999], [-6.482981460000019, 42.40933432999998], [-6.4805599900000175, 42.40927290000002], [-6.479189000000019, 42.408432119999986], [-6.478219749999994, 42.40826346], [-6.477961230000005, 42.40798317000002], [-6.476369270000021, 42.407320149999975], [-6.474983350000002, 42.40686697000001], [-6.472694849999982, 42.40635111], [-6.470830390000003, 42.40537210999997], [-6.468248609999989, 42.40460390999999], [-6.469161750000012, 42.40375683000002], [-6.469256929999972, 42.40217813999999], [-6.47009589999999, 42.400207720000026], [-6.471496049999985, 42.398940649999986], [-6.471684770000024, 42.397737310000025], [-6.472885220000023, 42.39747578999999], [-6.473209220000001, 42.39740293], [-6.473585909999997, 42.397184400000015], [-6.473973679999972, 42.3965063], [-6.474736199999995, 42.39601492000003], [-6.476279910000017, 42.38767481000002], [-6.483519520000016, 42.38855333999999], [-6.48744554000001, 42.38903714000003], [-6.4967033300000026, 42.38622448000001], [-6.495333700000003, 42.39065155999998], [-6.496788009999989, 42.39124648000001], [-6.501058960000023, 42.391593209999996], [-6.509329990000026, 42.39374422999998], [-6.5127315199999884, 42.39809718999999], [-6.514161170000023, 42.39933196999999], [-6.517274359999988, 42.40003779], [-6.521021959999985, 42.40230881000002], [-6.521595439999999, 42.402786419999984], [-6.522972509999988, 42.40307723000001], [-6.52348293, 42.403079530000014], [-6.525986569999986, 42.40287638000001], [-6.527822560000004, 42.402900869999996], [-6.52902382000002, 42.402872849999994], [-6.530814869999972, 42.40252948], [-6.5311918699999865, 42.40253586], [-6.531634059999988, 42.40262127], [-6.532819109999991, 42.40317001], [-6.534309919999998, 42.40375432000002], [-6.534743020000008, 42.40411012999999], [-6.536107529999981, 42.40482437999998], [-6.537601940000002, 42.40525545999998], [-6.538422190000006, 42.40536517999999], [-6.539928229999987, 42.405354639999985], [-6.540782309999997, 42.40520215999999], [-6.544056640000008, 42.40487574000002], [-6.546232729999986, 42.404466179999986], [-6.547869549999973, 42.403974240000025], [-6.549655949999988, 42.403549680000026], [-6.555167310000002, 42.40303648999998], [-6.5555210699999975, 42.403061519999994], [-6.555659049999974, 42.40313828000001], [-6.556598930000007, 42.406008559999975], [-6.557018140000025, 42.40676093000002], [-6.5592168100000094, 42.407394950000025], [-6.561904169999991, 42.407860649999975], [-6.5631733600000075, 42.40817234000002], [-6.564617460000022, 42.408568609999975], [-6.56604200999999, 42.40926261999999], [-6.567095960000017, 42.40963498999997], [-6.5684775400000035, 42.41021325000003], [-6.56950482000002, 42.410757520000004], [-6.570658410000021, 42.41117177000001], [-6.571665820000021, 42.41136546000001], [-6.572556410000004, 42.411427720000006], [-6.573810270000024, 42.413819820000015], [-6.574316689999989, 42.414605429999995], [-6.575121700000011, 42.41679542000003], [-6.5753140499999745, 42.41804106000001], [-6.575546999999972, 42.41871813], [-6.57617405000002, 42.41991417000003], [-6.577076060000024, 42.42102957999998], [-6.578229799999974, 42.42208309], [-6.578861969999991, 42.42251356000003], [-6.579962840000007, 42.42306445000003], [-6.580494750000014, 42.42322790999998], [-6.581159249999985, 42.42358532999998], [-6.581618530000014, 42.423967170000026], [-6.582042609999974, 42.424584219999986], [-6.582175520000021, 42.42521038000001], [-6.583552569999995, 42.42719333000002], [-6.586089360000017, 42.429049899999995], [-6.58694263000001, 42.43015774999998], [-6.587634770000022, 42.43078439999999], [-6.588626840000018, 42.43155472000001], [-6.59046404999998, 42.43264971999997], [-6.592346060000011, 42.43346414000001], [-6.593267289999972, 42.43405655999999], [-6.594979500000022, 42.43487626000001], [-6.596078970000008, 42.435183919999986], [-6.597961129999987, 42.43599824], [-6.598972530000026, 42.43667782], [-6.5996390500000075, 42.43727818999997], [-6.600115019999976, 42.437947570000006], [-6.600421349999976, 42.43883840000001], [-6.601429629999984, 42.44031045000003], [-6.602332209999986, 42.44078631999997], [-6.606481099999996, 42.435126939999975], [-6.615474829999982, 42.445450660000006], [-6.633938639999997, 42.45025519000001], [-6.639693640000019, 42.451751590000015], [-6.662030990000005, 42.448436689999994], [-6.665777189999972, 42.45325107999997], [-6.667005770000003, 42.45664234999998], [-6.667531329999974, 42.45809320000001], [-6.676836229999992, 42.45979354999997], [-6.687704680000024, 42.45994803000002], [-6.6895971000000145, 42.46007610999999], [-6.687695099999985, 42.457093989999976], [-6.6873948300000166, 42.45695059000002], [-6.687700889999974, 42.45677864999999], [-6.688306160000025, 42.45673212999998], [-6.689386860000013, 42.45649918999999], [-6.689908740000021, 42.456275259999984], [-6.691091749999998, 42.45550774999998], [-6.691946060000021, 42.45535412999999], [-6.692962869999974, 42.45506919000002], [-6.693869360000008, 42.4545627], [-6.694410160000018, 42.45404100000002], [-6.694652299999973, 42.45360998000001], [-6.694945539999992, 42.45260103999999], [-6.696165829999984, 42.451436090000016], [-6.6965710700000045, 42.451116850000005], [-6.6978039300000205, 42.45014056000002], [-6.700583419999987, 42.44737642000001], [-6.703362219999974, 42.44687231], [-6.704932960000008, 42.445263720000014], [-6.7128307099999915, 42.44456649], [-6.713887989999989, 42.44455919000001], [-6.714921339999989, 42.44414746000001], [-6.715630680000004, 42.44360217000002], [-6.71766107000002, 42.44093394999999], [-6.718676029999983, 42.439802429999986], [-6.719273760000021, 42.43778401999998], [-6.720982939999999, 42.43482903], [-6.723928209999997, 42.43160868000001], [-6.720789109999998, 42.426969980000024], [-6.720131750000007, 42.42599637000001], [-6.7201822499999935, 42.425553509999986], [-6.720499280000013, 42.422760840000024], [-6.720843810000019, 42.422011269999985], [-6.72111682000002, 42.420669739999994], [-6.721039780000012, 42.41957371000001], [-6.720514530000003, 42.41812306999998], [-6.720153630000027, 42.417126310000015], [-6.720266299999992, 42.416771470000015], [-6.721411709999984, 42.41271825000001], [-6.724400170000024, 42.41024385999998], [-6.724532580000016, 42.40940214], [-6.73047342000001, 42.406111099999976], [-6.734022799999991, 42.404500600000006], [-6.7371098300000085, 42.402472880000005], [-6.73905357000001, 42.401653020000026], [-6.739904579999973, 42.40043663], [-6.742238740000005, 42.398829569999975], [-6.743979220000028, 42.39786319000001], [-6.746149880000019, 42.39698176000002], [-6.747188440000002, 42.39585821999998], [-6.7494400599999835, 42.39429875000002], [-6.752499639999996, 42.393253000000016], [-6.759652850000009, 42.38651702999999], [-6.769897979999996, 42.38174981999998], [-6.771255339999982, 42.37987720000001], [-6.771665569999982, 42.37962957000002], [-6.77415572000001, 42.37882711999998], [-6.775480140000013, 42.37964785999998], [-6.778645700000027, 42.380993090000004], [-6.78154274000002, 42.38170779000001], [-6.78798334999999, 42.38257530999999], [-6.788602289999972, 42.382365730000004], [-6.790977290000001, 42.38247617000002], [-6.794051920000015, 42.382104140000024], [-6.7951002899999935, 42.38216842999998], [-6.795904269999994, 42.38200669999998], [-6.797777740000015, 42.38286298999998], [-6.800106630000016, 42.383415979999995], [-6.801884840000014, 42.38369908999999], [-6.801705570000024, 42.384551450000004], [-6.801882359999979, 42.38586922000002], [-6.802251630000001, 42.386352190000025], [-6.803822200000013, 42.386011859999996], [-6.806155320000016, 42.385628129999986], [-6.808344890000001, 42.38487995999998], [-6.809583060000023, 42.38466767], [-6.810268380000025, 42.384752909999975], [-6.817835290000005, 42.38635561000001], [-6.819049199999995, 42.38614402000002], [-6.820804319999979, 42.38564422000002], [-6.821745350000015, 42.38953867999999], [-6.822379950000027, 42.39078709], [-6.823479710000015, 42.391893900000014], [-6.825454439999987, 42.39320556000001], [-6.826361169999984, 42.393733510000004], [-6.827369910000016, 42.39414098999998], [-6.828361070000028, 42.39445899999998], [-6.830184900000006, 42.39468611000001], [-6.832017109999981, 42.394651780000004], [-6.833572389999972, 42.39545509999999], [-6.8339794199999915, 42.39595471000001], [-6.835668059999989, 42.39854537999997], [-6.838070889999983, 42.40168834000002], [-6.841557389999991, 42.40287697000002], [-6.84230728, 42.40361715], [-6.843512659999988, 42.405845750000026], [-6.841003639999997, 42.40693848000001], [-6.840037419999987, 42.40723202999999], [-6.839903839999977, 42.408028890000026], [-6.838065420000021, 42.40916207999999], [-6.837408379999999, 42.40934619000001], [-6.835050509999974, 42.40933519999999], [-6.831284779999976, 42.40835382], [-6.82990891999998, 42.410101689999976], [-6.82981792999999, 42.41020378000002], [-6.83031428999999, 42.41216810999998], [-6.830294809999998, 42.41264597999998], [-6.830384460000005, 42.41312020999999], [-6.829797269999972, 42.41485067999997], [-6.828917820000015, 42.41677100999999], [-6.828509789999998, 42.41705479000001], [-6.827638639999975, 42.417516139999975], [-6.826980110000022, 42.418276520000006], [-6.8262395099999935, 42.418886559999976], [-6.825875580000002, 42.41909683], [-6.824171289999981, 42.419847129999994], [-6.820960990000003, 42.42141307000003], [-6.821295889999988, 42.42192412999998], [-6.822965210000007, 42.42399338000001], [-6.824806739999985, 42.42589477000001], [-6.82394327999998, 42.426085709999995], [-6.822029509999993, 42.42639277000001], [-6.815610800000002, 42.42676906999998], [-6.814648630000022, 42.426936220000016], [-6.814380019999987, 42.42711624999998], [-6.81427291, 42.42735393999999], [-6.814279880000015, 42.427668849999975], [-6.814470420000021, 42.42800466], [-6.814765770000008, 42.42826495000003], [-6.818991340000025, 42.429996879999976], [-6.819480800000008, 42.43025067000002], [-6.820241389999978, 42.430765529999974], [-6.820640379999986, 42.43113039000002], [-6.82102494999998, 42.43165779999998], [-6.821587889999989, 42.43271951000003], [-6.821781120000026, 42.43329834000002], [-6.821792290000019, 42.43408133999998], [-6.821660189999989, 42.43470703999998], [-6.821384430000023, 42.43524751000001], [-6.820801879999976, 42.436383490000026], [-6.820251410000026, 42.4377255], [-6.82022121, 42.43790659000001], [-6.820037319999983, 42.43900224999999], [-6.820057440000028, 42.43953283000002], [-6.820383059999983, 42.44108870000002], [-6.820370299999979, 42.442277690000026], [-6.820704550000016, 42.44637246000002], [-6.820857699999976, 42.446691499999986], [-6.821958289999998, 42.448194460000025], [-6.8224921300000005, 42.449374190000015], [-6.822541559999991, 42.44978673000003], [-6.822475129999987, 42.450293190000025], [-6.822511500000019, 42.45148954000001], [-6.8227683900000216, 42.452912620000006], [-6.822370209999974, 42.45396140999998], [-6.82203407999998, 42.45443186], [-6.8211220399999775, 42.45502958999998], [-6.819986180000001, 42.455346650000024], [-6.819206059999999, 42.45571486], [-6.817032680000011, 42.45696693999997], [-6.8150825700000155, 42.45829257999998], [-6.814076469999975, 42.45914549999998], [-6.813647530000026, 42.45969105], [-6.812916869999981, 42.461075040000026], [-6.811451680000005, 42.46117788999999], [-6.8111736700000165, 42.462006540000004], [-6.810884869999995, 42.46245735999997], [-6.809560669999996, 42.465283769999985], [-6.808816770000021, 42.46645207], [-6.808467380000025, 42.46750818999999], [-6.808315450000009, 42.468611769999995], [-6.8083912700000155, 42.469059449999975], [-6.808597340000006, 42.46944877999999], [-6.8095127000000275, 42.47030252000002], [-6.811522099999991, 42.471746499999995], [-6.812750960000017, 42.47235384999999], [-6.814233969999975, 42.47333990999999], [-6.814741799999979, 42.47389024], [-6.8154208500000095, 42.47605562000001], [-6.815625450000027, 42.47721933999998], [-6.8169307, 42.47967897000001], [-6.818076459999986, 42.48131552000001], [-6.81864564, 42.48187279000001], [-6.8192187600000125, 42.482294869999976], [-6.8197847700000125, 42.48260011999997], [-6.821009090000018, 42.48292841], [-6.822222290000013, 42.48347315000001], [-6.823862990000009, 42.484444800000006], [-6.825472730000001, 42.48570560000002], [-6.824744590000023, 42.486333230000014], [-6.823919149999995, 42.48736028000002], [-6.823403869999993, 42.488286930000015], [-6.823099990000003, 42.489089449999994], [-6.822734910000008, 42.49052432000002], [-6.8227818899999875, 42.490855899999985], [-6.823245849999978, 42.49128159999998], [-6.824642460000007, 42.49183820000002], [-6.826693990000024, 42.49295814999999], [-6.828236430000004, 42.493311730000016], [-6.8288120500000105, 42.49337350000002], [-6.829863240000009, 42.493293300000005], [-6.830826049999985, 42.49308098], [-6.831856589999973, 42.492623270000024], [-6.832498569999984, 42.49217856000001], [-6.832727069999976, 42.49213488999999], [-6.833082479999973, 42.49217700999998], [-6.83328554000002, 42.49231427000001], [-6.833567529999982, 42.492846869999994], [-6.833898920000024, 42.49359032000001], [-6.833965620000015, 42.49388521999998], [-6.833980359999998, 42.49452401999997], [-6.833745609999994, 42.49526122999998], [-6.83315927000001, 42.496019219999994], [-6.832381429999998, 42.49663055000002], [-6.831463970000016, 42.49714750999999], [-6.831085219999977, 42.49752036000001], [-6.830734549999988, 42.49815339000003], [-6.830782510000006, 42.49834088], [-6.831212400000027, 42.49860561000003], [-6.833615780000002, 42.50010082], [-6.834971800000005, 42.500784710000005], [-6.837164819999998, 42.50341242000002], [-6.837432379999996, 42.504204809999976], [-6.837510049999992, 42.505075610000006], [-6.837230550000015, 42.50607544000002], [-6.836090679999984, 42.50852678000001], [-6.835508489999995, 42.51014903999999], [-6.8347387200000185, 42.51109327], [-6.834507359999975, 42.511290110000004], [-6.833660880000025, 42.51197578], [-6.832373290000021, 42.512613199999976], [-6.830560149999997, 42.51301609000001], [-6.826706810000019, 42.512496750000025], [-6.824840639999991, 42.511433650000015], [-6.824192919999973, 42.510392809999985], [-6.823485759999983, 42.508975780000014], [-6.822718199999997, 42.508164050000005], [-6.821154200000024, 42.50706377], [-6.820583030000023, 42.50667765999998], [-6.8183588200000145, 42.50572545], [-6.817963070000019, 42.505621599999984], [-6.816096940000023, 42.50515261999999], [-6.814527559999988, 42.50515994], [-6.813522180000007, 42.50543656999997], [-6.812620390000006, 42.50601588000001], [-6.812155259999997, 42.506571640000004], [-6.811902799999984, 42.50782262000001], [-6.8118985799999905, 42.50935347000001], [-6.812153290000026, 42.50993926000001], [-6.812898080000025, 42.51077882999999], [-6.813142299999981, 42.511391979999985], [-6.813217580000014, 42.51202876999997], [-6.8128527399999825, 42.51283329], [-6.811961359999998, 42.51338523999999], [-6.810839840000028, 42.51375575999998], [-6.808234939999977, 42.51395056000001], [-6.8066879699999845, 42.513930010000024], [-6.80600819, 42.51415973000002], [-6.805233129999976, 42.514824799999985], [-6.804422699999975, 42.51711180000001], [-6.803743220000001, 42.519952699999976], [-6.801647500000001, 42.521120870000004], [-6.800693509999974, 42.52164779999998], [-6.800493539999991, 42.521762490000015], [-6.800957840000024, 42.522593459999996], [-6.8014343099999905, 42.52342401999999], [-6.802349740000011, 42.52506835999998], [-6.803103060000012, 42.52644796999999], [-6.811277630000006, 42.526950269999986], [-6.813341620000017, 42.52725966000003], [-6.815565110000023, 42.52778878999999], [-6.817890879999993, 42.52823792999999], [-6.81926076000002, 42.528502849999995], [-6.82501861999998, 42.52889572999999], [-6.8328798100000085, 42.52983914999999], [-6.837593560000016, 42.530275389999986], [-6.838488729999995, 42.530182319999994], [-6.839494380000019, 42.52990546000001], [-6.840725899999995, 42.529341880000004], [-6.841905460000021, 42.52912219000001], [-6.847028939999973, 42.52869787999998], [-6.850187559999995, 42.529363260000025], [-6.85030826000002, 42.53007862999999], [-6.850913670000011, 42.530302259999985], [-6.851450010000008, 42.53053091999999], [-6.853722389999973, 42.53230203999999], [-6.854720639999982, 42.533289430000025], [-6.855206469999985, 42.533782859999974], [-6.855694400000004, 42.534412780000025], [-6.856642270000009, 42.53550967000001], [-6.857222180000008, 42.536108979999995], [-6.857502140000008, 42.536483120000014], [-6.858430929999997, 42.537507070000004], [-6.860239439999987, 42.53802773000001], [-6.86319592000001, 42.538702279999995], [-6.864133439999989, 42.538504939999996], [-6.8653053200000045, 42.53875077999999], [-6.8661588400000255, 42.53896774999998], [-6.867454950000024, 42.539391249999994], [-6.868698189999975, 42.53974720000002], [-6.8698462199999994, 42.540079330000026], [-6.870646930000021, 42.540426000000025], [-6.870927160000008, 42.54056680000002], [-6.871998749999989, 42.540961830000015], [-6.872619820000011, 42.54108127000001], [-6.873239979999994, 42.54124860000002], [-6.873636519999991, 42.54135659000002], [-6.873838939999985, 42.54145958999999], [-6.874071839999999, 42.54170111000002], [-6.875863439999989, 42.54190514999999], [-6.876036849999991, 42.54208129], [-6.87614554999999, 42.54223323999997], [-6.875844889999996, 42.54250995000001], [-6.875513109999986, 42.54287414999999], [-6.875297530000012, 42.54320739999997], [-6.875153029999979, 42.54354814999999], [-6.87523176000002, 42.54383631000002], [-6.8754743100000155, 42.544233280000014], [-6.875926660000005, 42.54477351000003], [-6.875969269999985, 42.54554010999999], [-6.87565090999999, 42.54684838999998], [-6.876187630000004, 42.54705981000001], [-6.877028580000001, 42.54768050000001], [-6.877634590000014, 42.54800752], [-6.878055150000023, 42.548191350000025], [-6.878814209999973, 42.548374509999974], [-6.879872120000016, 42.550215089999995], [-6.880273320000015, 42.55120542999998], [-6.880671099999972, 42.55178711000002], [-6.8812787300000196, 42.55235535999998], [-6.880988930000001, 42.55312154000001], [-6.881346020000024, 42.55467613000002], [-6.883540989999972, 42.55595674], [-6.8844058000000246, 42.55554651], [-6.885484399999996, 42.55557830999999], [-6.887264290000019, 42.5549992], [-6.889137919999996, 42.554446489999975], [-6.890586030000009, 42.55406525000001], [-6.891676669999981, 42.55380471000001], [-6.89388163000001, 42.55299314000001], [-6.894255709999982, 42.554111309999996], [-6.89498334000001, 42.55415947], [-6.895292830000017, 42.555022329999986], [-6.895436969999992, 42.55635902], [-6.895529389999979, 42.55725627999999], [-6.895287180000025, 42.55903833000002], [-6.89470584999998, 42.56026465999997], [-6.8940756999999735, 42.56266319000002], [-6.893830270000024, 42.56322079], [-6.893769249999991, 42.563610040000015], [-6.894586570000001, 42.56382531999998], [-6.895173360000001, 42.56385936999999], [-6.895736399999976, 42.563903219999986], [-6.896515029999989, 42.564083789999984], [-6.8976954999999975, 42.56445775999998], [-6.898705870000015, 42.56425224999998], [-6.898925990000009, 42.56387558], [-6.899111210000001, 42.56274377], [-6.900316780000026, 42.562153420000016], [-6.901495609999984, 42.56132987000001], [-6.902167469999995, 42.56077570999997], [-6.902918979999981, 42.56032687999999], [-6.903353910000021, 42.559879850000016], [-6.902838429999974, 42.55864587000002], [-6.904372969999997, 42.557864180000024], [-6.905273079999972, 42.55804054999999], [-6.906355299999973, 42.558012599999984], [-6.906486560000019, 42.55777401], [-6.906918469999994, 42.55766921999998], [-6.907490069999994, 42.55804588000001], [-6.912528269999996, 42.563042010000004], [-6.915037869999992, 42.56713402999998], [-6.91865236000001, 42.567469500000016], [-6.923418360000028, 42.568683780000015], [-6.9328570499999955, 42.56923310000002], [-6.937040060000015, 42.572402710000006], [-6.942529850000028, 42.575229999999976], [-6.9463287799999875, 42.578862689999994], [-6.945145290000028, 42.58173076000003], [-6.944656199999997, 42.58344038000001], [-6.9443747700000245, 42.584386499999994], [-6.9441936000000055, 42.58479792000003], [-6.943293709999978, 42.585405200000025], [-6.939284450000002, 42.58713702], [-6.938699170000007, 42.58751733999998], [-6.9378739399999745, 42.589310520000026], [-6.937466219999976, 42.58980177000001], [-6.936126209999998, 42.59077529000001], [-6.935300519999998, 42.59120888000001], [-6.934567290000018, 42.59175633000001], [-6.9336146100000065, 42.59268949], [-6.933129629999996, 42.59292226000002], [-6.931091840000022, 42.59346049999999], [-6.930220270000007, 42.593553480000026], [-6.926522190000014, 42.593464359999984], [-6.925941330000001, 42.593529320000016], [-6.9255156799999895, 42.59393109000001], [-6.925199739999982, 42.59452719000001], [-6.924858640000025, 42.59491706], [-6.924555450000014, 42.59513456000002], [-6.923410980000028, 42.594957720000025], [-6.922027500000013, 42.59505016999998], [-6.920530310000004, 42.59527256000001], [-6.91845343, 42.595190650000006], [-6.917476399999998, 42.59496299], [-6.916177740000023, 42.596213990000024], [-6.9150194399999805, 42.59698295999999], [-6.9140767399999845, 42.597303339999996], [-6.913090000000011, 42.59731008], [-6.911052779999977, 42.59766787000001], [-6.908535470000004, 42.59833916000002], [-6.905501549999997, 42.599325179999994], [-6.903530450000005, 42.599572550000005], [-6.902591770000015, 42.599568569999974], [-6.901561770000001, 42.599468650000006], [-6.898993829999995, 42.59874586000001], [-6.8968338199999835, 42.59791906999999], [-6.894544020000012, 42.59715969000001], [-6.892909770000017, 42.59694521], [-6.892107129999999, 42.596972530000016], [-6.8909768400000075, 42.597218080000005], [-6.888811029999999, 42.59805707999999], [-6.886803260000022, 42.59732396999999], [-6.887734120000005, 42.598768989999996], [-6.887900899999977, 42.599294559999976], [-6.887897420000002, 42.59982590999999], [-6.888009959999977, 42.60026328999999], [-6.888356240000007, 42.60053964000002], [-6.888590410000006, 42.60097287999997], [-6.888685199999998, 42.601320810000004], [-6.88916445000001, 42.60197081000001], [-6.888928360000023, 42.60268115000002], [-6.888801619999981, 42.60397304000003], [-6.88811886000002, 42.604752589999975], [-6.8872789299999795, 42.6053574], [-6.885412680000002, 42.606510300000025], [-6.885016039999982, 42.606991979999975], [-6.884779750000007, 42.60750423000002], [-6.884786309999981, 42.60819731999999], [-6.883499449999988, 42.60945657000002], [-6.883582330000024, 42.610201080000024], [-6.884040760000005, 42.61110393000001], [-6.883950289999973, 42.611413140000025], [-6.8826460199999815, 42.61239383999998], [-6.882325530000003, 42.61272887000001], [-6.88216232000002, 42.61343671999998], [-6.881566630000009, 42.614051210000014], [-6.881457399999988, 42.61445108999999], [-6.882150319999994, 42.61540000999997], [-6.882113609999976, 42.61676985999998], [-6.879982949999999, 42.61759850999999], [-6.879259409999975, 42.618118279999976], [-6.878719219999994, 42.618253649999986], [-6.8779572600000165, 42.618351519999976], [-6.876222040000016, 42.61946382000002], [-6.874918260000015, 42.62084960999999], [-6.873678849999976, 42.621701959999996], [-6.8723084100000165, 42.62162231000002], [-6.869179729999985, 42.621106929999996], [-6.866184040000007, 42.6197856], [-6.864440399999978, 42.619781509999996], [-6.863104840000005, 42.619673560000024], [-6.862055709999993, 42.619465890000015], [-6.860821999999985, 42.61962460000001], [-6.858664830000009, 42.620030550000024], [-6.856681990000027, 42.618917899999985], [-6.854360840000027, 42.618050719999985], [-6.852516509999987, 42.61759963999998], [-6.848044850000008, 42.61645358999999], [-6.846035229999984, 42.615692809999985], [-6.8445985600000085, 42.61532691999997], [-6.843103299999996, 42.61519709999999], [-6.841542240000024, 42.61538460000003], [-6.837524770000016, 42.61646489999998], [-6.836813059999997, 42.616587830000014], [-6.83532107000002, 42.61670989999999], [-6.834599389999994, 42.61686916000002], [-6.8340590600000155, 42.61740050999998], [-6.83322007999999, 42.61803191000001], [-6.830265129999987, 42.619346459999974], [-6.8289958500000125, 42.619920209999975], [-6.828384719999974, 42.620093740000016], [-6.822153780000008, 42.62186885], [-6.822244829999988, 42.62255913000001], [-6.822568769999975, 42.623070540000015], [-6.82342521999999, 42.62391530999997], [-6.824838549999981, 42.625092610000024], [-6.826177570000027, 42.62744291000001], [-6.826544730000023, 42.62786282000002], [-6.827754700000014, 42.62890282000001], [-6.828343710000013, 42.62916224000003], [-6.829656170000021, 42.62948746000001], [-6.831738610000002, 42.629642820000015], [-6.834016799999972, 42.63040384999999], [-6.837464829999988, 42.63273730999998], [-6.838812259999997, 42.63382661000003], [-6.838406239999983, 42.63396628999999], [-6.837099169999988, 42.63373102999998], [-6.836391139999989, 42.63371876000002], [-6.8362981999999874, 42.633992009999986], [-6.836141639999994, 42.63442044999999], [-6.835787040000014, 42.63480150999999], [-6.835046350000027, 42.63505144999999], [-6.834243679999986, 42.635483550000004], [-6.833569319999981, 42.63601939], [-6.832315199999982, 42.63684477999999], [-6.831945689999998, 42.63678512000001], [-6.8314002500000015, 42.63683942], [-6.831655739999974, 42.63742513], [-6.831657930000006, 42.63765916], [-6.829751769999973, 42.63700268000002], [-6.828633130000014, 42.63765240999999], [-6.827552050000008, 42.63851697000001], [-6.826785040000004, 42.63992926999998], [-6.826167610000027, 42.64020204000002], [-6.823729780000008, 42.64181427], [-6.821443499999987, 42.643115239999986], [-6.820640690000005, 42.643349160000014], [-6.819930960000022, 42.64311175], [-6.8186509700000215, 42.642524209999976], [-6.817226189999985, 42.64156331999999], [-6.816539729999988, 42.641307100000006], [-6.816133139999977, 42.64123962999997], [-6.815414509999982, 42.641254600000025], [-6.814909450000016, 42.641172410000024], [-6.814559789999976, 42.64123809], [-6.812250720000009, 42.642368569999974], [-6.810887449999996, 42.64261209], [-6.809667110000021, 42.64240063], [-6.809058839999977, 42.64182662000002], [-6.808435809999992, 42.64200944999999], [-6.807785050000007, 42.642337250000026], [-6.807167400000026, 42.64280802000002], [-6.80641983999999, 42.644147499999974], [-6.806377080000004, 42.64444606000001], [-6.807020480000006, 42.64559517999999], [-6.807042430000024, 42.64595460999999], [-6.806795840000007, 42.64671016], [-6.806911119999995, 42.64739964], [-6.806705079999972, 42.647820679999995], [-6.805475150000007, 42.648852060000024], [-6.805436670000006, 42.649420599999985], [-6.805799680000007, 42.65037195999997], [-6.805782159999978, 42.65108386999998], [-6.805164750000017, 42.651959799999986], [-6.805198420000011, 42.65211175000002], [-6.805572840000025, 42.65245045], [-6.807719889999987, 42.653252380000026], [-6.808077210000022, 42.65351061000001], [-6.808377880000023, 42.65423893000002], [-6.808320760000015, 42.65450195], [-6.807765870000026, 42.655402830000014], [-6.807766319999985, 42.65560991000001], [-6.807947189999993, 42.655774959999974], [-6.808305169999983, 42.65584408000001], [-6.808631670000011, 42.65579718999999], [-6.809027829999991, 42.655892040000026], [-6.809325860000001, 42.656377340000006], [-6.809675609999999, 42.65631166999998], [-6.810550110000008, 42.65585033999997], [-6.811997150000025, 42.65577510000003], [-6.812263799999982, 42.655946289999974], [-6.812627120000002, 42.65650144], [-6.813631129999976, 42.657359369999995], [-6.8139675300000135, 42.657474209999975], [-6.814695700000016, 42.65761199000002], [-6.815371809999988, 42.65789558], [-6.815655049999975, 42.65813824000003], [-6.815690259999997, 42.65871333000001], [-6.815871150000021, 42.658878370000025], [-6.817105719999972, 42.658918210000024], [-6.817739270000004, 42.65910415000002], [-6.817912949999993, 42.65935046999999], [-6.818258479999997, 42.660410420000005], [-6.819253319999973, 42.66091743999999], [-6.819511750000004, 42.66095382999998], [-6.820611939999992, 42.66079101999998], [-6.821012549999978, 42.66095772], [-6.821094850000009, 42.66150421999998], [-6.821432889999983, 42.66184407999998], [-6.821620970000026, 42.66212593], [-6.821552230000009, 42.662596440000016], [-6.8214121899999896, 42.662700159999986], [-6.821143629999995, 42.663294399999984], [-6.8210653099999945, 42.664404520000005], [-6.821031779999998, 42.66564820000002], [-6.820650320000027, 42.666192190000004], [-6.820880960000011, 42.66676976000002], [-6.820487060000005, 42.668304620000015], [-6.820574939999972, 42.668742889999976], [-6.821280170000023, 42.67049314000002], [-6.821247910000011, 42.67116053000001], [-6.821708870000009, 42.67151430000001], [-6.823566239999991, 42.67215454000001], [-6.8269407899999806, 42.67266295000002], [-6.82769294000002, 42.67298893999998], [-6.83062799999999, 42.67448439999998], [-6.8311493599999835, 42.67502519999999], [-6.831549470000027, 42.67617332999998], [-6.8318793299999925, 42.67677456000001], [-6.8326807899999835, 42.67770214000001], [-6.833272500000021, 42.67819555], [-6.835455649999972, 42.679761110000015], [-6.8370764800000075, 42.68071521000002], [-6.838944790000028, 42.681525910000005], [-6.842318130000024, 42.68556354999998], [-6.843310270000018, 42.68621452999997], [-6.8438717099999735, 42.686807939999994], [-6.844386139999983, 42.68762803999999], [-6.845204650000028, 42.68922127000002], [-6.848525540000026, 42.692594180000015], [-6.849447469999973, 42.69289629999997], [-6.850711520000004, 42.693006819999994], [-6.851671660000022, 42.69333465], [-6.854364019999991, 42.694828640000026], [-6.855277080000008, 42.69498693999998], [-6.857202389999998, 42.69552527000002], [-6.859253920000015, 42.69731088999998], [-6.861497729999996, 42.70042259000002], [-6.8628827, 42.701888499999995], [-6.8642068400000085, 42.70453599000001], [-6.8648355299999935, 42.70600941999999], [-6.864284829999974, 42.70775684], [-6.866653509999992, 42.71325931000001], [-6.876639280000006, 42.725571839999986], [-6.896506250000016, 42.750089549999984], [-6.904187820000004, 42.75956977999999], [-6.90148511000001, 42.76128275999997], [-6.901387559999989, 42.76225851999999], [-6.901566510000009, 42.76316181999999], [-6.901507120000019, 42.76357803000002], [-6.901189190000025, 42.76376895999999], [-6.900172489999989, 42.76411879], [-6.899660680000011, 42.76491958999998], [-6.899305589999983, 42.76510278000001], [-6.898472120000008, 42.76525726], [-6.8973585400000275, 42.765232200000014], [-6.896214369999996, 42.765109129999985], [-6.897833549999973, 42.76676469], [-6.8978389200000265, 42.767628890000026], [-6.898033629999986, 42.76878376000002], [-6.8969094899999845, 42.77190144000002], [-6.896559640000021, 42.772363559999974], [-6.896039050000013, 42.77283151], [-6.8954058699999905, 42.77325825999998], [-6.893500140000015, 42.77502492999997], [-6.892567100000008, 42.77554292000002], [-6.89078207, 42.77728741999999], [-6.890019540000026, 42.777601489999995], [-6.887615180000012, 42.77765627000002], [-6.886141660000021, 42.778327639999986], [-6.884461120000026, 42.779402189999985], [-6.882913050000013, 42.77985996000001], [-6.882485550000013, 42.780450729999984], [-6.879850229999988, 42.78228696000002], [-6.878987189999975, 42.782559349999985], [-6.875766349999992, 42.78246149], [-6.874856920000013, 42.78375287], [-6.87307143999999, 42.784326599999986], [-6.872377560000018, 42.78476427999999], [-6.871523700000012, 42.78557654000002], [-6.870619760000011, 42.786174389999985], [-6.867430469999988, 42.78717370999999], [-6.865867159999993, 42.78954959999999], [-6.86480757999999, 42.791575290000026], [-6.864220240000009, 42.79235147000003], [-6.864008160000026, 42.79287185999999], [-6.864006870000026, 42.795402000000024], [-6.864232770000001, 42.79667291999999], [-6.864513299999999, 42.79744677999997], [-6.8652483700000175, 42.79786311999999], [-6.868742039999972, 42.79918558000003], [-6.8692583499999955, 42.800797810000006], [-6.86870128999999, 42.801275859999976], [-6.867924290000019, 42.80214852], [-6.8673250800000005, 42.80351938000001], [-6.866997570000024, 42.803953639999975], [-6.865855580000016, 42.80485663000002], [-6.865046819999975, 42.80561329], [-6.864262320000023, 42.80617103999998], [-6.862892199999976, 42.806946659999994], [-6.862062770000023, 42.80756894000001], [-6.860995769999988, 42.80791111000002], [-6.86012556999998, 42.80807555000001], [-6.859360359999982, 42.80855158000003], [-6.85851821, 42.80936335000001], [-6.858034309999994, 42.81003695999999], [-6.857185780000009, 42.81035372000002], [-6.8560370899999725, 42.810563539999976], [-6.854353039999978, 42.81062032], [-6.852440849999994, 42.814286330000016], [-6.851974190000021, 42.817993650000005], [-6.851434159999997, 42.81875015999998], [-6.849108779999995, 42.81951275], [-6.845996019999973, 42.82177841999999], [-6.844733930000018, 42.822136], [-6.843818109999972, 42.82275204000001], [-6.841771900000026, 42.82269474999998], [-6.840321200000005, 42.823364749999996], [-6.841596470000013, 42.82440237999998], [-6.844140429999982, 42.828143539999985], [-6.843967480000003, 42.82870759000002], [-6.841343310000013, 42.832352309999976], [-6.841678769999987, 42.833421509999994], [-6.841101410000022, 42.83456639000002], [-6.838886360000004, 42.83790920000001], [-6.836471350000011, 42.838818609999976], [-6.833127820000016, 42.83994818999997], [-6.832731609999996, 42.84422031999998], [-6.832005030000005, 42.843749460000026], [-6.83130011999998, 42.84343093000001], [-6.82993866999999, 42.843377499999974], [-6.828842000000009, 42.843846410000026], [-6.828015049999976, 42.84412621000001], [-6.827277990000027, 42.844276939999986], [-6.826534820000006, 42.84432881999999], [-6.823394500000006, 42.844794019999995], [-6.8219303299999865, 42.84486098000002], [-6.8205988199999865, 42.84469839000002], [-6.8193394699999885, 42.84471344999997], [-6.818601820000026, 42.844855129999985], [-6.817495619999988, 42.845171189999974], [-6.817092660000014, 42.84518465000002], [-6.816548179999984, 42.845085770000026]]]}}]}