{"type":"FeatureCollection","features":[{"type":"Feature","properties":{"OBJECTID":1644,"ZON_CO_ID":12,"ZON_DS_NOM":"Calatayud","CAL_DS_NOM":"D.O.Calatayud","TPR_DS_DES":"Denominación de Origen","TPR_DS_GRU":"CALIDAD DIFERENCIADA","FAM_DS_NOM":"Vinos","classification":"DO","normalizedName":"Calatayud"},"geometry":{"type":"Polygon","coordinates":[[[-1.8172590699999773,41.55205132999998],[-1.8162407099999882,41.55200481000003],[-1.8156618099999946,41.55218798999999],[-1.8144281400000182,41.552769739999974],[-1.8136935399999743,41.552942299999984],[-1.8112961499999756,41.552899500000024],[-1.8090272499999855,41.55238960999998],[-1.8069984800000043,41.55186415999998],[-1.8042049499999848,41.55054709000001],[-1.8031394700000192,41.54980641999998],[-1.802858399999991,41.549443199999985],[-1.8025879699999905,41.54850363999998],[-1.8014332800000261,41.54675322000003],[-1.8011142600000198,41.54584917],[-1.8006488999999988,41.54378166999999],[-1.8001441200000272,41.54319994000002],[-1.7999508300000002,41.542630470000006],[-1.7998148199999946,41.5415572],[-1.7997738600000162,41.53988143999999],[-1.7974690500000179,41.53939796999998],[-1.7967605499999877,41.53946260999999],[-1.7948943600000007,41.53989340999999],[-1.7943175199999928,41.53996842999999],[-1.7931182500000205,41.539991859999986],[-1.7880356100000085,41.53932587999998],[-1.7851105400000051,41.539322019999986],[-1.782837270000016,41.5397213],[-1.7773319300000026,41.54241003999999],[-1.7743907400000012,41.54325239999997],[-1.7745265899999936,41.544947190000016],[-1.7701349100000243,41.54703496000002],[-1.7672900100000106,41.54784214],[-1.7664681900000119,41.54818460000001],[-1.7654797299999814,41.549092710000025],[-1.762708009999983,41.54919801],[-1.7593687599999726,41.54763079000003],[-1.7572655299999838,41.546013800000026],[-1.754280470000026,41.54474750000003],[-1.753600860000006,41.54455098],[-1.750867019999987,41.54456633000001],[-1.7491615900000284,41.54409743000002],[-1.7480913100000066,41.54488741],[-1.7399617799999874,41.54122272000001],[-1.739327220000007,41.54117973000001],[-1.7371354300000235,41.541687079999974],[-1.736295460000008,41.54111039999998],[-1.7353282199999853,41.54029811999999],[-1.7350871699999857,41.539133549999974],[-1.7335039999999822,41.536098719999984],[-1.7332910399999832,41.53533977000001],[-1.7337776900000108,41.53312937999999],[-1.7337029400000006,41.53266019],[-1.7335206700000185,41.53217179000001],[-1.733112819999974,41.53157282000001],[-1.7309991299999865,41.52932473999999],[-1.7304785300000276,41.528976709999995],[-1.7285304700000097,41.52929745],[-1.7278674799999862,41.52948827],[-1.7273770200000058,41.52943779999998],[-1.7228713599999992,41.52693786999998],[-1.7214117999999985,41.527408019999996],[-1.720194020000008,41.527772760000005],[-1.719367869999985,41.52772752999999],[-1.7183489999999892,41.528337669999985],[-1.7140588099999832,41.53010918000001],[-1.713055250000025,41.531151780000016],[-1.7109292600000003,41.533785050000006],[-1.7101316600000018,41.53410936],[-1.70755711999999,41.53397235],[-1.703457329999992,41.53398020999998],[-1.6998403499999881,41.533822240000006],[-1.699339010000017,41.53251954000001],[-1.6989340000000084,41.531794390000016],[-1.6981560500000228,41.53113705999999],[-1.696935979999978,41.53041166999998],[-1.6966669899999829,41.52948089],[-1.6961701399999924,41.528556519999995],[-1.695292189999975,41.527510740000025],[-1.6941073500000243,41.52503832999997],[-1.6936866600000258,41.52450212999997],[-1.6927632499999845,41.52393317999997],[-1.6889540999999895,41.52204332000002],[-1.687950160000014,41.52131129000003],[-1.6875229899999908,41.52109925000002],[-1.6864546300000143,41.52059164999997],[-1.6861478299999817,41.52035396000002],[-1.6849443799999904,41.518232520000026],[-1.6832642499999793,41.516573979999976],[-1.6821550799999727,41.51512912999999],[-1.680795929999988,41.514194799999984],[-1.6800073900000143,41.51407766],[-1.6784061100000258,41.513266629999976],[-1.677189960000021,41.512964409999995],[-1.6778260799999885,41.51173775000001],[-1.678547760000015,41.50807113000002],[-1.6789893800000186,41.506977329999984],[-1.6799144700000284,41.50508745000002],[-1.679581349999978,41.50438107000002],[-1.6795547400000146,41.503921400000024],[-1.6800982799999815,41.50075712],[-1.6796900200000096,41.500211999999976],[-1.6796684400000004,41.50009466],[-1.6795268199999782,41.49939948000002],[-1.6791187499999864,41.49884535000001],[-1.6789436600000158,41.49861815999998],[-1.6787729199999717,41.49640943000003],[-1.6785959299999718,41.49568682],[-1.6783095000000117,41.495044010000015],[-1.6776775700000144,41.494307160000005],[-1.6772199299999784,41.49324804999998],[-1.6765773399999944,41.49244801999998],[-1.6761125799999945,41.49174011000002],[-1.6744969100000162,41.489902029999996],[-1.6763640099999861,41.487041239999996],[-1.6759903299999905,41.48656856000002],[-1.6748481500000025,41.48560063000002],[-1.674772169999983,41.48462697000002],[-1.6751045500000146,41.48242404000001],[-1.6753661100000272,41.48193165999999],[-1.6757831599999804,41.481450069999994],[-1.6762096100000008,41.48109470000003],[-1.676065489999985,41.480525580000005],[-1.6759123900000077,41.480397719999985],[-1.6756174299999884,41.48017814000002],[-1.6753056800000081,41.47960710000001],[-1.6750236099999825,41.47934264000003],[-1.6735929100000249,41.478434419999985],[-1.6718918299999928,41.477865329999986],[-1.6712711999999783,41.47775908],[-1.6698718999999755,41.47707636000001],[-1.6693868699999825,41.47678251999997],[-1.6691886599999748,41.476519010000004],[-1.668489980000004,41.47496167999998],[-1.6668153800000027,41.47427572999999],[-1.666571690000012,41.473894599999994],[-1.6665545800000245,41.47356113000001],[-1.6688291500000219,41.471849099999986],[-1.668890499999975,41.471192289999976],[-1.6686596999999779,41.47076627000001],[-1.66850058,41.469764629999986],[-1.667538219999983,41.46822225],[-1.6671929199999909,41.46695722999999],[-1.666888340000014,41.46545850000001],[-1.6670568900000262,41.464829940000016],[-1.6672825200000148,41.464337160000014],[-1.667590109999992,41.463935400000025],[-1.6679930999999897,41.46355276000003],[-1.668463499999973,41.46221613],[-1.6682583400000226,41.46170934999998],[-1.6678106300000195,41.46135287999999],[-1.6667480400000159,41.460034510000014],[-1.665826509999988,41.459429339999986],[-1.664714349999997,41.459362380000016],[-1.6638874600000122,41.459397809999984],[-1.663328349999972,41.45922016999998],[-1.6630797500000085,41.45908216999999],[-1.6629491799999983,41.45902661000002],[-1.6620431900000199,41.45825044999998],[-1.6615677099999857,41.458082779999984],[-1.6608520899999917,41.45794834999998],[-1.6596810400000095,41.457835620000026],[-1.6573318200000244,41.457375850000005],[-1.6550960000000146,41.45722361000003],[-1.6541976799999816,41.457240119999994],[-1.653265690000012,41.457148140000015],[-1.6512374600000044,41.45622364000002],[-1.6505854299999783,41.45475680999999],[-1.6502315700000167,41.45450045000001],[-1.6495786599999747,41.45423156999999],[-1.6491023099999893,41.45410887999998],[-1.6488400999999726,41.45405176000003],[-1.6482227399999942,41.45380130000001],[-1.6476674699999876,41.453443489999984],[-1.6474610000000212,41.453008710000006],[-1.646427010000025,41.45149233000001],[-1.6450435400000174,41.450088919999985],[-1.6440874300000132,41.44886165999998],[-1.643800409999983,41.44827280999999],[-1.6437162999999941,41.44771336000002],[-1.6431376400000204,41.44618430999998],[-1.6425239899999724,41.44518627000002],[-1.641877969999996,41.44459316000001],[-1.640976760000001,41.44360972999999],[-1.6404422400000271,41.44283779],[-1.6398695699999735,41.442173490000016],[-1.639314259999992,41.44182463999999],[-1.6382021599999916,41.441198980000024],[-1.6378873300000123,41.44308676999998],[-1.6374585799999863,41.444126530000005],[-1.6372950800000012,41.444502899999975],[-1.635891239999978,41.44580130999998],[-1.6353504900000075,41.44647042999998],[-1.6349658799999816,41.447114390000024],[-1.634598589999996,41.448073799999975],[-1.6348632400000156,41.44972526999999],[-1.6350532499999986,41.45151096000001],[-1.634206909999989,41.45190624000003],[-1.6325258100000042,41.452714920000005],[-1.630912120000005,41.45373153999998],[-1.6305380599999921,41.454438659999994],[-1.6305190799999991,41.45477169999998],[-1.63063274000001,41.45562874000001],[-1.6304425800000217,41.45613087999999],[-1.6291752999999858,41.45604371000002],[-1.6280199299999936,41.45632717000001],[-1.6249892600000067,41.45696650000002],[-1.6231334999999945,41.45752976],[-1.6224489200000107,41.45762965],[-1.6220261500000106,41.45780472000001],[-1.6216322299999888,41.45831341000002],[-1.6204000600000086,41.45826260000001],[-1.619604939999988,41.45792879999999],[-1.6174546999999961,41.456569890000026],[-1.6167956799999956,41.45603053999997],[-1.6158492100000217,41.455496719999985],[-1.614670349999983,41.45519429000001],[-1.6097338899999727,41.45536888999999],[-1.6092039499999942,41.45551560000001],[-1.6089002900000082,41.45571909],[-1.6082369499999913,41.45594525000001],[-1.6079936699999848,41.45556399999998],[-1.6070103999999787,41.45451625999999],[-1.6066565200000014,41.45426878000001],[-1.6031799599999772,41.455595689999996],[-1.6013966500000265,41.45612345000001],[-1.5990550000000212,41.456446210000024],[-1.5984644100000196,41.45662816999999],[-1.5980043199999727,41.45686575000002],[-1.5975177600000166,41.45722009999997],[-1.5964338200000157,41.45640522999997],[-1.5961081899999954,41.45595989999998],[-1.5956365700000106,41.45451299000001],[-1.5969268000000056,41.454087389999984],[-1.597805610000023,41.45386393000001],[-1.598084589999985,41.45369619000002],[-1.5991247000000044,41.45209657999999],[-1.5992156600000271,41.45176442000002],[-1.5989569999999844,41.451545090000025],[-1.5982898500000147,41.45139284999999],[-1.5969650000000115,41.45120555],[-1.5962844800000084,41.45000829000003],[-1.5963495699999726,41.44976588999998],[-1.5970671599999946,41.44924322000003],[-1.5965261299999725,41.44879526],[-1.594704400000012,41.447782210000014],[-1.5945326600000271,41.44741981999999],[-1.5944258100000184,41.446824040000024],[-1.5942258599999946,41.446659469999986],[-1.5934559199999967,41.44628075000003],[-1.5925529900000015,41.44596345999997],[-1.5913016299999754,41.445704939999985],[-1.5912466699999754,41.445479079999984],[-1.5912921199999914,41.445038280000006],[-1.5909092800000053,41.44447514000001],[-1.590856649999978,41.444141230000014],[-1.5909458799999925,41.44389011999999],[-1.591070860000002,41.442540570000006],[-1.5908823099999836,41.44240315000002],[-1.5891439000000105,41.44197651000002],[-1.5895062999999823,41.44071994000001],[-1.589356969999983,41.44042988000001],[-1.5886084800000049,41.439619049999976],[-1.5886985000000209,41.43933191999997],[-1.5889805599999818,41.43902013000002],[-1.588901480000004,41.43880299],[-1.588442989999976,41.43841904999999],[-1.5880851699999994,41.438360620000026],[-1.587812289999988,41.438249180000014],[-1.5876051000000189,41.437868330000015],[-1.587544830000013,41.43733615999997],[-1.587332570000001,41.43718944],[-1.586676969999985,41.43706429000002],[-1.5864638900000045,41.43640413999998],[-1.5849044000000276,41.436565099999996],[-1.5845465900000022,41.43650665000001],[-1.583747399999993,41.43583027],[-1.5825078500000131,41.435040379999975],[-1.5828617199999826,41.43472947999999],[-1.583169479999981,41.434336959999996],[-1.583319930000016,41.434023560000014],[-1.5834177899999986,41.43337623999997],[-1.5822347800000216,41.432190719999994],[-1.582085310000025,41.43190965000002],[-1.582055099999991,41.431648069999994],[-1.5823257800000192,41.43075969],[-1.582177300000012,41.430433600000015],[-1.5819095599999855,41.43008802000003],[-1.5815564999999765,41.42981344999998],[-1.5787328700000103,41.428679699999975],[-1.5761050500000238,41.42789957999997],[-1.5755478500000208,41.42765849],[-1.5753738999999882,41.42740413000001],[-1.5753933999999958,41.426512660000014],[-1.5749885700000164,41.424778249999974],[-1.5749235900000258,41.42337230999999],[-1.5748887500000137,41.42277739999997],[-1.5748721100000012,41.422443929999986],[-1.574863300000004,41.422299699999996],[-1.5745798400000126,41.42103517999999],[-1.5744596800000181,41.42051127000002],[-1.5741416700000173,41.4197327],[-1.573830629999975,41.418089520000024],[-1.5735783000000083,41.41759099000001],[-1.573368759999994,41.416777739999986],[-1.5732681999999727,41.416452230000004],[-1.5725113500000134,41.41276786999998],[-1.5725171400000022,41.411957289999975],[-1.5721014100000161,41.410727140000006],[-1.5717824000000178,41.41054303999999],[-1.5710196499999824,41.41040745999999],[-1.5691295899999886,41.410392960000024],[-1.5686952500000189,41.40837893999998],[-1.567370559999972,41.40550714],[-1.5669050199999788,41.404915870000025],[-1.5654309500000068,41.40340228000002],[-1.5649447000000123,41.40266661999999],[-1.56468529,41.401951810000014],[-1.5640220999999883,41.401646289999974],[-1.5635183599999891,41.40116261999998],[-1.562935130000028,41.401029230000006],[-1.5625992199999814,41.400529629999994],[-1.5624460899999804,41.39987918999998],[-1.5615271500000176,41.39869675],[-1.560134909999988,41.39836408000002],[-1.5591492899999935,41.39803647999997],[-1.5582248700000036,41.39764659000002],[-1.5569779699999913,41.397234630000014],[-1.5548081000000025,41.39636969999998],[-1.5539409200000023,41.39609759000001],[-1.5531634199999758,41.396096820000025],[-1.5521684700000264,41.39619239000001],[-1.5485447300000033,41.39562429],[-1.5486303700000121,41.39607573000001],[-1.5485501300000237,41.396993459999976],[-1.5481321600000228,41.39857346000002],[-1.5477713099999733,41.39919942],[-1.5464972500000158,41.40054342000002],[-1.5449907899999857,41.401578219999976],[-1.5444294000000127,41.40207551999998],[-1.5440721100000019,41.40253938000001],[-1.5433140299999764,41.40273694000001],[-1.5430171300000097,41.40317454000001],[-1.54214939000002,41.40346077999999],[-1.5419260499999723,41.40381824000002],[-1.5413271300000133,41.404387110000016],[-1.5395961300000067,41.405824310000014],[-1.538673430000017,41.40642509000003],[-1.5382840299999998,41.406717379999975],[-1.5370185300000117,41.40766506],[-1.5358778600000278,41.40838013000001],[-1.534691759999987,41.40951795000001],[-1.53175908999998,41.41170533000002],[-1.5307308100000228,41.41220561],[-1.5298983700000122,41.41251023000001],[-1.5287670999999818,41.412802],[-1.5274991399999749,41.413317199999995],[-1.5269498800000179,41.41379655999998],[-1.5268400900000074,41.41494807999999],[-1.5275172999999995,41.41674919000002],[-1.527595940000026,41.41697538],[-1.5290516300000263,41.41768755999999],[-1.5296876300000122,41.418137049999984],[-1.5282678600000281,41.41954203],[-1.524822830000005,41.42107414999998],[-1.5243689800000197,41.42156373],[-1.5212715200000275,41.426225699999975],[-1.5212558800000124,41.42638763000002],[-1.5215831099999946,41.42778795999999],[-1.5220216899999741,41.42797374000003],[-1.5221523800000227,41.42854287],[-1.5221182399999975,41.428992789999995],[-1.5223381999999788,41.42931987999998],[-1.5232552900000087,41.430043230000024],[-1.5239770900000167,41.43093520999997],[-1.5246485999999777,41.43193461999999],[-1.5260220499999946,41.43259174000002],[-1.526280789999987,41.43279322000001],[-1.5267915700000003,41.433493320000025],[-1.52752688999999,41.43379097000002],[-1.5279014299999858,41.43416506],[-1.5282435400000054,41.43438560999999],[-1.528698630000008,41.434373419999986],[-1.5288391600000182,41.43451033000002],[-1.5289778200000228,41.43525970000002],[-1.5291767599999844,41.43546040000001],[-1.5298510700000065,41.43581130000001],[-1.5304245799999876,41.436386089999985],[-1.5311455400000114,41.43679162000001],[-1.5311702700000183,41.437287330000004],[-1.5312803799999983,41.437712069999975],[-1.5315797100000168,41.438238309999974],[-1.5317404599999804,41.44066329999998],[-1.5312005000000113,41.44178231000001],[-1.5302311400000121,41.442832769999995],[-1.5294254899999942,41.44299360000002],[-1.5283691399999952,41.4431242],[-1.5283215900000187,41.44416842999999],[-1.5277858700000024,41.444566889999976],[-1.5272101699999894,41.44514499000002],[-1.5273125800000003,41.44538047999998],[-1.5277092300000277,41.44636735],[-1.5275213599999802,41.44673424000001],[-1.525780759999975,41.44853138000002],[-1.5238250400000197,41.45030772000001],[-1.5228891799999928,41.45092620999998],[-1.5208474799999863,41.452791460000014],[-1.5189550299999723,41.45440640999999],[-1.517751780000026,41.45624637999998],[-1.5175580800000148,41.45844162999998],[-1.5171227199999748,41.45915659000002],[-1.5149772400000074,41.45925498999998],[-1.514127579999979,41.459235009999986],[-1.5125620000000026,41.45910667999999],[-1.509784599999989,41.45908873000002],[-1.5088769600000091,41.45741964000001],[-1.5089108099999748,41.455420489999995],[-1.5055812400000264,41.453386679999994],[-1.5042410600000267,41.45179300000001],[-1.5029987199999937,41.45063292999998],[-1.5025875000000042,41.450294310000004],[-1.5021851399999946,41.45009090999997],[-1.5005459899999778,41.449529110000014],[-1.498783670000023,41.449118810000016],[-1.4987049599999978,41.448379190000026],[-1.4984638999999902,41.44741227999998],[-1.4980703900000094,41.446308269999975],[-1.497126929999979,41.445692459999975],[-1.496151540000028,41.44490509000002],[-1.4965577899999971,41.443901600000004],[-1.4958203099999992,41.44318039000001],[-1.4955338400000073,41.44159137999998],[-1.4953744300000267,41.441238010000006],[-1.4929842700000222,41.44107159999999],[-1.4929043000000206,41.4398726],[-1.4916500799999994,41.439243669999996],[-1.4896404500000244,41.43764103000001],[-1.4882709899999895,41.43630798999999],[-1.4874434000000178,41.43535135000002],[-1.4866485699999998,41.43401684000003],[-1.4862368799999786,41.43319177000001],[-1.485160570000005,41.431096930000024],[-1.48229077000002,41.430473629999995],[-1.4813632199999915,41.430218190000005],[-1.4810649699999772,41.42863799000003],[-1.4797907099999748,41.42836894999999],[-1.4783900499999731,41.42889986],[-1.477771319999988,41.42823414999998],[-1.4769188399999962,41.42681773999999],[-1.4754227000000242,41.425293710000005],[-1.4760969999999816,41.423582280000005],[-1.474381419999986,41.420190839999975],[-1.4740929100000244,41.41973666000001],[-1.4724372499999845,41.418390620000025],[-1.4710577600000079,41.4175166],[-1.469771040000012,41.41676991000003],[-1.4675867099999778,41.41552485],[-1.4681793899999889,41.414235710000014],[-1.4669513000000052,41.413543800000014],[-1.46611944,41.41279412],[-1.464164970000013,41.41195739],[-1.4618283899999938,41.410584089999986],[-1.4579726700000037,41.408190590000004],[-1.4564207999999894,41.40703486000001],[-1.4544420700000273,41.40521584999999],[-1.4543207699999812,41.40427748000002],[-1.4514085100000216,41.4024819],[-1.4507616800000278,41.40201381999998],[-1.450180429999989,41.401303429999984],[-1.4498095199999739,41.40080303000002],[-1.448814029999994,41.39990690000002],[-1.447968230000015,41.39925598000002],[-1.4474602299999901,41.398987920000025],[-1.4459364300000175,41.39867910999999],[-1.4448375499999884,41.398610210000015],[-1.444194809999999,41.39847542000001],[-1.4422479400000157,41.39735019],[-1.4416332200000284,41.397044619999974],[-1.4399663199999964,41.396220389999996],[-1.439694299999985,41.39609058999997],[-1.4394306899999947,41.395609639999975],[-1.4392003799999884,41.39523722000001],[-1.4390533399999867,41.39488394],[-1.4378490400000032,41.39222848000003],[-1.4372092300000077,41.390976790000025],[-1.4356881599999838,41.388569200000006],[-1.4387612400000194,41.38460275],[-1.4392056600000274,41.384023309999975],[-1.4395753100000093,41.38356895999999],[-1.4484804800000006,41.37270059000002],[-1.4538985899999943,41.366081150000014],[-1.4554305600000248,41.363994030000015],[-1.4560259900000005,41.36308329000002],[-1.4484337600000003,41.36008079999999],[-1.4476761500000066,41.35976433000002],[-1.4470156699999848,41.35938612000001],[-1.4450780399999985,41.357918789999985],[-1.4435818200000199,41.35649341999999],[-1.4430183499999885,41.35555805000001],[-1.4431657700000073,41.35438909999999],[-1.4432050600000252,41.35274129999999],[-1.4429273499999908,41.35185482999998],[-1.4418671600000152,41.34969674000001],[-1.4394861600000013,41.34579135000001],[-1.4388598699999875,41.34499020999999],[-1.4374014399999737,41.34250241000001],[-1.4354176800000005,41.341493660000026],[-1.4350420299999769,41.34120933000003],[-1.4355202899999995,41.340702420000014],[-1.436274200000014,41.34016322000002],[-1.4369383299999754,41.33937959999997],[-1.4363012599999934,41.33853327000003],[-1.43469245,41.33684505000002],[-1.433885939999982,41.33559106000001],[-1.4311667299999726,41.33436505999998],[-1.4302498800000194,41.33422645000002],[-1.430267179999987,41.33350610000002],[-1.4301014499999951,41.33344079],[-1.4298879300000067,41.333374830000025],[-1.4292295399999944,41.332924479999974],[-1.4277201400000195,41.3320842],[-1.427337840000007,41.33158357999997],[-1.427016789999982,41.331020739999985],[-1.4267611299999885,41.330719999999985],[-1.426256570000021,41.330334789999995],[-1.4260549900000115,41.329773579999994],[-1.4261151300000279,41.32926099000002],[-1.426280399999996,41.328848919999984],[-1.426746680000008,41.32834187999998],[-1.4266610899999819,41.32792637],[-1.4256424199999742,41.32606593999998],[-1.4251242199999865,41.32575259999999],[-1.424621650000006,41.32528635],[-1.4242161700000224,41.32475837999999],[-1.4239092999999912,41.32410564999998],[-1.4240213499999754,41.32342262999998],[-1.423521849999986,41.32183951000002],[-1.4234517099999948,41.321280090000016],[-1.423509249999995,41.32087554999998],[-1.4247624600000108,41.31894713999998],[-1.4244551699999874,41.318312419999984],[-1.4241313900000137,41.31836203],[-1.423453870000003,41.31821764],[-1.4229333499999939,41.31800334000002],[-1.4215618299999733,41.31691267000002],[-1.4199884099999736,41.31577417],[-1.4194212400000197,41.31551416999997],[-1.4187652499999786,41.31546913],[-1.416948600000012,41.31549819000003],[-1.4152820400000223,41.31525006999999],[-1.4134141399999862,41.31542249],[-1.4124287000000209,41.3156611],[-1.4095436399999812,41.31491869000001],[-1.4072938599999816,41.316544910000005],[-1.4064312300000097,41.316154659999995],[-1.4040406400000052,41.31473441000003],[-1.4017278000000033,41.31355838000002],[-1.4001639499999783,41.31302324000001],[-1.3951446400000123,41.31504303999998],[-1.3929422900000077,41.315696849999995],[-1.3908002599999918,41.31681084000002],[-1.3899502799999937,41.31736640999998],[-1.3892626400000267,41.31763602000001],[-1.3883031899999878,41.31778471000001],[-1.3874120599999742,41.31806947000001],[-1.3866498599999773,41.318455099999994],[-1.3856567899999845,41.31851323000001],[-1.385319480000021,41.31862560000002],[-1.384945679999987,41.31876447000002],[-1.384009419999984,41.31894046999997],[-1.383632939999984,41.319187390000025],[-1.3831166200000098,41.319774619999976],[-1.3827728499999807,41.320148089999975],[-1.3822596300000214,41.320609260000026],[-1.381752640000002,41.320818299999985],[-1.3775135899999782,41.32216374000001],[-1.376239699999985,41.32246103],[-1.3753545000000145,41.32250257999999],[-1.374448319999999,41.32242673000002],[-1.3739579499999763,41.32244681999998],[-1.3720244900000012,41.32332021000002],[-1.3697186800000054,41.32426935000001],[-1.3687113899999872,41.32537198],[-1.3678160299999718,41.325818649999974],[-1.3669841999999903,41.32611308999998],[-1.3661136100000135,41.32652408000001],[-1.3650338799999986,41.32765266000001],[-1.3641445499999918,41.32881096],[-1.3629157500000133,41.33063996999999],[-1.3615482700000143,41.33227784000002],[-1.360901819999981,41.33280006000001],[-1.3604812400000128,41.33289315000002],[-1.3599549400000228,41.332912669999985],[-1.3564787700000238,41.332385680000016],[-1.3548041700000226,41.33197444000001],[-1.3541764899999862,41.331749290000005],[-1.35311046999999,41.33137375000001],[-1.3522283199999947,41.33128906000002],[-1.3514498200000276,41.33135897],[-1.3499936000000048,41.33129306000001],[-1.3490546900000027,41.331090440000025],[-1.3463034999999763,41.33072668],[-1.3448468500000104,41.33067870999997],[-1.3442287999999962,41.33007534000001],[-1.3433469899999864,41.32903582],[-1.3423384399999918,41.328282709999996],[-1.342130510000004,41.32800049000002],[-1.3419521199999735,41.32702512999998],[-1.341923300000019,41.326277119999986],[-1.3417939000000274,41.325725809999994],[-1.3413747999999828,41.324819049999974],[-1.3411762599999975,41.32416766],[-1.3417025100000046,41.32273408999998],[-1.3417428399999949,41.32208615000002],[-1.341659170000014,41.32161657],[-1.340424110000015,41.31943702000001],[-1.3398291299999983,41.31840161000002],[-1.339584670000022,41.31767751000001],[-1.3403362099999754,41.31631024000001],[-1.3405250499999966,41.31310638000002],[-1.3399338300000068,41.312395289999984],[-1.339415410000015,41.3116402],[-1.339028369999994,41.310887019999996],[-1.338469439999983,41.30890635999998],[-1.3386188700000048,41.308196940000016],[-1.3371296899999834,41.30568942999997],[-1.3365165199999751,41.304905940000026],[-1.3361874199999875,41.30422564000003],[-1.336123079999993,41.303468099999975],[-1.3363549499999863,41.30280491000002],[-1.3364816399999881,41.30205013],[-1.3362428099999875,41.30157830000002],[-1.335509600000023,41.30082009],[-1.3341775800000164,41.2996569],[-1.3334391500000038,41.29910576999998],[-1.3325682600000164,41.29953451],[-1.331380500000023,41.29927409999999],[-1.3287855099999888,41.29893019999997],[-1.3268896700000141,41.29880357000002],[-1.3263712099999907,41.29899418999997],[-1.3241030199999955,41.300348299999996],[-1.3234072899999774,41.30046427000002],[-1.3231092600000238,41.30044191000002],[-1.3221913599999766,41.299906109999995],[-1.3217856499999812,41.29989118999998],[-1.3208338700000013,41.30021056999999],[-1.3201374399999963,41.300353529999995],[-1.318636060000017,41.29789063999999],[-1.3182007400000089,41.29670433000001],[-1.318141149999974,41.296235079999974],[-1.3182482299999947,41.295786280000016],[-1.3196576600000185,41.293455970000025],[-1.3196420400000193,41.29220372999998],[-1.3199613799999952,41.29092936000001],[-1.3199185600000192,41.29027120000001],[-1.3197432800000115,41.289656149999985],[-1.3193142999999736,41.28915448999999],[-1.318728980000003,41.288695570000016],[-1.3174837400000001,41.287893740000015],[-1.3166191400000002,41.28715151],[-1.3150746000000026,41.28452579999998],[-1.3127252400000202,41.28162707000001],[-1.310933069999976,41.27981734000002],[-1.3118908600000054,41.27925492999998],[-1.3135067100000128,41.27863910000002],[-1.3136043000000086,41.27763170999998],[-1.313444430000004,41.27549463999998],[-1.313213840000003,41.275176009999996],[-1.3115942000000018,41.27408939999998],[-1.3098844900000017,41.27279428000003],[-1.306020090000004,41.26941377000003],[-1.3039650000000051,41.26809546999999],[-1.3034412700000075,41.26757433],[-1.3022082599999862,41.26586278000002],[-1.3016506299999833,41.265269079999996],[-1.3011105799999996,41.26491883],[-1.300566329999981,41.26473064999999],[-1.2996629300000109,41.26458220000001],[-1.2987132100000167,41.264838380000015],[-1.297777520000011,41.26455433000001],[-1.2972955199999774,41.263808600000004],[-1.2969684299999926,41.26307416999998],[-1.296577950000028,41.26156417999999],[-1.295292619999998,41.258662809999976],[-1.2947952499999928,41.25805194999998],[-1.2940304599999877,41.25762628000001],[-1.2922386299999857,41.25722141],[-1.2915760999999861,41.256995399999994],[-1.291396930000019,41.25654236999998],[-1.2912077600000202,41.255557769999996],[-1.2908583600000156,41.254309569999975],[-1.2905421400000137,41.25362031999998],[-1.290540309999983,41.25323298000001],[-1.2907604700000093,41.253029079999976],[-1.2913738699999726,41.25284902999999],[-1.29326973000002,41.25246283000001],[-1.29406302000001,41.25224939999998],[-1.2959941699999717,41.25142231000001],[-1.2976146199999903,41.250149239999985],[-1.3005438899999717,41.25040869999998],[-1.3024471599999856,41.250652960000025],[-1.303709920000017,41.25074362999999],[-1.305041249999988,41.25095240000002],[-1.3069349500000271,41.25110637],[-1.3076889100000244,41.25102737999998],[-1.3107293900000059,41.25021635000002],[-1.3108517100000086,41.25010105000001],[-1.310998589999997,41.249959090000004],[-1.3111257799999976,41.24965470000001],[-1.3110836700000164,41.24851016000002],[-1.31122302,41.248196940000014],[-1.3154285200000118,41.243376590000025],[-1.3160923600000274,41.242620680000016],[-1.3183522699999912,41.24244655000001],[-1.3195036999999843,41.242220169999996],[-1.319740109999998,41.24137693],[-1.320707700000014,41.23994085999999],[-1.321124110000028,41.239523589999976],[-1.3218054700000152,41.23901110000003],[-1.3225198999999748,41.238138789999994],[-1.323334980000027,41.23752916000001],[-1.3238671899999872,41.23724867999999],[-1.3265971499999978,41.236883060000025],[-1.3270242500000222,41.237447729999985],[-1.3281473399999868,41.237391979999984],[-1.3294367400000056,41.238770810000005],[-1.33055367999998,41.24036330000001],[-1.3308808200000044,41.241106650000006],[-1.3311233100000095,41.241425419999985],[-1.3327725500000156,41.242737369999986],[-1.3335966399999961,41.24365003999998],[-1.334220689999995,41.24445171999997],[-1.3363477699999748,41.246220900000026],[-1.3371764699999744,41.246485080000014],[-1.3379379900000004,41.24704552999998],[-1.338503849999995,41.247792300000015],[-1.3387727599999835,41.24801235000001],[-1.3391740600000048,41.24818928000002],[-1.3394542199999933,41.248436519999984],[-1.33989274999999,41.24902832999999],[-1.3404031800000098,41.25008054],[-1.340672569999981,41.250282579999975],[-1.3410626300000104,41.250432320000016],[-1.3413324800000055,41.25061635999998],[-1.3415436700000214,41.25123189999999],[-1.3419388400000116,41.25165192999998],[-1.3420502600000077,41.252437180000015],[-1.342318760000012,41.25267523000002],[-1.3430124500000034,41.253090550000024],[-1.3440297500000042,41.253924859999984],[-1.3457343399999786,41.25590396000001],[-1.3456618399999911,41.25593894999997],[-1.3457360400000198,41.256309320000014],[-1.3458843399999978,41.25658167],[-1.346873560000006,41.25758668999998],[-1.34741415000002,41.25839610000003],[-1.3485814000000005,41.25991707999998],[-1.348668470000007,41.260251600000004],[-1.3485749499999997,41.260646580000014],[-1.348609070000009,41.26118751000001],[-1.3487771599999974,41.26162227999998],[-1.3492948599999863,41.262395319999996],[-1.3508931700000062,41.263868419999994],[-1.3522173900000212,41.26485115999998],[-1.352819199999999,41.26513],[-1.3530695800000103,41.26514258999998],[-1.3534787099999903,41.26501332999999],[-1.3541864000000032,41.26487933999999],[-1.3546900900000196,41.26478745999998],[-1.3574543500000118,41.26499808],[-1.3589590899999848,41.264974499999994],[-1.361712329999989,41.265148839999995],[-1.3623495400000252,41.265446139999995],[-1.3647358200000212,41.26597547],[-1.365479779999987,41.26630129],[-1.3670787500000188,41.267287780000004],[-1.3675777700000253,41.267862320000006],[-1.3685817200000088,41.26925467000001],[-1.3690143200000193,41.269621099999995],[-1.3695205500000043,41.26990749999999],[-1.3710552200000166,41.270604779999985],[-1.3746028699999897,41.271492609999996],[-1.3744616600000086,41.26900460000002],[-1.3741177100000073,41.268432270000005],[-1.3734350600000198,41.26755793000001],[-1.373755420000009,41.26475216],[-1.3745168300000046,41.264375599999994],[-1.3781124500000033,41.26283202000002],[-1.379181630000005,41.262558850000005],[-1.3817498500000056,41.261523109999985],[-1.38456524999998,41.26062588999997],[-1.3865715200000182,41.26059098000002],[-1.3872795799999835,41.25995237000001],[-1.3875410200000147,41.259514679999995],[-1.3875068099999908,41.25896475000002],[-1.387277019999999,41.25860123000001],[-1.3866470799999888,41.25800693000002],[-1.3860083199999735,41.25728638999999],[-1.3859668000000056,41.2570336],[-1.386190450000015,41.25667643999998],[-1.3872215600000004,41.25551994],[-1.3875123500000086,41.25534385999998],[-1.3881354700000088,41.2552445],[-1.3897248399999853,41.25516766999999],[-1.3904802999999788,41.25502511000002],[-1.3912021799999934,41.25479200000001],[-1.3925058300000046,41.25419771000003],[-1.3928228999999988,41.25392290999997],[-1.3930356700000175,41.25352055000002],[-1.3927019899999777,41.25106589000001],[-1.3927881500000012,41.25047260000002],[-1.3929883199999722,41.25009709],[-1.3931014400000095,41.249864479999985],[-1.3939999699999817,41.248751089999985],[-1.3951264699999797,41.24758684],[-1.3955705199999784,41.24699853999999],[-1.3963441899999793,41.24659498],[-1.398655930000018,41.24576244999997],[-1.3992044999999962,41.245779089999985],[-1.401054180000017,41.24774138999999],[-1.4029306499999734,41.24811872999999],[-1.4036206499999935,41.248209359999976],[-1.4044234200000005,41.24758997999999],[-1.405522019999978,41.24707375999998],[-1.4072388999999816,41.24616076000001],[-1.412240020000013,41.24514897],[-1.4153206500000124,41.24458793000002],[-1.4169648600000073,41.244205220000026],[-1.4174553199999878,41.24366251999999],[-1.4178763599999797,41.243028779999975],[-1.418580239999983,41.242543049999995],[-1.4205239099999858,41.241614949999985],[-1.421010200000012,41.241243310000016],[-1.4226490300000023,41.23909499000001],[-1.4243642700000123,41.23624511999998],[-1.42597188000002,41.23439357000001],[-1.4279896300000132,41.23185403000002],[-1.4286655000000223,41.23103458000003],[-1.4293835500000114,41.22945005999998],[-1.4302943999999798,41.228282509999985],[-1.4311263399999916,41.227420129999985],[-1.4323437900000044,41.22640087000002],[-1.4330276100000106,41.22574363000001],[-1.4361871099999917,41.221327910000014],[-1.4365876200000116,41.220540700000015],[-1.437060410000015,41.219223020000015],[-1.4377104700000132,41.218475220000016],[-1.4397495499999877,41.21650323],[-1.4406706799999824,41.21538978000001],[-1.4416358400000036,41.214430040000025],[-1.4456795500000226,41.20989992],[-1.4489941300000169,41.20642271000003],[-1.4499628600000278,41.20530081999999],[-1.449853389999987,41.20438058000002],[-1.4495552800000269,41.203367730000025],[-1.4492460899999742,41.20130986999999],[-1.448856420000027,41.19811597],[-1.4485762300000147,41.196851149999986],[-1.448287760000028,41.19593751000002],[-1.4482189899999867,41.19531506999999],[-1.4484829400000194,41.19423773],[-1.4486581099999967,41.19287996000003],[-1.4496054900000104,41.18962299999998],[-1.4496709800000076,41.18785842],[-1.4502592800000116,41.187181769999995],[-1.450508780000007,41.187725580000006],[-1.4506831400000237,41.188421500000004],[-1.4519083700000124,41.191581600000006],[-1.4524139999999761,41.19239005999998],[-1.453354939999997,41.19294315000002],[-1.4552658000000065,41.193833530000006],[-1.4567502900000022,41.194601060000025],[-1.4602925699999787,41.19661212],[-1.4634488899999951,41.19779824],[-1.4649931800000218,41.198566459999995],[-1.4667021100000284,41.19943594],[-1.469078109999998,41.20034128999998],[-1.471300670000005,41.200668070000006],[-1.4722856199999796,41.200879310000005],[-1.473587049999992,41.20132892999999],[-1.4743626399999812,41.20182562000002],[-1.474988479999979,41.203635410000004],[-1.4752319599999737,41.20393588000002],[-1.4762630100000251,41.204733180000005],[-1.4802574500000105,41.20426355000001],[-1.4816072599999757,41.20417327000001],[-1.48224313999998,41.20401052],[-1.4849304599999869,41.20281189000002],[-1.485697679999987,41.20264184000001],[-1.4873582800000236,41.20251954999998],[-1.488275090000002,41.202585639999995],[-1.4890704000000028,41.20274920999998],[-1.4898249699999724,41.203128419999985],[-1.4905725200000006,41.20381378000002],[-1.4914300799999864,41.20438349],[-1.4923879300000067,41.20526075999999],[-1.4932307700000251,41.20543393000003],[-1.4952560500000232,41.20605490999998],[-1.4959531499999912,41.206343249999975],[-1.496634610000001,41.20679352000002],[-1.4972079500000177,41.207278410000015],[-1.497848509999983,41.20795332],[-1.4980760700000246,41.20843368999999],[-1.4980891999999812,41.208902249999994],[-1.4982273499999792,41.209120229999996],[-1.4989483499999778,41.20888643000001],[-1.5003595100000098,41.20820223999999],[-1.5017484399999717,41.20744567999998],[-1.5028147900000022,41.20671192999998],[-1.5042402500000094,41.205919789999996],[-1.5044270999999867,41.20557093000002],[-1.504482180000025,41.205247369999995],[-1.5046665699999835,41.20500657000002],[-1.5051737100000082,41.204733920000024],[-1.5055100199999742,41.2046302],[-1.5057762299999808,41.204462509999985],[-1.5059488499999816,41.203690110000025],[-1.5064896499999918,41.20298552999998],[-1.506925439999975,41.20270295],[-1.5076440899999852,41.20256813999998],[-1.5089770100000237,41.20269351000002],[-1.509202930000015,41.202723460000016],[-1.509971930000006,41.20247218999998],[-1.510791480000023,41.202095480000025],[-1.511153859999979,41.201892989999976],[-1.5112625900000012,41.20183135000002],[-1.5130500199999801,41.20084560999999],[-1.5147401699999818,41.199939649999976],[-1.5155944100000056,41.19960838999998],[-1.5164225500000157,41.199375859999975],[-1.5170225400000277,41.199212450000005],[-1.5187313600000039,41.19853187000001],[-1.5187794600000188,41.19851447000002],[-1.5205420300000014,41.197564320000026],[-1.520834040000011,41.197306860000026],[-1.5246002900000235,41.19422057999998],[-1.52496339999999,41.19398202999997],[-1.5252513400000112,41.19390464999998],[-1.526444500000025,41.19387489000002],[-1.5267572800000266,41.19375279000002],[-1.5274438499999974,41.19238343000001],[-1.5276493299999743,41.19172850000001],[-1.529805490000001,41.18916189999999],[-1.5302437000000282,41.18876215],[-1.5309024800000088,41.18756354999999],[-1.5310925599999905,41.18706156000002],[-1.5311765600000058,41.18650416000003],[-1.5309115800000086,41.18502354999998],[-1.5311774400000218,41.184864800000014],[-1.5327293899999859,41.18424506000002],[-1.5353058000000033,41.18366536000002],[-1.5366938999999888,41.18343980999998],[-1.5370445799999857,41.18321907000001],[-1.5379977499999882,41.18217729999998],[-1.5383257899999876,41.18190222999999],[-1.538878679999982,41.18170207999998],[-1.5391228799999794,41.181443960000024],[-1.5391290800000093,41.181164799999976],[-1.5394073200000093,41.180447730000026],[-1.5413369899999907,41.17784198999999],[-1.5413928599999736,41.17747338999999],[-1.5412741000000096,41.175841520000006],[-1.541400679999981,41.17550984000002],[-1.5426091400000246,41.174237070000004],[-1.5430519600000139,41.173621149999974],[-1.5433755999999903,41.173003730000005],[-1.5443073700000127,41.17076362],[-1.5442537700000116,41.17049272000003],[-1.5430096900000194,41.16961225],[-1.5424067700000137,41.16884799000002],[-1.5402091899999846,41.167964419999976],[-1.5393278299999906,41.167394779999995],[-1.5390472299999942,41.167148010000005],[-1.5388234200000284,41.167028070000015],[-1.5385878899999739,41.166898979999985],[-1.5383761900000081,41.166770180000015],[-1.5373088000000052,41.16599099000001],[-1.5348880399999985,41.163897469999995],[-1.5347308500000167,41.16346311000001],[-1.534375300000022,41.162837060000015],[-1.5336326299999996,41.16246731000001],[-1.5325374600000146,41.16133640999999],[-1.5319715399999723,41.16105897],[-1.5316675700000246,41.16079388000003],[-1.5312155400000051,41.16022063999998],[-1.5303272699999866,41.15943464999998],[-1.5296309099999803,41.159128510000016],[-1.529203979999977,41.159032980000006],[-1.5289046899999903,41.15909220999998],[-1.5283030900000085,41.15934573999999],[-1.527268709999987,41.160296319999986],[-1.5265806599999792,41.16068385],[-1.5253662900000222,41.161154710000005],[-1.5261454199999775,41.159363180000014],[-1.5264850899999942,41.15856585],[-1.5267726399999901,41.15743457999997],[-1.5275547400000278,41.15124737999997],[-1.528099549999979,41.14340874999999],[-1.5280619499999943,41.14242644000001],[-1.5283156599999757,41.13747551],[-1.5286888300000214,41.135705789999975],[-1.5286312599999974,41.135083529999974],[-1.5283683499999938,41.134053300000005],[-1.5280569999999898,41.133058489999996],[-1.5274999499999922,41.13133091999998],[-1.527043849999984,41.129352419999975],[-1.5262912700000015,41.12784753],[-1.5208346900000151,41.12786763999998],[-1.5164539599999785,41.12825265999999],[-1.5125144400000181,41.12756230000002],[-1.5148723699999778,41.127070290000006],[-1.5177946200000179,41.12690977],[-1.5208364100000153,41.12566980999998],[-1.5219134899999744,41.12544944000001],[-1.523174240000003,41.12500623],[-1.524497150000002,41.12444670000002],[-1.5262733600000047,41.123325480000005],[-1.5285393600000248,41.12213843000001],[-1.530206910000004,41.12161026000001],[-1.5351799100000108,41.117602180000006],[-1.535434099999975,41.11581289999998],[-1.5378771800000095,41.11414150000002],[-1.538245580000023,41.11364175],[-1.5384905999999887,41.11279815],[-1.5385655100000122,41.11210550999999],[-1.5383444099999792,41.10972469000001],[-1.5387036299999863,41.108026800000005],[-1.539198639999995,41.10718637000002],[-1.5423823300000095,41.10431724],[-1.5445263799999793,41.10267793999998],[-1.54662608000001,41.10088490999999],[-1.5470112099999938,41.10070060999999],[-1.551500830000009,41.09960417999997],[-1.5522071500000152,41.09943291000002],[-1.5528020200000014,41.09999886000003],[-1.5575330400000098,41.106363569999985],[-1.5594687399999998,41.10879283999998],[-1.560210770000026,41.11026135999998],[-1.5606308499999955,41.11229333],[-1.5633705999999847,41.113912889999995],[-1.566011059999994,41.11408091999999],[-1.5658474800000022,41.11612360999999],[-1.5662524800000028,41.11666911999998],[-1.5685176599999977,41.11712066000001],[-1.5751926500000195,41.116347710000014],[-1.5760336199999756,41.11656528999998],[-1.5772560400000089,41.11676956000002],[-1.5805873200000065,41.11694578999999],[-1.586319059999994,41.11682714],[-1.5874070400000164,41.118858209999985],[-1.587662650000027,41.11915859999999],[-1.589341040000022,41.12032313999998],[-1.5908876400000054,41.11985566999999],[-1.5914131600000019,41.11979004],[-1.5921278499999971,41.11978977000001],[-1.5955962799999952,41.11912953000001],[-1.600343070000008,41.11884504],[-1.6029793899999731,41.1203453],[-1.6049396999999885,41.12171121],[-1.6049968500000205,41.122387479999986],[-1.605577530000005,41.12252962000002],[-1.6065185200000087,41.12478392000003],[-1.6080084499999998,41.125306369999976],[-1.6091915200000244,41.126257469999985],[-1.6096451600000137,41.126776380000024],[-1.6098162000000116,41.12713874999997],[-1.6098756100000173,41.128274429999976],[-1.6103846400000066,41.12899218000001],[-1.6109610199999906,41.12934143000001],[-1.6123969399999964,41.12847599000003],[-1.613056169999993,41.12828576999999],[-1.614739659999998,41.12810787000001],[-1.6153962299999876,41.12804369999998],[-1.6177629200000183,41.12936924000002],[-1.6190955199999735,41.12774583999999],[-1.619137290000026,41.127458090000005],[-1.6189531599999896,41.12714962000001],[-1.6187697699999717,41.12623765000001],[-1.6191676999999913,41.12600822000002],[-1.6209269099999801,41.125623959999984],[-1.622162650000007,41.12520639000002],[-1.6231322200000022,41.12498378999999],[-1.6239603800000282,41.124687429999994],[-1.6250700300000176,41.124601600000005],[-1.6313752199999954,41.122713050000016],[-1.6364303799999789,41.12077333000002],[-1.6443309200000158,41.11773197000002],[-1.6469529699999725,41.11765472000002],[-1.6480453099999863,41.11724419000001],[-1.6487516000000255,41.117072329999985],[-1.6511493099999939,41.11747876999999],[-1.654208830000016,41.11755961],[-1.655168709999998,41.11663403],[-1.656078330000014,41.116419459999975],[-1.670555850000028,41.11141713000001],[-1.6875134399999752,41.10555850999998],[-1.6912907600000153,41.10425034999997],[-1.717265999999995,41.09802109999998],[-1.7200172400000042,41.09431348999999],[-1.7224341500000264,41.09370978999999],[-1.7234894499999882,41.09393769000002],[-1.7237656899999934,41.093814640000005],[-1.7242043599999874,41.09329704999999],[-1.7247787900000162,41.09191621999997],[-1.7258810399999902,41.09094657000003],[-1.7262830899999813,41.090473610000004],[-1.7271663399999966,41.088510670000005],[-1.7272504499999854,41.087854040000025],[-1.72793329000001,41.08763639],[-1.7289358500000276,41.08689081],[-1.7291146399999775,41.08626222999999],[-1.7307592899999804,41.084938220000026],[-1.732468879999999,41.08394817999999],[-1.7328930900000046,41.083556509999994],[-1.732978829999979,41.083431340000004],[-1.7339469699999768,41.08199173000003],[-1.7350160600000208,41.08335466],[-1.735038309999993,41.08343596999998],[-1.735123509999994,41.083959359999994],[-1.7349703099999942,41.084498139999994],[-1.7360534499999858,41.085131579999995],[-1.7369646199999806,41.08604236000002],[-1.7377402199999779,41.08719485],[-1.738324700000021,41.08838128000002],[-1.7382657200000153,41.08959669000001],[-1.7381216699999982,41.090279699999996],[-1.738739819999978,41.090953049999996],[-1.7394893300000263,41.093474430000015],[-1.7404864200000247,41.094881550000025],[-1.7418650299999854,41.09626580999998],[-1.7439503800000011,41.099306179999985],[-1.7456919599999878,41.10164916999997],[-1.7465461699999878,41.103694229999974],[-1.7466651500000125,41.10432607000001],[-1.7466082700000243,41.10481186999999],[-1.7463343300000247,41.10543944],[-1.7456940999999802,41.10654041999999],[-1.744321990000003,41.109173750000025],[-1.744178820000002,41.10981174],[-1.7438955000000078,41.11217768],[-1.744045540000002,41.11305306999998],[-1.74329898000002,41.11535090000001],[-1.7429125099999965,41.11687798999998],[-1.742568179999978,41.11931532],[-1.7428765299999895,41.12063382000002],[-1.7435385599999904,41.12214533000002],[-1.7452776100000165,41.124650429999974],[-1.7455764599999952,41.125221169999975],[-1.751572909999993,41.12435856000002],[-1.7560796399999958,41.12352457999998],[-1.7640138099999945,41.122222850000014],[-1.768497439999976,41.121334090000005],[-1.7730423400000177,41.120346729999994],[-1.7761065299999927,41.11955064],[-1.7795705500000167,41.11902893000001],[-1.7806133099999784,41.118679670000006],[-1.7812005200000272,41.11848772000002],[-1.7866826599999968,41.118329440000025],[-1.7868627799999786,41.118250269999976],[-1.7912800199999879,41.11640510000001],[-1.7921177599999965,41.11618870000001],[-1.7961319099999855,41.11552814999999],[-1.8055490300000088,41.113797680000005],[-1.8074837099999854,41.11351148],[-1.809050090000028,41.11514908999999],[-1.8096832200000108,41.11570511000002],[-1.807612430000006,41.119556999999986],[-1.8083722800000146,41.127590750000024],[-1.8086617499999988,41.129368269999986],[-1.8100615299999845,41.13365240000002],[-1.8118188400000008,41.13464338],[-1.814267330000007,41.13629001999999],[-1.814818119999984,41.136800119999975],[-1.8152491499999996,41.13734502],[-1.8156417000000147,41.13804264999999],[-1.8180253599999787,41.143309629999976],[-1.8187279900000135,41.144658979999974],[-1.8205772000000024,41.14785766],[-1.8221643100000051,41.15039604999998],[-1.8227009500000122,41.15104108999998],[-1.8220298100000036,41.15191698000001],[-1.8217734599999744,41.15225664000002],[-1.8210293500000034,41.15321284999999],[-1.8213880700000118,41.153811029999986],[-1.821468579999987,41.15397399],[-1.8211593899999912,41.154601360000015],[-1.8203544500000248,41.15429585999999],[-1.8198182500000257,41.15429037000001],[-1.8192544899999916,41.154491759999985],[-1.821036079999999,41.15682499000002],[-1.8211252799999897,41.1571682],[-1.8207978899999944,41.16013736999997],[-1.8208064599999716,41.16231730999999],[-1.8211017300000094,41.16379759],[-1.8216642099999945,41.16500137000003],[-1.8245229799999834,41.164445090000015],[-1.8264222000000245,41.16422125999998],[-1.8291187599999716,41.164068559999976],[-1.8295940099999939,41.16415447000003],[-1.830836369999986,41.16467152000001],[-1.831228049999993,41.164765569999986],[-1.8351349999999798,41.16424669000003],[-1.8360631300000136,41.164337149999994],[-1.8366334099999904,41.16444199],[-1.836823460000005,41.16447993999998],[-1.8399488800000086,41.16366476000002],[-1.8434484800000064,41.16393416],[-1.8454156500000067,41.16390887],[-1.8459218799999917,41.16358967000002],[-1.8489137000000255,41.162908019999975],[-1.8500179100000196,41.16315324999999],[-1.8531493500000238,41.16334662000003],[-1.854175199999986,41.16330278999999],[-1.8552153100000055,41.163123970000015],[-1.8543078700000137,41.16252945000002],[-1.8556480999999962,41.160858340000004],[-1.8561377799999832,41.159430989999976],[-1.8586685999999872,41.157825720000005],[-1.8588856000000078,41.15768374999999],[-1.8595829999999864,41.157330349999995],[-1.868744310000011,41.15409688],[-1.8693928700000129,41.15380599000002],[-1.8733826700000122,41.151178819999984],[-1.8774598599999877,41.14969632999998],[-1.882125369999983,41.14584137999998],[-1.8857294599999932,41.14552500000002],[-1.890059650000012,41.15231358],[-1.8980132099999878,41.16483858999999],[-1.8994471299999987,41.166761940000015],[-1.899470220000012,41.166807199999994],[-1.899739210000007,41.16711602999999],[-1.8999567600000091,41.16764956999998],[-1.9000604199999884,41.168578360000026],[-1.9003353100000027,41.16924755000002],[-1.9004262899999844,41.16950964],[-1.9020603100000244,41.17159701000003],[-1.9026540400000158,41.172449400000005],[-1.9029214199999842,41.172857290000024],[-1.9043171100000222,41.17566297000002],[-1.9057882600000084,41.17752353999998],[-1.9068875500000217,41.178092460000016],[-1.9082672600000024,41.179006319999985],[-1.9095571700000278,41.17958601999999],[-1.9103942699999834,41.18015242000001],[-1.9111279800000034,41.18048363999998],[-1.9147721900000079,41.18145483000001],[-1.9183707500000082,41.18230839],[-1.9203291499999864,41.18284920999997],[-1.9215839199999891,41.18340143],[-1.9262216199999784,41.184156359999974],[-1.927843810000013,41.18338781],[-1.928920870000013,41.18387523000001],[-1.9307706499999995,41.18450495000002],[-1.932404550000001,41.18521370000002],[-1.9335022999999865,41.185899440000014],[-1.9342313700000204,41.186527720000015],[-1.9361203099999784,41.1884278],[-1.9366860200000247,41.188838369999985],[-1.9372226400000159,41.189572940000005],[-1.9377684300000055,41.19047875000001],[-1.9375561300000186,41.191071299999976],[-1.9379271000000244,41.19393917000002],[-1.9384494799999743,41.19629499000001],[-1.9387664600000107,41.1973428],[-1.939476930000012,41.19913287000003],[-1.941524099999981,41.20530394999997],[-1.9424787799999876,41.20749258000001],[-1.9426047399999788,41.20781800999998],[-1.9441091200000074,41.209948610000026],[-1.9448138800000265,41.211369279999985],[-1.9455650200000036,41.212132800000006],[-1.946364889999984,41.212833709999984],[-1.9486396300000024,41.21454793999999],[-1.949790749999977,41.215666380000016],[-1.951268529999993,41.217247180000015],[-1.951807140000028,41.21713498999998],[-1.9534399300000018,41.216483270000026],[-1.9557404600000154,41.21584659000001],[-1.9567574399999899,41.21565764000002],[-1.9581717300000037,41.215238080000006],[-1.959647490000009,41.214701950000006],[-1.9611989300000232,41.21390525999999],[-1.9619264799999883,41.21391182000002],[-1.9632773700000143,41.21372581999998],[-1.9683287099999802,41.212618220000024],[-1.9697521100000017,41.212369739999986],[-1.970722990000013,41.21207217],[-1.971416999999974,41.211934240000005],[-1.973324429999991,41.21200532],[-1.9755040800000074,41.21221388999999],[-1.9764910499999928,41.21241183000001],[-1.9777023999999983,41.212755879999975],[-1.9779848200000174,41.212812429999985],[-1.9788440199999968,41.2129822],[-1.9842958300000078,41.21372401000002],[-1.9906176399999822,41.21452725],[-1.9929287599999839,41.21472763999998],[-1.9947173099999986,41.214779299999975],[-1.995589300000006,41.21475088],[-1.997283340000024,41.214693590000024],[-1.999128369999994,41.214952849999975],[-2.001712380000015,41.21838919999999],[-2.002275059999988,41.21904262999999],[-2.004030740000019,41.22048103999998],[-2.0058139600000118,41.22246912999998],[-2.0076038400000016,41.22471397999999],[-2.009022019999975,41.226496199999985],[-2.0104568900000004,41.227868709999996],[-2.0143774000000008,41.23216296999999],[-2.014797699999974,41.23277909000001],[-2.015525249999996,41.234388679999995],[-2.015827619999982,41.23491371],[-2.016428210000015,41.23703563999999],[-2.0172610700000178,41.238790240000014],[-2.0173110200000224,41.241826249999974],[-2.017038819999982,41.24326515000001],[-2.0167401400000244,41.2440823],[-2.0162758800000233,41.24479894000001],[-2.0155823100000134,41.245684770000025],[-2.013635469999997,41.24737055000003],[-2.013366700000006,41.247782599999994],[-2.0142038100000264,41.24925802000001],[-2.014706530000012,41.24995590999998],[-2.0148596399999974,41.25009233999998],[-2.0151773900000194,41.250392309999995],[-2.0159452400000077,41.250921319999975],[-2.018502080000019,41.252339329999984],[-2.0197951000000103,41.25287279999998],[-2.020840480000004,41.25320597000001],[-2.0249385700000175,41.25453787999999],[-2.025817449999977,41.25483356000001],[-2.0317675499999837,41.25605478],[-2.0361416200000235,41.25731653999998],[-2.0376119300000255,41.25798641],[-2.0390200800000002,41.258826880000015],[-2.0403126900000075,41.25859445999998],[-2.044056000000012,41.25811219000002],[-2.0448930599999926,41.25801104999999],[-2.047056390000023,41.257821809999996],[-2.0481569300000046,41.257659769999975],[-2.0491880800000217,41.257344020000005],[-2.0502888699999744,41.257163950000006],[-2.052237709999986,41.25694582],[-2.0535319300000197,41.25659617000002],[-2.0550791100000083,41.25608643999999],[-2.0564365999999836,41.25548506000001],[-2.0574602699999787,41.25485391000001],[-2.0579064300000027,41.256199700000025],[-2.057912559999977,41.2574338],[-2.0577868799999806,41.25953156000003],[-2.057917159999988,41.26043339],[-2.0583246799999984,41.261148330000026],[-2.0588531299999886,41.26175617000001],[-2.0597716099999843,41.262637419999976],[-2.062554030000001,41.26507416999999],[-2.0648345500000005,41.26672310999999],[-2.065935319999994,41.26738961000001],[-2.066388150000023,41.26828504000002],[-2.067219410000007,41.26943576000002],[-2.069596470000022,41.27439119000002],[-2.0701341299999854,41.27520621999997],[-2.0699761399999943,41.27876297],[-2.070187560000022,41.280692320000014],[-2.0702041900000268,41.28204360000001],[-2.0712231499999803,41.28344801999998],[-2.071606700000018,41.28418973999999],[-2.0740501199999812,41.287893559999986],[-2.0746899399999847,41.28909672999998],[-2.0761870200000203,41.29133365000001],[-2.07781872999999,41.29334643999999],[-2.078108400000019,41.29397929999999],[-2.0788849200000072,41.294814229999986],[-2.0803604899999755,41.296051069999976],[-2.0845906800000193,41.29931856000002],[-2.0849863199999845,41.29921361999999],[-2.085847860000001,41.29910337000001],[-2.0879836700000283,41.29926445000001],[-2.0892807000000175,41.29961702000003],[-2.092322980000006,41.29987526000002],[-2.093757040000014,41.29982352000002],[-2.0953961299999833,41.29962925000001],[-2.0966542799999957,41.299341889999994],[-2.096633499999996,41.29998125999998],[-2.096580510000024,41.301223900000025],[-2.0960113099999944,41.30438111000001],[-2.0954516499999727,41.305980069999976],[-2.095155250000005,41.307545059999995],[-2.0950955100000215,41.30840932000001],[-2.095167160000017,41.30927462],[-2.0953969600000164,41.30993397999998],[-2.0954887899999903,41.31020493],[-2.0958971499999848,41.311775469999986],[-2.0962683100000277,41.31517425999999],[-2.097441070000002,41.31936300000001],[-2.0975553200000263,41.32060695000001],[-2.0978706899999793,41.32113185999998],[-2.0986471800000004,41.32287642],[-2.0988984800000026,41.32371610000001],[-2.099014010000019,41.32486997000001],[-2.099886280000021,41.326606260000005],[-2.10084353000002,41.32911786],[-2.101174370000024,41.33112913999997],[-2.1022419999999897,41.33344342999999],[-2.102264909999974,41.33351567],[-2.103737130000013,41.337706690000005],[-2.1037297699999726,41.33998556],[-2.1031580399999825,41.34158445000003],[-2.1035795799999732,41.34309201000002],[-2.103484939999987,41.346505149999984],[-2.1043158300000187,41.34867344999998],[-2.09606986,41.353716229999975],[-2.0962840000000256,41.354654700000026],[-2.096634090000009,41.35959359999998],[-2.0966512599999874,41.360944870000026],[-2.0969456299999933,41.36300090999998],[-2.0970350299999723,41.36518145000002],[-2.097539270000027,41.36762646],[-2.0990620200000194,41.37338521999999],[-2.098221330000001,41.375378309999974],[-2.09766621,41.378337439999996],[-2.0892509399999994,41.377208199999984],[-2.0867202700000007,41.37688186999998],[-2.067910559999973,41.38265790999998],[-2.0674900899999784,41.382789609999975],[-2.0671988199999873,41.38392219999997],[-2.0656857299999842,41.384351279999976],[-2.064154770000016,41.38435685000002],[-2.0633995599999935,41.384476810000024],[-2.061945190000017,41.38497838000001],[-2.0591078499999753,41.38434268999998],[-2.056640870000024,41.38456568999999],[-2.052345559999992,41.38550318],[-2.051678489999972,41.38531753000001],[-2.0465196000000105,41.38314008999998],[-2.0456027999999833,41.38204257000001],[-2.0450474900000017,41.381578579999996],[-2.0435254399999963,41.38098043999997],[-2.0418237900000236,41.38039880000002],[-2.0388716799999997,41.38027507999999],[-2.038584309999976,41.381110379999996],[-2.034189519999984,41.38634296999999],[-2.0320293099999844,41.38683823000002],[-2.0292704500000127,41.384157759999994],[-2.0251137600000106,41.38379831999998],[-2.0281978900000013,41.381491470000014],[-2.020854789999987,41.376709240000025],[-2.01821369999999,41.37500231000001],[-2.0153666400000247,41.37427537999997],[-2.014762580000024,41.371513900000025],[-2.013139439999975,41.37051816000002],[-2.0139800399999785,41.369489499999986],[-2.0146122500000274,41.36483801000003],[-2.0095200900000236,41.36238924999998],[-2.007763060000002,41.35999611],[-1.9997888799999828,41.35452249000002],[-1.9945492499999773,41.348540809999974],[-1.991739759999973,41.343922350000014],[-1.9823342000000252,41.338480000000004],[-1.9745689000000084,41.33979820000002],[-1.970931520000022,41.340053950000026],[-1.9681068699999855,41.339456659999996],[-1.9675484900000129,41.339339059999986],[-1.9664127400000098,41.33945496000001],[-1.9628559399999972,41.33981026999999],[-1.9577665900000056,41.34192611999998],[-1.950604539999972,41.345815370000025],[-1.9488708200000247,41.34659220999998],[-1.9404976800000213,41.34991127000001],[-1.941803020000009,41.35123838999999],[-1.9415781999999808,41.35330805000001],[-1.9429690499999879,41.355266459999996],[-1.944210720000001,41.35906103000002],[-1.9431493399999908,41.358898150000016],[-1.9403874999999857,41.35890877999998],[-1.9342506400000161,41.3562129],[-1.9357855000000086,41.35812769],[-1.9367033199999923,41.36049615000002],[-1.9322019699999942,41.363057630000014],[-1.9318235999999729,41.36499072999999],[-1.9281042999999727,41.36722602999998],[-1.9282573099999922,41.36810118],[-1.9270906099999934,41.369972870000026],[-1.9264824100000055,41.37132731999998],[-1.9256213499999717,41.37423770999999],[-1.925579780000021,41.37530921000001],[-1.9214079100000276,41.37882810999997],[-1.9199760600000104,41.379355120000014],[-1.9196385700000178,41.37951408999999],[-1.919539929999985,41.37969330999999],[-1.9195243899999923,41.37990933999998],[-1.9196532400000024,41.38007269000002],[-1.9199734000000035,41.38023783],[-1.9205092500000092,41.380377969999984],[-1.9219315799999777,41.38042733999998],[-1.9224922399999969,41.38051366000002],[-1.9232644200000095,41.380827150000016],[-1.9236388799999986,41.38132605999999],[-1.9242828000000145,41.38289037999999],[-1.924482370000021,41.38311743000003],[-1.924886860000015,41.38324732000001],[-1.9271623299999874,41.38233179000002],[-1.9274023799999895,41.38227998999997],[-1.927604620000011,41.38234491999998],[-1.927692879999995,41.38279612000002],[-1.9278558400000065,41.38306785999998],[-1.928187410000021,41.38326912000002],[-1.9297803399999793,41.38313083000003],[-1.9299818499999901,41.38324079],[-1.930047390000027,41.383619710000005],[-1.9296968900000024,41.384571240000014],[-1.92884454,41.38622068000001],[-1.9287792800000148,41.386553349999986],[-1.9288222299999802,41.38685099999998],[-1.9338280399999803,41.390122210000015],[-1.9348363500000119,41.390635970000005],[-1.9354262300000187,41.39113685000001],[-1.9356583699999987,41.39157136],[-1.9357105199999864,41.39204023000002],[-1.9355804900000066,41.39267855999998],[-1.9348551599999837,41.39387885000002],[-1.9348637400000257,41.39408610999999],[-1.93505171999999,41.394295020000015],[-1.9353479299999776,41.39446891],[-1.9368835800000284,41.394924479999986],[-1.9370944600000257,41.39519666000001],[-1.9369673799999987,41.39565486999999],[-1.9365852999999902,41.39634490999998],[-1.936557999999991,41.39655183000002],[-1.93669564999999,41.396913410000025],[-1.9374713999999926,41.397758280000005],[-1.9375254899999845,41.39811006999997],[-1.937329420000026,41.39839649999999],[-1.9357678100000157,41.39952600999999],[-1.9356935399999884,41.39967845000001],[-1.9359064899999794,41.39982454],[-1.9368619100000046,41.39992345000002],[-1.937747179999974,41.39992262999999],[-1.9380431199999748,41.40011451999999],[-1.9382710599999768,41.40081020000002],[-1.9382527899999786,41.401197360000026],[-1.9376631599999996,41.40140809000002],[-1.9377048499999887,41.40178679000002],[-1.9382883999999763,41.402683920000015],[-1.9388515599999891,41.40336468999999],[-1.938978010000028,41.40368111999999],[-1.9383989500000212,41.40471163000001],[-1.9381188400000156,41.4050153],[-1.9380318799999827,41.40521266000002],[-1.938087429999996,41.4054744],[-1.9387089599999854,41.40624577],[-1.9386564199999725,41.40653352999999],[-1.9378767499999867,41.40739105],[-1.9372949199999994,41.40785405999998],[-1.9373853299999837,41.40817916999998],[-1.9376775000000066,41.40860522000003],[-1.9380423299999734,41.408977900000025],[-1.9381791399999884,41.40939350999997],[-1.9380278099999941,41.40986951000002],[-1.9374425799999813,41.41053965999998],[-1.9372083800000155,41.41096084999998],[-1.9371670599999788,41.41129375000003],[-1.9373050400000125,41.41163731],[-1.937790829999983,41.41193003000001],[-1.938848969999981,41.41234514000001],[-1.9390381800000114,41.41248200000001],[-1.9391181099999812,41.41271692999999],[-1.9390417899999761,41.41299545999999],[-1.9387982700000066,41.413254429999995],[-1.9386707099999967,41.413739659999976],[-1.9394730000000209,41.41590886],[-1.9398788500000137,41.416705260000015],[-1.9399014599999873,41.416786530000024],[-1.9399218699999778,41.4170029],[-1.9396708599999783,41.41772119000001],[-1.9397621800000024,41.41799225],[-1.93973225000002,41.41836128],[-1.9394404099999747,41.41864683],[-1.9365241300000093,41.41989896000001],[-1.9422925999999734,41.41986208999998],[-1.947191939999982,41.421032990000015],[-1.950272439999992,41.422205099999985],[-1.9524953200000255,41.42313512999999],[-1.9536858899999743,41.424262899999974],[-1.9508961000000227,41.426579419999996],[-1.9487403800000038,41.42964029000001],[-1.9494810799999982,41.43269157999998],[-1.949015289999977,41.43337188999999],[-1.9488087899999869,41.43578401000002],[-1.9523988000000259,41.44550879000002],[-1.9522271600000067,41.44947951],[-1.9529569000000038,41.45174702000003],[-1.9514989699999887,41.45603928999998],[-1.952171519999979,41.45963038000002],[-1.952485050000007,41.46023673000002],[-1.9532756400000153,41.462450750000016],[-1.95667044999999,41.46655296],[-1.9572310199999947,41.468188380000015],[-1.9614158599999882,41.473099260000026],[-1.9650578200000268,41.47678910000002],[-1.9666285900000275,41.478937970000004],[-1.9699783300000036,41.481454059999976],[-1.9652081400000156,41.48465390000001],[-1.959751439999991,41.486559279999994],[-1.9577392799999984,41.48803628000002],[-1.9535931099999857,41.48812473999999],[-1.9482986699999856,41.49032828999998],[-1.9455993099999773,41.490573789999985],[-1.9424379999999815,41.49196792999999],[-1.9423899399999982,41.49197650000002],[-1.9316453999999794,41.49554318999998],[-1.9296450599999844,41.496974780000016],[-1.9257381699999883,41.49849662999998],[-1.9238782400000218,41.500118569999984],[-1.9238174500000014,41.50017205],[-1.9237437799999952,41.500279449999994],[-1.9231051500000262,41.50049865],[-1.922824549999973,41.50080227000001],[-1.9167213800000127,41.502519389999975],[-1.9142461800000206,41.502937410000015],[-1.9130794700000138,41.50320562000002],[-1.9126332000000161,41.50338154000002],[-1.9117440399999737,41.50424684000001],[-1.9086672600000156,41.5069469],[-1.9074753099999953,41.50799845],[-1.906976670000006,41.50843507000002],[-1.9058971900000188,41.50920844000001],[-1.9053237699999954,41.50981546999998],[-1.9011246399999777,41.50940609999998],[-1.8993312999999716,41.50916375999998],[-1.8982360699999958,41.50873892999999],[-1.8942696299999966,41.508745869999984],[-1.8926408400000128,41.508694160000005],[-1.8906566300000236,41.508404799999994],[-1.8891121899999916,41.50832682999999],[-1.888057109999977,41.50836167],[-1.8867043600000102,41.508285520000015],[-1.8855876800000146,41.50841881000002],[-1.8846298299999944,41.50837349],[-1.883560760000023,41.50852523999998],[-1.8811295400000176,41.507753990000026],[-1.8789332200000217,41.50865133000002],[-1.8786177000000066,41.50957600999999],[-1.8779158199999983,41.510668039999985],[-1.8770858500000145,41.51084909000002],[-1.875586329999976,41.510942520000015],[-1.8744088999999917,41.51112014],[-1.8740773000000104,41.51158527000001],[-1.8739820399999871,41.512241870000025],[-1.8731952399999727,41.51338708999998],[-1.872872789999974,41.51401443999998],[-1.8723034000000212,41.514369139999985],[-1.8716685200000143,41.5143539],[-1.8709757600000216,41.51422100000002],[-1.8683071199999972,41.51400560000002],[-1.866910589999975,41.51368559000002],[-1.8664697799999885,41.513537120000024],[-1.8654877600000077,41.513500410000006],[-1.864832540000009,41.51327777],[-1.8645402399999966,41.51286055000003],[-1.8646704399999976,41.51226735],[-1.8639931600000068,41.511936400000025],[-1.8624522999999726,41.51165093999998],[-1.8616181799999936,41.51138147],[-1.8608688599999823,41.512427890000026],[-1.8595553800000175,41.51489185999998],[-1.8587093099999947,41.51666690000002],[-1.858291950000023,41.51723020999998],[-1.85730159000002,41.518346269999995],[-1.8555372600000055,41.520535489999986],[-1.854193099999975,41.52199927999999],[-1.8518804000000273,41.52468737999999],[-1.854187109999998,41.527097319999996],[-1.8547094900000047,41.52738175000002],[-1.8565391299999874,41.528985250000005],[-1.857670799999994,41.53006835999997],[-1.860245060000011,41.53228268999999],[-1.8600143099999968,41.53313608000002],[-1.8629248400000051,41.53532666000001],[-1.8636843599999793,41.53576651999998],[-1.865186059999985,41.53626774999998],[-1.8653154099999938,41.537097700000004],[-1.8654854499999942,41.53765781999999],[-1.8656431900000143,41.53823584000003],[-1.866538769999977,41.53981193999999],[-1.8653783199999907,41.540358930000025],[-1.864940660000002,41.54070589000003],[-1.8646805999999856,41.541180699999984],[-1.8643328599999904,41.54255537],[-1.8636351000000104,41.54269259],[-1.8627288199999725,41.54309795],[-1.8622171600000001,41.54356125999999],[-1.861934510000026,41.54395477999998],[-1.861724240000001,41.545006539999974],[-1.8610876100000269,41.546441379999976],[-1.8603851899999881,41.54752429000001],[-1.8589773100000002,41.54917664999999],[-1.8564296600000034,41.55086268000002],[-1.8550991800000247,41.551515970000025],[-1.8541947900000082,41.551804189999984],[-1.84886616,41.554101790000004],[-1.8486374099999807,41.554153540000016],[-1.8462399200000164,41.554786999999976],[-1.8430286799999749,41.55599768000002],[-1.842003649999981,41.55632062000001],[-1.8411133899999754,41.55648277],[-1.8404047299999888,41.556547679999994],[-1.8382571800000278,41.55660704000002],[-1.8375955100000283,41.556726449999985],[-1.8369427499999915,41.55701706999997],[-1.835933099999977,41.55781747999998],[-1.8351696700000275,41.558260099999984],[-1.8342882800000098,41.55859342999997],[-1.8323035000000232,41.558933550000006],[-1.8314517399999772,41.55828538999998],[-1.8283377700000187,41.556740479999974],[-1.8261743300000148,41.55502505999999],[-1.8228845300000103,41.55459508000001],[-1.8210324699999774,41.55423381999998],[-1.8202091599999903,41.554009199999996],[-1.819663079999998,41.55370635000003],[-1.8178203900000085,41.552174200000024],[-1.8172590699999773,41.55205132999998]],[[-1.9353393100000176,41.300439340000025],[-1.9354668299999958,41.29700865000001],[-1.9355497700000228,41.296315830000026],[-1.9359342299999867,41.294616959999985],[-1.9362317700000062,41.2933046],[-1.9367929100000083,41.29111194000001],[-1.9379906099999857,41.28501585999999],[-1.938655390000008,41.28084246999998],[-1.9390369299999861,41.27940477999999],[-1.9392221800000016,41.27828954],[-1.9404248800000232,41.26742847000003],[-1.9404867900000227,41.26507806000001],[-1.9407150700000102,41.26277421999998],[-1.9407335600000124,41.26236905000002],[-1.9407049000000143,41.26192741],[-1.9406858300000067,41.26162999000002],[-1.9407426099999725,41.26107203999999],[-1.940870700000005,41.26053275999999],[-1.9409109100000137,41.26035297999999],[-1.9409865700000069,41.26001138999999],[-1.9410645899999963,41.25961576999998],[-1.9410712900000249,41.25920148],[-1.941005720000021,41.25901171999999],[-1.9409231199999795,41.258767750000004],[-1.9408106199999793,41.258343360000026],[-1.9407317299999818,41.258054389999984],[-1.940797669999995,41.25766766999999],[-1.9408615699999814,41.257407039999975],[-1.941032440000015,41.257174410000005],[-1.9413586100000089,41.25693421],[-1.941540649999979,41.25684130000002],[-1.9417317900000057,41.256739470000014],[-1.9419137200000023,41.256560990000025],[-1.9419798000000128,41.25616525999999],[-1.9419946400000185,41.25598524999998],[-1.9420934699999748,41.25577898],[-1.9422753900000203,41.255600500000014],[-1.9424207900000283,41.255466720000015],[-1.9424718700000199,41.25526001999998],[-1.9424759400000084,41.25500784000002],[-1.9424191800000017,41.25482717],[-1.942197080000028,41.25453687999999],[-1.942066060000002,41.25442758999998],[-1.9420086000000083,41.25438201999998],[-1.9420259199999919,41.25404889999999],[-1.9420196600000281,41.25369755000003],[-1.9419055500000013,41.25337222000002],[-1.9418428199999767,41.25282218000001],[-1.9422904900000049,41.25244798],[-1.9426431699999966,41.25218099],[-1.9432558099999824,41.25179928],[-1.9436178999999925,41.25155038999998],[-1.9437998099999731,41.25137190999999],[-1.9439347100000077,41.251147960000026],[-1.944033950000005,41.250914669999986],[-1.9440863300000046,41.250626909999994],[-1.9439751300000125,41.25012146],[-1.9436000800000102,41.24969465999999],[-1.9433889100000101,41.24946754000001],[-1.9431517500000268,41.24932574000002],[-1.9426087200000097,41.24900099000001],[-1.9421012600000154,41.24864502999998],[-1.9417362699999785,41.24833541999999],[-1.9412633100000107,41.248060839999994],[-1.9411243299999796,41.247798339999974],[-1.9410683099999915,41.24757263999999],[-1.9408923699999718,41.24738186000002],[-1.9407042099999785,41.24720897999998],[-1.9404931999999917,41.24697284000001],[-1.940341999999987,41.24672824999999],[-1.9402867100000094,41.24645751000003],[-1.940182230000005,41.2462764],[-1.9399339700000269,41.246129989999986],[-1.9396732000000156,41.24601949999999],[-1.939413160000015,41.245863970000016],[-1.9392025899999794,41.245600809999985],[-1.9391232899999977,41.245338860000004],[-1.9391154499999743,41.24508658000002],[-1.9391061399999785,41.24492435000002],[-1.938725780000027,41.24409214999997],[-1.938517709999985,41.24367588000001],[-1.9384260499999755,41.243440840000005],[-1.9383162600000219,41.24321914000001],[-1.9382873800000198,41.243160320000015],[-1.9381946999999968,41.242988319999995],[-1.9376868699999932,41.242659360000005],[-1.9370252400000254,41.24224792000001],[-1.936754599999972,41.242011219999995],[-1.9366281700000059,41.241712800000016],[-1.9366203299999825,41.241460510000024],[-1.9365759699999785,41.24125292999997],[-1.9355695099999934,41.24076623000002],[-1.9347983399999862,41.24048886999998],[-1.934526539999979,41.24032421999999],[-1.9342909800000143,41.240132879999976],[-1.934163099999978,41.23992451999999],[-1.9340106299999889,41.23976097000002],[-1.9338337099999876,41.23963322999998],[-1.9334910599999944,41.239422880000006],[-1.9333019200000194,41.239313030000005],[-1.9330665100000033,41.23911269000001],[-1.9329038700000183,41.23884095],[-1.9327035300000261,41.23868596],[-1.9324911100000008,41.23853987000001],[-1.9322906300000113,41.23839389],[-1.9320668600000204,41.23821165999999],[-1.9318559199999754,41.23797551000001],[-1.9318771000000083,41.23740823000003],[-1.9318455599999993,41.23714670999999],[-1.9318012100000033,41.236939129999996],[-1.931733730000019,41.23668629000002],[-1.9315459200000191,41.23649538000001],[-1.9313452999999754,41.23635840999998],[-1.931086779999987,41.2361128],[-1.930898969999987,41.235921899999994],[-1.9307347299999833,41.23574923000001],[-1.930524680000019,41.235459030000015],[-1.9303962299999853,41.23528670000002],[-1.9298860000000104,41.23511080999998],[-1.929601429999991,41.23500007000001],[-1.9292946099999995,41.234790050000015],[-1.9290350800000056,41.23460748000002],[-1.9288000000000238,41.234389109999995],[-1.9286970399999745,41.234117930000025],[-1.928677300000004,41.23386553],[-1.92865697000002,41.23364916000003],[-1.928684579999981,41.23337468],[-1.92725286000001,41.233410890000016],[-1.9273924899999884,41.23362838000003],[-1.92747731999998,41.23427772000002],[-1.926995359999978,41.23602070999999],[-1.9269893100000104,41.23638996],[-1.9273317700000234,41.23733894999998],[-1.9272405799999888,41.23780649999998],[-1.927080760000024,41.23809326000003],[-1.9265834600000176,41.23858403999998],[-1.926515839999979,41.23906982],[-1.9277030800000148,41.24090042],[-1.927711620000025,41.24110768000003],[-1.9275886199999945,41.241331720000005],[-1.9272253600000226,41.24165261000002],[-1.9268227499999853,41.24218932000002],[-1.9268667900000196,41.24241491999999],[-1.9258061400000202,41.24305357999998],[-1.9239912200000049,41.24383831],[-1.9231130599999915,41.244262470000024],[-1.9224965099999736,41.24474311],[-1.921809689999975,41.24514203000001],[-1.9194172900000126,41.24620052],[-1.918137549999983,41.247089259999996],[-1.9175482599999896,41.248083570000006],[-1.9140437899999938,41.24997819999999],[-1.9138477100000273,41.25010695999998],[-1.9130179499999826,41.25066211000001],[-1.9139299600000186,41.25108505999998],[-1.9153961600000002,41.25191856999999],[-1.9157613300000094,41.25221026000003],[-1.915776849999986,41.25271483],[-1.9159494500000278,41.253103780000004],[-1.916230359999986,41.2534397],[-1.9170107099999996,41.25388842000001],[-1.9184837000000243,41.25431660999999],[-1.9189457100000027,41.254528119999975],[-1.9191174399999795,41.254971109999985],[-1.9207025200000203,41.25729192],[-1.9230545400000096,41.26088994999998],[-1.9234766700000137,41.26135328999999],[-1.9224621000000184,41.26497386],[-1.9248901099999784,41.26832934999999],[-1.9260062199999766,41.26942968999998],[-1.92572100000001,41.270805189999976],[-1.9262132000000065,41.27136825000002],[-1.9259890199999745,41.27193362999998],[-1.9260022600000184,41.27258230000001],[-1.9263521999999966,41.27454021],[-1.9261656900000048,41.276448070000015],[-1.925834850000001,41.278417649999994],[-1.925768029999972,41.27957900000001],[-1.9258577400000263,41.28066074999998],[-1.9254293899999766,41.28347611999999],[-1.9251032999999893,41.28878753999999],[-1.9251471700000025,41.28975176],[-1.925386930000002,41.29115016999998],[-1.923204499999997,41.293138469999974],[-1.9211378699999955,41.294614379999985],[-1.9201718400000232,41.29520882999998],[-1.9195934300000204,41.2955637],[-1.9176484199999777,41.295455360000005],[-1.9179311299999995,41.29492656999997],[-1.918252329999973,41.29432608000002],[-1.9169792299999813,41.29475547999999],[-1.9118965299999786,41.29587853999999],[-1.9113575000000083,41.29597252999997],[-1.9094098499999745,41.30121451000002],[-1.9088791300000025,41.30264168000002],[-1.907680819999996,41.30586402],[-1.9071486299999947,41.307687499999986],[-1.9101362100000188,41.31120172999999],[-1.9116937000000007,41.31236942999999],[-1.912973060000013,41.31374165],[-1.9140701599999943,41.31530129999999],[-1.9144155000000183,41.316088209999975],[-1.9155755400000203,41.31745927999998],[-1.9172470600000224,41.318970260000015],[-1.9203140399999938,41.321359029999996],[-1.9206301899999971,41.32174931999998],[-1.9206949699999996,41.32361448],[-1.9198868600000196,41.325516489999984],[-1.9181464900000265,41.32742775999998],[-1.9212804200000164,41.328682189999995],[-1.9234592299999917,41.325540950000004],[-1.9339990899999862,41.307182599999976],[-1.934288630000026,41.305726059999984],[-1.934867660000009,41.30281296999999],[-1.9353393100000176,41.300439340000025]]]}}]}