{"type":"FeatureCollection","features":[{"type":"Feature","properties":{"OBJECTID":1655,"ZON_CO_ID":13,"ZON_DS_NOM":"Campo de Borja","CAL_DS_NOM":"D.O.Campo de Borja","TPR_DS_DES":"Denominación de Origen","TPR_DS_GRU":"CALIDAD DIFERENCIADA","FAM_DS_NOM":"Vinos","classification":"DO","normalizedName":"Campo de Borja"},"geometry":{"type":"Polygon","coordinates":[[[-1.4730531499999984,41.92447533000001],[-1.4678952799999934,41.92280346000001],[-1.465829470000017,41.92194727999998],[-1.4631487199999924,41.92058746999999],[-1.45706346999998,41.91689421000001],[-1.4532932600000095,41.91572666000002],[-1.450959360000013,41.91600140000003],[-1.446853630000021,41.91574775999999],[-1.4454461099999776,41.91561161999999],[-1.4447695399999816,41.91566549999999],[-1.4407236600000033,41.916421179999986],[-1.438298560000021,41.915982910000025],[-1.4362849799999822,41.91449643999999],[-1.4324327599999833,41.91423673999998],[-1.4217780899999752,41.91307296999997],[-1.4182446199999958,41.91358272999997],[-1.4177919499999803,41.913846680000006],[-1.4160647799999992,41.916398689999994],[-1.4158625499999857,41.91677417],[-1.4157739300000003,41.91694407],[-1.4156694600000037,41.916780510000024],[-1.4149946200000159,41.91578949000001],[-1.4141889900000137,41.91423825999999],[-1.4119304999999827,41.91244176999999],[-1.4111558000000173,41.91062075000002],[-1.4117859300000077,41.91000802999997],[-1.4115015900000003,41.90931961000001],[-1.4110677200000055,41.90834090999999],[-1.411658550000027,41.90736737999998],[-1.4111865099999932,41.90695555999997],[-1.4105669400000238,41.90665876999998],[-1.4062189900000135,41.90599505],[-1.4047173899999734,41.905776049999986],[-1.4039094500000147,41.90578283000002],[-1.4013360299999817,41.9059992],[-1.3990107100000273,41.90352604999998],[-1.3981303699999899,41.904018140000005],[-1.3971110200000112,41.904283109999994],[-1.3921362099999897,41.90170975000001],[-1.3919501699999728,41.901436950000004],[-1.3910882399999878,41.900236029999974],[-1.3907473599999776,41.89988899999997],[-1.390288919999989,41.899423249999984],[-1.3884623100000226,41.89823579],[-1.3846267299999795,41.895930280000016],[-1.3804485499999828,41.89431330000002],[-1.3788227599999914,41.893776979999984],[-1.3775314200000253,41.89336245999999],[-1.3712686599999984,41.88888764000001],[-1.371150689999979,41.888786900000014],[-1.3667882500000132,41.88544657],[-1.364802069999996,41.88393222000002],[-1.3599594600000273,41.87818905],[-1.3588753799999722,41.87346315999997],[-1.3582478600000059,41.87161686000002],[-1.3582613699999797,41.868266629999994],[-1.3583285799999771,41.86658337],[-1.3585356500000216,41.864613899999995],[-1.3599081099999921,41.85900443999998],[-1.3598687900000073,41.85771593999999],[-1.3598065300000144,41.85638209000001],[-1.3573098400000276,41.848501699999986],[-1.3562499899999807,41.846144830000014],[-1.3548647399999822,41.84473797999999],[-1.3541839499999924,41.84404372],[-1.351777210000023,41.84161346000002],[-1.3487837499999955,41.83858928000001],[-1.3480352700000253,41.83725456000002],[-1.3441928400000052,41.833542550000004],[-1.3440877500000283,41.83341494000001],[-1.3407244699999978,41.82981781000001],[-1.3387021600000253,41.82699652000002],[-1.3383756100000141,41.82658650000002],[-1.33802522000002,41.82616712999999],[-1.3375672000000236,41.82571918000002],[-1.3356357800000183,41.824511340000015],[-1.3334522499999935,41.82281345000001],[-1.3307091300000025,41.82041387999999],[-1.3294645799999785,41.819657240000026],[-1.3257995000000165,41.81707299999999],[-1.3250023100000021,41.81671011999998],[-1.3233483199999796,41.81457843999999],[-1.321617969999977,41.81214840000001],[-1.3196263099999896,41.80958841],[-1.3192033899999842,41.807807920000016],[-1.3189466499999867,41.8070386],[-1.318050009999979,41.805422290000024],[-1.3179624699999977,41.80508775999999],[-1.3176281300000028,41.804524449999974],[-1.3173690699999838,41.8043045],[-1.318146449999972,41.803577340000004],[-1.319223700000009,41.803349939999976],[-1.3212040500000057,41.80264936999998],[-1.3223106099999882,41.80083718999998],[-1.3243199500000173,41.797173810000004],[-1.3251664699999992,41.79609635999998],[-1.3271814500000119,41.794054200000005],[-1.3282552900000155,41.79302507],[-1.329149340000015,41.791966290000005],[-1.331325129999982,41.78881858],[-1.3322824900000114,41.78763461],[-1.3336079300000279,41.78617675999999],[-1.3357650699999795,41.782803520000016],[-1.3366265000000226,41.78160011],[-1.3367260599999895,41.78100711000002],[-1.3369058700000096,41.780568389999985],[-1.3375470099999802,41.77950587999999],[-1.3385335899999973,41.77764676999999],[-1.3396072599999798,41.77614017000002],[-1.3401608099999862,41.775670820000016],[-1.3410259099999848,41.775251000000026],[-1.343934040000022,41.77445535999999],[-1.3464731899999833,41.77396956000001],[-1.3466325499999812,41.77338642000001],[-1.3466117500000223,41.772323330000006],[-1.3464093800000114,41.77177101000001],[-1.3473606300000256,41.76892959000003],[-1.3478240900000173,41.767747369999995],[-1.3478682599999843,41.76743277000003],[-1.3478992500000118,41.76716302],[-1.3462870800000246,41.76716683000001],[-1.3450218099999915,41.767247680000025],[-1.3442405800000188,41.76721841],[-1.3432708899999852,41.76703328999997],[-1.3427137900000048,41.766710020000005],[-1.3424906299999861,41.766499650000014],[-1.3414692100000138,41.762720100000024],[-1.3405502800000022,41.75963553999998],[-1.340414389999978,41.75884099000001],[-1.340556030000016,41.75754606999999],[-1.3405726899999877,41.75736618000002],[-1.3405709200000047,41.75650151000002],[-1.340471530000002,41.75615782],[-1.339099630000021,41.75431863],[-1.3389794500000107,41.75384853999998],[-1.338859379999974,41.75244176000001],[-1.3388598799999727,41.75009102000001],[-1.3388520999999969,41.74946043],[-1.3382045000000176,41.74752362999999],[-1.3372300300000006,41.74567215000002],[-1.3351825299999973,41.74206681999999],[-1.3349291600000015,41.740703129999986],[-1.3349475499999812,41.73859582],[-1.3351778800000034,41.73666272000003],[-1.3352107599999954,41.736320939999985],[-1.3351836200000093,41.735509939999986],[-1.3358932699999855,41.73550220999999],[-1.3370888200000195,41.73530337],[-1.3386264499999925,41.735361650000016],[-1.3428589100000181,41.73490041000002],[-1.344037549999996,41.734890389999975],[-1.3451334499999916,41.734356779999985],[-1.3462200899999743,41.734183289999976],[-1.3494684500000176,41.73411293999999],[-1.352440290000004,41.73357017000001],[-1.3541898199999878,41.733334060000004],[-1.3544912400000158,41.733302349999974],[-1.356310810000025,41.733148270000015],[-1.362247620000005,41.73232340999999],[-1.363096310000003,41.732047290000025],[-1.366086600000017,41.731243240000026],[-1.367427140000018,41.73101011],[-1.3685841899999787,41.73090045999999],[-1.3701727900000265,41.73084195000001],[-1.3737178499999914,41.73044186999999],[-1.3748975500000142,41.730386520000025],[-1.3763038100000244,41.73040641],[-1.3773694500000033,41.73010622999999],[-1.3792301299999963,41.72926785999999],[-1.3799660199999835,41.729170160000024],[-1.3803687600000103,41.72893264999999],[-1.381292579999979,41.728054009999994],[-1.381776460000026,41.727457379999976],[-1.3827147900000227,41.72695721000002],[-1.3832585200000267,41.72637042000002],[-1.3848047899999756,41.72415849999999],[-1.3855841999999825,41.72280043000001],[-1.3872604599999931,41.71923027999998],[-1.3878156499999932,41.71866165],[-1.388400489999981,41.71786824999998],[-1.38883143999999,41.71745999000001],[-1.388953640000011,41.71738063999999],[-1.3896629899999766,41.716895220000026],[-1.390032940000026,41.71652211999998],[-1.3949621099999945,41.71263714000003],[-1.397073579999983,41.711351639999975],[-1.3978724500000226,41.71112861],[-1.3986928799999987,41.71100495000002],[-1.399712490000013,41.71060484999998],[-1.4004138700000226,41.71043448],[-1.4040597700000035,41.71027805],[-1.4051792500000033,41.709239809999985],[-1.4056767899999727,41.709048559999985],[-1.4065599300000144,41.70881764000001],[-1.4069918100000223,41.70836428000001],[-1.4075551799999744,41.70745340000002],[-1.4088076400000205,41.7068673],[-1.41056758000002,41.70617112999997],[-1.4120423200000118,41.70631761999999],[-1.4126437400000214,41.70629890999999],[-1.4132240000000138,41.706162819999975],[-1.4155519000000254,41.70533931],[-1.4170657000000233,41.70487380999998],[-1.420071059999998,41.704356770000004],[-1.42074851000001,41.704176940000025],[-1.4219317700000147,41.70248191000002],[-1.4231859399999962,41.70083288000001],[-1.4251617699999883,41.697680590000004],[-1.4255770400000074,41.69740707],[-1.42628129000002,41.69711049],[-1.4282181300000047,41.69653355000003],[-1.4293681699999752,41.69618901000001],[-1.4306734799999958,41.69588261000001],[-1.4313835799999879,41.695838260000016],[-1.4324512200000186,41.69591588999998],[-1.432908810000015,41.69587709000001],[-1.433407260000024,41.69564071000002],[-1.4367599600000176,41.69316448000001],[-1.438389070000028,41.692385030000025],[-1.4399602799999798,41.69201007999999],[-1.440279529999998,41.69123081999999],[-1.4398155499999916,41.69004462999999],[-1.4398948099999984,41.68974847999999],[-1.4406846499999801,41.68839016999999],[-1.4407385700000077,41.68814772000002],[-1.4405618299999787,41.685019950000026],[-1.4408749400000147,41.68449279999999],[-1.4410196800000108,41.68397236999999],[-1.4413252100000022,41.67977933999998],[-1.4417220899999847,41.67876695000001],[-1.441748070000017,41.67868623999999],[-1.4419331600000191,41.67798621999998],[-1.442322909999973,41.67776633],[-1.4428152799999907,41.675782500000025],[-1.4430286499999738,41.674407340000016],[-1.4441603399999963,41.672810449999986],[-1.444664859999989,41.67231290000001],[-1.445214280000016,41.67144667000002],[-1.4447772500000156,41.67063915],[-1.4453221100000064,41.669962010000006],[-1.4458088599999996,41.66920300999999],[-1.445869029999983,41.66869944000001],[-1.4461350700000253,41.668126599999994],[-1.4471326299999987,41.667104300000005],[-1.4476434599999948,41.66684099999998],[-1.4477170200000273,41.66677894999998],[-1.4496090499999923,41.66502114000002],[-1.4511446299999875,41.66309638000001],[-1.4523286900000016,41.66130196],[-1.4530984200000034,41.659754150000026],[-1.453348539999979,41.65883881000002],[-1.4535051899999871,41.65781414000003],[-1.4539626900000258,41.65626212000001],[-1.4545521800000074,41.655216250000024],[-1.4556193299999904,41.653780489999974],[-1.4563455599999884,41.6525383],[-1.4570719700000154,41.65128709999999],[-1.4580256500000246,41.64906619999999],[-1.4585138099999995,41.64823510999997],[-1.4588233700000046,41.64784297],[-1.4596403699999883,41.64631374999999],[-1.4612628699999846,41.64423689],[-1.462075260000006,41.64340112000002],[-1.4626850800000284,41.643003969999995],[-1.4648971099999812,41.64188066999998],[-1.4718420400000127,41.63863170000002],[-1.4738730899999837,41.637532840000006],[-1.4798248999999828,41.63461245000002],[-1.4810725400000138,41.63414258],[-1.4826216999999815,41.63105567000002],[-1.4835269499999981,41.629824670000005],[-1.4874280099999737,41.62830889000003],[-1.4882175500000017,41.62791397000001],[-1.4889973900000086,41.627419840000016],[-1.4896283699999913,41.627130910000005],[-1.489985020000006,41.62676632],[-1.4908261400000242,41.62724573000003],[-1.4937946300000249,41.628131329999974],[-1.4972339600000169,41.62890592999997],[-1.4977110799999878,41.629038260000016],[-1.4988514799999848,41.629557550000015],[-1.499696379999989,41.62936143000002],[-1.5004949300000021,41.62909264000001],[-1.5017444100000148,41.628532500000006],[-1.501978269999995,41.62828336000001],[-1.5020514199999866,41.62771686999997],[-1.5020018299999833,41.62623008999998],[-1.5027554399999872,41.624789799999974],[-1.5025432799999976,41.62410251],[-1.5025176999999985,41.62365182999997],[-1.5029689799999915,41.62230667],[-1.5032444400000031,41.62181487999999],[-1.5038705900000195,41.62121057000002],[-1.504333250000002,41.62092837],[-1.5046042499999999,41.621148059999996],[-1.5069358299999749,41.62206106000002],[-1.5078535900000247,41.62234318999998],[-1.508808810000005,41.622562749999986],[-1.5099429699999973,41.62335206],[-1.512551330000008,41.62476392000002],[-1.5134548799999834,41.62514489],[-1.515657410000017,41.625938959999985],[-1.5156750200000033,41.62674079999999],[-1.5154722799999831,41.628773739999986],[-1.514599110000006,41.63124835999997],[-1.5140184699999963,41.63248381],[-1.5138465100000076,41.633175110000025],[-1.51382104999999,41.63376023000001],[-1.51403707999998,41.63480783],[-1.5140031399999998,41.635239720000015],[-1.513327650000008,41.637987090000024],[-1.5134071100000028,41.638186270000006],[-1.5158474799999908,41.64014529999997],[-1.519144869999991,41.64296196999999],[-1.520850199999984,41.64452411000002],[-1.5222565400000008,41.644461149999984],[-1.5260997299999985,41.64442945000002],[-1.5280887700000108,41.64777849000001],[-1.5304265699999746,41.64847493000002],[-1.531030840000028,41.64883393000002],[-1.535266809999996,41.65426511999999],[-1.5398230000000126,41.65778175000003],[-1.5404982300000256,41.658195639999974],[-1.5414976499999966,41.65861364],[-1.5423642000000086,41.65906597999998],[-1.5453063699999916,41.662282689999984],[-1.5457079399999998,41.66258499999998],[-1.547545179999986,41.663139650000005],[-1.5477489400000195,41.665294870000025],[-1.548039430000017,41.665730870000004],[-1.5498298300000215,41.66677126000002],[-1.550235769999972,41.66741587000001],[-1.5514979499999981,41.66898097000001],[-1.5523899400000118,41.66937951],[-1.5534302799999864,41.669590760000006],[-1.5565348599999993,41.66935059999997],[-1.5650680699999953,41.671853320000025],[-1.565627319999976,41.67209448],[-1.567019280000011,41.673787129999994],[-1.5674788700000022,41.674189160000026],[-1.569103680000012,41.67513711999999],[-1.569726639999999,41.678468399999986],[-1.570374070000014,41.67907091000001],[-1.5710030700000175,41.67942099999999],[-1.5731051800000273,41.68269859999998],[-1.5727252400000111,41.68466638000001],[-1.5727909400000044,41.684955409999986],[-1.573051420000013,41.68512978000001],[-1.5738991000000055,41.68537448000001],[-1.574390199999982,41.68544362],[-1.5749811800000089,41.68534287],[-1.5756478100000209,41.68508093999998],[-1.5774317400000086,41.683734000000015],[-1.5786021600000026,41.684054720000006],[-1.5804403700000194,41.68405944],[-1.5810151599999926,41.68414760000002],[-1.5815873799999736,41.684352820000015],[-1.582321630000024,41.684839239999974],[-1.5828237700000045,41.68495352000002],[-1.5837108800000124,41.68504552000002],[-1.5843807900000115,41.68517987000001],[-1.58636137000002,41.686366150000026],[-1.5878731399999992,41.68701521999998],[-1.5894530900000063,41.68784524],[-1.5913944399999878,41.688634639999975],[-1.593116230000021,41.689025019999974],[-1.5958197300000165,41.69289500999997],[-1.599947410000027,41.69594466000001],[-1.5995893799999976,41.698597310000025],[-1.6069722099999808,41.70398309000001],[-1.6074243300000148,41.70419571999997],[-1.6129004499999837,41.70552292999997],[-1.6162471700000083,41.70639191999999],[-1.618208540000012,41.70853212999998],[-1.6198318200000017,41.710749299999975],[-1.6201621499999987,41.71441003000001],[-1.619874760000016,41.71491996999998],[-1.6195903099999782,41.71585325000001],[-1.6197222499999953,41.7169897],[-1.6198849099999961,41.71725285000002],[-1.619615309999972,41.717492789999994],[-1.6164087999999879,41.71846298000003],[-1.6140150200000107,41.719650039999976],[-1.6140470799999775,41.722631680000006],[-1.617011160000004,41.72512625000002],[-1.6166527600000222,41.726139709999984],[-1.6187316099999975,41.73011869999999],[-1.6187243800000033,41.73157771000001],[-1.6189604699999904,41.73290455],[-1.6190271599999733,41.73484180999998],[-1.6207650299999727,41.737915989999976],[-1.6215363300000263,41.73896101999998],[-1.622050100000024,41.73967871999997],[-1.6233972699999981,41.74135211999999],[-1.6249244800000042,41.743045670000015],[-1.6266311499999802,41.744786369999986],[-1.6294035799999733,41.74731436000002],[-1.630556850000005,41.748508000000015],[-1.6316859199999953,41.74971034999999],[-1.6321464600000013,41.75011212999999],[-1.6326537699999903,41.75057751999998],[-1.6359218299999725,41.752444749999995],[-1.6375973500000214,41.753410350000024],[-1.6590715500000215,41.75380719999998],[-1.6634846399999788,41.75676781999999],[-1.6700779299999908,41.75611481999999],[-1.6764744399999927,41.75566631999999],[-1.6821796799999902,41.75783951],[-1.6825289099999736,41.758996379999985],[-1.6839111599999796,41.76022813999998],[-1.684540850000019,41.760613639999974],[-1.6850184300000137,41.760790240000006],[-1.6853647099999876,41.76150573000001],[-1.6874621700000034,41.762475429999995],[-1.687240910000014,41.76388695999998],[-1.686890730000016,41.76454045000003],[-1.6861410700000192,41.76531546000001],[-1.686030140000014,41.76603473],[-1.6843587899999761,41.768933790000006],[-1.6837126300000023,41.76934970000002],[-1.6835513400000082,41.770176470000024],[-1.68406219000002,41.771082999999976],[-1.6844633200000203,41.77206031999998],[-1.6847203599999716,41.773612420000006],[-1.6847733299999845,41.77396428999998],[-1.684593819999975,41.775682519999975],[-1.6846621999999911,41.77645789000002],[-1.6840702800000145,41.77774807999998],[-1.6842973199999847,41.77900262000003],[-1.6828077000000121,41.782408120000014],[-1.6802368300000126,41.78336934999999],[-1.6794340999999804,41.78378343999998],[-1.6788714200000072,41.784227310000006],[-1.678684110000006,41.78455840999999],[-1.6785305199999812,41.78734874000003],[-1.678425749999974,41.78776183999997],[-1.6763665400000036,41.7925027],[-1.672598559999983,41.79545846000002],[-1.6719820800000207,41.79558644000002],[-1.6714759299999855,41.795616610000025],[-1.6661613200000147,41.79535686000003],[-1.6624769100000094,41.79542208999999],[-1.6615238399999726,41.79552806999999],[-1.6610261700000137,41.795729429999994],[-1.6577358399999866,41.797672499999976],[-1.6560539100000256,41.79982346000003],[-1.6555264699999839,41.800294640000004],[-1.6536238799999978,41.80147926000001],[-1.6543808600000034,41.802695029999995],[-1.6541376900000273,41.80338569999998],[-1.6547531300000173,41.803888280000024],[-1.6546910499999967,41.80455405999999],[-1.6545887400000083,41.80484107000001],[-1.655249700000013,41.80547028000001],[-1.6552285899999788,41.807055219999995],[-1.6529919500000005,41.81153237000001],[-1.6519840199999862,41.81252029000001],[-1.652104559999998,41.81480942000002],[-1.6523513399999956,41.816820819999975],[-1.6523892899999737,41.81730762000001],[-1.6524228999999764,41.81800154000001],[-1.6523944300000153,41.818784789999995],[-1.6530194000000051,41.81941358],[-1.6555529600000227,41.81917306999998],[-1.6584421800000086,41.81862142],[-1.6592607499999872,41.81920740999999],[-1.660765270000013,41.81923397000003],[-1.661499909999975,41.81864809000001],[-1.6653263700000025,41.818764680000015],[-1.6672427999999968,41.817507980000016],[-1.6697331299999973,41.81702346999998],[-1.6720823300000234,41.81637515],[-1.6751081200000044,41.816193940000005],[-1.6775728000000072,41.81461014000001],[-1.6792064800000048,41.814205630000004],[-1.6831382500000132,41.81152173999999],[-1.6833335100000113,41.81021800000002],[-1.6840537499999755,41.80738013000001],[-1.6856538499999942,41.80684002999999],[-1.6853729000000044,41.804684210000005],[-1.6875331499999788,41.803826249999986],[-1.6904575699999782,41.80267974999998],[-1.6901372899999956,41.80185648999998],[-1.6915685399999916,41.80132338999999],[-1.6920213199999807,41.80095927000002],[-1.6924790400000234,41.80035201999999],[-1.6928941099999975,41.79947407999998],[-1.693508989999998,41.79883259000002],[-1.6947371499999804,41.79940498000002],[-1.6968952299999955,41.800420229999986],[-1.6990448099999753,41.800669760000005],[-1.7029191699999728,41.80134406000002],[-1.704764130000001,41.80177918999999],[-1.7088825499999984,41.80109600999998],[-1.7146945200000232,41.799990320000006],[-1.7186234499999955,41.80095290999998],[-1.722637720000023,41.800655370000015],[-1.7280618099999856,41.797238960000016],[-1.7345324400000095,41.79259989000002],[-1.736848259999988,41.79418356000002],[-1.7368459699999903,41.79552554000003],[-1.7374164999999948,41.795892089999995],[-1.7380523400000243,41.79599815],[-1.7398132999999802,41.795810329999995],[-1.7402086499999996,41.79590473000002],[-1.741561250000018,41.796901289999994],[-1.7421827699999994,41.797124259999975],[-1.7422303800000236,41.797151799999995],[-1.7430358199999887,41.79781810999998],[-1.7427243399999952,41.79958904],[-1.7396150100000227,41.80162653000002],[-1.7370491500000185,41.80356181000002],[-1.7361261699999773,41.80397498000002],[-1.7349653100000069,41.804241409999975],[-1.7332520599999839,41.804438689999984],[-1.72988220000002,41.806229840000015],[-1.728866059999973,41.806479790000026],[-1.724261169999977,41.80861737999999],[-1.7176922799999943,41.81082292999997],[-1.7119429399999717,41.81236179000001],[-1.709072209999988,41.81442813000001],[-1.7013179900000068,41.820420249999984],[-1.7014610400000265,41.82168281000003],[-1.701991210000017,41.824048559999994],[-1.7010828900000092,41.82549738],[-1.6991886000000136,41.82627753999998],[-1.6993474799999717,41.826756690000025],[-1.6998661000000084,41.82850086000002],[-1.7001720800000157,41.831827799999985],[-1.6998506599999814,41.83342735000002],[-1.6998242099999743,41.833544140000015],[-1.6991906299999755,41.83450068000002],[-1.6989899499999979,41.834894710000015],[-1.6989082200000212,41.83536213000002],[-1.699007100000017,41.835831600000006],[-1.6995905300000231,41.83735132999999],[-1.6998829999999998,41.838372400000026],[-1.6998249900000246,41.84004699000002],[-1.6999691400000074,41.84184995999999],[-1.6992907700000046,41.84322931000003],[-1.699536720000026,41.844168790000026],[-1.699639999999988,41.84501659],[-1.7002485400000182,41.847680449999984],[-1.7000456399999848,41.84937141],[-1.6997799600000008,41.84999886999998],[-1.698853320000012,41.85173566999998],[-1.698333419999983,41.8524233],[-1.6967105200000105,41.854035099999976],[-1.6965477300000202,41.85433948000002],[-1.6965190700000221,41.85456432000001],[-1.696693879999998,41.85485452],[-1.6899696799999901,41.85612900000001],[-1.6880534900000157,41.85616116],[-1.6875352100000214,41.85617324999998],[-1.686643370000013,41.856190070000025],[-1.6848286200000189,41.85715103000001],[-1.6832289299999843,41.858195490000014],[-1.6819117800000072,41.85897296000002],[-1.680446159999974,41.85993786],[-1.6794621500000062,41.86033185000002],[-1.678482009999982,41.860536739999986],[-1.6777120200000013,41.860482839999975],[-1.6756264800000054,41.860539870000025],[-1.6745149500000025,41.86068917],[-1.6739003800000205,41.86127650999998],[-1.6729542400000241,41.86216624999997],[-1.6714148099999875,41.86203137000001],[-1.669862490000014,41.861355909999986],[-1.6689525300000128,41.86166059999999],[-1.668142849999981,41.86177730999998],[-1.6671870499999955,41.861387939999986],[-1.6660246199999733,41.86108623000001],[-1.6654415599999766,41.861313629999984],[-1.6638998099999753,41.86244856000002],[-1.662250819999997,41.86178989000001],[-1.6605689300000108,41.86097769999998],[-1.6596218500000077,41.86075048999999],[-1.6586469200000238,41.86070308000001],[-1.6575974599999768,41.860762869999974],[-1.6565222300000073,41.860326989999976],[-1.6561121500000127,41.859772780000014],[-1.655882560000009,41.859229700000014],[-1.6557533100000228,41.85849863999999],[-1.655441680000024,41.85784652000001],[-1.654791859999989,41.85723546000003],[-1.6542515400000184,41.857148069999994],[-1.6520848100000194,41.85705961000002],[-1.6510573699999895,41.85607483000001],[-1.6506745899999942,41.855944239999985],[-1.650203910000016,41.85598374],[-1.6497663299999772,41.85616773999999],[-1.6495436499999983,41.85644432999999],[-1.6473216800000046,41.86011991999999],[-1.6467078700000002,41.85951825000001],[-1.6434939399999848,41.85766998999998],[-1.6431843999999955,41.857495210000025],[-1.6409426800000233,41.85639691],[-1.6399389700000029,41.85657416999999],[-1.6376736400000027,41.85659235000003],[-1.636237479999977,41.85614299000002],[-1.6353083299999867,41.856213009999976],[-1.6341463399999725,41.85590198],[-1.6335555900000145,41.85592197],[-1.6335586899999726,41.85521047999998],[-1.632709879999993,41.85490315999999],[-1.6320829100000083,41.85379687],[-1.6311008700000116,41.85352397999998],[-1.6304692699999919,41.85320122000002],[-1.6294570000000022,41.85321615999999],[-1.6288311800000201,41.85262325999997],[-1.6278902500000072,41.853809909999995],[-1.6270160500000088,41.854691119999984],[-1.6265034499999729,41.85500022999997],[-1.6237006999999721,41.85704722000003],[-1.6232704399999989,41.85744735999998],[-1.623033860000021,41.85780478999999],[-1.6225871699999743,41.85897031000002],[-1.622328809999999,41.85921939000002],[-1.6208461499999771,41.85981405000001],[-1.6206785300000206,41.86032541999998],[-1.620903300000009,41.862759919999974],[-1.6208242899999732,41.863632619999976],[-1.620810629999994,41.86538875000002],[-1.621040370000003,41.866472310000006],[-1.62137752000001,41.86704377000001],[-1.6215903400000116,41.86779388000002],[-1.6219341299999996,41.86861761],[-1.6226988000000233,41.86948242],[-1.623045119999972,41.87018909],[-1.622988869999972,41.87112509999997],[-1.6227477900000054,41.87168962999999],[-1.6213906400000155,41.87315945],[-1.620826959999988,41.87359400999998],[-1.6181185799999867,41.874570199999994],[-1.6169250699999793,41.875150270000006],[-1.616338600000006,41.875521479999975],[-1.6157600999999886,41.87608193],[-1.6150847900000258,41.87721763000002],[-1.6148327199999812,41.87828638000002],[-1.6144762900000273,41.87916474000002],[-1.617516309999985,41.88182230000001],[-1.62059524,41.88436316000002],[-1.6207577800000195,41.88521173999999],[-1.624272259999998,41.90396057999999],[-1.6233740600000033,41.90367961999999],[-1.6218588300000079,41.90349932999999],[-1.6204677900000206,41.902590980000014],[-1.6196326200000044,41.90218465999999],[-1.6187816999999995,41.90194925999998],[-1.6186759500000107,41.90238031000001],[-1.6183956200000011,41.90252104000001],[-1.6180583299999967,41.90250796999999],[-1.6169459399999937,41.90209829999998],[-1.6140639299999862,41.90156818999998],[-1.6124867500000164,41.90146808999998],[-1.6116635000000201,41.901070860000004],[-1.6089668700000175,41.90033571999999],[-1.6081144500000164,41.90017227999999],[-1.6075707100000045,41.90022873999999],[-1.6064299199999823,41.90057516000002],[-1.6053920100000028,41.90062561000002],[-1.6045660699999758,41.90035439000002],[-1.603443210000023,41.90043080999999],[-1.6020391900000277,41.900683930000014],[-1.6004822300000114,41.90076404000001],[-1.5997442500000147,41.900881130000016],[-1.5972819599999752,41.901562609999985],[-1.5961015799999814,41.90206155999999],[-1.595069369999976,41.90240019999999],[-1.594216959999983,41.90278605999998],[-1.5930764500000123,41.90311434],[-1.5896465600000056,41.903927899999985],[-1.5848443900000007,41.904093999999986],[-1.5803924699999925,41.9036878],[-1.5793542999999772,41.903747020000026],[-1.5781066200000282,41.90401078000002],[-1.5766494200000238,41.904479089999995],[-1.5771712499999921,41.90595363],[-1.5774366699999973,41.906488309999986],[-1.5785218699999746,41.908113920000005],[-1.5790529700000207,41.909174259999986],[-1.5793588399999976,41.91006069000002],[-1.5795124800000053,41.91128748],[-1.5797664699999814,41.915055370000005],[-1.5799694099999897,41.91677813000001],[-1.5800902999999948,41.917851410000026],[-1.5801658299999986,41.92096860999999],[-1.578692090000004,41.92053607999998],[-1.573360139999977,41.91790311],[-1.5697622900000283,41.916777550000006],[-1.5676000299999941,41.91610211],[-1.5620878600000196,41.91508750000003],[-1.5592557200000101,41.91394417999999],[-1.5583536299999992,41.91384278999999],[-1.555388530000016,41.91378750000001],[-1.5473082999999974,41.91277586000001],[-1.5426758799999902,41.91233885999998],[-1.5412109700000087,41.912068069999975],[-1.5396994999999833,41.91172461000002],[-1.5368129199999885,41.910877270000015],[-1.5356249000000162,41.91062794999999],[-1.5344468900000265,41.91046881],[-1.526103130000024,41.909938669999974],[-1.5233068100000082,41.909893720000014],[-1.5208570899999927,41.91154640000002],[-1.5179924299999925,41.91288745000003],[-1.5165957400000138,41.91331973000001],[-1.5128941599999735,41.91486600000002],[-1.510245999999995,41.91518292000001],[-1.5061183000000256,41.915858809999975],[-1.5056647000000112,41.91617715000001],[-1.5051447199999757,41.916755799999976],[-1.5036589399999798,41.918411649999996],[-1.5030454800000257,41.91937636],[-1.5023438499999884,41.92101539999999],[-1.50207051000001,41.92290320000001],[-1.5017609500000049,41.92427715000002],[-1.4998685200000068,41.924234420000005],[-1.49711542,41.92437854999997],[-1.4951134199999956,41.92437933999997],[-1.4894524499999875,41.924070830000005],[-1.486655380000002,41.92403399],[-1.4825285900000154,41.92463699000001],[-1.4800557500000195,41.92465831999999],[-1.4776016600000048,41.924905000000024],[-1.4739300400000275,41.924622090000014],[-1.4730531499999984,41.92447533000001]]]}}]}