{"type":"FeatureCollection","features":[{"type":"Feature","properties":{"OBJECTID":1684,"ZON_CO_ID":14,"ZON_DS_NOM":"Cariñena","CAL_DS_NOM":"D.O.Cariñena","TPR_DS_DES":"Denominación de Origen","TPR_DS_GRU":"CALIDAD DIFERENCIADA","FAM_DS_NOM":"Vinos","classification":"DO","normalizedName":"Cariñena"},"geometry":{"type":"Polygon","coordinates":[[[-1.1580759700000272,41.524390340000025],[-1.1536802100000045,41.52429280000001],[-1.145346169999982,41.52444686000001],[-1.1350475500000243,41.52498277000001],[-1.134232680000025,41.52497856000002],[-1.130524620000017,41.52389154000002],[-1.1298977499999978,41.52360212999997],[-1.1296198499999832,41.523264359999985],[-1.1290384999999787,41.52222812000002],[-1.129000440000027,41.52188524000002],[-1.1293000100000086,41.52022385999999],[-1.1289812200000142,41.51964222999999],[-1.1288079899999843,41.51899993000001],[-1.1287170200000105,41.51799869000001],[-1.128191940000022,41.516675150000026],[-1.127841950000004,41.51634519999999],[-1.127195630000017,41.515902349999976],[-1.1243669599999748,41.51343338999999],[-1.122856239999976,41.511805519999996],[-1.1212638599999991,41.50886129999998],[-1.120715290000021,41.50835695000001],[-1.120140709999987,41.507509930000026],[-1.1205102000000124,41.50592175999998],[-1.1202636500000267,41.50574660000001],[-1.11903405999999,41.50517707],[-1.1184974899999816,41.505087230000015],[-1.116702690000011,41.5050038],[-1.1161229300000173,41.50475110999997],[-1.1155132499999922,41.50429078000002],[-1.1146642900000074,41.50423182999998],[-1.1123764600000072,41.502149729999985],[-1.1100020800000152,41.50016525000001],[-1.109956020000027,41.50010143999998],[-1.1081307700000025,41.49818899000002],[-1.107564649999972,41.49788245000002],[-1.106730309999989,41.496913989999996],[-1.1055729500000098,41.49593119000002],[-1.1040097999999716,41.49407703000003],[-1.103670969999996,41.49378322000001],[-1.10322149000001,41.49358667000001],[-1.1010888700000123,41.491957249999984],[-1.0994157900000232,41.491001900000015],[-1.0969230000000039,41.488997170000005],[-1.0953820199999882,41.48803493999998],[-1.09427076999998,41.48712484999999],[-1.093822160000002,41.48690125000002],[-1.0934294499999737,41.486813670000004],[-1.0919455299999754,41.48595141999999],[-1.0908413000000223,41.48521254000002],[-1.0890943399999742,41.48433686999999],[-1.0868379799999843,41.483677880000016],[-1.086134300000026,41.48357609999999],[-1.0853781999999796,41.483221249999986],[-1.0846654700000045,41.48302023000002],[-1.082951890000004,41.481829790000006],[-1.0821500600000036,41.481402100000025],[-1.0806956800000194,41.48076536999997],[-1.0796485999999845,41.48053171999999],[-1.0785975499999836,41.48043309000002],[-1.078166060000001,41.48044390000001],[-1.077839919999974,41.48013221000002],[-1.0776989299999968,41.48003978999998],[-1.0774866500000257,41.47992814999998],[-1.077152529999978,41.479886539999995],[-1.0765276500000027,41.47995715000002],[-1.0759727199999816,41.48009196999999],[-1.0752970199999936,41.480260799999996],[-1.0745079700000133,41.480616870000006],[-1.0740988200000174,41.48068207],[-1.0738240200000178,41.48065945000002],[-1.0736029700000245,41.480439579999995],[-1.0734008399999766,41.47998584999999],[-1.0732268799999929,41.479793789999974],[-1.0730265799999756,41.47968235000002],[-1.0718727899999863,41.48022142999997],[-1.071522210000012,41.47992733000001],[-1.070930610000005,41.47968322999998],[-1.069452119999994,41.479460259999996],[-1.0681884399999717,41.478457289999994],[-1.067685009999991,41.477665230000014],[-1.0670257200000037,41.476879559999986],[-1.0666281800000093,41.47615232999999],[-1.0647945200000208,41.474185009999985],[-1.0644889299999818,41.47399072000002],[-1.0629127799999765,41.47343276999999],[-1.0621402300000113,41.47283429999999],[-1.061247299999991,41.47185552000002],[-1.0598812800000132,41.47067959999998],[-1.0594323600000166,41.47047386999998],[-1.0584498100000133,41.4696917],[-1.0573479999999904,41.468493190000004],[-1.0567848000000026,41.46810538],[-1.0557322500000055,41.46766427],[-1.0540514699999903,41.46660904999999],[-1.052281569999991,41.46573244000001],[-1.0506065499999977,41.46448812],[-1.050039560000016,41.46383000999998],[-1.0498563599999784,41.46315139000001],[-1.0494300199999884,41.462594739999986],[-1.0496863800000256,41.46203165999998],[-1.0493395099999816,41.461620470000014],[-1.0491753900000163,41.46110428999998],[-1.0492499900000212,41.460213880000026],[-1.0476695199999995,41.460214070000006],[-1.0464951899999733,41.46064446999998],[-1.0462063599999851,41.46069360000001],[-1.0445651800000064,41.460323440000025],[-1.0441756800000235,41.460136680000005],[-1.043744810000021,41.45973305000001],[-1.0433903499999815,41.459177599999975],[-1.0431776099999865,41.45868761000003],[-1.043068720000008,41.45792918000001],[-1.0422718300000042,41.457753490000016],[-1.0417934000000173,41.45734003000001],[-1.0401297500000055,41.45692438999998],[-1.0397049300000276,41.45671900000002],[-1.0395719399999734,41.456761760000006],[-1.0395790499999862,41.45732031],[-1.039734650000014,41.457719259999976],[-1.040151069999979,41.45820371999997],[-1.0401916100000221,41.4584476],[-1.0400733299999843,41.45879685],[-1.039586820000011,41.459446060000005],[-1.0394173899999828,41.45950620999997],[-1.038254639999991,41.458360519999985],[-1.0380775599999765,41.457880139999986],[-1.0379757700000027,41.45649135000002],[-1.037847950000014,41.45636307000001],[-1.0369148500000165,41.456338140000014],[-1.036367929999983,41.45621170999999],[-1.0363029299999766,41.45598543],[-1.0363456100000121,41.45536468],[-1.036193570000023,41.454848700000014],[-1.0357124799999724,41.45452524000001],[-1.0354217600000197,41.454241060000015],[-1.035207449999973,41.45380506999999],[-1.0344557799999734,41.45292755999998],[-1.0336024299999735,41.452246460000026],[-1.0334060900000281,41.45200892999998],[-1.0323139700000183,41.45170202000003],[-1.031337169999972,41.45154119],[-1.0309833800000092,41.45136400000001],[-1.0299421799999777,41.45056256999999],[-1.029856269999982,41.45023685000001],[-1.0294859599999882,41.44941989],[-1.0294020499999874,41.44784225000001],[-1.0290070099999866,41.447051880000004],[-1.0288773400000082,41.446590309999976],[-1.0286619099999825,41.444217820000006],[-1.028325940000002,41.44305917999998],[-1.0281172100000049,41.44204682999998],[-1.0277436800000146,41.44133789],[-1.027767410000024,41.44055470000001],[-1.0276119299999777,41.440155730000015],[-1.0267194099999983,41.43919469000002],[-1.025866409999992,41.43772093000001],[-1.0257375900000056,41.43723234999999],[-1.0255628699999875,41.43431112000002],[-1.0256112399999893,41.43232143],[-1.0251890100000196,41.43045876999997],[-1.0251510400000257,41.42973755999998],[-1.0249754999999823,41.42921215000001],[-1.0249571400000264,41.42823908999998],[-1.0246318900000233,41.42712566],[-1.024595569999974,41.42635044000002],[-1.0246872700000154,41.42569451000003],[-1.0244363599999815,41.42370869000001],[-1.024274709999986,41.42114794999998],[-1.0241614500000082,41.420542539999985],[-1.0225657500000125,41.41989364],[-1.022310300000015,41.419637050000006],[-1.0217263299999786,41.418771349999986],[-1.0211086300000147,41.41822932000002],[-1.0208509899999854,41.41804474000003],[-1.0200889700000175,41.41752724000003],[-1.01852169,41.416734659999975],[-1.0182385100000033,41.41660367999998],[-1.0167613599999754,41.41638906999998],[-1.0151551499999982,41.41609113999999],[-1.0146697800000197,41.415920640000024],[-1.0139199500000018,41.41579059999998],[-1.012246129999994,41.415356359999976],[-1.011715410000022,41.415103999999985],[-1.0111158299999943,41.414364069999976],[-1.0108557600000267,41.41426050000001],[-1.009402630000011,41.413262599999996],[-1.0081624499999862,41.41195313999998],[-1.006506360000003,41.41172628999999],[-1.0054687200000103,41.41044733000001],[-1.0048026399999799,41.40914778000001],[-1.0044046300000105,41.408861660000014],[-1.0014267199999836,41.40765706000002],[-1.0010415200000011,41.40734413000001],[-1.0003209800000263,41.407043380000005],[-0.9997564399999987,41.406727320000016],[-0.9989110899999787,41.406595519999996],[-0.9968791300000248,41.405758530000014],[-0.9954801399999837,41.40534685],[-0.9941887400000269,41.40454973999999],[-0.9937691100000166,41.404191149999974],[-0.9936923399999955,41.40396464000003],[-0.993740119999984,41.40357817],[-0.9940962300000251,41.402890860000014],[-0.9926653699999974,41.40273979],[-0.9913983000000144,41.40270865000002],[-0.9906361600000082,41.402596259999996],[-0.9894530600000166,41.40255757],[-0.9877477900000144,41.402383629999974],[-0.9870067900000095,41.40236164999999],[-0.9829406499999891,41.40193912000001],[-0.9727341999999908,41.39663471],[-0.9719808500000227,41.396243130000016],[-0.9703534999999874,41.395493869999996],[-0.9657016400000202,41.393159939999975],[-0.964269360000003,41.39229695],[-0.9637125900000001,41.39212497],[-0.963138650000019,41.391736519999995],[-0.9620151299999975,41.39132931],[-0.9613018300000249,41.39119056999999],[-0.9594448000000284,41.39052714000002],[-0.9592163500000197,41.38903694999999],[-0.9585520499999802,41.38618797999999],[-0.9583028199999717,41.384598340000025],[-0.9581871600000227,41.38332630999997],[-0.9577022400000033,41.38238998000003],[-0.9566201800000158,41.38104673999999],[-0.9565700100000072,41.38073960999998],[-0.9566242999999872,41.38053341],[-0.9567476600000191,41.38003121999998],[-0.958205420000013,41.37624718000001],[-0.9582929000000036,41.37574434999999],[-0.9596804500000076,41.37190500000003],[-0.9602351300000009,41.369843249999974],[-0.9607083500000044,41.369239170000014],[-0.9622131599999761,41.366996099999994],[-0.9634817099999964,41.365424340000004],[-0.9641450500000133,41.36447234000002],[-0.9644991100000198,41.363469829999985],[-0.9645694800000228,41.36236322000002],[-0.9646643500000209,41.36200461999999],[-0.9651741600000037,41.36137415000002],[-0.9664076999999907,41.360153009999976],[-0.9693921100000011,41.35721543],[-0.9732714400000191,41.35278038000001],[-0.9754416399999855,41.35256641000001],[-0.9776562700000113,41.352461259999984],[-0.9880363400000078,41.34532965],[-0.9882094000000166,41.34514352999997],[-0.9880282500000135,41.34481611000001],[-0.9867186399999923,41.34348718000001],[-0.9859810699999798,41.34298789000002],[-0.9857060499999761,41.34260477999999],[-0.9840309499999762,41.34072899],[-0.9839190100000224,41.34048383999999],[-0.9839665100000161,41.34010638000001],[-0.9837931800000206,41.33875229],[-0.983599570000024,41.33844266],[-0.9835417900000039,41.3383786],[-0.9821126800000002,41.337056519999976],[-0.9817241000000081,41.336482260000025],[-0.9805886199999918,41.33571475000002],[-0.9801128400000039,41.33525605],[-0.9797004700000116,41.33351945999999],[-0.9796438199999784,41.33341939000002],[-0.9788917500000025,41.332235260000004],[-0.9795578800000158,41.33078783000002],[-0.9810269600000083,41.32810251000001],[-0.9762742400000093,41.32221845999999],[-0.9781205599999794,41.32046753999998],[-0.9815596700000242,41.31665492000002],[-0.9829111500000067,41.315057360000026],[-0.9916024500000162,41.31524547999999],[-0.9966683999999759,41.31522574000002],[-1.0055489200000238,41.31547914999999],[-1.0208475599999929,41.31564433],[-1.0218386199999827,41.315661379999995],[-1.030526420000001,41.31557627000001],[-1.0370844899999838,41.31559829999998],[-1.0431275000000255,41.32444712],[-1.0546870200000171,41.328678360000026],[-1.0555497600000194,41.32899918999999],[-1.0564125000000217,41.32932001],[-1.0568330899999978,41.32964235999998],[-1.0567515700000172,41.32876729999998],[-1.0564794900000152,41.327871010000024],[-1.0564468200000192,41.326960740000004],[-1.0564625100000171,41.32683491],[-1.056478459999994,41.326700070000015],[-1.056595619999996,41.325170850000006],[-1.0567457600000125,41.32333593999999],[-1.0569057999999814,41.31674545999999],[-1.0570362299999942,41.31396447999998],[-1.0571826400000077,41.31305723999998],[-1.0575430000000097,41.311784320000015],[-1.0582484399999998,41.309751619999986],[-1.0597410699999728,41.30614694000002],[-1.060692959999983,41.303451859999996],[-1.062422579999975,41.29909454],[-1.0655800399999862,41.29854419999998],[-1.0682270400000107,41.29829145000002],[-1.0833347600000138,41.29628335000001],[-1.0840167000000065,41.295835350000004],[-1.0852509000000055,41.29528844999999],[-1.0856805600000143,41.294890280000004],[-1.086166119999973,41.29421381999998],[-1.0832765499999937,41.29256243999998],[-1.072528460000001,41.28647419999999],[-1.0712102599999866,41.284200320000025],[-1.0701594700000214,41.28257943],[-1.0691469199999801,41.281283429999974],[-1.0705952800000205,41.278326359999994],[-1.0709209400000077,41.277809409999975],[-1.0715412399999877,41.27742348999999],[-1.071933730000012,41.277069789999985],[-1.0724731199999837,41.276187119999975],[-1.0738474999999994,41.273300819999974],[-1.0740473899999756,41.272187280000026],[-1.0737455999999952,41.271488680000004],[-1.0730327800000055,41.27055801],[-1.0743272899999852,41.26957089000001],[-1.075348109999993,41.26855214],[-1.0768695900000012,41.26837042],[-1.0797613099999808,41.267463959999986],[-1.0812736600000221,41.26677762000003],[-1.085048210000025,41.26466076999998],[-1.086171180000008,41.26381476],[-1.0880441499999733,41.26181028000002],[-1.0883810000000267,41.26131147000001],[-1.089104959999986,41.25899965000002],[-1.08969393000001,41.25763132999998],[-1.0896083499999918,41.25688230999998],[-1.0907566700000189,41.256387959999984],[-1.0924911299999849,41.25584927],[-1.0929335800000217,41.255000929999994],[-1.0967223399999853,41.255234789999975],[-1.0987040200000138,41.25522252000002],[-1.1006289300000276,41.25511019999999],[-1.102520659999982,41.25490722000001],[-1.1045612099999857,41.254922840000006],[-1.1055753900000127,41.25617353000001],[-1.1073050100000046,41.25621100000001],[-1.1098583200000007,41.257072619999974],[-1.1129013500000156,41.256266890000006],[-1.1130240300000196,41.256151810000006],[-1.1141039500000147,41.255124679999994],[-1.1147510200000283,41.255036200000006],[-1.1160620599999902,41.25551703999997],[-1.11631079,41.25558416000001],[-1.1175645299999815,41.25598298],[-1.118963000000008,41.25633011000002],[-1.121480360000021,41.25678556999998],[-1.121611219999977,41.25596804999998],[-1.121723320000001,41.25455575000001],[-1.1218750200000045,41.25259464999999],[-1.1226224600000023,41.25108462999998],[-1.1233071899999914,41.250095999999985],[-1.123506309999982,41.24981101999998],[-1.1240097599999785,41.24890048999998],[-1.1243589000000043,41.24796042999998],[-1.1275618700000223,41.242788399999995],[-1.128992129999972,41.24159569],[-1.128934519999973,41.23943301999998],[-1.1297598200000039,41.23936536999997],[-1.1297536899999727,41.238743769999985],[-1.130301970000005,41.238347350000026],[-1.1303998299999876,41.237844540000026],[-1.1311428999999862,41.237730510000006],[-1.1317751700000258,41.23731743000002],[-1.1325813199999857,41.23666398],[-1.1315848599999754,41.23562098000002],[-1.1310390599999778,41.23551304],[-1.1299654000000032,41.23550461000002],[-1.1297488100000237,41.23514979999999],[-1.1292975499999898,41.23465607999998],[-1.1280473699999902,41.233726020000006],[-1.127388499999995,41.23340003999999],[-1.1275256499999955,41.23235743999999],[-1.1275185100000158,41.23177184999997],[-1.1272082400000158,41.23093813000003],[-1.126519700000017,41.229981169999974],[-1.1264666600000055,41.229331779999995],[-1.1273422200000027,41.227499550000005],[-1.1276757599999883,41.227099650000014],[-1.1287790399999835,41.22690141999999],[-1.1291129400000273,41.22690684999998],[-1.1298121599999718,41.22707134000001],[-1.1311349399999813,41.227543190000006],[-1.1325914899999816,41.227927120000004],[-1.1345295599999758,41.228580050000005],[-1.1355375900000126,41.228794549999975],[-1.1366226100000176,41.22965879999998],[-1.137617970000008,41.22990009],[-1.1447613799999772,41.23086215000001],[-1.1453702800000087,41.23169163],[-1.1467305200000055,41.232956539999975],[-1.1487871699999914,41.23280048999999],[-1.156472210000004,41.23191503999999],[-1.1576652499999796,41.23106945000001],[-1.1586915600000225,41.230212170000016],[-1.1599604400000203,41.229637990000015],[-1.1612257799999952,41.229189829999996],[-1.1629607300000089,41.22858703000003],[-1.1651830000000132,41.227622680000025],[-1.1651893800000153,41.227820940000015],[-1.1716191099999946,41.22828356000002],[-1.1729365900000062,41.22852965999999],[-1.1768211699999824,41.22956405000002],[-1.1778780700000198,41.22974291999998],[-1.1802948499999957,41.22950193999998],[-1.183580710000001,41.22932866000002],[-1.1839191199999846,41.229171870000016],[-1.184784040000011,41.228527989999975],[-1.1860427699999718,41.22744893999999],[-1.1866455200000132,41.227224250000006],[-1.1875068900000088,41.22713873999999],[-1.1890261600000258,41.22655916999997],[-1.1896686399999794,41.226190970000005],[-1.1901988199999778,41.226001139999994],[-1.1902907499999742,41.22742574],[-1.1903906300000244,41.22769753],[-1.190748649999989,41.22812649999997],[-1.1920105600000284,41.229092089999995],[-1.1923591600000236,41.22943084000002],[-1.1926565800000049,41.22989488000002],[-1.193014909999988,41.23117954000003],[-1.1942124299999932,41.23405364000001],[-1.1938723800000162,41.23600289000001],[-1.1938701899999842,41.23694862000002],[-1.1939415300000178,41.23739109000002],[-1.194254419999993,41.23816162000003],[-1.1946878300000208,41.23888899999997],[-1.1961749800000234,41.24078582999999],[-1.1966216000000145,41.24146837000001],[-1.196985380000001,41.241257899999994],[-1.1973702999999887,41.24114682999999],[-1.197836489999986,41.24111811],[-1.1982644099999789,41.24117884999998],[-1.198734609999974,41.24143841],[-1.1993263800000022,41.24205116000002],[-1.1997970799999962,41.242292710000015],[-1.2013266899999735,41.2426499],[-1.2032136000000264,41.242598310000005],[-1.2039988999999878,41.24268261999998],[-1.205872510000006,41.243117170000005],[-1.2065087600000197,41.24341532],[-1.2075885799999924,41.24451302],[-1.2090708200000222,41.24573406000002],[-1.2103177000000187,41.245086920000006],[-1.2114109500000154,41.244383330000005],[-1.212472219999995,41.243976480000015],[-1.2128823099999977,41.243379360000006],[-1.213811029999988,41.243456820000006],[-1.21493688999999,41.24374451],[-1.2158770500000173,41.24384014999998],[-1.216649899999993,41.24438356000002],[-1.2175231499999768,41.24430702000001],[-1.2179122800000073,41.24360146999999],[-1.2188551300000086,41.24359805],[-1.220317620000003,41.24467453],[-1.221017800000027,41.2443791],[-1.2219769899999733,41.244213779999995],[-1.2227942499999926,41.24400121999997],[-1.2235443000000146,41.244066840000016],[-1.22444698999999,41.24422489],[-1.224859620000018,41.24441139999999],[-1.2255193400000053,41.245169180000005],[-1.2274238399999717,41.24711708000001],[-1.2278786200000127,41.247952750000024],[-1.2283056499999816,41.248490749999974],[-1.2288003799999956,41.24961526999999],[-1.2290979100000072,41.25008823000002],[-1.2295424999999796,41.250860690000025],[-1.229741419999982,41.251007860000016],[-1.2303128500000184,41.25106168999997],[-1.2318202000000156,41.251373090000016],[-1.2323903899999777,41.25103057000001],[-1.2336001900000042,41.250868990000015],[-1.234363959999996,41.25087171000001],[-1.2352065800000105,41.25060540999999],[-1.236115390000009,41.250096919999976],[-1.2366850600000134,41.249772380000024],[-1.237795140000003,41.248879639999984],[-1.2374048899999934,41.24741448999998],[-1.23794891,41.246711240000025],[-1.2378340000000208,41.24521427000002],[-1.2372234200000207,41.243511549999994],[-1.2375142500000038,41.24290351000002],[-1.2375647999999728,41.24235484000002],[-1.2373358400000143,41.24154967999999],[-1.2373382000000106,41.24101829],[-1.238378790000013,41.240484779999974],[-1.2392306899999994,41.239867300000014],[-1.241338600000006,41.237800830000026],[-1.2425626099999931,41.23709894000001],[-1.2425661300000002,41.23652253],[-1.2427948199999719,41.236003589999996],[-1.244013730000006,41.23459903999998],[-1.2446486499999878,41.23405928],[-1.245473660000016,41.23354942999998],[-1.2463079400000083,41.233138800000006],[-1.2498441100000264,41.23163435999999],[-1.2504490900000178,41.23131928999999],[-1.2510206900000185,41.23091363999998],[-1.252941060000012,41.234518709999975],[-1.2529746800000225,41.234600279999995],[-1.2536292899999921,41.236006350000025],[-1.2532823099999746,41.236937850000004],[-1.253281759999993,41.237406220000025],[-1.2535331400000018,41.23782437],[-1.2539312600000017,41.23810963],[-1.2544737100000134,41.23835205],[-1.2556319099999769,41.240567390000024],[-1.257017200000007,41.24142605999998],[-1.257341820000022,41.24223261999998],[-1.2580919399999857,41.244991200000015],[-1.2570405700000151,41.24683078999999],[-1.2581038299999818,41.248585289999994],[-1.260810460000016,41.249130630000025],[-1.2610824600000115,41.24922480999999],[-1.263045180000006,41.24992099000002],[-1.2636729399999922,41.250101599999994],[-1.264075470000023,41.25022476999999],[-1.2648480700000277,41.25034449999998],[-1.2678013199999896,41.25104651999999],[-1.2692804800000204,41.251528140000005],[-1.270041419999984,41.251638660000026],[-1.2718419700000254,41.25170173999999],[-1.2735311199999728,41.251916240000014],[-1.2770752999999786,41.25466253000002],[-1.27835331,41.25553735],[-1.2791847099999814,41.25569389999998],[-1.2799685100000033,41.256300099999976],[-1.2805790200000047,41.256687520000014],[-1.2812929099999906,41.25813935000002],[-1.282041779999986,41.25825861999999],[-1.2825931300000093,41.25862713999999],[-1.2832880400000022,41.25943916],[-1.285105470000019,41.25932212999999],[-1.2867534999999748,41.259292630000004],[-1.2883971599999882,41.260343920000025],[-1.2891456500000231,41.26002177999999],[-1.2897755199999779,41.25967085000002],[-1.2901318899999978,41.25927982000002],[-1.2904124799999863,41.25859043000003],[-1.290412300000014,41.25814006000002],[-1.2911320000000046,41.257547260000024],[-1.2915760999999861,41.256995399999994],[-1.2922386299999857,41.25722141],[-1.2940304599999877,41.25762628000001],[-1.2947952499999928,41.25805194999998],[-1.295292619999998,41.258662809999976],[-1.296577950000028,41.26156417999999],[-1.2969684299999926,41.26307416999998],[-1.2972955199999774,41.263808600000004],[-1.297777520000011,41.26455433000001],[-1.2987132100000167,41.264838380000015],[-1.2996629300000109,41.26458220000001],[-1.300566329999981,41.26473064999999],[-1.3011105799999996,41.26491883],[-1.3016506299999833,41.265269079999996],[-1.3022082599999862,41.26586278000002],[-1.3034412700000075,41.26757433],[-1.3039650000000051,41.26809546999999],[-1.306020090000004,41.26941377000003],[-1.3098844900000017,41.27279428000003],[-1.3115942000000018,41.27408939999998],[-1.313213840000003,41.275176009999996],[-1.313444430000004,41.27549463999998],[-1.3136043000000086,41.27763170999998],[-1.3135067100000128,41.27863910000002],[-1.3118908600000054,41.27925492999998],[-1.310933069999976,41.27981734000002],[-1.3127252400000202,41.28162707000001],[-1.3150746000000026,41.28452579999998],[-1.3166191400000002,41.28715151],[-1.3174837400000001,41.287893740000015],[-1.318728980000003,41.288695570000016],[-1.3193142999999736,41.28915448999999],[-1.3197432800000115,41.289656149999985],[-1.3199185600000192,41.29027120000001],[-1.3199613799999952,41.29092936000001],[-1.3196420400000193,41.29220372999998],[-1.3196576600000185,41.293455970000025],[-1.3182482299999947,41.295786280000016],[-1.318141149999974,41.296235079999974],[-1.3182007400000089,41.29670433000001],[-1.318636060000017,41.29789063999999],[-1.3201374399999963,41.300353529999995],[-1.3208338700000013,41.30021056999999],[-1.3217856499999812,41.29989118999998],[-1.3221913599999766,41.299906109999995],[-1.3231092600000238,41.30044191000002],[-1.3234072899999774,41.30046427000002],[-1.3241030199999955,41.300348299999996],[-1.3263712099999907,41.29899418999997],[-1.3268896700000141,41.29880357000002],[-1.3287855099999888,41.29893019999997],[-1.331380500000023,41.29927409999999],[-1.3325682600000164,41.29953451],[-1.3334391500000038,41.29910576999998],[-1.3341775800000164,41.2996569],[-1.335509600000023,41.30082009],[-1.3362428099999875,41.30157830000002],[-1.3364816399999881,41.30205013],[-1.3363549499999863,41.30280491000002],[-1.336123079999993,41.303468099999975],[-1.3361874199999875,41.30422564000003],[-1.3365165199999751,41.304905940000026],[-1.3371296899999834,41.30568942999997],[-1.3386188700000048,41.308196940000016],[-1.338469439999983,41.30890635999998],[-1.339028369999994,41.310887019999996],[-1.339415410000015,41.3116402],[-1.3399338300000068,41.312395289999984],[-1.3405250499999966,41.31310638000002],[-1.3403362099999754,41.31631024000001],[-1.339584670000022,41.31767751000001],[-1.3398291299999983,41.31840161000002],[-1.340424110000015,41.31943702000001],[-1.341659170000014,41.32161657],[-1.3417428399999949,41.32208615000002],[-1.3417025100000046,41.32273408999998],[-1.3411762599999975,41.32416766],[-1.3413747999999828,41.324819049999974],[-1.3417939000000274,41.325725809999994],[-1.341923300000019,41.326277119999986],[-1.3419521199999735,41.32702512999998],[-1.342130510000004,41.32800049000002],[-1.3423384399999918,41.328282709999996],[-1.3433469899999864,41.32903582],[-1.3442287999999962,41.33007534000001],[-1.3448468500000104,41.33067870999997],[-1.3447142599999893,41.3316676],[-1.344258439999976,41.33267885999999],[-1.3439141499999891,41.33306120999998],[-1.3435865899999726,41.33325466000002],[-1.343678049999994,41.33341810000002],[-1.3437348100000008,41.33353602],[-1.3445946499999764,41.33591729],[-1.345948280000016,41.337206779999974],[-1.3460618199999885,41.337442599999974],[-1.3460200499999928,41.33767618000002],[-1.3457449200000156,41.33815862],[-1.3457491099999856,41.33846492999999],[-1.3458831300000043,41.33883615000002],[-1.3461149999999975,41.33911870999998],[-1.3473692900000174,41.339614110000014],[-1.3478020000000015,41.33998961999998],[-1.3488718799999901,41.34068953000002],[-1.3504775999999765,41.34146916999998],[-1.3520813200000248,41.342329819999975],[-1.3541741700000216,41.34370185],[-1.3545972599999914,41.343987130000016],[-1.356425549999983,41.34542739],[-1.35802056,41.34711650000003],[-1.3597796600000152,41.347510890000024],[-1.3614211400000045,41.34687675999999],[-1.363384960000019,41.347210949999976],[-1.3664397200000167,41.347893880000015],[-1.3691058699999985,41.348346040000024],[-1.3715900500000089,41.350344800000016],[-1.3717949599999884,41.352194180000026],[-1.37184689999998,41.35298755000002],[-1.3718439799999942,41.353104599999995],[-1.371792140000025,41.35326600000002],[-1.3717513600000188,41.35346357999998],[-1.3717107900000087,41.353652160000024],[-1.3717536500000165,41.35385092000001],[-1.3719696900000145,41.354295330000014],[-1.3724295100000177,41.35503143],[-1.3739165900000216,41.35580005000003],[-1.3746715300000005,41.356207040000015],[-1.3751640300000076,41.35659229999999],[-1.3760284100000035,41.357406149999974],[-1.3768900499999859,41.35785064999999],[-1.3777738100000079,41.35836752],[-1.3803817200000026,41.36022372000002],[-1.378280200000006,41.361563209999986],[-1.376580199999978,41.36406126000003],[-1.3766089700000066,41.36482726999998],[-1.3750640399999838,41.366372720000015],[-1.3731976799999757,41.36785954999999],[-1.3697460999999862,41.37009852],[-1.3690959300000145,41.37027845],[-1.366897329999972,41.371174999999994],[-1.36426677999998,41.372128420000024],[-1.3625391799999989,41.37331080000001],[-1.3617441600000006,41.373542680000014],[-1.3599570200000244,41.37376040999999],[-1.35840761999998,41.373558160000016],[-1.3548255800000106,41.37429961999999],[-1.3524853600000029,41.374635420000004],[-1.352747690000001,41.375611960000015],[-1.3530013000000167,41.37740802000002],[-1.3532405099999778,41.377879810000024],[-1.3535415499999885,41.378271429999984],[-1.354172530000028,41.378856919999976],[-1.354861480000011,41.37951528999997],[-1.3559845099999848,41.38098150000002],[-1.3566468099999724,41.38222495000002],[-1.3570298500000035,41.38363554],[-1.357121339999992,41.38427634999999],[-1.357001949999983,41.38474301999997],[-1.3566452599999934,41.38513424000001],[-1.3605988699999898,41.385334769999986],[-1.3615275500000052,41.385501120000015],[-1.3636145400000146,41.38621537],[-1.3734077199999888,41.385813840000026],[-1.3747981600000116,41.385689379999974],[-1.375819540000009,41.385496639999985],[-1.3770589499999915,41.38471249999998],[-1.3792863599999805,41.38411339999999],[-1.3818249000000264,41.38302324],[-1.3828472100000226,41.38230804],[-1.383595200000002,41.38156194999999],[-1.38508668999998,41.380249830000025],[-1.3860400899999945,41.379416530000015],[-1.3869009499999834,41.37845583000001],[-1.3886693499999865,41.37609371000002],[-1.3905578600000013,41.37321982999998],[-1.3909532100000206,41.37318933],[-1.3914528099999757,41.37329540000002],[-1.392424779999999,41.37364224999999],[-1.3940280799999982,41.37408798000001],[-1.3949035599999888,41.374469499999975],[-1.395515190000026,41.374883350000005],[-1.3978229800000008,41.376834050000014],[-1.3990676600000143,41.379715669999996],[-1.3979404500000214,41.38178964999997],[-1.3990270900000041,41.38331799000002],[-1.4012312799999904,41.386095839999996],[-1.3985353499999746,41.389219860000026],[-1.4000437799999759,41.392087119999985],[-1.4009573899999737,41.39238805000002],[-1.4023665899999855,41.39296608000001],[-1.4053110199999992,41.39386261999999],[-1.4058785799999782,41.3941317],[-1.4063350100000207,41.39454334999999],[-1.406681849999984,41.39503453999998],[-1.4075202999999874,41.396946660000026],[-1.4080118300000208,41.39788120999998],[-1.4100702499999898,41.398333019999995],[-1.4107341900000279,41.39857638000001],[-1.41140790999998,41.39890995000002],[-1.410718920000022,41.40067484000002],[-1.4107331700000145,41.40107136],[-1.4110187499999824,41.40162473999999],[-1.4117604099999994,41.40260776000002],[-1.410820460000025,41.404360180000026],[-1.411092329999974,41.40596720999997],[-1.4116404800000169,41.40801941000001],[-1.410808089999989,41.40977332],[-1.4129310999999802,41.41102761000002],[-1.4125499200000036,41.41292285999998],[-1.4127200199999947,41.41379890000002],[-1.4132828599999812,41.41476143],[-1.4118817600000284,41.416282309999986],[-1.4115108400000054,41.416772579999986],[-1.4110661700000264,41.417342899999994],[-1.4115158800000245,41.41754727],[-1.4121811300000218,41.41774561],[-1.413193260000014,41.41794872000003],[-1.4143252700000062,41.419126259999985],[-1.4151967899999818,41.420192110000016],[-1.417050549999999,41.42269461000001],[-1.4185880800000064,41.42442712000002],[-1.4173585199999934,41.42577928999998],[-1.416747369999996,41.42679769],[-1.4160990600000218,41.428851399999985],[-1.415524189999985,41.42985227999998],[-1.4148720000000026,41.430095489999985],[-1.4130701700000259,41.430367880000006],[-1.4120462000000202,41.43064197000001],[-1.4110685499999818,41.430979750000006],[-1.4104628700000035,41.43127762],[-1.4100727599999914,41.43156945999999],[-1.4088502399999925,41.43311079],[-1.4075848699999938,41.43444434000003],[-1.4071703600000092,41.43475384999999],[-1.4052208800000017,41.435672580000016],[-1.4030371499999887,41.436867240000026],[-1.4001154900000188,41.437889470000016],[-1.3972493499999814,41.43859715000002],[-1.394606529999976,41.43898361999999],[-1.3934511799999996,41.43923769999998],[-1.3916979900000115,41.43946539000001],[-1.3885144899999773,41.43944785000002],[-1.3871167600000263,41.43933817999999],[-1.385875349999992,41.43871729],[-1.3851406399999746,41.43841874999998],[-1.3843445499999802,41.43818239000001],[-1.3836758400000235,41.43811894999999],[-1.3831344999999828,41.43822842999998],[-1.3828980999999771,41.43907177],[-1.3819528999999875,41.44146337000001],[-1.3812921900000106,41.442039539999996],[-1.3808831700000042,41.44356498000002],[-1.3802488200000198,41.444042430000025],[-1.3797630000000254,41.44432382000002],[-1.3792652000000203,41.44460502999999],[-1.3764884899999856,41.444106499999975],[-1.3753706300000204,41.44381148999997],[-1.3743274999999926,41.443400440000005],[-1.3732570700000224,41.443124090000026],[-1.3706565800000021,41.44276301999997],[-1.3672977499999774,41.442093890000024],[-1.3656995299999721,41.44186402999998],[-1.3648133799999869,41.44187844999999],[-1.3639353500000198,41.44204610000003],[-1.3627773399999796,41.44239891000001],[-1.3616152499999998,41.442913780000026],[-1.3586839499999996,41.441908220000016],[-1.3580464300000017,41.441556849999984],[-1.3579179800000247,41.44142892000002],[-1.355693180000003,41.43946961],[-1.3546677699999918,41.43836508999999],[-1.3541752500000257,41.437961729999984],[-1.3539991900000246,41.4378241],[-1.3521818799999892,41.43679829000001],[-1.3511697899999717,41.43611726],[-1.350211829999978,41.43566217],[-1.349926700000026,41.43652276],[-1.3496809399999847,41.43866292000001],[-1.3493618100000049,41.43991933000001],[-1.3486429199999748,41.44089078000002],[-1.3481890799999974,41.44179398],[-1.3478940699999953,41.44304172],[-1.3468070600000033,41.444836520000024],[-1.3461256400000252,41.44621381000002],[-1.3451305400000138,41.44768565999999],[-1.344500069999981,41.448469209999985],[-1.3440055799999868,41.44908357000003],[-1.341897959999983,41.45145809000002],[-1.3417903100000217,41.452393270000016],[-1.3418665500000202,41.45315997],[-1.341727789999993,41.45343717999998],[-1.3400523799999746,41.455286479999984],[-1.3387389000000098,41.456555519999995],[-1.3368214199999784,41.45803196999998],[-1.3272967699999754,41.45919982999999],[-1.3232155499999863,41.459599749999995],[-1.321234650000008,41.459805029999984],[-1.3190704900000014,41.46015170999999],[-1.3108841000000098,41.46094145000001],[-1.3091331200000127,41.461050820000025],[-1.3057170399999904,41.46164904],[-1.3045719899999995,41.46147903999997],[-1.3034553599999867,41.461138319999975],[-1.3026628399999822,41.46076634000002],[-1.301260749999983,41.46218676000001],[-1.2972351500000059,41.46776560000001],[-1.2931965500000047,41.473812450000025],[-1.2924773899999877,41.474747509999986],[-1.2912059799999724,41.47618775000001],[-1.290635870000017,41.47691785000001],[-1.2903507999999988,41.47728289999998],[-1.2891486500000156,41.479273569999975],[-1.2883246800000165,41.48099965],[-1.2856663100000105,41.485517560000005],[-1.2829030500000158,41.48945739999999],[-1.282000910000022,41.490957089999995],[-1.2804619300000013,41.49433871000002],[-1.2800545200000215,41.49615202000001],[-1.2797597699999983,41.496877170000005],[-1.2787894200000096,41.49823170000002],[-1.278308050000021,41.49876490999998],[-1.2775215400000093,41.499509709999984],[-1.276818579999997,41.49981442000001],[-1.2762116499999934,41.500111549999986],[-1.276078240000004,41.500172599999985],[-1.272231540000007,41.50245666000001],[-1.2655045999999857,41.50714704000001],[-1.2632732600000054,41.50859048000001],[-1.2591701200000216,41.51146467000001],[-1.255714179999984,41.51342983000001],[-1.2547607500000026,41.51412690000001],[-1.2525638000000185,41.51516535000002],[-1.249511919999975,41.516352859999984],[-1.2481231799999932,41.51674602000003],[-1.2449412700000266,41.51741802999999],[-1.2437976599999843,41.51760773000001],[-1.2431742699999973,41.51761621000003],[-1.2422076199999879,41.51746632999999],[-1.2387904299999946,41.51664843999998],[-1.237927959999979,41.51663523000002],[-1.2360181899999816,41.51679508000001],[-1.2297687600000131,41.51613157999998],[-1.2258148299999903,41.51610664999998],[-1.2224184799999875,41.516288359999976],[-1.217768669999998,41.516729759999976],[-1.2170584699999836,41.516844839999976],[-1.215249990000018,41.51593410999999],[-1.2112271799999803,41.514061200000015],[-1.2108043999999722,41.51374838999999],[-1.209464120000007,41.511944159999985],[-1.206743490000008,41.50979414],[-1.2053428199999985,41.5088806],[-1.2036397699999952,41.50763807999999],[-1.2020345999999904,41.50675733000003],[-1.2006507899999974,41.50610519999998],[-1.1997550400000137,41.505568779999976],[-1.1979543900000067,41.50396436],[-1.1971642600000223,41.50307830999998],[-1.1965887100000145,41.50223163999999],[-1.1934135899999774,41.50008317999999],[-1.1928971899999965,41.49969678000002],[-1.1927664099999902,41.50009103000002],[-1.1929287599999725,41.50071505],[-1.192813909999984,41.50139776999998],[-1.192687890000002,41.501620960000025],[-1.1922936400000026,41.50201105999997],[-1.19094419999999,41.50314272000003],[-1.1910583800000154,41.50377500000002],[-1.1910857199999896,41.50451399000002],[-1.1913121399999795,41.50541823999998],[-1.1915745599999923,41.505890720000025],[-1.1918766699999992,41.506228729999975],[-1.1920462900000075,41.50659166999998],[-1.1921036100000038,41.507114969999975],[-1.1919220300000006,41.50847214999999],[-1.1913219900000058,41.50979573000001],[-1.1902447599999846,41.511472070000025],[-1.1891480499999716,41.51298595999998],[-1.1882223200000226,41.513953130000004],[-1.1875028000000043,41.51440113000001],[-1.1857334200000196,41.51596742999999],[-1.185146130000021,41.51639949999998],[-1.1749074599999858,41.521677539999985],[-1.1705564499999923,41.52382405999998],[-1.1692803000000254,41.52445223000001],[-1.1686637500000074,41.52464056000002],[-1.1648412000000121,41.52503895000001],[-1.1637984399999937,41.52504031000001],[-1.1603256000000215,41.524516430000006],[-1.1580759700000272,41.524390340000025]]]}}]}