{"type": "FeatureCollection", "features": [{"type": "Feature", "properties": {"OBJECTID": 1823, "ZON_CO_ID": 17, "ZON_DS_NOM": "Cigales", "CAL_DS_NOM": "D.O.Cigales", "TPR_DS_DES": "Denominación de Origen", "TPR_DS_GRU": "CALIDAD DIFERENCIADA", "FAM_DS_NOM": "Vinos"}, "geometry": {"type": "MultiPolygon", "coordinates": [[[[-4.604645679999976, 41.925858679999976], [-4.60362889999999, 41.925710760000015], [-4.602896620000024, 41.925847069999975], [-4.602348459999973, 41.92562955], [-4.60129293, 41.92489673], [-4.599725420000027, 41.92490956], [-4.597509720000005, 41.92456212000002], [-4.596936570000025, 41.92430890000003], [-4.596074600000009, 41.924564050000015], [-4.595060939999996, 41.92405574999998], [-4.594446819999973, 41.924577639999995], [-4.593640629999982, 41.92465186999999], [-4.593112669999982, 41.92524460999999], [-4.591913139999974, 41.92599075999999], [-4.590566860000024, 41.926171520000025], [-4.588746350000008, 41.92619671], [-4.579259009999987, 41.92685888], [-4.578464390000022, 41.92691482999999], [-4.576136500000018, 41.927397110000015], [-4.57504431000001, 41.92712388000001], [-4.574150120000013, 41.92705508], [-4.573628690000021, 41.926449779999984], [-4.574447360000022, 41.92443012000001], [-4.5740068000000065, 41.92367961000002], [-4.573659940000027, 41.92330608999998], [-4.572785280000005, 41.923047870000005], [-4.572718370000018, 41.923760300000026], [-4.571730230000014, 41.92379183000003], [-4.571629560000019, 41.92460378999999], [-4.570478460000004, 41.92536706999999], [-4.569582729999979, 41.926216909999994], [-4.568452219999983, 41.925854070000014], [-4.563719800000001, 41.92615274000002], [-4.5611820600000215, 41.926439430000016], [-4.558130020000021, 41.92690415999999], [-4.5551759400000265, 41.92693517999999], [-4.553555949999975, 41.927272319999986], [-4.55210605000002, 41.92766117999997], [-4.551428299999998, 41.9270669], [-4.550429520000023, 41.92566635999998], [-4.550009139999986, 41.92523971999998], [-4.548727690000021, 41.92511288999998], [-4.547187969999982, 41.92527774000001], [-4.546059239999977, 41.92548206999999], [-4.547045720000028, 41.923883639999985], [-4.547424200000023, 41.92307697000001], [-4.546254429999976, 41.92257934000003], [-4.545356000000027, 41.92233024000001], [-4.5450263500000005, 41.921163820000004], [-4.542134439999984, 41.92076135000002], [-4.541149749999988, 41.919432589999985], [-4.539700229999994, 41.91883057000001], [-4.537818309999977, 41.91679327000003], [-4.537657710000019, 41.9166333], [-4.537251519999984, 41.91679184999998], [-4.53389433000001, 41.91809762999998], [-4.531644970000002, 41.917326049999986], [-4.530269420000025, 41.91678596999998], [-4.529356699999994, 41.91643785000002], [-4.527218090000019, 41.915754779999986], [-4.526063889999989, 41.915391839999984], [-4.525156449999997, 41.91678188999998], [-4.524551470000006, 41.91770858000001], [-4.523947169999985, 41.91815792], [-4.520945799999993, 41.91872006], [-4.518318939999972, 41.919313199999976], [-4.51715833999998, 41.91969781], [-4.5164435699999785, 41.920067510000024], [-4.516360669999983, 41.92013164999997], [-4.5154951399999845, 41.92075552], [-4.513952730000028, 41.92233399999998], [-4.512849080000024, 41.92360044999998], [-4.510794490000023, 41.925455829999976], [-4.508804180000027, 41.92595032999998], [-4.505546869999989, 41.92692976000001], [-4.505484659999979, 41.92633615], [-4.505060319999984, 41.92470251999998], [-4.504884100000027, 41.92336284999999], [-4.50479673000001, 41.92272452999998], [-4.503441210000005, 41.91738339], [-4.503186159999984, 41.9167923], [-4.503097550000007, 41.91661333000002], [-4.502422910000007, 41.916640169999994], [-4.50235078999998, 41.916650119999986], [-4.501442259999976, 41.91647286], [-4.499807079999982, 41.91616098999998], [-4.499939709999978, 41.91564588], [-4.499994500000014, 41.915411000000006], [-4.500095839999972, 41.91459007999998], [-4.499897280000027, 41.914349490000006], [-4.499550269999986, 41.913948730000016], [-4.499695869999982, 41.91244273000001], [-4.49971561000001, 41.91122659000001], [-4.49966169999999, 41.91098412000002], [-4.499503779999998, 41.91041876999998], [-4.500592419999975, 41.91005329000001], [-4.501524580000023, 41.90918548000002], [-4.502532439999982, 41.90743402999999], [-4.503420979999987, 41.90625154999998], [-4.505568579999988, 41.90221549], [-4.506074070000011, 41.90012834999999], [-4.506606309999995, 41.89661781000001], [-4.505910529999994, 41.896248660000026], [-4.5058619000000135, 41.896231279999995], [-4.505567170000006, 41.895487600000024], [-4.5050893499999916, 41.89362048999999], [-4.50412682000001, 41.891642649999994], [-4.502997740000012, 41.89078379], [-4.500705670000002, 41.888643179999974], [-4.499481399999979, 41.887317189999976], [-4.499179599999991, 41.886780740000006], [-4.498886659999982, 41.884559939999974], [-4.496706730000028, 41.88152613], [-4.495709379999994, 41.87958469], [-4.495176609999987, 41.87792540999999], [-4.494363329999999, 41.876639039999986], [-4.493336810000017, 41.875508550000006], [-4.492134869999973, 41.87356973999999], [-4.491784800000005, 41.87302489000001], [-4.490731980000021, 41.871795640000016], [-4.488928240000007, 41.87091837999998], [-4.487352429999987, 41.870515479999995], [-4.487781439999992, 41.8697894], [-4.485138020000022, 41.867508910000026], [-4.484205040000006, 41.86624203000002], [-4.482830400000012, 41.865674350000006], [-4.483053830000017, 41.86491490999998], [-4.482921499999975, 41.86388084999999], [-4.481669629999999, 41.86184349000001], [-4.480203949999975, 41.85993496999998], [-4.47602384999999, 41.856287020000025], [-4.475137519999976, 41.85493839999998], [-4.47479850000002, 41.85433931], [-4.474597739999979, 41.85399063], [-4.473343230000012, 41.85181811000001], [-4.472439959999974, 41.85077590999998], [-4.472044279999977, 41.85033064999999], [-4.470420909999973, 41.84729816999999], [-4.469444450000026, 41.845158070000025], [-4.468994549999991, 41.84181333999999], [-4.4687088499999845, 41.83879975000002], [-4.468964770000014, 41.8378778], [-4.471533159999979, 41.83433231999999], [-4.471983930000022, 41.83350694000001], [-4.472019219999993, 41.83347046], [-4.473335410000004, 41.832048550000025], [-4.474277470000004, 41.83111779000001], [-4.4754027700000165, 41.83030174999999], [-4.478313730000025, 41.82858909999999], [-4.47663799999998, 41.82745778999998], [-4.474577119999992, 41.82633141000002], [-4.4704620599999885, 41.824889040000016], [-4.465552030000026, 41.82289824999998], [-4.462851460000024, 41.82168974000001], [-4.461898029999986, 41.82106240000002], [-4.461147600000004, 41.82036040999998], [-4.463320699999997, 41.81955819000001], [-4.46426667999998, 41.81932998000002], [-4.465807170000005, 41.81930132999997], [-4.467042310000011, 41.819609809999974], [-4.467724789999977, 41.81997037000002], [-4.4685466799999745, 41.82063536999999], [-4.471084389999987, 41.819459059999986], [-4.474013150000019, 41.81853887], [-4.475294179999992, 41.818747599999995], [-4.476645169999983, 41.818856340000025], [-4.4770776500000125, 41.81881475], [-4.479148790000011, 41.81830174999999], [-4.482627120000018, 41.819815070000004], [-4.483662700000025, 41.820342100000005], [-4.485419859999979, 41.820310389999975], [-4.487341370000024, 41.82009640000001], [-4.487734699999976, 41.81836203], [-4.4881642099999794, 41.817671959999984], [-4.488361899999973, 41.81684978999999], [-4.488322530000005, 41.81514804], [-4.489872880000007, 41.80619331999998], [-4.4907594499999846, 41.79992217], [-4.491589620000013, 41.79404804000001], [-4.492050699999993, 41.78901631000002], [-4.4929484699999875, 41.78361862999998], [-4.493655020000006, 41.780358019999994], [-4.492400210000028, 41.77865403999999], [-4.495861760000025, 41.77589800999999], [-4.499755880000009, 41.77261384000002], [-4.5011835500000075, 41.771406309999975], [-4.500016529999982, 41.77089016000002], [-4.497028999999998, 41.770208579999974], [-4.493870300000026, 41.76992545000002], [-4.491794500000026, 41.76964619], [-4.485659520000013, 41.76968063999999], [-4.484633459999998, 41.76953178000002], [-4.480622630000028, 41.76776417000002], [-4.477701809999985, 41.766829040000005], [-4.47481055999998, 41.76560525000002], [-4.468117870000015, 41.76332217999999], [-4.462161709999975, 41.76166884000003], [-4.4566229000000135, 41.75983875999998], [-4.454238009999983, 41.75916644], [-4.455313100000012, 41.756703000000016], [-4.456053820000022, 41.755414659999985], [-4.457697380000013, 41.75362849999999], [-4.458554590000006, 41.75217655], [-4.460108119999973, 41.75013931000001], [-4.4611708599999815, 41.74873875999998], [-4.462661400000002, 41.74552240999998], [-4.463739069999974, 41.74372534999998], [-4.466553710000028, 41.74110452000002], [-4.468516299999976, 41.73909796999999], [-4.470622590000005, 41.738125319999995], [-4.4721532300000035, 41.73722306000002], [-4.474792820000005, 41.73538786], [-4.47541037000002, 41.734524290000024], [-4.475939359999984, 41.73399511000002], [-4.477237460000026, 41.73344702999998], [-4.479409980000014, 41.73223017999999], [-4.480590529999972, 41.73127827000002], [-4.48218055000001, 41.73035709999999], [-4.48482352000002, 41.72921514000001], [-4.49107127000002, 41.728503760000024], [-4.492655099999979, 41.72784372000001], [-4.494742659999986, 41.72713206999998], [-4.497789420000004, 41.72630880000003], [-4.501750309999977, 41.72602293], [-4.503868039999986, 41.72558092000003], [-4.506614339999999, 41.72477035999998], [-4.5084916199999725, 41.72433142], [-4.512912400000005, 41.723156459999984], [-4.515339690000019, 41.722593070000016], [-4.516652620000002, 41.722188459999984], [-4.5180041200000005, 41.721891400000004], [-4.520976829999995, 41.72151883999999], [-4.5221780300000205, 41.72147590999998], [-4.524503830000015, 41.721201889999975], [-4.528234540000028, 41.72035073000001], [-4.53036904999999, 41.72012418000003], [-4.531965949999972, 41.72003984999998], [-4.5339051600000175, 41.71968973000003], [-4.535147800000004, 41.71953079000002], [-4.536247989999993, 41.72013578999997], [-4.535870740000007, 41.71943830999999], [-4.5369982799999775, 41.71832440999998], [-4.538022790000014, 41.717428040000016], [-4.539223880000009, 41.71688055999999], [-4.541331189999994, 41.71652805999997], [-4.542399649999993, 41.71646869], [-4.551229499999977, 41.715232990000004], [-4.55763546999998, 41.71468698000001], [-4.558866899999998, 41.714409090000004], [-4.561438380000027, 41.712879050000026], [-4.563295939999989, 41.71215126999999], [-4.565564839999979, 41.71153493999998], [-4.57003155000001, 41.710843520000026], [-4.572227629999986, 41.71069640000002], [-4.575332759999981, 41.71036565999998], [-4.578613589999975, 41.709356920000005], [-4.581237330000022, 41.70900561000002], [-4.584393040000009, 41.70878200999999], [-4.593220529999996, 41.70849784000001], [-4.595143689999986, 41.708011820000024], [-4.597741219999989, 41.707093069999985], [-4.601128979999999, 41.70605518000002], [-4.606871319999982, 41.704975279999985], [-4.609236119999991, 41.704374770000015], [-4.616451559999973, 41.702138909999974], [-4.623913580000021, 41.699691959999996], [-4.6261184300000195, 41.69848089999999], [-4.627652490000003, 41.697360360000005], [-4.628733870000019, 41.69639933000002], [-4.629079269999977, 41.69579999000001], [-4.62953656000002, 41.69392011000002], [-4.630542370000001, 41.69282504], [-4.63223739, 41.69190032], [-4.6314952299999845, 41.690586859999996], [-4.631308600000011, 41.68938259999999], [-4.6308157999999935, 41.68743139999998], [-4.632314580000013, 41.68512745999999], [-4.6341291100000035, 41.685254439999994], [-4.634439989999976, 41.68442527000002], [-4.636272200000008, 41.684653379999986], [-4.636362560000009, 41.685905830000024], [-4.638806139999986, 41.68570674], [-4.641917509999985, 41.68394747000002], [-4.643820310000024, 41.68426729999999], [-4.644703509999999, 41.68355322999997], [-4.64520422999999, 41.68306474000002], [-4.647276490000024, 41.68240675999999], [-4.647800829999994, 41.68236988000001], [-4.646874579999974, 41.68053047000001], [-4.646498000000008, 41.679976899999986], [-4.646011359999989, 41.679918120000025], [-4.64568663, 41.67900849], [-4.646914270000025, 41.67806214000001], [-4.647481210000024, 41.67715270999997], [-4.6485461899999905, 41.677301820000025], [-4.64912099999998, 41.67614646999999], [-4.650603330000024, 41.675688639999976], [-4.651878710000005, 41.67572733999998], [-4.654403539999976, 41.67496958999999], [-4.655621110000027, 41.67318818000001], [-4.656064870000023, 41.67296761], [-4.656720020000023, 41.67101666999997], [-4.657282720000012, 41.67076924999998], [-4.657638270000007, 41.66953651], [-4.657841050000002, 41.66960239000002], [-4.658078149999994, 41.66961555], [-4.658429490000003, 41.66961452999999], [-4.658973549999985, 41.669507520000025], [-4.659810189999973, 41.669296299999985], [-4.660633539999992, 41.669049340000015], [-4.659399380000025, 41.66253059000002], [-4.658761410000011, 41.66136684999998], [-4.657992999999976, 41.66092831999998], [-4.656899959999976, 41.66017156999999], [-4.656475790000002, 41.65961575], [-4.6561413200000175, 41.65976169999999], [-4.655600310000011, 41.659112359999995], [-4.655079650000005, 41.658192610000015], [-4.6550410799999895, 41.658121470000026], [-4.655094070000018, 41.658103589999996], [-4.655118150000021, 41.65804487999998], [-4.65486525, 41.65638966], [-4.654527889999997, 41.656394509999984], [-4.654477750000012, 41.65600731000001], [-4.654671590000021, 41.65455191000001], [-4.654494740000018, 41.65374178000002], [-4.655179320000002, 41.653541700000005], [-4.655149380000012, 41.65248429000002], [-4.655484240000021, 41.651191229999995], [-4.656926160000012, 41.64979863999997], [-4.656486099999995, 41.64927583000002], [-4.656368079999993, 41.648610940000026], [-4.6562825400000065, 41.64836070000001], [-4.656248319999975, 41.64811225], [-4.656232869999997, 41.647902880000004], [-4.656234499999982, 41.64774154999998], [-4.6562518999999725, 41.64754413999998], [-4.656327040000008, 41.64721917000003], [-4.65638371, 41.64706425000003], [-4.656439270000021, 41.64694528000001], [-4.656526079999992, 41.64678569], [-4.656671410000001, 41.64656185000001], [-4.656901629999993, 41.64625797999997], [-4.656678250000027, 41.64554866999998], [-4.6561530199999766, 41.644268090000025], [-4.652881630000024, 41.63736795], [-4.649824700000011, 41.634764759999996], [-4.649151959999983, 41.63432018999998], [-4.647763759999975, 41.63318523999999], [-4.647598230000028, 41.63251660999998], [-4.647347700000012, 41.629951730000016], [-4.6471116100000245, 41.629179799999974], [-4.647299799999985, 41.6285977], [-4.647428769999976, 41.62784936999998], [-4.646726769999987, 41.62741187], [-4.644646920000014, 41.62747127], [-4.643725029999985, 41.627478680000024], [-4.643492719999983, 41.62699928000001], [-4.647289670000021, 41.62666574000002], [-4.647543419999977, 41.62720251000002], [-4.648329699999977, 41.62696606999998], [-4.649509679999994, 41.62663391000001], [-4.650391259999992, 41.62636908000002], [-4.6507367400000135, 41.62626504000002], [-4.651213750000011, 41.626141099999984], [-4.653134480000006, 41.62567217999998], [-4.653265789999978, 41.62564327000001], [-4.653593240000021, 41.62577365999999], [-4.654327070000022, 41.62583516000001], [-4.654977830000007, 41.62593387999999], [-4.655363210000019, 41.625982369999974], [-4.656323199999974, 41.62596854999998], [-4.6570180499999765, 41.625913509999975], [-4.657185579999975, 41.625893080000026], [-4.658298580000007, 41.625759949999974], [-4.658442340000022, 41.625748869999995], [-4.6594376400000215, 41.625707490000025], [-4.66127892999998, 41.62588806000002], [-4.661616540000011, 41.62594623000001], [-4.6622456200000215, 41.62613528999998], [-4.662379240000007, 41.626196400000026], [-4.6626593999999955, 41.626354479999975], [-4.662924560000022, 41.62639567999997], [-4.6631527900000265, 41.626401380000004], [-4.663631629999998, 41.62634942], [-4.66382200999999, 41.62628361999998], [-4.663928849999991, 41.62623703999998], [-4.664189609999994, 41.62610717000001], [-4.664630129999978, 41.62596568999999], [-4.664761440000007, 41.62593677000001], [-4.664904970000009, 41.62591667999999], [-4.665083809999999, 41.625869060000014], [-4.665154420000022, 41.62581398999998], [-4.665731989999983, 41.62540031999998], [-4.665861440000015, 41.62529936999999], [-4.666504040000007, 41.62461454999999], [-4.666715860000011, 41.62444936000003], [-4.667000140000027, 41.62430112999999], [-4.667559949999998, 41.62413089], [-4.6679286899999965, 41.623999449999985], [-4.668274580000002, 41.623913370000025], [-4.6686915500000055, 41.62379023], [-4.669168739999975, 41.62367523], [-4.669632770000021, 41.62351537000001], [-4.670289720000028, 41.623388750000004], [-4.671220549999987, 41.62317707], [-4.671603140000002, 41.62311747000001], [-4.671865490000016, 41.62305061000001], [-4.672328349999987, 41.622845729999995], [-4.672675169999991, 41.62279565], [-4.673047370000006, 41.622799240000006], [-4.673300059999974, 41.62282259], [-4.673649899999987, 41.622889550000025], [-4.674499980000007, 41.62280512000001], [-4.674703969999996, 41.622802149999984], [-4.675303929999984, 41.622793409999986], [-4.675578980000012, 41.622753380000006], [-4.676080150000018, 41.62263798999999], [-4.676400860000001, 41.62250721999999], [-4.676730539999994, 41.62225923], [-4.677416460000018, 41.621861939999974], [-4.677545650000013, 41.62175196999999], [-4.677728070000001, 41.62138003000001], [-4.678071939999995, 41.62075355000002], [-4.6782234899999935, 41.620580210000014], [-4.678423969999983, 41.62044218], [-4.679076899999984, 41.62016244], [-4.680983210000022, 41.62053989999998], [-4.683213529999989, 41.61906619000001], [-4.684296080000024, 41.618230719999985], [-4.685719940000013, 41.617597390000014], [-4.687959359999979, 41.6174024], [-4.68834849000001, 41.61713549000001], [-4.6889937999999916, 41.61702694000002], [-4.689015919999974, 41.61695456000001], [-4.689147429999991, 41.61693460999999], [-4.689314930000023, 41.616914140000006], [-4.689362689999996, 41.61690442999998], [-4.689410440000017, 41.616894720000005], [-4.689493959999993, 41.616875479999976], [-4.689660759999981, 41.61682798999999], [-4.689708279999991, 41.616809279999984], [-4.689863310000021, 41.616770970000005], [-4.690030110000009, 41.61672349000003], [-4.690113390000022, 41.61669524000001], [-4.6901966699999775, 41.61666700000001], [-4.690315709999993, 41.61662921999999], [-4.690446510000015, 41.61658225999997], [-4.690505799999983, 41.61655437000002], [-4.690600840000002, 41.61651694], [-4.690707649999979, 41.61647033999998], [-4.691264960000012, 41.616209949999984], [-4.691524449999974, 41.61603500000001], [-4.694007479999982, 41.61460238000001], [-4.694232349999993, 41.61356329], [-4.694403360000024, 41.613218510000024], [-4.694341489999999, 41.61314736999998], [-4.694672920000016, 41.61251200999999], [-4.695620360000021, 41.610651640000015], [-4.694871809999995, 41.6091045], [-4.694568349999997, 41.60851452000003], [-4.694376869999985, 41.60807600999999], [-4.694226790000016, 41.607844039999975], [-4.694080009999993, 41.60727876999999], [-4.693761269999982, 41.606103570000016], [-4.6935373499999855, 41.60625999000001], [-4.692752199999973, 41.60560504], [-4.692894739999986, 41.605548899999974], [-4.692298489999985, 41.60477408999998], [-4.692417030000001, 41.6047183], [-4.692958959999999, 41.60433203000002], [-4.693183350000027, 41.60419363], [-4.692675300000019, 41.60357963000001], [-4.692958019999992, 41.60337731999999], [-4.692629450000027, 41.60182397], [-4.692598169999997, 41.60154521999999], [-4.692592300000001, 41.601320139999984], [-4.692595589999996, 41.60098683000001], [-4.692600529999993, 41.600716550000016], [-4.692629459999978, 41.60044592000003], [-4.6926769799999875, 41.59996785999999], [-4.692696969999986, 41.59981445], [-4.692730840000024, 41.599732889999984], [-4.6927767000000244, 41.59965115], [-4.692904180000028, 41.599478139999974], [-4.692961799999978, 41.59938722999999], [-4.692971209999996, 41.59928801000001], [-4.6930161299999895, 41.599170259999994], [-4.692986500000018, 41.598954530000015], [-4.693038469999976, 41.598647529999994], [-4.69316477000001, 41.59842951000002], [-4.693350570000007, 41.59819259], [-4.693745209999975, 41.5976824], [-4.693847510000012, 41.597464720000005], [-4.693914300000017, 41.597265590000006], [-4.694057989999976, 41.596795110000016], [-4.694301390000021, 41.596007929999985], [-4.694469770000012, 41.59556411], [-4.694568769999989, 41.59522039000001], [-4.694622620000018, 41.59498542], [-4.694616979999978, 41.59476934000003], [-4.694656479999992, 41.59444451000002], [-4.694710330000021, 41.59420953], [-4.694823910000025, 41.59396466999999], [-4.694962889999999, 41.59377347999998], [-4.695053659999985, 41.59357398999998], [-4.695317289999991, 41.59356109999999], [-4.696781450000003, 41.59357552], [-4.696889160000012, 41.593564930000014], [-4.69731975000002, 41.593513529999996], [-4.698073449999981, 41.593430350000006], [-4.698779189999982, 41.59334787], [-4.698838920000014, 41.59333798], [-4.699748069999998, 41.59323447000003], [-4.699746889999972, 41.59318945000001], [-4.70040062999999, 41.59295460999999], [-4.701362229999972, 41.59302144999998], [-4.701470169999993, 41.59301985000002], [-4.702338359999999, 41.59272778000002], [-4.702782590000027, 41.59273922], [-4.702854549999984, 41.59273815], [-4.703213880000021, 41.59271481000002], [-4.703393549999987, 41.592703140000026], [-4.703489489999981, 41.59270171999998], [-4.703537229999995, 41.59269201000001], [-4.703848110000024, 41.59265137], [-4.7039671, 41.59261357999998], [-4.70405082000002, 41.592603329999974], [-4.7043014899999775, 41.59255458000001], [-4.704647169999987, 41.59246839999997], [-4.704944399999988, 41.592364910000015], [-4.705110170000012, 41.59228138999998], [-4.7052152699999965, 41.59217174999998], [-4.705310510000004, 41.59214331999999], [-4.7053225000000225, 41.59214314000002], [-4.705525439999974, 41.59210409999997], [-4.705559999999991, 41.59204955000001], [-4.705664389999981, 41.59191290000001], [-4.706234139999992, 41.591679269999986], [-4.708178589999989, 41.59125409000001], [-4.708297570000013, 41.59121628999998], [-4.708418209999991, 41.59124151999998], [-4.70859882000002, 41.59126586000002], [-4.708718280000028, 41.59124607000001], [-4.7088017500000205, 41.59122681000002], [-4.709088880000024, 41.591195519999985], [-4.709220319999986, 41.59117556000001], [-4.709328019999987, 41.59116495000001], [-4.709471469999983, 41.591144799999995], [-4.709555179999995, 41.59113454999999], [-4.709590919999982, 41.591125009999985], [-4.709734360000027, 41.59110485999997], [-4.709841589999996, 41.591076250000015], [-4.7102354599999785, 41.59099832999999], [-4.710146880000025, 41.59127887], [-4.710159110000006, 41.59128769], [-4.710080860000005, 41.59150502], [-4.710598940000011, 41.59158738000002], [-4.710634439999978, 41.59156883999998], [-4.711105499999974, 41.59168792000003], [-4.71172808, 41.59209297000001], [-4.711935299999993, 41.59221597999999], [-4.712737790000006, 41.59261834], [-4.712750019999987, 41.592627170000014], [-4.713904619999994, 41.59318639999998], [-4.714026219999994, 41.59324763000001], [-4.714051400000017, 41.59329229000002], [-4.716126180000003, 41.59371168000001], [-4.716680979999978, 41.59382047999998], [-4.717006480000009, 41.59387866999998], [-4.717852470000025, 41.59410922000001], [-4.71951445000002, 41.594795910000016], [-4.719997299999989, 41.594905779999976], [-4.720238849999987, 41.59496521], [-4.720927270000004, 41.59513504], [-4.721302419999972, 41.59525552000002], [-4.721375099999989, 41.595281450000016], [-4.7215689199999815, 41.595350610000025], [-4.7219215200000235, 41.595525459999976], [-4.722298350000017, 41.595708960000024], [-4.7228092700000275, 41.59597151000003], [-4.723040019999985, 41.59607612999997], [-4.723506559999976, 41.59647445000002], [-4.7236008200000015, 41.59686033000003], [-4.724331489999997, 41.59681333999998], [-4.7284027300000275, 41.59650001], [-4.729719849999981, 41.59504810999999], [-4.732212940000011, 41.59315515999998], [-4.73281043999998, 41.59306508999998], [-4.734187159999976, 41.59205357000002], [-4.73766114, 41.590956319999975], [-4.7386090599999875, 41.590959999999995], [-4.73959069, 41.59043176], [-4.739673429999982, 41.59038547], [-4.740520559999993, 41.59021052000003], [-4.740985140000021, 41.59008640000002], [-4.741104339999993, 41.59005757], [-4.7416648500000065, 41.589931990000025], [-4.742141890000028, 41.58982569], [-4.7425594499999875, 41.58973830000002], [-4.742798339999979, 41.58969865], [-4.745463089999987, 41.588856599999986], [-4.746671170000013, 41.58872115999998], [-4.747762959999989, 41.588722580000024], [-4.748266639999997, 41.58871491999997], [-4.7490576499999975, 41.58868487000001], [-4.749416929999995, 41.58866139000003], [-4.750134769999988, 41.58858741], [-4.750132829999984, 41.58851539], [-4.750373969999998, 41.58811541], [-4.750420239999983, 41.58805166000002], [-4.75061949000002, 41.58787748999998], [-4.751083119999976, 41.587275980000015], [-4.751243960000011, 41.58701232999999], [-4.751231969999992, 41.58701251000002], [-4.751440530000025, 41.58673913000001], [-4.751486059999991, 41.58664836999998], [-4.75156733, 41.586548049999976], [-4.751836340000011, 41.586291759999995], [-4.75205883000001, 41.58609022000002], [-4.75226932999999, 41.58588886000001], [-4.752316080000014, 41.585843109999985], [-4.752363559999992, 41.58582438000002], [-4.752516049999997, 41.58569595], [-4.752715770000009, 41.585539789999984], [-4.75277232000002, 41.585412829999996], [-4.752769890000025, 41.58532279999997], [-4.7529140299999995, 41.585329609999974], [-4.752962239999988, 41.58533788], [-4.753173460000028, 41.58516352999999], [-4.75333624000001, 41.58497190000003], [-4.753522499999974, 41.58476191], [-4.753474530000005, 41.58476264000001], [-4.753553609999983, 41.58458129000002], [-4.753601819999972, 41.58458956999999], [-4.753725200000019, 41.58427244000001], [-4.754433179999978, 41.584279649999985], [-4.755123620000006, 41.583638629999996], [-4.75494156000002, 41.58356035000003], [-4.755672440000012, 41.58219816000002], [-4.756356550000021, 41.58088171000003], [-4.75708985, 41.57916820999998], [-4.757431059999988, 41.57803713999999], [-4.757749980000028, 41.57696944999998], [-4.757882919999986, 41.57612076999999], [-4.757992839999986, 41.57530846999998], [-4.757723530000021, 41.57422276], [-4.757416540000008, 41.573074580000025], [-4.7572534399999995, 41.571924190000004], [-4.7570749000000205, 41.571089280000024], [-4.7568246800000225, 41.570264469999984], [-4.756588690000001, 41.56907917000001], [-4.75641859000001, 41.56722635], [-4.756374629999982, 41.566488460000016], [-4.756835560000013, 41.564022539999996], [-4.757038659999978, 41.563551080000025], [-4.757328149999978, 41.56272703000002], [-4.757534940000028, 41.561949270000014], [-4.757811699999991, 41.561098389999984], [-4.75822420999998, 41.560389550000025], [-4.759415450000006, 41.55832676], [-4.760352160000025, 41.557492790000026], [-4.761243340000021, 41.55674957999997], [-4.763121280000007, 41.55657667999998], [-4.764653810000027, 41.55649011999998], [-4.76567239000002, 41.55646546999998], [-4.766917490000026, 41.55639230000003], [-4.7681738399999745, 41.55629191999998], [-4.769445109999992, 41.556299379999984], [-4.771155889999989, 41.555714609999995], [-4.772641360000023, 41.555223350000006], [-4.7739594999999895, 41.55475267000003], [-4.774042339999994, 41.55427402999999], [-4.77416943999998, 41.5536596], [-4.773980300000005, 41.55332025000001], [-4.773882300000025, 41.553375800000026], [-4.773801979999973, 41.55342028000001], [-4.773671680000007, 41.553479030000005], [-4.77354729000001, 41.55353409000003], [-4.77340713000001, 41.55358309000002], [-4.773278549999986, 41.5536166], [-4.773108019999995, 41.553650749999974], [-4.772935469999993, 41.553655219999996], [-4.772702410000022, 41.553638990000024], [-4.77253730000001, 41.55360820999999], [-4.772396759999992, 41.553555440000025], [-4.772277750000001, 41.55350053000001], [-4.772157330000027, 41.553437540000004], [-4.7720707999999945, 41.55338662999998], [-4.771983369999987, 41.553302410000015], [-4.771914229999993, 41.553185489999976], [-4.771839360000001, 41.55303442000002], [-4.771785399999999, 41.55285872000002], [-4.771737389999998, 41.55272524999998], [-4.771695799999975, 41.55260700000002], [-4.77163852000001, 41.552485390000015], [-4.771603089999985, 41.552417479999974], [-4.771583319999991, 41.55235204000002], [-4.771534719999977, 41.55219697000001], [-4.771508019999999, 41.55209739999998], [-4.771470270000009, 41.55198810000002], [-4.771440050000024, 41.551891290000015], [-4.771393629999977, 41.551728079999975], [-4.77134946000001, 41.55160355999999], [-4.771313179999993, 41.55150414000002], [-4.771274759999983, 41.55141465999998], [-4.7712360099999955, 41.55131258], [-4.7712000399999965, 41.55122487], [-4.771143470000027, 41.55108523000001], [-4.771082429999979, 41.55095736999999], [-4.771050839999987, 41.55085428000001], [-4.770994400000006, 41.55071914000001], [-4.77095079999998, 41.55061533000003], [-4.770875419999982, 41.550445360000026], [-4.770725519999985, 41.55031257000002], [-4.77051302000001, 41.55012669000001], [-4.770365809999987, 41.55000467000002], [-4.7702399300000025, 41.549917429999994], [-4.770119000000022, 41.549835529999996], [-4.769965780000007, 41.54975682999998], [-4.769743070000004, 41.54963595999999], [-4.769354319999991, 41.5494501], [-4.769256089999999, 41.54940928000002], [-4.7690796599999885, 41.549358849999976], [-4.768534709999983, 41.54924834000002], [-4.768038349999983, 41.5491614], [-4.767414840000015, 41.54911605000001], [-4.767441969999993, 41.54879138000001], [-4.767926950000003, 41.54810839999999], [-4.769489780000015, 41.54738180999999], [-4.771667830000013, 41.54767251999999], [-4.773037079999995, 41.548200829999985], [-4.77412449000002, 41.54806696999998], [-4.775959759999978, 41.54503030000001], [-4.776046360000009, 41.543813030000024], [-4.776413330000025, 41.54320388999997], [-4.777834480000024, 41.54081308999997], [-4.777957169999979, 41.54047793000001], [-4.778869170000007, 41.53963519000001], [-4.778723590000027, 41.53825936999999], [-4.777344340000013, 41.538235670000006], [-4.776509400000009, 41.537951340000006], [-4.775937839999983, 41.537653929999976], [-4.776183559999993, 41.537433969999995], [-4.77573258000001, 41.53716171999997], [-4.775339859999974, 41.53726685999999], [-4.774974050000026, 41.53747966999998], [-4.774158499999999, 41.53746524000002], [-4.773254629999997, 41.537290040000016], [-4.773750210000003, 41.53656182999998], [-4.773119010000016, 41.53627433999998], [-4.772699439999997, 41.53671314000002], [-4.77259939999999, 41.53656157], [-4.772930429999974, 41.53595299], [-4.772715909999988, 41.535559999999975], [-4.772448180000026, 41.53585235000003], [-4.772062290000008, 41.53576822000002], [-4.771748829999979, 41.536142340000026], [-4.771042309999984, 41.53572989999998], [-4.771036130000027, 41.53506348000002], [-4.770696209999983, 41.53490658999999], [-4.769822980000015, 41.534974069999976], [-4.7691456300000254, 41.53519166000001], [-4.768731609999975, 41.53495484000001], [-4.769466620000003, 41.53421395999999], [-4.7714670400000045, 41.53328246000001], [-4.771405850000008, 41.53279702999998], [-4.770238020000022, 41.533049199999994], [-4.769879989999993, 41.53266740999999], [-4.770342819999996, 41.53205680999997], [-4.769912910000016, 41.531676129999994], [-4.768723850000015, 41.532469030000016], [-4.768560550000018, 41.533075010000005], [-4.768147829999975, 41.533765889999984], [-4.767134520000013, 41.53441196], [-4.765447689999974, 41.532771579999974], [-4.764799449999998, 41.53317784000001], [-4.764392310000005, 41.53231040999998], [-4.7650407900000005, 41.53191314999998], [-4.7651539899999875, 41.53078554000001], [-4.767944440000008, 41.53069763000002], [-4.7695470200000045, 41.5305649], [-4.773486680000019, 41.530423129999974], [-4.778630679999992, 41.52961411000001], [-4.780195170000013, 41.52896842000001], [-4.782472429999984, 41.52852782000002], [-4.782676110000011, 41.528524670000024], [-4.784149759999991, 41.52850181000002], [-4.782893839999986, 41.52466629999998], [-4.784042699999986, 41.52460344999997], [-4.785853050000014, 41.52418804000001], [-4.786822550000011, 41.52370461999999], [-4.787818959999981, 41.523328849999984], [-4.788780659999986, 41.524304659999984], [-4.790005790000009, 41.52483502000001], [-4.7905247300000156, 41.524529710000024], [-4.791073340000025, 41.524431100000015], [-4.791891959999987, 41.52456246000003], [-4.792590899999993, 41.52383100999998], [-4.793198650000022, 41.52370444000002], [-4.793245469999988, 41.524532350000015], [-4.795302699999979, 41.52568015999998], [-4.7958390800000075, 41.525572710000006], [-4.795939369999985, 41.52616560000001], [-4.79616999000001, 41.52627008000002], [-4.798651940000013, 41.52630334000003], [-4.800347170000009, 41.526925319999975], [-4.802903249999986, 41.526173719999974], [-4.804716770000027, 41.525875059999976], [-4.807025469999985, 41.52571270999999], [-4.808155129999989, 41.52582104999999], [-4.8113069500000165, 41.52580747000002], [-4.812597129999972, 41.52608436999998], [-4.813404359999993, 41.52447417000002], [-4.813477330000012, 41.52446906], [-4.813880499999982, 41.52444287999998], [-4.814160270000002, 41.52450421999998], [-4.814569660000018, 41.52470041999999], [-4.814927179999984, 41.52488482000001], [-4.81525283000002, 41.52495804], [-4.815539720000004, 41.52501655999998], [-4.815841649999982, 41.52514149000001], [-4.816135889999998, 41.52524853], [-4.816376890000015, 41.52533749999998], [-4.816551039999979, 41.52539329000001], [-4.816719990000024, 41.52552032], [-4.816894139999988, 41.52557611999998], [-4.817209699999978, 41.52558823999999], [-4.817536410000002, 41.52557046999999], [-4.817746629999988, 41.525630190000015], [-4.817950380000013, 41.525672910000026], [-4.8182184600000255, 41.52565876], [-4.8183961299999964, 41.52562623], [-4.818635340000014, 41.525565700000016], [-4.818948799999987, 41.525630999999976], [-4.819198579999977, 41.525690999999995], [-4.819521699999996, 41.525716509999995], [-4.819807350000019, 41.52577323999998], [-4.8201245999999855, 41.525845670000024], [-4.820448699999986, 41.525948630000016], [-4.820795739999994, 41.526057519999995], [-4.821065050000016, 41.52617305000001], [-4.821312180000007, 41.526351980000015], [-4.8215357799999765, 41.52654659000001], [-4.821697939999979, 41.52664490000001], [-4.82190485000001, 41.526714570000024], [-4.8221123600000055, 41.52676262], [-4.822383849999994, 41.52678443999997], [-4.822693029999982, 41.526825480000014], [-4.822936470000002, 41.52687295999999], [-4.823201170000004, 41.526951629999985], [-4.823411959999987, 41.52703115000003], [-4.82354042999998, 41.52712458000002], [-4.823655850000023, 41.527222730000005], [-4.82376026999998, 41.527270610000016], [-4.823847059999991, 41.527288150000004], [-4.823912600000028, 41.527274499999976], [-4.823997089999978, 41.52721011], [-4.824195229999987, 41.52722318000002], [-4.824501409999982, 41.52724264], [-4.824872540000001, 41.527270079999994], [-4.825310030000026, 41.52727033999997], [-4.825597739999978, 41.52727207999999], [-4.825788950000003, 41.52725192999998], [-4.82606149999998, 41.527183649999984], [-4.826211510000007, 41.52719028000001], [-4.826440789999992, 41.52724518000002], [-4.826779600000009, 41.52727401999999], [-4.82709921999998, 41.52730227000001], [-4.827352099999985, 41.52734419000001], [-4.8275758600000245, 41.52741629000002], [-4.827770110000017, 41.527504169999986], [-4.827932190000013, 41.52759887000002], [-4.828042449999998, 41.52764124999999], [-4.828238220000003, 41.52765525000001], [-4.828526640000007, 41.52763986000002], [-4.828818730000023, 41.52766944000001], [-4.829088669999976, 41.52772098999998], [-4.8292721400000005, 41.52776670999998], [-4.829420340000013, 41.527751739999985], [-4.829607199999998, 41.52770463000002], [-4.8298158700000045, 41.527794089999986], [-4.830019199999981, 41.527863809999985], [-4.83031526000002, 41.527991499999985], [-4.830695919999982, 41.52810162999998], [-4.830976000000021, 41.52817282000001], [-4.83128929999998, 41.52823178], [-4.831633669999974, 41.52824521000002], [-4.831997779999995, 41.52823581000001], [-4.832314230000009, 41.52819383999997], [-4.832858199999976, 41.52818696999998], [-4.832871179999984, 41.528647019999994], [-4.832796449999989, 41.52914178999998], [-4.832770989999972, 41.52930162000001], [-4.832571389999998, 41.529916370000024], [-4.832408729999997, 41.530141430000015], [-4.8320913800000085, 41.53070401999997], [-4.831963459999997, 41.53092852999998], [-4.831421840000019, 41.53186936999998], [-4.831414240000015, 41.53189742000001], [-4.831364300000018, 41.53271963999998], [-4.831339930000013, 41.53296052000002], [-4.831263030000002, 41.533081530000004], [-4.831285809999997, 41.53316674000001], [-4.8313360399999965, 41.53329022999998], [-4.8314128100000175, 41.533461939999995], [-4.8322257799999875, 41.53415063], [-4.832576940000024, 41.534743090000006], [-4.833625620000021, 41.53571262999998], [-4.834286850000012, 41.53645956999998], [-4.835481420000008, 41.537498819999996], [-4.836853510000026, 41.538709960000006], [-4.838068099999987, 41.539437220000025], [-4.839104469999995, 41.54000880000001], [-4.839894500000014, 41.54060141999997], [-4.8413631500000065, 41.54140745000001], [-4.842281819999982, 41.541926839999974], [-4.843221669999991, 41.542516139999975], [-4.845207490000007, 41.54379929999999], [-4.8466576100000225, 41.544960419999995], [-4.848588170000028, 41.546234500000025], [-4.8500055800000155, 41.547169139999994], [-4.851218459999984, 41.547783700000025], [-4.852523029999986, 41.54871112000001], [-4.854707650000023, 41.54951084999999], [-4.855742109999994, 41.54996252000001], [-4.857117280000011, 41.550671679999994], [-4.858488439999974, 41.55157453999999], [-4.85939559000002, 41.55226780999999], [-4.862018669999998, 41.553965500000004], [-4.862459769999987, 41.55424388], [-4.861787619999973, 41.55461058999998], [-4.86051808000002, 41.55587042000002], [-4.8569616799999835, 41.55772024999999], [-4.8543092400000205, 41.558897909999985], [-4.85042107999999, 41.560059379999984], [-4.848216229999991, 41.560959500000024], [-4.847335890000011, 41.56120781999999], [-4.844787849999989, 41.561428869999986], [-4.8430867700000135, 41.561492190000024], [-4.84263661, 41.561265219999996], [-4.841150500000026, 41.560874720000015], [-4.84011658999998, 41.560783189999995], [-4.837542779999978, 41.56094144000002], [-4.835632299999986, 41.56123315999997], [-4.833276259999991, 41.56145989999999], [-4.831969449999974, 41.561471719999986], [-4.830034959999978, 41.561763729999996], [-4.828608210000027, 41.56220074999999], [-4.827511940000022, 41.56287567999999], [-4.826704419999999, 41.56315871999999], [-4.826174120000019, 41.563491390000024], [-4.825148800000022, 41.563705819999996], [-4.824427280000009, 41.56363621000003], [-4.823625240000013, 41.56326164000001], [-4.822373719999973, 41.56225470999999], [-4.821379060000027, 41.56227947999997], [-4.819415830000025, 41.561977309999975], [-4.8183462200000235, 41.56189515], [-4.817583590000027, 41.562069339999994], [-4.816956860000005, 41.56238547999999], [-4.816463989999988, 41.56277154999998], [-4.815976550000016, 41.56292336000001], [-4.814809459999992, 41.56364432999999], [-4.8144366999999875, 41.56403749999998], [-4.813919670000018, 41.56484726999997], [-4.812807109999994, 41.56623386000001], [-4.811912880000023, 41.56685141999998], [-4.810923409999987, 41.56706516000003], [-4.809038100000009, 41.56741008], [-4.807224650000023, 41.56732151], [-4.805824770000015, 41.56701025000001], [-4.805095719999997, 41.566670439999996], [-4.803836209999986, 41.56623085000001], [-4.80279975000002, 41.56604895999999], [-4.801322990000017, 41.56599104999998], [-4.800345730000004, 41.56578117999999], [-4.799281819999976, 41.56504125999999], [-4.798916550000001, 41.56514606000002], [-4.797947889999989, 41.56469642000002], [-4.797348100000022, 41.56441991999998], [-4.79650134000002, 41.56402553999999], [-4.795548619999977, 41.56374770000002], [-4.793317269999989, 41.56372128999999], [-4.7927987200000075, 41.56501429000002], [-4.792217689999973, 41.56646121], [-4.791969470000026, 41.56746124], [-4.791776560000017, 41.56807580999998], [-4.791651860000002, 41.56890910999999], [-4.791469029999973, 41.569776649999994], [-4.7908162400000265, 41.57195471], [-4.790611669999976, 41.57253883999999], [-4.790007460000027, 41.57346245000002], [-4.789676100000008, 41.573842290000016], [-4.789503649999972, 41.574199850000014], [-4.78921446999999, 41.574587140000006], [-4.787994760000004, 41.57554914000002], [-4.785699210000018, 41.57568930000002], [-4.78544955000001, 41.57664144], [-4.785271000000023, 41.57756307], [-4.7845453499999735, 41.578457230000026], [-4.783957520000001, 41.57917587999998], [-4.783588430000009, 41.579725010000004], [-4.783182889999978, 41.58032006000002], [-4.783049220000009, 41.58066083], [-4.783026409999991, 41.58071832000002], [-4.782996780000019, 41.58079465999998], [-4.782840959999987, 41.58119091999998], [-4.782195150000007, 41.582004340000026], [-4.781085659999974, 41.58312523000001], [-4.780652359999976, 41.583522819999985], [-4.780056349999995, 41.58406131999999], [-4.779290890000027, 41.585194530000024], [-4.778096000000005, 41.58699130000002], [-4.777289499999995, 41.588267289999976], [-4.776262389999999, 41.58981490999997], [-4.776111679999985, 41.59004119000002], [-4.776092459999973, 41.590070190000006], [-4.776087229999973, 41.59007803999998], [-4.776078059999975, 41.590090239999995], [-4.776045189999991, 41.59013436999999], [-4.775698690000013, 41.590593049999995], [-4.775368539999988, 41.59104027000001], [-4.775120150000021, 41.59191507000003], [-4.7748942200000215, 41.59269044000001], [-4.7784399299999905, 41.59086488999998], [-4.7782510399999865, 41.59067055999998], [-4.779563300000007, 41.58996122999997], [-4.781194439999979, 41.58928746999999], [-4.782355999999993, 41.588902889999986], [-4.783414189999974, 41.58855502], [-4.784422119999988, 41.588343029999976], [-4.785770850000006, 41.58811578000001], [-4.786080790000028, 41.58806236999999], [-4.786418140000023, 41.58833184000002], [-4.786625599999979, 41.58832861000002], [-4.787917719999996, 41.58889486999999], [-4.788614419999988, 41.58913991999998], [-4.788891490000026, 41.58923714000002], [-4.7891286099999775, 41.589320610000016], [-4.78950537999998, 41.58945381000001], [-4.789780860000008, 41.58955627], [-4.790312099999994, 41.589753770000016], [-4.789599389999978, 41.59022963000001], [-4.7891736000000265, 41.59080087000001], [-4.788890200000026, 41.59118097999999], [-4.78885729000001, 41.59185789999998], [-4.790128460000005, 41.59353048999998], [-4.790427560000012, 41.59402116000001], [-4.790987140000027, 41.595123030000025], [-4.791302120000012, 41.59604760000002], [-4.791646080000021, 41.596912110000005], [-4.792516550000016, 41.599229709999975], [-4.792416639999999, 41.599305130000005], [-4.792730950000021, 41.599997959999996], [-4.7933729000000085, 41.601222940000014], [-4.793625010000028, 41.601691089999974], [-4.7939153099999885, 41.60155775999999], [-4.794697489999976, 41.602460640000004], [-4.79506686000002, 41.60227923999997], [-4.7976220699999885, 41.605928500000005], [-4.79709416999998, 41.606019609999976], [-4.797013870000001, 41.60641691000001], [-4.796989929999995, 41.606544540000016], [-4.797133120000012, 41.60694760000001], [-4.792849960000012, 41.6074198], [-4.7909261400000105, 41.60771999999997], [-4.789101759999994, 41.608144719999984], [-4.783881249999979, 41.609883120000006], [-4.7827003300000115, 41.61014462000003], [-4.7796445399999925, 41.611182729999996], [-4.778107620000014, 41.612467460000005], [-4.774217089999979, 41.61633745], [-4.772126650000018, 41.618017940000016], [-4.771111169999983, 41.61906936999998], [-4.770217800000012, 41.619758639999986], [-4.7696951099999865, 41.62039715999998], [-4.767158230000007, 41.62156205000002], [-4.7645056599999975, 41.622449440000025], [-4.762517870000011, 41.62311040999998], [-4.762692689999994, 41.62340315], [-4.762788080000007, 41.62373223999998], [-4.762814649999996, 41.62400293000002], [-4.76168868000002, 41.62439939000001], [-4.761892670000009, 41.62472674000003], [-4.76212916999998, 41.62510326], [-4.762269189999984, 41.62499933999999], [-4.762382059999993, 41.625176839999995], [-4.762778400000002, 41.625184279999985], [-4.762883569999985, 41.62516735000003], [-4.763148829999977, 41.62511282000003], [-4.764358399999992, 41.624842090000016], [-4.764465680000001, 41.62477018999999], [-4.765048019999995, 41.62473153000002], [-4.765443249999976, 41.624786700000016], [-4.765658770000016, 41.62485454], [-4.765725729999986, 41.624888639999995], [-4.7658054099999845, 41.62486130000002], [-4.766021899999998, 41.62501499000001], [-4.766367049999985, 41.62525997], [-4.766622569999981, 41.62544041000001], [-4.766893330000016, 41.625642579999976], [-4.767528040000002, 41.62612242], [-4.767795420000027, 41.62631976], [-4.76820674999999, 41.626604009999994], [-4.769286539999996, 41.62735170000002], [-4.769589119999978, 41.62758617999998], [-4.770127349999996, 41.628260599999976], [-4.770442479999986, 41.62856216], [-4.770860159999984, 41.62895863], [-4.771204809999972, 41.62929329000002], [-4.772183079999991, 41.63055964], [-4.772531590000028, 41.63101203000002], [-4.77292817, 41.63146526000003], [-4.773059559999979, 41.63159674000002], [-4.7731714700000225, 41.63170902000002], [-4.773260359999995, 41.631797989999995], [-4.773287190000019, 41.63182482000002], [-4.773352820000014, 41.631890880000014], [-4.773456060000001, 41.63199044999999], [-4.773876540000003, 41.63238372000001], [-4.77405847, 41.632582660000025], [-4.774538230000019, 41.63331019999998], [-4.774793880000004, 41.63383314999999], [-4.77515575000001, 41.63485793000001], [-4.775976440000022, 41.63632686], [-4.7760547299999985, 41.63651119000002], [-4.775737370000002, 41.63675927000003], [-4.7753779399999985, 41.637224170000025], [-4.773396769999977, 41.63853370999999], [-4.772573439999974, 41.63915887000002], [-4.770766030000004, 41.64024053000003], [-4.7699367399999915, 41.64064960000002], [-4.768540889999997, 41.64097731999999], [-4.767881330000023, 41.64144680999999], [-4.767181569999991, 41.64176379999998], [-4.76503544000002, 41.642319180000015], [-4.763883990000011, 41.642805210000006], [-4.765317240000002, 41.64384598999999], [-4.7643573700000275, 41.64519373000002], [-4.7641186000000175, 41.64612509], [-4.764307540000004, 41.64732909000003], [-4.764271559999997, 41.64777097000001], [-4.763679029999992, 41.64850059999998], [-4.762938029999987, 41.64907039000002], [-4.762735940000027, 41.649145540000006], [-4.761884210000005, 41.650059279999994], [-4.761415590000013, 41.65093110999999], [-4.761358019999989, 41.65102206], [-4.765134279999984, 41.653422939999984], [-4.766975259999981, 41.654871749999984], [-4.766749179999977, 41.65538860999999], [-4.76668085, 41.65552475999999], [-4.765200450000009, 41.656727390000015], [-4.763866710000002, 41.65714415999997], [-4.761320710000007, 41.65847117999999], [-4.762422319999985, 41.66011151999999], [-4.762024960000019, 41.66139657000002], [-4.76156168, 41.66290779000002], [-4.761599180000019, 41.663402580000024], [-4.763986160000002, 41.66284357000001], [-4.767059949999975, 41.66500298], [-4.769751110000016, 41.66502460999999], [-4.771968179999988, 41.665278650000005], [-4.77532887000001, 41.66474942000002], [-4.7764724400000205, 41.664839830000005], [-4.781211439999993, 41.66464036999997], [-4.78399773000001, 41.66680378000001], [-4.784047250000015, 41.666857049999976], [-4.784642459999986, 41.66753231000001], [-4.785835669999983, 41.66724356999998], [-4.787384169999996, 41.66807512999998], [-4.788111809999975, 41.66832499999998], [-4.788455180000028, 41.66901317000003], [-4.791848780000009, 41.67096879000002], [-4.793162800000005, 41.67200207000002], [-4.7931034599999975, 41.67332698000001], [-4.791993750000017, 41.67316416], [-4.791468880000025, 41.67373076000001], [-4.7932389599999965, 41.676044880000006], [-4.792652750000002, 41.67743204999999], [-4.791178390000027, 41.67841876], [-4.791654940000001, 41.679140870000026], [-4.791852779999999, 41.680209579999996], [-4.7894922699999825, 41.68000318999998], [-4.787815790000025, 41.67976809999999], [-4.787153139999987, 41.68100332], [-4.786763940000014, 41.682135200000005], [-4.78652975, 41.68409329000002], [-4.789961699999992, 41.68523776000001], [-4.7915885900000035, 41.68454591], [-4.793163359999994, 41.68544001999999], [-4.792680659999974, 41.686663450000026], [-4.792398129999981, 41.687739650000026], [-4.7934955900000205, 41.687452329999985], [-4.794292030000008, 41.687142670000014], [-4.795167789999994, 41.686660640000014], [-4.796144860000027, 41.68636615999998], [-4.797371909999981, 41.686419030000025], [-4.797683959999972, 41.68726978000001], [-4.798588250000023, 41.68738171000001], [-4.799558359999992, 41.687699769999995], [-4.8002162399999975, 41.68845503], [-4.800892680000004, 41.689444159999994], [-4.802544640000008, 41.68922011000001], [-4.803491909999991, 41.68871888000001], [-4.804040439999994, 41.68899848000001], [-4.8049113600000055, 41.688345330000004], [-4.805886659999999, 41.68798774999999], [-4.806573109999988, 41.68718437000001], [-4.80739484999998, 41.687351579999984], [-4.808187780000026, 41.68734810000001], [-4.809184449999975, 41.68646776999998], [-4.810401060000004, 41.68786265], [-4.808670399999983, 41.688277200000016], [-4.807981439999992, 41.68899055999998], [-4.8056473099999835, 41.69017112], [-4.803503019999994, 41.691267589999995], [-4.800799559999973, 41.69170629000001], [-4.800727989999984, 41.69172542000001], [-4.800488770000015, 41.69176520000002], [-4.794636060000016, 41.69303666000002], [-4.793265990000009, 41.69346335], [-4.793770470000027, 41.69388779000002], [-4.793265469999994, 41.694309980000014], [-4.793997180000019, 41.69512716999998], [-4.7919809200000145, 41.69565399999999], [-4.792671089999999, 41.696273700000006], [-4.795645340000021, 41.69778539999999], [-4.796431910000024, 41.698412570000016], [-4.797226739999985, 41.69847219000002], [-4.799306720000004, 41.702816859999984], [-4.799626129999979, 41.703496359999974], [-4.815757459999986, 41.737314509999976], [-4.817109159999973, 41.736635639999975], [-4.82167665999998, 41.73571664999997], [-4.823049910000009, 41.735802939999985], [-4.824021990000006, 41.735310149999975], [-4.825180199999977, 41.73502155], [-4.829911879999997, 41.73438784000001], [-4.831724950000023, 41.73387257000002], [-4.832414089999986, 41.73315905999999], [-4.834008229999995, 41.7329805], [-4.836250000000007, 41.73189990999998], [-4.8375912700000185, 41.730023089999975], [-4.838132040000005, 41.72959113000002], [-4.8388561500000264, 41.72926431000002], [-4.8435254799999825, 41.726469450000025], [-4.844757340000001, 41.72624251000002], [-4.846059910000008, 41.72554609000002], [-4.850144220000004, 41.72375109000001], [-4.851113699999985, 41.72276276000002], [-4.851943000000006, 41.72317270000002], [-4.854292209999983, 41.722504360000016], [-4.855868320000013, 41.72212766000001], [-4.856684159999986, 41.72206944999999], [-4.858087169999976, 41.722361999999976], [-4.85899483999998, 41.72298678999999], [-4.861610939999991, 41.72407027000003], [-4.862036999999987, 41.72425249999998], [-4.863816209999982, 41.72507927999999], [-4.865918860000022, 41.726279060000024], [-4.867508729999997, 41.72762223000001], [-4.869004619999998, 41.729038960000025], [-4.871117159999983, 41.73140031999998], [-4.875026199999979, 41.730616080000004], [-4.8780327399999805, 41.729810429999986], [-4.880004680000013, 41.729399909999984], [-4.883022849999975, 41.72858494000002], [-4.894476839999982, 41.724343739999995], [-4.896020770000007, 41.723696829999994], [-4.897356580000007, 41.72333254], [-4.898242200000027, 41.72278653000001], [-4.9009465999999975, 41.72194925000002], [-4.902815110000006, 41.72130589], [-4.904638970000008, 41.72078032000002], [-4.907207009999979, 41.71981004999998], [-4.908881730000019, 41.71953006000001], [-4.909849909999991, 41.71974813999998], [-4.910285680000015, 41.71944367999998], [-4.913520500000004, 41.71826404000001], [-4.915069650000021, 41.71780590999998], [-4.917052119999994, 41.717367560000014], [-4.919104819999973, 41.71727025000001], [-4.919379509999999, 41.71922907999999], [-4.920131439999977, 41.72187343000002], [-4.92029045999999, 41.72317671000002], [-4.920788089999974, 41.72454637999999], [-4.920424749999995, 41.72526396000001], [-4.919484539999985, 41.73083666000002], [-4.919690580000008, 41.732103129999985], [-4.916386989999978, 41.73179802999999], [-4.913028950000012, 41.73127757999998], [-4.909635200000025, 41.73036134], [-4.90587008, 41.72908189999998], [-4.90505804999998, 41.73049136999998], [-4.903549469999973, 41.731930379999994], [-4.8993379300000015, 41.73753906000002], [-4.89657262999998, 41.74000748999998], [-4.894780609999998, 41.74204550000002], [-4.892250069999989, 41.74432982000002], [-4.889685390000011, 41.74750628999999], [-4.889197780000018, 41.748514030000024], [-4.888584770000023, 41.749757999999986], [-4.8885718099999735, 41.75013648999999], [-4.888471059999972, 41.75244379999998], [-4.886825199999976, 41.75702812999998], [-4.8866248699999915, 41.75758080999998], [-4.886602670000002, 41.757644219999975], [-4.886263110000016, 41.75960421000002], [-4.885405699999978, 41.760311779999995], [-4.88492180999998, 41.76227412999998], [-4.885969830000022, 41.76273427000001], [-4.8867810899999995, 41.76332437999997], [-4.888137289999975, 41.763626320000014], [-4.889148490000025, 41.76406001999999], [-4.891362430000015, 41.76612209000001], [-4.892082739999978, 41.76729906999998], [-4.893187360000013, 41.76845171000002], [-4.8943224099999725, 41.76981998000002], [-4.896453860000008, 41.77192833999999], [-4.897916570000007, 41.77257064999998], [-4.899370729999987, 41.77333017000001], [-4.9002188499999875, 41.773937579999995], [-4.901767679999978, 41.77464146], [-4.903684569999996, 41.77517710000001], [-4.905280740000023, 41.77625841999998], [-4.90946636000001, 41.77782807], [-4.911542129999987, 41.77844200999999], [-4.912586060000024, 41.77915415000001], [-4.912681770000006, 41.780350399999975], [-4.913543220000008, 41.78180409999999], [-4.914859369999988, 41.783574439999995], [-4.916278219999981, 41.78515391000002], [-4.919019690000027, 41.788710700000024], [-4.920475380000028, 41.79030750999999], [-4.9219322899999725, 41.792345599999976], [-4.92236059999999, 41.79419374999998], [-4.922974420000003, 41.79580462000001], [-4.923405109999976, 41.79853535000001], [-4.9239915399999745, 41.79922801999999], [-4.9252422600000045, 41.79959434], [-4.927101419999985, 41.79977931000002], [-4.928180339999983, 41.80043667000001], [-4.925968730000022, 41.80214897000002], [-4.9223515300000145, 41.80274996000003], [-4.916766540000026, 41.803969110000025], [-4.913461009999992, 41.801700589999996], [-4.910168810000016, 41.80068363999999], [-4.908689840000022, 41.80032996], [-4.906832300000019, 41.80019870000001], [-4.900565159999985, 41.799519069999974], [-4.895642389999978, 41.79870883000001], [-4.893338340000014, 41.798945], [-4.891186300000015, 41.798620210000024], [-4.889417789999982, 41.79864932999999], [-4.887636330000021, 41.79905690999999], [-4.885579029999974, 41.79991030000002], [-4.877454689999979, 41.80528521000002], [-4.8767491199999995, 41.806269439999994], [-4.876636729999973, 41.80695577], [-4.876758479999978, 41.80782740000001], [-4.87729926999998, 41.80862013000001], [-4.8768969899999774, 41.80886088], [-4.875954770000021, 41.80875019000001], [-4.8746662300000025, 41.80873522000002], [-4.872937499999978, 41.80931283000001], [-4.871456420000015, 41.80930095999997], [-4.870062720000021, 41.809395730000006], [-4.869990789999974, 41.80940591000001], [-4.868666399999995, 41.80981474999999], [-4.867634969999983, 41.81036291999999], [-4.865757809999991, 41.81080773999997], [-4.86331770999999, 41.81093744999998], [-4.860961519999989, 41.81147103000001], [-4.860047469999984, 41.81191815], [-4.8568365500000255, 41.81412268999998], [-4.854282370000021, 41.81489349999998], [-4.851326330000006, 41.81550863000001], [-4.850681199999997, 41.81359164999998], [-4.850709230000007, 41.812474399999985], [-4.851080990000014, 41.81033387000002], [-4.851644379999982, 41.80857751999997], [-4.85233427999998, 41.80703528999999], [-4.853252150000003, 41.80588566], [-4.853617980000024, 41.805213270000024], [-4.854160229999991, 41.802727730000015], [-4.853687229999991, 41.80093406999998], [-4.852959300000009, 41.797811560000014], [-4.852371880000021, 41.79371407999997], [-4.851729550000016, 41.79188712000001], [-4.851427039999976, 41.789739440000005], [-4.851276919999975, 41.78786851000001], [-4.851254589999996, 41.78541910000001], [-4.851463079999974, 41.78220941000001], [-4.849998400000004, 41.78107118999998], [-4.847923999999978, 41.77923124], [-4.839849479999998, 41.78005445000002], [-4.836889450000001, 41.78005682000003], [-4.83371803, 41.77981932], [-4.83130435999999, 41.77999295000001], [-4.825649300000009, 41.78170420999999], [-4.824668859999974, 41.78235025999999], [-4.824887849999982, 41.78328346000001], [-4.825384020000001, 41.784230260000015], [-4.826001700000006, 41.78649008999997], [-4.826415769999983, 41.787086939999995], [-4.826010580000002, 41.788075100000015], [-4.825824880000027, 41.790861070000005], [-4.825757049999993, 41.791015259999995], [-4.825179810000009, 41.79230337000001], [-4.823557470000026, 41.79366212999997], [-4.822176979999995, 41.79463874999999], [-4.82080843, 41.796038469999985], [-4.819330009999987, 41.79738587000003], [-4.818199740000011, 41.79827741999998], [-4.814611850000006, 41.79994636999999], [-4.8126664800000185, 41.80053551999998], [-4.8079005399999915, 41.80526708000002], [-4.806021629999975, 41.80694485999999], [-4.80388868, 41.80858157], [-4.800600169999996, 41.81022737000001], [-4.79871780000002, 41.810932390000005], [-4.796714329999986, 41.812044560000004], [-4.794359620000023, 41.813945750000016], [-4.792970200000013, 41.814201630000014], [-4.791904190000025, 41.814830719999975], [-4.790796549999982, 41.81526230999998], [-4.790214890000016, 41.81599189999997], [-4.789248100000009, 41.81802443999999], [-4.787344829999995, 41.81842336], [-4.783681590000015, 41.81961517000002], [-4.780636370000025, 41.820085759999984], [-4.776380430000017, 41.821187459999976], [-4.772414679999997, 41.82233855999999], [-4.77008828999999, 41.82312200000001], [-4.769236379999995, 41.82585512000003], [-4.767103550000002, 41.82623923], [-4.762686640000027, 41.82632516000001], [-4.760320569999976, 41.82610928999998], [-4.7584212200000024, 41.82578713999999], [-4.756981730000007, 41.829510889999995], [-4.755363690000024, 41.83243576000001], [-4.75445277, 41.83347644000003], [-4.754394549999972, 41.83354938000002], [-4.751366029999986, 41.837315339999975], [-4.748057829999993, 41.84055409000001], [-4.743171899999993, 41.84336639000003], [-4.739400400000022, 41.84598146000002], [-4.732962569999984, 41.850239810000005], [-4.7308362800000054, 41.85135266999998], [-4.726440070000024, 41.85451710000001], [-4.72968972000001, 41.857980740000016], [-4.731598329999997, 41.860401749999994], [-4.732298119999996, 41.8617782], [-4.732216590000007, 41.862328830000024], [-4.731443099999979, 41.86536668999997], [-4.72910717000002, 41.86766253000002], [-4.728246899999988, 41.868828310000026], [-4.725833990000012, 41.87006246999999], [-4.718802349999976, 41.873419309999974], [-4.717295659999991, 41.87430647999997], [-4.71375783000002, 41.877655730000015], [-4.707327109999994, 41.88236288000002], [-4.70109395999998, 41.8872829], [-4.699791409999989, 41.887707490000025], [-4.698149569999998, 41.88806502], [-4.693865159999973, 41.88922710999998], [-4.691488800000002, 41.890072729999986], [-4.689976790000003, 41.89032916000002], [-4.687613049999982, 41.89074219999998], [-4.686137389999999, 41.89100705999999], [-4.685104480000007, 41.891607650000026], [-4.683735379999973, 41.893176840000024], [-4.679810599999996, 41.89658472999997], [-4.677907020000021, 41.898008559999994], [-4.678377609999984, 41.89986601999999], [-4.6768551399999865, 41.90019448999999], [-4.67368522999999, 41.90022271999999], [-4.67162940999998, 41.90044180000001], [-4.669678060000024, 41.90050622000001], [-4.666589299999998, 41.89994766000001], [-4.6647685300000035, 41.899469710000005], [-4.663112060000003, 41.89881823000002], [-4.658430889999977, 41.89681445000002], [-4.66088074999999, 41.90249813999998], [-4.65926343000001, 41.901963120000005], [-4.658741710000015, 41.901835559999995], [-4.65371983, 41.90064709000001], [-4.644637380000006, 41.89906631000002], [-4.643050479999999, 41.90017879999999], [-4.642204199999981, 41.90149685], [-4.641791930000011, 41.903286019999996], [-4.641797129999986, 41.90442976999998], [-4.641487359999985, 41.90551497000001], [-4.639746290000005, 41.908620050000025], [-4.639249609999979, 41.909942090000015], [-4.639062609999996, 41.91111559000001], [-4.638735870000005, 41.912011889999974], [-4.637987469999985, 41.91292321999998], [-4.6373987499999885, 41.91394933999999], [-4.637379710000005, 41.914147749999984], [-4.637294469999972, 41.915058620000025], [-4.6374428799999805, 41.91614628000002], [-4.637484019999988, 41.916812170000014], [-4.637583829999983, 41.91882819], [-4.637503429999981, 41.91992812000001], [-4.635940189999985, 41.92010350999999], [-4.634274160000018, 41.919559830000026], [-4.633402520000004, 41.91942812999997], [-4.6313835899999845, 41.92017735000002], [-4.62927449, 41.92070265000001], [-4.627135160000023, 41.92146248], [-4.625980430000027, 41.92205524000002], [-4.625152790000016, 41.92270640999999], [-4.624379690000012, 41.92313164000001], [-4.623266969999975, 41.923480600000005], [-4.62072581000001, 41.925047570000004], [-4.619769770000005, 41.925394289999986], [-4.614303899999982, 41.929118819999985], [-4.613631189999978, 41.929704679999986], [-4.612799689999974, 41.93021170999998], [-4.611417130000007, 41.93134791], [-4.609905609999998, 41.929756940000004], [-4.607014349999986, 41.92749177000002], [-4.606121879999989, 41.92653154999999], [-4.605235219999997, 41.92628275999999], [-4.604645679999976, 41.925858679999976]]], [[[-4.889249080000013, 41.62089913], [-4.8878758000000175, 41.61908433000002], [-4.890871899999979, 41.617693110000005], [-4.891468850000024, 41.617584220000026], [-4.895870380000019, 41.617466690000015], [-4.900077850000002, 41.62014426000002], [-4.902464889999976, 41.61845656999998], [-4.90266459999998, 41.618309160000024], [-4.901698699999997, 41.61729838000002], [-4.901327429999981, 41.61691724000002], [-4.900779329999978, 41.615827490000015], [-4.900679019999984, 41.61404584000002], [-4.901015710000024, 41.61406728999998], [-4.902351780000004, 41.614198310000006], [-4.903978849999987, 41.61483786000002], [-4.909107140000003, 41.616581180000026], [-4.913185250000026, 41.619332480000025], [-4.912859649999973, 41.62049975000002], [-4.91280703000001, 41.621968700000025], [-4.913428679999981, 41.62350750000002], [-4.914963759999978, 41.626706309999975], [-4.916255030000002, 41.628963469999974], [-4.914073760000008, 41.63233223999998], [-4.91364544999999, 41.63368135000002], [-4.913432320000027, 41.63499985999999], [-4.913244290000023, 41.63554338], [-4.9115342100000134, 41.63821075999999], [-4.911016679999989, 41.64020081000001], [-4.90846947, 41.64299012999999], [-4.90703443000001, 41.64440996000002], [-4.904422360000012, 41.641336980000005], [-4.90216817999999, 41.63817696000001], [-4.901552460000005, 41.63683615999997], [-4.899417579999977, 41.634457680000025], [-4.89896994999998, 41.633114079999984], [-4.8987425600000165, 41.63191095000002], [-4.897775710000019, 41.630873140000006], [-4.896038320000002, 41.629757970000014], [-4.895316410000021, 41.62847291999998], [-4.895241250000026, 41.62836607999998], [-4.894341230000009, 41.62714699999998], [-4.893159350000019, 41.62613971000002], [-4.892425489999994, 41.62567444000001], [-4.892207840000026, 41.62520968000001], [-4.890635840000016, 41.623173029999975], [-4.889249080000013, 41.62089913]]]]}}]}