{"type":"FeatureCollection","features":[{"type":"Feature","properties":{"OBJECTID":1832,"ZON_CO_ID":18,"ZON_DS_NOM":"Conca de Barberá","CAL_DS_NOM":"D.O.Conca de Barberá","TPR_DS_DES":"Denominación de Origen","TPR_DS_GRU":"CALIDAD DIFERENCIADA","FAM_DS_NOM":"Vinos","classification":"DO","normalizedName":"Conca de Barberá"},"geometry":{"type":"Polygon","coordinates":[[[1.2373098099999993,41.54104646000002],[1.2373640999999793,41.541043609999974],[1.2374431299999742,41.541045740000015],[1.2375138500000276,41.54105356000002],[1.2377136200000223,41.54109765999999],[1.2377831300000253,41.54110485000001],[1.2378426800000284,41.54110362],[1.2379163599999856,41.54109249999999],[1.2381292900000176,41.54105716999999],[1.2382780099999877,41.54102974],[1.238374609999994,41.541015300000026],[1.2384261400000014,41.541009040000006],[1.2384725100000082,41.54101281999999],[1.2385175100000083,41.54102676000002],[1.2385920199999987,41.54104037000002],[1.2387364300000172,41.541051460000006],[1.238863139999978,41.541099040000006],[1.2389856600000257,41.54112082],[1.2390890799999852,41.54112545999999],[1.2392162699999858,41.54112495999999],[1.2393867299999783,41.54112266999999],[1.239476379999985,41.54112404],[1.2395511400000032,41.54113315000001],[1.2396617900000138,41.541171589999976],[1.2397095700000023,41.54118334999998],[1.2398150399999963,41.54120273000001],[1.2399158700000044,41.541212229999985],[1.2400648099999785,41.54122186000001],[1.240212320000012,41.54122411999998],[1.2403226199999722,41.54121538999999],[1.240452829999981,41.54119410999999],[1.240609710000001,41.541156390000026],[1.240681240000015,41.541129309999974],[1.240726900000027,41.54110478000001],[1.2408249100000148,41.541070830000024],[1.2409272300000111,41.54104896000001],[1.241038049999986,41.54103667999999],[1.2411983100000157,41.54102732000001],[1.2460656800000152,41.54148614000002],[1.2468118599999798,41.54135047],[1.2473949500000003,41.54110379000002],[1.2478424000000246,41.54079909000001],[1.248879219999992,41.54052660000002],[1.2504699599999753,41.5404767],[1.2510642299999972,41.54040065999999],[1.251912090000019,41.54017116],[1.2547268199999735,41.53904935999998],[1.255636519999996,41.53848438],[1.2561698000000092,41.538392569999985],[1.256890090000013,41.538410880000015],[1.258757639999999,41.538926860000004],[1.2593744600000036,41.53901201999997],[1.2623733400000106,41.53905372000003],[1.2629644599999779,41.53911278999999],[1.263519859999974,41.53899310000003],[1.264235680000013,41.53857932],[1.2651193099999887,41.53834838],[1.2653394999999819,41.538052059999984],[1.265717460000019,41.53778589000001],[1.2666332599999919,41.53767979999998],[1.2671504099999993,41.537525500000015],[1.2674733200000219,41.537333409999974],[1.2676283999999782,41.53695847],[1.2675208499999826,41.53605305000002],[1.2678527499999745,41.53581559999998],[1.26848351000001,41.53556702999998],[1.2704489100000274,41.535385829999996],[1.270834530000002,41.53523641999999],[1.2711587200000167,41.53488219000002],[1.271330569999975,41.53439857000001],[1.2723741500000187,41.53441373999999],[1.2727075700000228,41.53456339000002],[1.2730219300000272,41.534605709999994],[1.2731554299999743,41.534267580000005],[1.2727991500000257,41.53340745000003],[1.2732168000000001,41.53265355000002],[1.2737130599999773,41.53236493999998],[1.2745940899999937,41.53227808999998],[1.2753536999999824,41.53234882999999],[1.2796449499999767,41.53363851],[1.280226359999972,41.53391395],[1.2813416999999845,41.535015869999995],[1.285215619999974,41.534520069999985],[1.2855504099999848,41.53432748],[1.2857771000000184,41.53394983999999],[1.2863378399999874,41.53228113],[1.2867259299999887,41.53180742000001],[1.2868587500000217,41.53146029999999],[1.2867352100000176,41.53104172000002],[1.2871876599999723,41.53099780000002],[1.2882388900000024,41.53112958999998],[1.2887606900000037,41.531047049999984],[1.2923751199999742,41.52989441],[1.2933432699999798,41.53003826999998],[1.2938602899999978,41.529883849999976],[1.2947449200000278,41.52949057000001],[1.295283999999981,41.52948839999999],[1.2957214499999736,41.52958007000001],[1.296316030000014,41.529872950000026],[1.2968453899999872,41.530447400000014],[1.3002780300000154,41.52890513],[1.3012504499999977,41.52857153999997],[1.3034828099999913,41.52736231],[1.3043655899999749,41.52676193000002],[1.3047648699999854,41.52627873],[1.3059637299999736,41.52592759999999],[1.3073370299999851,41.52585804],[1.308254350000027,41.525958660000015],[1.3107493200000135,41.52654024999998],[1.312554089999992,41.526832590000026],[1.3136136599999872,41.52690981000001],[1.3148142599999915,41.527125780000006],[1.3196368499999949,41.52415303999999],[1.3242899599999873,41.52169973000002],[1.3278373800000054,41.51991822000002],[1.3309335199999737,41.51837874],[1.3300395800000047,41.51826842000003],[1.3295023599999922,41.51811760999999],[1.3284565100000236,41.51734670000002],[1.3275237700000275,41.51737287999998],[1.3273420200000032,41.51680347000001],[1.3256926899999826,41.51578516000001],[1.3255031400000234,41.514918910000006],[1.3258131299999718,41.514177889999985],[1.3244209200000228,41.51396024000002],[1.3239642400000093,41.51250077999998],[1.3240710700000022,41.51158733],[1.3238875900000266,41.51117104999997],[1.3235750299999722,41.51043549000002],[1.3251820400000156,41.50920438000003],[1.3253838399999722,41.50827836000002],[1.3250993600000243,41.50760475999999],[1.3245742199999881,41.50763355999999],[1.3240394700000024,41.50733857],[1.323707239999976,41.506846859999996],[1.323327689999985,41.50528544000002],[1.323424999999986,41.50458845000003],[1.3223435900000027,41.503638739999985],[1.3219653900000026,41.503175759999976],[1.3219725399999902,41.50292338000003],[1.3210405599999717,41.50241822999999],[1.3207603100000256,41.50126725000001],[1.320114550000028,41.50146264],[1.319520749999981,41.501539019999996],[1.3188815500000146,41.50147304000001],[1.3183199900000204,41.50113400999999],[1.3181527099999926,41.50060006000001],[1.3178671599999916,41.50008857],[1.3179107700000259,41.500023899999974],[1.318208850000019,41.49964351],[1.3187745600000085,41.49968525000003],[1.3191986599999836,41.499038989999974],[1.320061829999986,41.49869135],[1.319795909999982,41.49739576000002],[1.319471510000028,41.496840710000015],[1.319154229999981,41.495493020000026],[1.3200131099999908,41.494362179999996],[1.3201570499999775,41.49418567999999],[1.319554289999985,41.493226919999984],[1.319635489999996,41.492827680000005],[1.3202446600000144,41.491724239999996],[1.320955959999992,41.49071600000002],[1.3213925000000017,41.48989819000002],[1.3215685700000108,41.48858596000002],[1.322421399999996,41.487905539999986],[1.3233840999999984,41.48725698999999],[1.3243772100000228,41.48634615999998],[1.324421789999974,41.484678710000026],[1.3249843300000066,41.484315349999974],[1.325640720000024,41.480508859999986],[1.325894500000004,41.48036423000002],[1.326796179999974,41.479880030000004],[1.3266760000000204,41.47897513999999],[1.3268992499999968,41.478372449999995],[1.3274991600000021,41.47695418000001],[1.3276979099999835,41.47634341000003],[1.3276810899999987,41.475731759999974],[1.3278768700000114,41.475256160000015],[1.3275142499999788,41.47430638999998],[1.327490790000013,41.47323577999998],[1.3269044699999881,41.469647210000005],[1.3277224000000274,41.469166159999986],[1.3275699800000211,41.468136430000015],[1.3267967300000123,41.46785044000001],[1.3262782900000047,41.46653736000002],[1.32616483999999,41.46645160000003],[1.3256441400000085,41.466003],[1.3245975099999896,41.46610547],[1.3230175799999984,41.46467030000002],[1.3226985000000013,41.461314749999985],[1.322018479999997,41.46098919000002],[1.321257179999975,41.45872179000003],[1.3214081799999917,41.45811282],[1.3223387300000127,41.455547609999996],[1.3208277900000098,41.45478510999999],[1.3189133399999946,41.45389370999999],[1.3187838000000056,41.452124749999996],[1.3200874699999758,41.450490960000025],[1.321277049999992,41.448582310000006],[1.3199083499999915,41.447616349999976],[1.320212749999996,41.44661443000001],[1.3202939099999753,41.44549486],[1.3201548299999786,41.44520295000001],[1.3197292599999741,41.44492183],[1.3191640300000245,41.444699979999996],[1.3181780400000207,41.44282817999999],[1.317687439999986,41.44246844999998],[1.3165886599999794,41.44196051],[1.3142819000000259,41.441642030000025],[1.3137448300000187,41.440581699999996],[1.313143910000008,41.43964082000002],[1.3125448800000186,41.43930315],[1.3113541600000076,41.43863653],[1.3113268700000162,41.43732292999999],[1.310460379999995,41.436887239999976],[1.3088293100000215,41.43701149999998],[1.3080436600000098,41.43508704999999],[1.3075668600000085,41.43493386],[1.3074728000000277,41.433694790000004],[1.3069608700000117,41.43319174999999],[1.3065378900000155,41.43258630999998],[1.3062002799999846,41.43182460999998],[1.3061945900000183,41.430474170000025],[1.3059412599999973,41.42917804000001],[1.304957820000027,41.42932296999999],[1.3041983300000197,41.42869413],[1.3035150000000044,41.42903489999998],[1.3011519300000032,41.42912346000003],[1.3000051199999803,41.42878823000001],[1.2982790500000192,41.42801545999998],[1.2972315600000002,41.42701017000002],[1.292682109999987,41.425874720000024],[1.292077049999989,41.424501669999984],[1.2917466200000263,41.424207869999975],[1.2906216000000086,41.42347554000003],[1.2897885200000019,41.421183540000015],[1.288334270000007,41.42035543999998],[1.287462459999972,41.418199930000014],[1.2855291199999783,41.417542749999996],[1.2833689700000264,41.41816361999997],[1.2820649899999808,41.416708519999986],[1.2820387599999776,41.416673479999986],[1.2711831199999892,41.408199439999976],[1.266858969999987,41.40718962],[1.263154610000015,41.40632771000003],[1.2592377199999873,41.403861759999984],[1.2593681299999844,41.403478740000025],[1.2604201799999828,41.40054928000001],[1.2611504500000024,41.39909948000002],[1.2574804299999869,41.39363479999997],[1.256040750000011,41.39063564000003],[1.2560127799999918,41.39057365000002],[1.2525267199999917,41.38791137999999],[1.2537971300000095,41.38502791000002],[1.240944249999984,41.38429660999998],[1.2386927000000014,41.38001250999997],[1.2399542499999825,41.37882237000002],[1.2402134800000226,41.376192479999986],[1.2393641699999876,41.37544944000001],[1.2378355499999998,41.37528974000003],[1.234734450000019,41.375215019999985],[1.2324088099999813,41.374931549999985],[1.2309533900000247,41.37405769999998],[1.2301274800000215,41.37330472000002],[1.2292377699999975,41.371752679999986],[1.2284702700000025,41.37024115000003],[1.228635919999988,41.36910948000002],[1.2279299300000162,41.36836106999999],[1.2273266199999853,41.36753685000002],[1.2268925999999851,41.36674240999997],[1.2262121599999887,41.3649125],[1.225748440000018,41.36329073000002],[1.226255779999974,41.36134507999998],[1.2255109700000162,41.36110234],[1.2262725799999998,41.360498029999974],[1.226342069999987,41.36027937],[1.2259347400000138,41.357683020000024],[1.2259227100000203,41.35620670999998],[1.2267916700000114,41.35320323000002],[1.225729909999984,41.35138734999998],[1.2244651799999815,41.34754387999999],[1.223821120000025,41.34590171000002],[1.2221426199999996,41.343415110000024],[1.2214896400000157,41.342556650000006],[1.2201182700000004,41.34149045999999],[1.2196028299999853,41.341095180000025],[1.2184449000000086,41.34037231999997],[1.2170904999999834,41.33919741],[1.2169530699999882,41.33836502999998],[1.2160225000000082,41.338201079999976],[1.2157766400000014,41.33735466000002],[1.2153842399999917,41.33682878000002],[1.214721499999996,41.336186759999975],[1.2139015100000279,41.33551447000002],[1.212401639999996,41.33448892000001],[1.211636580000004,41.334111759999985],[1.209608220000007,41.3334117],[1.2094872900000269,41.33338911999999],[1.206818510000005,41.332946590000006],[1.2060412399999905,41.33274992999998],[1.2039879800000222,41.33203268],[1.2033243500000026,41.331930899999975],[1.2006785799999875,41.33073102999998],[1.199110609999991,41.329941940000026],[1.1966781500000252,41.32852707000001],[1.1961129499999856,41.328097490000005],[1.195629829999973,41.32745779999999],[1.1949748299999783,41.32637416],[1.194198340000014,41.32470065000001],[1.1936769600000048,41.32327894000002],[1.1928538799999728,41.322552599999995],[1.1926032200000236,41.322183559999985],[1.1924765300000217,41.321512840000025],[1.1924961099999791,41.32070170999998],[1.1927776300000232,41.31913363000001],[1.1921310399999925,41.31836483000001],[1.1916084499999897,41.31785262],[1.1913520499999777,41.31739374],[1.191109489999974,41.31603389000003],[1.191035109999973,41.31543328999999],[1.1906699499999718,41.315698740000016],[1.1902417499999842,41.31591247],[1.1891160800000193,41.31605258000002],[1.188751869999976,41.31614689999998],[1.1880826500000126,41.316513480000026],[1.1862599599999726,41.318263779999995],[1.1854076600000099,41.319501460000026],[1.1849478699999736,41.319968449999976],[1.1847402800000282,41.32008407000001],[1.18446406999999,41.32024720999999],[1.184100409999985,41.32035050000002],[1.1847456899999997,41.31979572],[1.1847974400000112,41.31929858000001],[1.1842611899999724,41.31931811999999],[1.1836833799999908,41.3198074],[1.1831774699999755,41.320113979999974],[1.1826304499999765,41.32015190999999],[1.1820974799999817,41.32003623999998],[1.1817142500000273,41.31983408000002],[1.1811940200000208,41.31935777000001],[1.1804238000000282,41.31982703],[1.1799869000000172,41.31990596000003],[1.1777685100000213,41.319770559999995],[1.1770855400000073,41.32011055999999],[1.1760059999999726,41.32060003999999],[1.175401690000001,41.32067604000002],[1.1747387899999922,41.32058307],[1.1738701400000195,41.32007435999998],[1.173402650000014,41.31948803],[1.1731130599999915,41.31925543],[1.1725986499999976,41.31812151999998],[1.1722800699999993,41.317808920000004],[1.1718278399999917,41.31708696999999],[1.1715543400000001,41.3171059],[1.1701428700000065,41.317634399999974],[1.1695964300000128,41.31768125000002],[1.1690913499999738,41.31762755],[1.168548670000007,41.317359090000025],[1.1677291799999807,41.317244759999994],[1.1676604200000043,41.317103180000004],[1.1676824099999976,41.31688627],[1.1675336800000196,41.31680161999998],[1.167328800000007,41.31677302999998],[1.1671921099999736,41.31687704000001],[1.1669293799999991,41.316877569999974],[1.1653821799999946,41.316402400000015],[1.1652617600000212,41.316199659999995],[1.1646418799999765,41.31584393999998],[1.164126039999985,41.315808619999984],[1.1634043099999758,41.31591581999999],[1.163009460000012,41.31609221000002],[1.162708909999992,41.316436280000005],[1.1623798400000283,41.31652023999999],[1.1609706300000084,41.316148080000005],[1.1608064499999955,41.31582085000002],[1.160419300000001,41.31555573000003],[1.1597638000000074,41.31539036999999],[1.157326409999996,41.31500136],[1.156989230000022,41.31477043000001],[1.1561103999999887,41.31391077000001],[1.1557720900000277,41.313661869999976],[1.154559919999997,41.313381549999974],[1.154346490000023,41.31321817999998],[1.154081050000002,41.31223726000002],[1.1538550600000121,41.311876240000004],[1.1533277500000167,41.311472089999995],[1.1526790799999844,41.31122540000001],[1.1520276399999716,41.31112288000003],[1.1512066099999743,41.311170559999994],[1.1504701299999738,41.311233189999996],[1.1482449100000167,41.31173679],[1.1470249600000102,41.31170881000003],[1.1467298599999936,41.31157538999997],[1.1465691899999797,41.31130203999999],[1.1458755099999962,41.31034556999998],[1.1449702300000126,41.30944175000002],[1.144643330000008,41.309183399999995],[1.1434641999999826,41.30885675000002],[1.1428389100000231,41.308789260000026],[1.1423991999999998,41.30882313000001],[1.1420372399999792,41.30895325],[1.1415322400000036,41.30889941999999],[1.1410152899999844,41.308656919999976],[1.14093127000001,41.30846184000001],[1.1406696700000225,41.308291180000026],[1.1404392900000175,41.30823644999998],[1.1402146199999947,41.30827156999999],[1.1400586299999986,41.30844827999999],[1.1398027600000091,41.30855654999999],[1.1392212000000086,41.30861353],[1.1385130900000036,41.308558000000005],[1.13651969,41.30763029000002],[1.1364459200000283,41.30759691999998],[1.1357746699999893,41.30736896000002],[1.1353048700000272,41.30730483000002],[1.134534379999991,41.30739560000001],[1.1341457099999843,41.307292529999984],[1.1339646900000275,41.30707393],[1.1339521099999956,41.30630897999998],[1.1337642600000208,41.30598256000002],[1.1334879300000011,41.30576739000003],[1.13280764000001,41.30558475999999],[1.1313347799999747,41.30589887999997],[1.1303878300000179,41.30565379000001],[1.1286766499999885,41.30559825],[1.1278046099999983,41.305782669999985],[1.1268996499999844,41.30544600000002],[1.1265030600000046,41.30540622000001],[1.1252633600000195,41.30563083999999],[1.124852589999989,41.30574465000001],[1.1243266399999925,41.30573651999998],[1.122764669999981,41.30558547999999],[1.1224679399999786,41.30561413999999],[1.1220736000000215,41.305988490000004],[1.1217819600000212,41.30609800000002],[1.1214506100000108,41.30614591],[1.1210279200000173,41.30607103],[1.1202301899999725,41.30610865],[1.1199510299999815,41.306226719999984],[1.1195606699999985,41.30628574999997],[1.1185654999999883,41.30622238000001],[1.1177042099999994,41.30638834000001],[1.1170062900000062,41.30668350000002],[1.1163832899999875,41.3068409],[1.1155367499999898,41.30686222999998],[1.1152734600000258,41.307042749999994],[1.1150810600000227,41.307400830000006],[1.114381929999979,41.30805621000002],[1.1139523699999927,41.30825169000002],[1.1134190099999728,41.30831582000002],[1.1127142999999933,41.30831404000003],[1.1119920300000103,41.308222839999985],[1.1080617200000233,41.30801229000002],[1.1073365699999727,41.30806523000001],[1.1068054599999755,41.30816527000002],[1.1062958699999967,41.30841760999999],[1.1054490700000201,41.30919527999998],[1.1043794199999866,41.30946762999997],[1.1036060199999724,41.309513270000025],[1.1031339099999968,41.30960218000001],[1.1027849000000174,41.30974972000001],[1.102476079999974,41.31015695999997],[1.102500980000002,41.310363180000024],[1.1028175000000147,41.31064902999998],[1.1032469799999944,41.31083180000002],[1.10386428999999,41.310962819999986],[1.1076887300000067,41.31309532],[1.1078514999999811,41.31340467000001],[1.1077855999999997,41.31368616999998],[1.107611889999987,41.313962530000026],[1.107279310000024,41.314181529999985],[1.106844609999996,41.31429613],[1.1061249399999724,41.31481711999999],[1.1058916800000134,41.314906510000014],[1.1054542699999956,41.31459797000002],[1.1049112399999785,41.31450932000001],[1.1044719600000121,41.314741130000016],[1.1042278599999804,41.31503801000002],[1.1041329099999757,41.315617710000026],[1.0997828800000207,41.31519675999999],[1.0983636500000102,41.31522940000002],[1.0977525000000128,41.315197169999976],[1.0968200799999863,41.31537451000003],[1.09448371000002,41.31563791999997],[1.094102840000005,41.31584959999998],[1.0936119799999915,41.31583108000001],[1.0930909200000087,41.31609278000002],[1.0929813199999785,41.316249760000005],[1.0905523700000117,41.316561390000004],[1.0901827399999888,41.316952749999984],[1.0895493400000191,41.31713739000003],[1.0892757999999958,41.31715613],[1.088574470000026,41.317019000000016],[1.0868003599999838,41.317298240000014],[1.086390559999984,41.31742988000002],[1.0857717499999922,41.31784809999999],[1.0848341999999889,41.317944469999986],[1.084564030000024,41.31801711000003],[1.0840249299999982,41.31799124999998],[1.0833864400000266,41.31809499000002],[1.081578890000003,41.31822225000002],[1.0806996599999934,41.31848760999998],[1.0800974699999983,41.31859904999999],[1.0788512899999887,41.31853524000002],[1.0785499799999911,41.318491900000026],[1.0780556099999785,41.31860850999999],[1.077765520000014,41.31874486999999],[1.0776569999999879,41.31891981000001],[1.0775522700000124,41.31934675999997],[1.0764824699999735,41.320195160000026],[1.0758052400000224,41.32044430000002],[1.0757557499999848,41.32060815],[1.0750758400000109,41.321388669999976],[1.0746292499999868,41.321314459999996],[1.0734845299999733,41.32134604999999],[1.0724166599999876,41.32107774000002],[1.0721896599999923,41.32107678],[1.07190657000001,41.32094274000002],[1.0714026399999739,41.32090656999998],[1.0705737100000192,41.320638780000024],[1.070103300000028,41.32056540000002],[1.0693402900000137,41.32020521999999],[1.0684067500000083,41.32017524999998],[1.0677294199999778,41.31984804000001],[1.06746609999999,41.31983936],[1.0672078200000215,41.31991153000001],[1.0670249600000261,41.32004408],[1.0661338900000032,41.32012064000003],[1.0659245699999929,41.32001998999999],[1.0652402000000052,41.319963159999986],[1.0649688699999729,41.32001779000001],[1.0649113499999885,41.32024494000001],[1.0650190000000066,41.320439239999985],[1.065464669999983,41.320882719999986],[1.0662916300000234,41.32207811000001],[1.0663452900000152,41.32236437],[1.0667405099999883,41.32276460000003],[1.0668519299999843,41.32321089999999],[1.0670214200000032,41.32343902000002],[1.0666426500000057,41.32368656],[1.0643056000000115,41.326056489999985],[1.0639292100000262,41.326150840000025],[1.0623986800000011,41.325934829999994],[1.0622722200000112,41.32582223999998],[1.0616360199999804,41.32577269000001],[1.0614488400000255,41.325644239999974],[1.0608372300000042,41.32541371999997],[1.0605522899999755,41.32544180000002],[1.0603120399999852,41.325612379999995],[1.059563360000027,41.32567485999999],[1.0582315500000163,41.32596504000003],[1.0579795699999863,41.32594691999998],[1.0577132399999982,41.32608240000002],[1.056428540000013,41.32636188999999],[1.0543483999999808,41.326336260000005],[1.0537991900000065,41.32614853000001],[1.0527379999999766,41.32598786],[1.0522248999999988,41.32599696],[1.0514055900000017,41.32626898000001],[1.0510940099999857,41.32625295999998],[1.0499953899999923,41.32606657000002],[1.0495906900000023,41.32608984000001],[1.049300159999973,41.32602803999998],[1.049126039999976,41.32591710999998],[1.0488908699999797,41.325592219999976],[1.048595330000012,41.32544954999997],[1.047844619999978,41.32528689999998],[1.0475230200000283,41.32510912999999],[1.047430669999983,41.324968309999974],[1.0470838900000103,41.32496250999998],[1.0466354100000217,41.325050350000026],[1.046309459999975,41.3251879],[1.0456106699999737,41.32528454999999],[1.0449388299999782,41.32562337000002],[1.0440365100000122,41.325520059999974],[1.0432769999999891,41.32560081999998],[1.0418904300000236,41.32558657999999],[1.0416159700000094,41.325398129999996],[1.0411790800000063,41.32528743],[1.040381019999984,41.32532450000002],[1.038964080000028,41.32597765000003],[1.038101719999986,41.32613402999999],[1.0377086799999802,41.32634595000002],[1.0370403699999997,41.32654953000002],[1.0368114199999923,41.326710649999995],[1.0366844900000274,41.32697624999997],[1.0367006000000174,41.327236830000004],[1.0365362499999833,41.32747673],[1.0364049300000033,41.328057650000005],[1.0359824700000217,41.32818055000001],[1.0358352900000227,41.32831178999999],[1.0356576500000187,41.328723249999996],[1.0352163399999768,41.328927850000014],[1.0348343800000066,41.32931946999997],[1.034381709999991,41.32953347],[1.0341807300000028,41.32956754000003],[1.0338621700000203,41.32924553999999],[1.0333210200000167,41.32899438999999],[1.0325469699999985,41.328067050000016],[1.0316884100000152,41.327511860000016],[1.0306380399999853,41.326945379999984],[1.0301227100000006,41.32691842999998],[1.029843000000028,41.32683818999999],[1.0295322499999884,41.32664197999998],[1.0290601599999718,41.326541469999995],[1.028842549999979,41.32630597000002],[1.0284808000000112,41.32605751],[1.0281040699999835,41.325953649999974],[1.0275915199999872,41.32597162000002],[1.026945909999995,41.32615634000001],[1.0264585799999963,41.32638952999997],[1.0259731599999782,41.32723499000002],[1.0247700200000054,41.328258670000025],[1.0240963699999952,41.328570420000005],[1.023514490000025,41.32862682000001],[1.021557630000018,41.32847020000003],[1.0210064500000158,41.329218879999985],[1.0200981799999909,41.32998906],[1.0190352299999859,41.330575539999984],[1.0190338200000042,41.33074669000001],[1.0195125700000176,41.33095506000001],[1.0202030799999875,41.33149821000001],[1.0203666099999964,41.33182567],[1.0195847100000037,41.33270848000001],[1.0191868800000066,41.33265036],[1.0187649700000065,41.332394980000004],[1.0178493700000217,41.33168860000001],[1.0173512100000153,41.33155292999999],[1.0168339400000264,41.33130087000001],[1.0157387699999845,41.33039364000001],[1.0151923799999736,41.330250639999974],[1.0148117900000102,41.330083839999986],[1.0145646099999794,41.32956118999999],[1.0138263299999721,41.32843436000002],[1.0134596400000078,41.32810497999998],[1.0130770900000243,41.328100329999984],[1.0127233399999795,41.32817571999999],[1.0125506100000052,41.328280810000024],[1.0115364900000259,41.32849630999999],[1.0105479700000046,41.32835072],[1.010069269999974,41.328142309999976],[1.0095969800000262,41.32784362000001],[1.0090291099999718,41.32735014999997],[1.0078090599999996,41.32654624999998],[1.0069581000000198,41.326305779999984],[1.00665601999998,41.326055180000026],[1.0060922600000026,41.325822689999995],[1.0051595300000145,41.325612079999985],[1.003703680000001,41.326221120000014],[1.0034517600000186,41.32678820000001],[1.0028887999999938,41.327348099999995],[1.0028506900000025,41.32770061999997],[1.0024718399999983,41.32814604999999],[1.00222961999998,41.328676770000015],[1.002092129999994,41.32935693000002],[1.0018399799999997,41.32972590999998],[1.0017497700000035,41.33000820000001],[1.001818940000021,41.330356979999976],[1.0017502100000115,41.33098971999999],[1.0018210299999737,41.33136545999997],[1.0020435299999804,41.33168188000002],[1.0027131699999927,41.33208179000002],[1.0028879899999765,41.33239987000002],[1.0029025200000206,41.33283160000002],[1.0031035900000234,41.333382889999996],[1.0030765600000109,41.33450041999998],[1.0037736699999869,41.33573680000001],[1.004237699999976,41.33998888999997],[1.0049490299999775,41.34632146000001],[1.002521100000024,41.34764870999999],[1.0003176299999836,41.349130179999975],[0.9995499500000165,41.35005738000001],[0.9987403100000165,41.3524448],[0.9962356899999918,41.35272103],[0.993876709999995,41.35283906000001],[0.9921368400000006,41.35487155999999],[0.9919641299999853,41.35634533000001],[0.9913767599999801,41.357878529999994],[0.9845278000000235,41.35943090000001],[0.9843278000000169,41.359482860000014],[0.9828964600000063,41.35933437],[0.9796591699999908,41.3597527],[0.9792087000000151,41.35981333000001],[0.9787230000000022,41.359884179999995],[0.9774345100000232,41.360117890000026],[0.9747087700000066,41.360302260000026],[0.9710120299999971,41.361420599999974],[0.9694039600000224,41.36131408],[0.9663296699999933,41.35858430000002],[0.9663218900000174,41.35859386999999],[0.9663109300000201,41.358602700000006],[0.966276090000008,41.358615869999994],[0.9662334099999725,41.35862358000003],[0.9661643599999934,41.358625870000026],[0.9661297700000091,41.358627239999976],[0.9660965300000157,41.35863152000002],[0.966041529999984,41.35864323999999],[0.9660009699999819,41.358653919999995],[0.9659604099999797,41.3586646],[0.9659195899999986,41.35867404999999],[0.9658779000000095,41.35868097000002],[0.9658145099999729,41.35868769000001],[0.9657511199999931,41.35869439999999],[0.9656877400000212,41.358700940000006],[0.9656243599999925,41.35870747000001],[0.9655665700000213,41.358714599999985],[0.9655087900000012,41.35872173000001],[0.9654510099999811,41.35872868000001],[0.9653932400000258,41.35873563000001],[0.9653516700000182,41.35873839999999],[0.9652886900000226,41.35873792000001],[0.9652258099999926,41.358737889999986],[0.9651707400000191,41.358740520000026],[0.9651160199999822,41.35874694],[0.965061129999981,41.358759109999994],[0.9649975799999879,41.35878069],[0.9649412499999812,41.35880823999997],[0.9649294999999825,41.35881538000001],[0.9649033700000018,41.35883283999999],[0.964891439999974,41.35884168000001],[0.9648394399999916,41.35888768000001],[0.9647890800000027,41.358934620000014],[0.9647413000000142,41.358983490000014],[0.9646932699999979,41.35903253999999],[0.9646759500000144,41.35904744999999],[0.9646448799999803,41.35906618000001],[0.9646097699999814,41.35908042],[0.9645354599999791,41.359098019999976],[0.9644614000000047,41.35911526000001],[0.9644206300000064,41.35912705999999],[0.964361370000006,41.359148979999986],[0.9643012099999737,41.35916916999997],[0.9642572899999777,41.35918041999997],[0.9642133599999738,41.35919166000002],[0.9641235199999869,41.35920908000003],[0.9640350899999817,41.35922345],[0.9639460099999724,41.359235479999995],[0.9638606999999979,41.35924170999999],[0.9638181500000087,41.35924527999998],[0.9637756000000195,41.35924884999997],[0.9636998400000039,41.35925949],[0.9636243100000002,41.35927013000003],[0.9635137299999883,41.359285650000004],[0.9634102200000143,41.359301370000026],[0.9633472699999857,41.359310170000015],[0.9632914100000107,41.35931918],[0.9632363100000134,41.35933036],[0.9631812100000161,41.35934155000001],[0.9631392399999754,41.359353139999996],[0.9630787799999894,41.35937512999999],[0.9630215199999839,41.359401950000006],[0.9629403800000205,41.35944717000001],[0.9629015500000264,41.35947125000001],[0.9628627299999835,41.359495330000016],[0.9628238899999815,41.35952162000001],[0.9627850599999874,41.359547899999995],[0.9627080899999783,41.35960084999999],[0.9626594299999738,41.35963565999998],[0.9626107600000182,41.35967046000002],[0.9625861900000245,41.35968408000002],[0.9625444600000037,41.359699639999974],[0.9624927200000002,41.35972183000001],[0.9624820399999976,41.35972717999999],[0.9624535799999876,41.359746400000006],[0.9624274000000241,41.35976935000002],[0.9624045900000056,41.35979938999998],[0.9623910500000079,41.35983120999998],[0.9623887399999944,41.359847660000014],[0.9623910600000158,41.35987282999997],[0.9624016600000118,41.359897330000024],[0.9624256600000081,41.359928920000016],[0.9624386300000083,41.35994400999999],[0.9624711700000148,41.35997800000001],[0.962500470000009,41.36000634999999],[0.9625102100000049,41.360015799999985],[0.962527630000011,41.36003611000001],[0.9625420300000087,41.36006144999999],[0.962570449999987,41.36011221000001],[0.9626043900000241,41.36016999999998],[0.9626243000000159,41.360202370000025],[0.9626453000000197,41.360234400000024],[0.9626663000000235,41.360266439999975],[0.9626843799999847,41.36029223999998],[0.9627024600000027,41.36031804999999],[0.9627203000000009,41.360343950000015],[0.962738150000007,41.360369839999976],[0.9627544200000102,41.36040004],[0.9627631800000245,41.36042379000003],[0.9627719499999898,41.360447539999996],[0.9627819099999897,41.36047105],[0.9627918799999975,41.36049455],[0.9628066099999728,41.36052061999999],[0.962821340000005,41.36054668000003],[0.962836789999983,41.36057248999998],[0.9628522400000179,41.36059829999999],[0.9628666300000077,41.36062368],[0.9628810300000055,41.360649060000014],[0.9628933600000096,41.36067522000002],[0.9629056900000137,41.36070138000002],[0.9629149400000188,41.36074622000001],[0.9629156600000215,41.360780550000015],[0.9629163800000242,41.36081487000001],[0.9629177099999993,41.36084903],[0.9629232300000012,41.360882730000014],[0.9629295699999716,41.36090581000002],[0.9629423599999996,41.360951880000016],[0.9629545099999746,41.360998970000026],[0.9629655599999865,41.36104726999997],[0.9629709000000162,41.36107145],[0.9630023799999776,41.36114334000001],[0.963006240000027,41.361157279999986],[0.9630046099999845,41.361179049999976],[0.962993919999974,41.36119975999998],[0.96296940000002,41.36122310000002],[0.9629411399999981,41.36124386],[0.9629020799999921,41.361269830000026],[0.9628810400000134,41.36128107000002],[0.9628581700000041,41.36129011999998],[0.9628022499999815,41.36130075],[0.9627164799999832,41.36130995000002],[0.9626317199999903,41.361321420000024],[0.9625467199999775,41.36134081],[0.9624492699999792,41.361352769999996],[0.9624172599999952,41.361359590000006],[0.9623711099999923,41.36137499],[0.9623240700000224,41.36138820999997],[0.962239430000011,41.36140363999999],[0.9621021699999801,41.36142904000002],[0.9620564200000103,41.36143750000002],[0.9619528599999967,41.36145385999998],[0.961848859999975,41.36146912999999],[0.961783290000028,41.361482290000026],[0.9617194100000006,41.36150286999998],[0.961701660000017,41.36151228],[0.961679839999988,41.36152972999997],[0.9616626700000097,41.361551039999995],[0.9616500000000201,41.36158161999998],[0.9616480899999829,41.361612390000005],[0.9616624299999899,41.36167748999998],[0.9616737599999965,41.36170929999997],[0.9616890500000181,41.36174011000003],[0.9617251700000224,41.361801000000014],[0.9617612900000267,41.36186190000001],[0.961791930000004,41.361914230000025],[0.9618225799999891,41.361966559999985],[0.9618532200000232,41.36201890000001],[0.9618838700000083,41.362071230000026],[0.9619082300000059,41.36210642999998],[0.9619295599999873,41.36213175],[0.9619508900000255,41.362157079999974],[0.9619700999999736,41.362183089999974],[0.9619893099999786,41.36220909999997],[0.9620059399999832,41.362237540000024],[0.9620225699999878,41.36226598000002],[0.9620389500000215,41.36229451000003],[0.9620657300000062,41.362340510000024],[0.9620865200000139,41.36237538],[0.9620969200000218,41.36239275999998],[0.9621015700000157,41.36240455000001],[0.9621013500000117,41.362419320000015],[0.9622168299999885,41.36243488000002],[0.9622696399999882,41.36250523000001],[0.9622632599999861,41.36254081999999],[0.9622375999999804,41.36260385000003],[0.9622213800000168,41.362687419999986],[0.9621628099999953,41.36280684000002],[0.9621442399999864,41.36289577000002],[0.9621528499999954,41.36295741999999],[0.9621845199999939,41.36303930999998],[0.9622416500000099,41.36314942000001],[0.9623280299999806,41.36325012999998],[0.9624246199999789,41.36336094000001],[0.9624859300000139,41.36342153999999],[0.9626330199999984,41.36351738000002],[0.9627133600000093,41.36355846999999],[0.9627854400000047,41.36361132000002],[0.9628075100000046,41.36366328999998],[0.9628079799999796,41.36373271999997],[0.9628090599999837,41.363778490000016],[0.9628513399999861,41.36395324],[0.9628669499999774,41.36404514999998],[0.9628855299999941,41.364140599999985],[0.9629137399999763,41.364223460000005],[0.9629570999999828,41.36426482000002],[0.9630893199999946,41.36432051999998],[0.9631617000000006,41.36436936000001],[0.963232000000005,41.36443557000001],[0.9632758500000023,41.36451058],[0.9632789199999934,41.36456050999999],[0.9632770700000037,41.36461964],[0.9632291699999769,41.36467447000001],[0.9631474500000081,41.36472753999999],[0.9629649600000221,41.364753310000026],[0.962875380000014,41.36476216],[0.9627423900000167,41.364780689999975],[0.9626074199999834,41.36481309999999],[0.9625110000000063,41.364843870000016],[0.9624398700000256,41.36490293000003],[0.9623686699999894,41.3649643],[0.9623331799999733,41.36501586999998],[0.9623233500000197,41.36508414000002],[0.9623440199999891,41.36516222],[0.9623924800000054,41.365237320000006],[0.9624425999999744,41.36530895999999],[0.9624651199999903,41.36537664000002],[0.9624896099999773,41.36548031000001],[0.9624891899999852,41.36554294000001],[0.9624648800000273,41.36568054999998],[0.9624491000000148,41.36579162999999],[0.9624129900000185,41.36591278999998],[0.9623775900000169,41.366010759999995],[0.9623789899999906,41.36611402],[0.9624561100000051,41.36625806000001],[0.96248503999999,41.36631772999999],[0.9624740200000019,41.36642425000002],[0.9624429799999916,41.36658030000001],[0.9623916699999882,41.36674411000001],[0.9622909400000026,41.36691284],[0.9622347999999761,41.367083519999994],[0.9621589800000265,41.36725912000003],[0.9620849099999873,41.36740090000001],[0.9620601699999725,41.367449739999984],[0.9620615399999792,41.36747362],[0.9620778199999904,41.36749298000001],[0.9621282400000268,41.36750024000003],[0.9622400399999833,41.367502220000006],[0.9623199499999942,41.367511579999984],[0.9624559599999998,41.36754896999997],[0.9625834400000031,41.36758938999998],[0.9628135099999895,41.36758868999999],[0.9631751699999995,41.36764264999999],[0.9633886400000051,41.36768949999998],[0.9634659499999998,41.36771471999998],[0.9637678099999789,41.36778048000002],[0.9640430900000183,41.36781874000002],[0.9641357099999937,41.36782674],[0.9642661400000065,41.36784017000002],[0.9644344899999737,41.36785587000003],[0.964541429999997,41.36787843000002],[0.9647989399999801,41.36794500000002],[0.9649935300000152,41.367999310000016],[0.9651548599999842,41.36803715000002],[0.9653035900000191,41.36807317],[0.96541129000002,41.36813867000001],[0.9654459600000109,41.36817744000001],[0.9654850800000077,41.368276700000024],[0.9655073299999799,41.36837566999998],[0.9655116999999791,41.368506120000006],[0.9655512400000248,41.368714539999985],[0.9655850099999839,41.368795190000014],[0.9656455499999765,41.36895206999998],[0.9657198900000026,41.369072630000005],[0.9658017799999925,41.369243540000014],[0.9676284500000065,41.370326929999976],[0.9676231500000085,41.370357549999994],[0.9676044000000275,41.370416190000014],[0.9675849600000106,41.37049714],[0.9675851100000159,41.37056009999998],[0.9676278399999774,41.37061504000002],[0.9677115999999728,41.370677090000015],[0.9677955500000053,41.37073276000001],[0.9678825099999813,41.37079405999998],[0.9680561499999953,41.37092543],[0.9681158399999958,41.37097908999999],[0.968260760000021,41.37109879000002],[0.9684188400000266,41.371186060000014],[0.9686174099999789,41.37126447000003],[0.9688431199999741,41.37135453000002],[0.969073499999979,41.37143032],[0.969495859999995,41.37159236999997],[0.969706570000028,41.37168852999997],[0.9698880299999928,41.37177301999998],[0.9700110100000074,41.37183256999998],[0.9702032700000132,41.371977809999976],[0.9703995099999929,41.37213109999999],[0.9705851300000177,41.37228578000003],[0.9706538699999783,41.372389],[0.9707134000000224,41.37251595999999],[0.9707433699999797,41.37264081000001],[0.9707622899999819,41.37271286999999],[0.9708194599999729,41.37284776000001],[0.970907660000023,41.373005509999984],[0.9709705399999962,41.37309268000001],[0.971017790000019,41.37313813999998],[0.9711346899999853,41.37318961],[0.971266479999997,41.37323816000003],[0.9714428799999837,41.37328112],[0.9716260700000134,41.37330985],[0.971856530000025,41.37331549999999],[0.9720150300000228,41.37332149000002],[0.9721438899999839,41.37332853999999],[0.9723706600000241,41.37331660000001],[0.9725040800000215,41.373312580000004],[0.9726262099999872,41.37329361000002],[0.9727162300000032,41.378210249999995],[0.9735075500000221,41.38080015999998],[0.974678879999999,41.38286438],[0.9795811199999775,41.38656223999999],[0.980637569999999,41.38925498999998],[0.9819546200000104,41.39174903999998],[0.9849059699999998,41.39077107999998],[0.9851879999999937,41.39035838000001],[0.9852410799999802,41.390378940000005],[0.9852966000000265,41.39040134999999],[0.9853521200000159,41.390423759999976],[0.9854189199999723,41.390448979999974],[0.985487390000003,41.390470359999995],[0.9855307999999923,41.39047814000003],[0.9855992299999912,41.39048150000002],[0.9856682099999716,41.39047848000001],[0.9857187999999724,41.39047297000002],[0.9858195200000068,41.39045893000002],[0.9859237399999756,41.390437829999996],[0.9860032700000261,41.390414729999975],[0.9860799799999995,41.390386439999986],[0.9861347799999862,41.390362270000026],[0.9861895899999809,41.39033810000001],[0.9862421400000017,41.39031127999999],[0.9863454000000047,41.390255620000005],[0.9864466999999877,41.39019768000003],[0.9865354699999784,41.39014645999998],[0.9866111599999954,41.39010238999998],[0.9866486799999734,41.39008044000002],[0.9866835000000265,41.39005276],[0.9867156099999761,41.390031350000015],[0.9867569599999797,41.39001897000003],[0.9868406200000095,41.39000355000002],[0.9869278599999802,41.38999030000002],[0.9871008200000233,41.389962620000006],[0.9872313500000018,41.38993968],[0.9873626599999739,41.389914780000026],[0.9874910099999852,41.38986784999997],[0.9875685200000248,41.389836600000024],[0.9876462700000275,41.389805179999996],[0.987727810000024,41.38978966000002],[0.9877903500000116,41.38977627000003],[0.9878507199999831,41.38973722999998],[0.9879068700000175,41.38969142000002],[0.9879703700000277,41.38964686000003],[0.9880170199999725,41.389620939999986],[0.988071170000012,41.38959181000001],[0.988132510000014,41.38956949999999],[0.9881833200000187,41.38955256000003],[0.9882517400000097,41.38954038999998],[0.9883225699999798,41.38953132],[0.9884156900000107,41.38952124000002],[0.988534780000009,41.38951259999999],[0.9886048100000266,41.38950842000003],[0.9886615799999845,41.389504009999996],[0.9887044299999843,41.38949715000001],[0.9887473900000145,41.389484530000004],[0.9888126700000157,41.38945811000002],[0.9889053100000069,41.38941713000003],[0.9889960799999926,41.38937449000002],[0.9890543199999797,41.38934389000002],[0.9890958199999886,41.38931265000002],[0.9891377800000214,41.389278520000005],[0.9891686199999867,41.389259700000025],[0.9891869599999836,41.38925240999998],[0.9892053099999885,41.38924512],[0.9892272299999831,41.38924379000002],[0.9892480899999896,41.389246319999984],[0.9892851000000178,41.389256149999994],[0.9893463299999894,41.38927568999998],[0.989407099999994,41.389294759999984],[0.9894776099999945,41.38931581000003],[0.9895481400000108,41.389336319999984],[0.9895929200000069,41.38934628999999],[0.989638350000007,41.38935086999999],[0.9896680400000264,41.38934985999998],[0.9897254200000134,41.38934302000001],[0.9898179300000152,41.389329599999996],[0.9899204499999996,41.389313200000004],[0.9899415500000259,41.389307710000026],[0.9899618800000098,41.38929996000002],[0.9899830900000097,41.38929079000002],[0.9900043100000175,41.38928161000001],[0.990035569999975,41.38927216000002],[0.9900849399999743,41.389263289999974],[0.9901343099999735,41.389254429999994],[0.9901837400000204,41.38924754999999],[0.9902331700000104,41.38924066999999],[0.9902890899999761,41.38923453000001],[0.9903455300000132,41.38923101],[0.9903840100000139,41.38923196000002],[0.9904325699999958,41.38923964999998],[0.9904796000000147,41.389250559999994],[0.9905254500000069,41.38926279999998],[0.9905712899999912,41.38927503999997],[0.9906326000000263,41.38928836000002],[0.9906867500000089,41.389296960000024],[0.9907401799999889,41.38930185999999],[0.9907655900000236,41.38930023],[0.9907909600000266,41.38929581000002],[0.9908424000000196,41.38927977999998],[0.9908747700000049,41.38926557000002],[0.9909154700000045,41.38924314000002],[0.9909460900000227,41.389223630000004],[0.990981789999978,41.38920043000002],[0.9910353600000121,41.389167499999985],[0.9910708900000031,41.38914614999999],[0.9911066399999982,41.389125060000026],[0.9911423899999932,41.389103980000016],[0.991176170000017,41.38908471000002],[0.991209949999984,41.389065440000024],[0.9912446100000238,41.38904673000002],[0.9912792800000148,41.389028010000004],[0.9913331800000265,41.38900572],[0.9913910999999871,41.38898926000002],[0.991445849999991,41.38897859000002],[0.9915012499999989,41.388973710000016],[0.991544499999975,41.388973109999995],[0.9915877600000158,41.38897251999998],[0.9916304299999865,41.38897136999998],[0.9916731000000141,41.388970229999984],[0.9917548700000225,41.388963820000015],[0.9918382899999756,41.38895797999999],[0.9918642000000091,41.38895924000002],[0.9918895700000121,41.38896283999998],[0.9919140299999754,41.38896835999998],[0.9919385000000034,41.38897386999997],[0.991966820000016,41.38898255999999],[0.9919929999999795,41.38899455000001],[0.9920089099999814,41.38900609000001],[0.9920299300000011,41.389030409999975],[0.9920470100000216,41.38905457999999],[0.9920807400000058,41.389101100000005],[0.9921135800000229,41.38913771],[0.9921487400000046,41.38917282],[0.9921821300000033,41.38919520000002],[0.992221470000004,41.389211020000005],[0.9922608800000035,41.38922088999999],[0.9923033399999781,41.38922857],[0.9923321399999736,41.389237089999995],[0.9923691100000269,41.389256020000005],[0.992399110000008,41.389280050000025],[0.9924172699999758,41.38930018000002],[0.992434870000011,41.38931895000002],[0.9924652500000093,41.38934624000001],[0.9924906400000282,41.38937027999998],[0.9925413099999787,41.38941821999998],[0.992566590000024,41.38944213000002],[0.9925967799999853,41.38946761],[0.9926299100000051,41.38949097],[0.992665460000012,41.38951321000002],[0.9927010200000268,41.38953544999998],[0.9927580300000045,41.38956796999997],[0.9928198900000211,41.389595009999994],[0.9928078500000197,41.38961225000003],[0.9938376999999718,41.39101010000002],[0.9936304999999948,41.39120359999998],[0.9935202199999935,41.39132212999999],[0.993381329999977,41.39150375000003],[0.993292839999981,41.39163604999999],[0.993289749999974,41.39173638],[0.9933399600000143,41.391837640000006],[0.9934039199999916,41.39206963999999],[0.9934143599999743,41.39216352],[0.993414429999973,41.392220829999985],[0.9933961799999906,41.39226251000002],[0.9932470100000046,41.39251331999998],[0.9931190699999775,41.39274842999998],[0.9930403800000249,41.39290864999998],[0.993003299999998,41.393024149999974],[0.9929774500000121,41.39321054999999],[0.9929650000000265,41.393397170000014],[0.9930063300000143,41.393579690000024],[0.9930771499999764,41.393737009999995],[0.9931170300000076,41.39388494000002],[0.993183149999993,41.39404671],[0.9932728200000156,41.39416539000001],[0.9933327300000201,41.39424005000001],[0.9934160899999824,41.394274970000026],[0.9935354799999914,41.39429378],[0.993712099999982,41.39433033],[0.9939015300000165,41.39438381999997],[0.9940022399999862,41.394432429999995],[0.9942168800000104,41.39453321000002],[0.9944003200000111,41.3946368],[0.9945353300000193,41.39472615],[0.9946118799999795,41.39483790999998],[0.994653000000028,41.39494571],[0.9947276299999999,41.39505537000002],[0.9982881199999838,41.39877168999999],[1.0033001799999965,41.39993972000002],[1.0032034500000009,41.40006048999999],[1.003082749999976,41.40013031000001],[1.0027503300000262,41.400231159999976],[1.0025211500000069,41.40029413000002],[1.0023514599999999,41.40035069999999],[1.0021694700000126,41.40046314],[1.0020388799999864,41.40055604999998],[1.0019768999999883,41.40064425000003],[1.001951120000001,41.40073307],[1.0019482399999902,41.40082726000003],[1.0019519400000263,41.40092155000002],[1.001946289999978,41.40099832999999],[1.0019032199999742,41.401114129999996],[1.0017983700000173,41.40120406],[1.0016279899999745,41.40128292999998],[1.0015501500000141,41.40135101999999],[1.0013878199999908,41.40148954],[1.0012825900000166,41.401591870000004],[1.0011871599999722,41.40169684],[1.0011076499999945,41.401819450000005],[1.001102230000015,41.40188878999999],[1.0011392299999784,41.40197125999998],[1.0011802000000216,41.40203149000001],[1.0012003499999764,41.402126080000016],[1.0012374199999954,41.40220606999998],[1.0013227300000267,41.402324109999995],[1.0014003900000148,41.40247672999999],[1.0014206299999842,41.40256883000001],[1.0013878899999895,41.40266994000001],[1.0013291899999786,41.402758189999986],[1.0012765299999842,41.403079649999995],[1.0012645300000145,41.403148869999995],[1.0012989100000027,41.403208989999996],[1.0013927100000046,41.40326517],[1.0014971300000184,41.40329674999998],[1.001630499999976,41.403351139999984],[1.0017339400000083,41.403414940000005],[1.001859130000014,41.40352125999999],[1.0019905300000005,41.40364010000002],[1.0021024800000191,41.40374867999998],[1.002214429999981,41.403857259999995],[1.0023155200000247,41.40399788000002],[1.002369050000027,41.40407816999999],[1.0024440000000254,41.40418231000001],[1.0025351400000204,41.404247199999986],[1.002645770000015,41.404291279999995],[1.0027664300000083,41.40433057000001],[1.0028449800000203,41.40434682],[1.0029794899999729,41.40436403000001],[1.0030545999999845,41.40438518000002],[1.003161939999984,41.40442919999998],[1.0032397300000184,41.404470230000015],[1.0033336800000257,41.40452146000001],[1.0034643299999857,41.404581930000006],[1.006192580000004,41.40557591999999],[1.0102917699999807,41.40414278999998],[1.0104250100000058,41.40415141],[1.0105594099999848,41.40416708999999],[1.0106967099999906,41.40420420999999],[1.0108160300000009,41.404249040000025],[1.0109455900000057,41.40430739999999],[1.0111040099999968,41.40435022999998],[1.0112101999999936,41.40436009000001],[1.0113309000000186,41.404359510000006],[1.0114340299999753,41.40435327],[1.0115487799999983,41.40431517000002],[1.011664259999975,41.40425303000001],[1.011787819999995,41.40415895000001],[1.0119614399999932,41.404052379999996],[1.0120765199999937,41.40400359],[1.0121456300000204,41.403948660000026],[1.0121869399999923,41.40387455000001],[1.0123325900000282,41.40375412999998],[1.0125441800000203,41.40357540999997],[1.0128277300000263,41.40346337],[1.012924010000006,41.40344900000002],[1.0131649300000163,41.40346384999998],[1.0134929899999747,41.40353098999998],[1.01372219000001,41.403605589999984],[1.014160870000012,41.40374564000001],[1.0145776400000273,41.40386504000003],[1.014994119999983,41.40396528000002],[1.0152632499999754,41.404029270000024],[1.0154192200000125,41.40405931999999],[1.0156789000000117,41.404058659999976],[1.0159049000000095,41.40404197999999],[1.0160622899999794,41.40403441000001],[1.0163499999999885,41.403976390000025],[1.0209596600000168,41.40554020000002],[1.0246925999999803,41.40864517],[1.027712720000011,41.40926175999999],[1.0289225099999726,41.413488770000015],[1.0301161200000024,41.41635543000001],[1.0315106799999967,41.41692875000001],[1.0325749500000256,41.418536689999996],[1.032416249999983,41.41859790000001],[1.0322923300000184,41.41868704000001],[1.0320876999999768,41.418823929999974],[1.0319153799999867,41.418971899999974],[1.031857020000018,41.41905163000001],[1.0317071499999884,41.41922806000002],[1.0315957199999843,41.41936655000001],[1.031509930000027,41.41942826000002],[1.0313758400000097,41.419545289999974],[1.0312554100000284,41.41967310000001],[1.0311958799999843,41.419791410000016],[1.0312065800000028,41.41990040000002],[1.0312406900000042,41.420006279999996],[1.0312804000000142,41.420080659999996],[1.0313340000000153,41.420158800000024],[1.031427629999996,41.42030080000001],[1.0314800599999785,41.42041752],[1.0314749799999845,41.42058589999999],[1.0314297499999725,41.42069393000003],[1.0314081399999964,41.42079183999999],[1.0314147400000024,41.420899169999984],[1.0361169299999915,41.42090284],[1.0362525699999878,41.42092567999998],[1.0363704900000243,41.42097131000003],[1.0364757099999906,41.42098593999998],[1.036611970000024,41.42098826],[1.036768670000015,41.420990940000024],[1.0368637400000011,41.42100283000002],[1.0370687100000282,41.42104927999998],[1.0385120799999754,41.42156270999999],[1.040542930000015,41.424978520000025],[1.0400399200000265,41.42773869000001],[1.040436399999976,41.427837160000024],[1.0407415099999753,41.42795345000002],[1.0409126700000115,41.42806239999999],[1.0410625000000095,41.42821137999999],[1.0413761699999782,41.42848938999998],[1.041613629999972,41.428624720000016],[1.0417710799999895,41.42874353000002],[1.042034450000017,41.4289096],[1.042250729999978,41.429079909999984],[1.042418409999982,41.42930493],[1.0425403599999754,41.42948878999999],[1.0427324699999758,41.429780549999975],[1.0429298199999835,41.42992461],[1.0430724999999939,41.43008861999999],[1.0431612300000097,41.43026180999999],[1.0432024099999921,41.43045439000002],[1.043205979999982,41.43083134],[1.04319117,41.4309518],[1.0431375900000148,41.43114091000001],[1.0431562300000223,41.43124597000002],[1.0431465799999842,41.431318799999985],[1.0431781199999932,41.43138671000003],[1.0432910100000186,41.43154181],[1.0434627000000205,41.431712749999974],[1.043618859999981,41.431779370000015],[1.0437926800000241,41.43194115],[1.0439677300000199,41.43204687999997],[1.0441812700000241,41.432100960000014],[1.0446865000000116,41.43359135999998],[1.0447141299999885,41.433736959999976],[1.0447359600000254,41.43390397000002],[1.0447306600000275,41.434080600000016],[1.044725509999978,41.4342522],[1.0446924799999806,41.43445866000002],[1.0447124899999949,41.43468623000001],[1.0447416200000248,41.434833149999974],[1.0448043000000098,41.43498065],[1.0448116499999855,41.435182750000024],[1.04480559000001,41.43538462999999],[1.0448600400000032,41.435582479999994],[1.0449429899999814,41.43572526999998],[1.0451053499999716,41.43590476000003],[1.0453131400000188,41.436135509999986],[1.0455668100000253,41.43640239000001],[1.0456511200000023,41.436499760000004],[1.0457498800000167,41.43663687999998],[1.0459337899999923,41.43679236000003],[1.0460900100000003,41.436855630000025],[1.046256459999995,41.43689884999998],[1.046429460000013,41.43694722999999],[1.0465619500000116,41.43698441999999],[1.0469039600000087,41.43701083000002],[1.0471568400000137,41.437080760000015],[1.0473158300000023,41.4371491],[1.0474543899999844,41.437227199999995],[1.0474929700000075,41.437283390000005],[1.0474640200000067,41.43735358999999],[1.0473604000000023,41.437452819999976],[1.0472305600000027,41.43753141000002],[1.0471743300000185,41.4376163],[1.0471976800000107,41.437732830000016],[1.047194960000013,41.43782367],[1.0471791300000177,41.43790419999999],[1.0470595200000048,41.43808898999998],[1.046931690000008,41.43832415000003],[1.046737090000022,41.438548070000024],[1.0464722599999732,41.43887683000003],[1.0463113399999884,41.43909628],[1.0462197699999933,41.43924114999999],[1.0460847699999931,41.43949133000001],[1.0460309299999722,41.439759089999995],[1.046057889999986,41.43994027000002],[1.046086129999992,41.440117480000026],[1.0461760800000093,41.440250289999994],[1.0463042100000166,41.440427],[1.046393089999981,41.44052448000002],[1.0464058200000181,41.440653],[1.046793560000026,41.44072148999999],[1.0470904100000098,41.44074468000002],[1.047409689999995,41.440770680000014],[1.047608939999975,41.440790170000014],[1.0477617600000144,41.44082989999998],[1.0479399199999762,41.44089586000001],[1.0481113499999992,41.44097138000001],[1.0483158900000262,41.44101599999999],[1.048692399999993,41.441119860000015],[1.0488467499999956,41.441145070000005],[1.0491509700000279,41.44116571000001],[1.0494061800000054,41.44117714999999],[1.0495169800000212,41.44118886000001],[1.0495685099999719,41.44124055999998],[1.0495945600000027,41.44139108000002],[1.0496019500000102,41.44168166999998],[1.0496274299999868,41.441904790000024],[1.0497036099999946,41.44204646999998],[1.049848489999988,41.442257100000006],[1.0500229699999863,41.44244643000002],[1.050278110000022,41.44262745999998],[1.050537840000004,41.44276257000001],[1.050796250000019,41.44283472000001],[1.0511326800000234,41.44287915000001],[1.0512501100000122,41.44287871],[1.0513675299999932,41.44287828],[1.0516550199999983,41.44294608000001],[1.0518516100000284,41.44304139000002],[1.0521501499999886,41.44316988999998],[1.0522777499999734,41.443205939999984],[1.0524347799999987,41.443225540000014],[1.052611909999996,41.44321886],[1.0530700300000149,41.44306684999998],[1.053281400000003,41.44299054999999],[1.0534386200000085,41.44289638999999],[1.0535972900000274,41.44275384000002],[1.0536839200000259,41.44265364],[1.0537887500000238,41.442590059999986],[1.053947380000011,41.442556439999976],[1.0540889200000265,41.44255641000001],[1.0543008500000042,41.44255894999998],[1.0543897399999764,41.44250097999998],[1.0545421499999748,41.44235228000002],[1.054585139999972,41.442313060000004],[1.0546801200000004,41.44225657999999],[1.0548584699999992,41.44220876000003],[1.0551557399999751,41.442056449999995],[1.0554207000000133,41.44195316999998],[1.0555273200000101,41.44200977999998],[1.0555933900000127,41.44229717000002],[1.05562974999998,41.442427269999996],[1.0557238900000243,41.44266705000001],[1.0557565500000123,41.442845439999985],[1.055803190000006,41.44297962000002],[1.0560448599999859,41.44324246999997],[1.0562778999999978,41.443336980000026],[1.0570768100000123,41.44357912999999],[1.0577696099999798,41.443841710000015],[1.0580158500000039,41.443934780000006],[1.0582673499999942,41.44399301999999],[1.0585175300000174,41.44409568999998],[1.0586584999999786,41.44418064000001],[1.0586671899999942,41.444314159999976],[1.058728780000024,41.44465501000002],[1.058731449999982,41.44484877999997],[1.0587039200000277,41.44506426999999],[1.058522019999998,41.44550263000002],[1.0584188000000267,41.44565884999997],[1.058343700000023,41.44587071000001],[1.058437060000017,41.44626807999998],[1.058805129999996,41.44681622000002],[1.0591557500000022,41.447135730000014],[1.0595137700000237,41.44734270999999],[1.0599209599999995,41.44752921000003],[1.0604240100000197,41.44768152],[1.0605877899999996,41.44770969000001],[1.0608589799999777,41.447815890000015],[1.06111463000002,41.44787736000001],[1.0616308900000035,41.447974980000026],[1.0618594200000189,41.448067270000024],[1.0621754699999997,41.448114350000026],[1.0625568300000054,41.448206519999985],[1.06262731999999,41.448248990000025],[1.062637900000027,41.44831904],[1.062478370000008,41.448573590000024],[1.0623586099999898,41.448768470000005],[1.06235989999999,41.448866940000016],[1.062381720000019,41.44898481000001],[1.0625053599999887,41.44908534000001],[1.062692659999982,41.44917423999999],[1.0628790100000174,41.449294880000025],[1.0629279099999849,41.44938124999999],[1.06294883999999,41.449463690000016],[1.0628853599999957,41.44976363000001],[1.0628846999999837,41.449873079999975],[1.0629195800000275,41.45001049000001],[1.0629953200000273,41.45017204999999],[1.0631140200000004,41.45041739999999],[1.063258879999978,41.45064067999999],[1.0633988999999815,41.45075350000002],[1.0635581500000058,41.450814820000005],[1.06363730999999,41.4508611],[1.0637223599999857,41.45094227999999],[1.0637732299999811,41.45100098],[1.0637519800000064,41.45111127000001],[1.0636946600000101,41.45120413000001],[1.0635563199999751,41.45131321000002],[1.063439800000026,41.451387479999994],[1.0633173900000088,41.45163267999999],[1.0632654400000092,41.45196507000003],[1.0632857100000024,41.452156960000025],[1.063402730000007,41.452502949999996],[1.0634529600000064,41.45264843000001],[1.06359759999998,41.453232749999984],[1.0636071800000195,41.453386720000026],[1.0636658000000239,41.45355651],[1.0637532000000078,41.453676599999994],[1.064100900000028,41.45411816000001],[1.0642308399999933,41.45433706],[1.064374540000017,41.45450144],[1.0644422799999802,41.45456874000001],[1.0646422500000199,41.454711729999985],[1.065021090000016,41.45488642999999],[1.0651822400000128,41.454973540000026],[1.065247290000002,41.45502938999999],[1.0654706500000088,41.45526810000001],[1.0655923400000233,41.45535683000003],[1.065733229999978,41.45541166999999],[1.0659422800000016,41.455417469999986],[1.0662609199999906,41.45540913000002],[1.0665239200000087,41.45543636000002],[1.0671289800000068,41.45558568000001],[1.0677084899999727,41.455625069999996],[1.067945839999993,41.45559711999999],[1.0682218499999863,41.45549226000003],[1.0684695900000065,41.45531848000002],[1.0687115399999811,41.455135480000024],[1.0688016700000276,41.45495906000002],[1.0688733499999898,41.454791460000024],[1.0688739199999873,41.45456790999998],[1.0688060499999779,41.45440252999998],[1.068805750000024,41.454303330000016],[1.0688681500000143,41.454197850000014],[1.068939759999978,41.45411481999997],[1.0690794700000197,41.45406761999999],[1.0692912100000171,41.45403400999999],[1.069596439999998,41.45395738000002],[1.0698156500000096,41.453894160000004],[1.0700187400000232,41.45376378999998],[1.0701630199999954,41.45367331],[1.0702819499999805,41.45360470000003],[1.0703946599999767,41.453579339999976],[1.070479789999979,41.453595629999995],[1.0705541799999878,41.45364146999998],[1.070616770000015,41.45375152999998],[1.0706590400000096,41.453881060000015],[1.0706784800000264,41.45400276999999],[1.0706616499999768,41.454126359999975],[1.0706601100000057,41.454178360000014],[1.070774149999977,41.454385890000026],[1.0709240699999896,41.45466091999998],[1.0710046500000203,41.454830730000026],[1.071039600000006,41.45498491000001],[1.071034759999975,41.455148329999986],[1.0710449900000185,41.45524760000001],[1.0710951600000271,41.45533267000002],[1.0712004000000093,41.45543347],[1.071280779999995,41.455536429999995],[1.0713536499999918,41.45575881000002],[1.0714194700000235,41.455816700000014],[1.071537879999994,41.455842589999975],[1.0716495899999927,41.455826530000024],[1.07174507000002,41.455822160000025],[1.0718439799999828,41.45583577000002],[1.0719250700000202,41.45591482999998],[1.0720045599999821,41.456047669999975],[1.0720370700000217,41.45615729999997],[1.0720695800000044,41.45626693000003],[1.0721110700000054,41.456376379999995],[1.0721632600000248,41.45643223000002],[1.0722262900000032,41.45651140000001],[1.072212019999995,41.45660373999999],[1.0722091900000237,41.45669916999998],[1.0722218299999895,41.45679196999998],[1.0722928999999795,41.456859699999995],[1.072425380000027,41.45693136],[1.0725155800000152,41.4570023],[1.072616709999977,41.45709369000002],[1.0728204399999868,41.45722728999999],[1.0729665900000214,41.45735703999998],[1.0730971899999986,41.45749231000002],[1.0731873099999802,41.45756614999999],[1.0732821199999876,41.45761113999998],[1.0734644099999855,41.45768942000001],[1.0735809199999835,41.457781049999994],[1.0737301500000171,41.457936889999985],[1.073896590000004,41.45809591],[1.0741016000000059,41.45818614000001],[1.0742082099999948,41.458222639999974],[1.0743542899999738,41.458225089999985],[1.0745177900000158,41.458158379999986],[1.0746636900000226,41.45816660999998],[1.0748155699999984,41.45823280000002],[1.0749337899999887,41.4583968],[1.0750311699999884,41.458745609999994],[1.0750475599999731,41.45897156000001],[1.0750723300000118,41.45917450000002],[1.0751498899999774,41.459413040000015],[1.0753562699999861,41.45971737999997],[1.0754954199999816,41.45996812999999],[1.0721381700000165,41.462434719999976],[1.0688471000000277,41.4640053],[1.0687948400000096,41.464003909999974],[1.0687356799999748,41.463994179999986],[1.0686471700000197,41.46397089999999],[1.0684169300000121,41.463891649999994],[1.068207369999982,41.463815710000006],[1.0681041500000106,41.463765480000006],[1.0680231700000036,41.46372021000002],[1.0679737099999898,41.463692270000024],[1.0679441500000166,41.46367971000001],[1.0678965999999832,41.46366819000002],[1.067677950000018,41.46365641],[1.0674235899999758,41.46365159999999],[1.0673015799999916,41.46365347],[1.0672455999999784,41.46365573000003],[1.0671330999999782,41.46366986999999],[1.0670396300000107,41.463690670000005],[1.0668881099999794,41.46373077999999],[1.0666934299999866,41.46379488000002],[1.0665583300000208,41.463836379999975],[1.0664866899999765,41.463853640000025],[1.0663450399999874,41.46387980999998],[1.0662034000000062,41.46390599],[1.0660588800000141,41.46394994000002],[1.0659249400000022,41.464000829999975],[1.0657918200000154,41.46405245],[1.0657396799999788,41.464070400000026],[1.065658209999981,41.46409190999998],[1.0655598399999917,41.46411038000002],[1.0654990599999792,41.464112829999976],[1.0654537699999764,41.464109640000004],[1.0653144699999757,41.464077169999996],[1.065268720000006,41.46406744000001],[1.0652178700000263,41.464065860000005],[1.0651675299999965,41.46407159],[1.0650857599999881,41.464095429999986],[1.0649876200000108,41.46413431000002],[1.0649087400000212,41.464173519999974],[1.064854500000024,41.46420989000001],[1.0647968800000172,41.46426709999997],[1.0647184499999867,41.46435580999997],[1.064657029999978,41.46442989000002],[1.0645898600000123,41.46452067000001],[1.064565909999999,41.464585209999996],[1.0645492699999863,41.46467765],[1.0645338699999911,41.46478466000002],[1.064526179999973,41.46483798999998],[1.0645060300000182,41.46488746],[1.064459090000014,41.46494575000003],[1.0644325299999764,41.46497520999998],[1.064372330000026,41.46503075999999],[1.0643047500000193,41.46508134999999],[1.0641641199999867,41.46517118000003],[1.064035409999974,41.465227200000015],[1.063903919999973,41.46526394],[1.063782720000006,41.465284870000005],[1.0635961899999984,41.465295819999994],[1.0634337600000094,41.46530228],[1.0632430599999907,41.465307670000016],[1.06297490999998,41.465310269999975],[1.0626978299999905,41.46529708000003],[1.0625808699999766,41.46529349999997],[1.0624210799999787,41.46527918999999],[1.0622900299999856,41.465256950000025],[1.062121970000021,41.46522299999998],[1.0619958799999836,41.46519503000002],[1.0618710599999872,41.46516464000001],[1.061755230000017,41.46511964000001],[1.0617293000000245,41.46510767000001],[1.0616288699999927,41.46504654],[1.0615942800000084,41.46502776],[1.061545360000025,41.46501208000001],[1.0614820000000122,41.465004609999994],[1.0614027799999803,41.465007060000005],[1.0613205799999719,41.46502099000003],[1.061262499999998,41.46504145],[1.0611701299999936,41.465095280000014],[1.0609993900000063,41.46519940000002],[1.0608917900000279,41.465266180000015],[1.0608529099999942,41.465301409999995],[1.0608167999999978,41.465345609999986],[1.0607324399999811,41.465438259999985],[1.0606575599999815,41.46549190000002],[1.0606089500000166,41.46551593999999],[1.0605633200000284,41.465534400000024],[1.060408040000027,41.46556769],[1.060229330000027,41.46560181000001],[1.0600223000000142,41.46564181999997],[1.0598670300000208,41.465672040000015],[1.0597494200000028,41.465695719999985],[1.0596178900000268,41.465723860000026],[1.0595521999999846,41.46573837],[1.0594368800000211,41.46577051999998],[1.0593986999999743,41.465782260000026],[1.0593127899999786,41.465820080000015],[1.0592976199999953,41.465824999999995],[1.0592323999999849,41.46583764000002],[1.059144090000018,41.46583986000002],[1.0589265599999749,41.46583755],[1.058832069999994,41.465837050000005],[1.0587739299999726,41.46583701999998],[1.058714909999992,41.46584071000001],[1.0586568100000022,41.46584945000001],[1.0585475999999971,41.465873999999985],[1.0584024899999918,41.46590752999998],[1.0582182900000134,41.46595103999999],[1.0581445999999914,41.46596871000003],[1.0580643100000202,41.46599077000002],[1.0579765800000018,41.46601952999998],[1.0578888499999834,41.46604829],[1.0577643500000136,41.46609135],[1.0576982100000123,41.466116899999975],[1.0576562200000126,41.46613952000001],[1.0575468000000114,41.46621521999998],[1.057485750000012,41.46625057],[1.0573805799999718,41.46629804000003],[1.0572260299999812,41.46635499000001],[1.0571370800000182,41.466378340000006],[1.0570456300000046,41.46639725],[1.0569337800000085,41.466413820000014],[1.0568779399999926,41.466418910000016],[1.0567482700000141,41.46642055000001],[1.0566656299999977,41.46641734999997],[1.046425539999973,41.47347388999998],[1.0462497299999995,41.47355590000001],[1.0460897400000135,41.47361978999999],[1.0459801599999992,41.47365755999999],[1.045824390000007,41.47372232999999],[1.0456645699999854,41.47380027000003],[1.0455424400000197,41.47386528999999],[1.04544881999999,41.47391517],[1.0452578000000017,41.474014239999974],[1.0450234699999896,41.47410479000001],[1.0448383300000046,41.474188649999974],[1.0446531800000116,41.474272499999984],[1.044407490000026,41.474366499999974],[1.0442675099999974,41.474435719999974],[1.0441275300000257,41.47450494999998],[1.043974999999989,41.47464277],[1.043939019999982,41.474700429999984],[1.043881660000011,41.474755930000015],[1.0435467699999776,41.475006740000026],[1.0433362800000054,41.47517829999998],[1.0431547900000169,41.47533548000001],[1.0430266600000095,41.47545653999998],[1.042979800000012,41.47550340999999],[1.0429466200000093,41.47554752000002],[1.0429098700000168,41.475610700000004],[1.042875630000026,41.47569802999999],[1.0428715499999726,41.475766050000004],[1.0429022100000225,41.47590337999998],[1.0429174099999727,41.47596912],[1.0429253899999935,41.47604247999999],[1.0429167300000017,41.47608339999999],[1.042878050000013,41.47618671999999],[1.0428128899999933,41.47635038999999],[1.0427914900000133,41.476460540000005],[1.042759349999983,41.47654563999998],[1.0427125799999999,41.476639509999984],[1.0426658000000089,41.47673336999998],[1.042597360000002,41.476858530000015],[1.042562060000023,41.47692138000002],[1.0425216099999943,41.476982109999994],[1.0424811600000226,41.477042849999975],[1.042435409999996,41.47709056999997],[1.0423519000000283,41.47715346000001],[1.0421767000000273,41.47725846999998],[1.0419974100000218,41.47736615000002],[1.0417664299999956,41.47750917000002],[1.0414623600000255,41.47769506999998],[1.0412757500000112,41.47780298999999],[1.041173839999999,41.47786632999998],[1.0410318099999927,41.47797730000002],[1.0408801799999878,41.47810098999997],[1.0407644399999754,41.478196019999984],[1.0406198300000256,41.47830520000002],[1.0404074300000161,41.47842059999999],[1.0403517099999817,41.47846126000002],[1.0402878300000111,41.47852444],[1.0401816099999905,41.47862756000001],[1.0401392699999974,41.47866749999997],[1.0398696400000063,41.47887924999998],[1.0395641800000135,41.479111999999986],[1.0393571999999835,41.479182149999986],[1.038901409999994,41.47926847000002],[1.0387678299999834,41.479291709999984],[1.0386533099999724,41.47929830999999],[1.0385758200000055,41.4792946],[1.038332760000003,41.47927154000001],[1.037454519999983,41.47999220000003],[1.0464597700000127,41.484416350000004],[1.0485039399999891,41.487543140000014],[1.0484050200000183,41.487586410000006],[1.048355239999978,41.487620419999985],[1.0483165399999734,41.48766082999998],[1.0482627000000093,41.487738639999975],[1.0482144800000128,41.48790255],[1.0481839400000013,41.488006059999975],[1.048168550000014,41.488057949999984],[1.0481593200000248,41.48808201999998],[1.0481391299999814,41.48811626000003],[1.0481131299999902,41.48814834000001],[1.0479461900000047,41.48830699000001],[1.047913660000006,41.488341030000015],[1.0478853399999934,41.48837071999998],[1.047829809999996,41.488437050000016],[1.0477792099999874,41.48850654],[1.0477110499999753,41.48859845999999],[1.0476939900000275,41.48862011],[1.047637619999989,41.48868220000003],[1.0475787799999807,41.48874316000001],[1.0475047599999812,41.488810720000004],[1.0474679999999807,41.48884418],[1.0474312399999803,41.488877650000006],[1.047414549999985,41.488894930000015],[1.0473938100000169,41.488923399999976],[1.0473774399999911,41.488954009999986],[1.0473491899999772,41.48902117],[1.04732094000002,41.489088330000016],[1.0472948899999892,41.48915615999999],[1.0472688300000073,41.48922399000003],[1.0472086899999908,41.48939985999999],[1.0471793899999966,41.489488170000016],[1.0471500799999944,41.48957647999998],[1.0471170100000222,41.48966472000001],[1.0470980200000213,41.48970867000003],[1.0470790300000203,41.48975260999998],[1.0470670199999859,41.48977384],[1.0470550000000003,41.489795070000014],[1.047038079999993,41.489816039999994],[1.0470173799999998,41.48983506000002],[1.0469740099999854,41.489865210000005],[1.0469306400000278,41.48989537],[1.0468415000000277,41.48995203999999],[1.046684149999976,41.49004618999999],[1.0465209700000173,41.490142760000026],[1.0463942299999758,41.490222930000016],[1.0463304599999788,41.49026949],[1.0462876700000265,41.490300830000024],[1.046254719999979,41.490333050000004],[1.0461867199999801,41.490415480000024],[1.0461591000000112,41.49044193999998],[1.0460779100000082,41.49050496000001],[1.045962760000009,41.49059172],[1.0459143400000244,41.49063057000001],[1.0458724100000154,41.49067458000002],[1.0458633800000143,41.49070396000002],[1.0458629199999905,41.49072331999997],[1.0458679999999845,41.490769339999986],[1.0458814400000165,41.49084026999998],[1.0458859299999972,41.490876370000024],[1.0458904100000268,41.49091248000002],[1.0458902199999898,41.49095066000001],[1.0458819500000232,41.49100671999997],[1.0458695099999886,41.491062080000006],[1.0458565700000122,41.49110977999999],[1.0458305099999734,41.49117985999999],[1.045813169999974,41.49121487000002],[1.0457923399999913,41.491250089999994],[1.0457626799999957,41.491284440000015],[1.0456920699999728,41.491338180000014],[1.0456443799999988,41.491366640000024],[1.0455841400000168,41.491397860000006],[1.0454895199999896,41.49143742000001],[1.0453877599999828,41.49147117000001],[1.0453294899999719,41.49148487000002],[1.0452842400000009,41.491491929999995],[1.0452163100000007,41.49149627000003],[1.0451493499999742,41.49149225000002],[1.0450436099999934,41.49148334],[1.0448703100000216,41.49150867999998],[1.0446542399999998,41.491595949999976],[1.0443507499999782,41.49175127000001],[1.0441844499999888,41.491839389999996],[1.0440241399999763,41.491965049999976],[1.043862869999998,41.492122789999996],[1.043738440000027,41.492238369999995],[1.0436133700000028,41.492375330000016],[1.0434015100000238,41.49255896],[1.0432121100000131,41.492705520000015],[1.0429793999999788,41.492872750000004],[1.042841870000018,41.49295065000001],[1.04259540999999,41.49310158999998],[1.042356390000009,41.49324195999998],[1.042210300000022,41.49336785999998],[1.042121580000014,41.49347869000002],[1.0420401399999832,41.49358430000001],[1.0419308900000033,41.49366802999998],[1.0418090300000244,41.49369804999998],[1.041644980000001,41.49371130999998],[1.0414654200000086,41.493767100000014],[1.0413616800000227,41.49390441999998],[1.04127797000001,41.49408488],[1.0412396799999897,41.494175170000005],[1.041192179999996,41.49433484000002],[1.0411118600000009,41.49440301999999],[1.040954279999994,41.49443778],[1.0407813499999747,41.49446474000001],[1.0406679399999916,41.49450331000003],[1.0406048199999987,41.494561869999984],[1.04052729,41.49467658999998],[1.0403942799999868,41.494840160000024],[1.0401318199999992,41.495049670000014],[1.0398124600000074,41.49525820000002],[1.0393928999999957,41.49548643000003],[1.039239039999984,41.49563360000002],[1.0390535000000227,41.49588720999998],[1.0389683399999967,41.496115789999976],[1.0388768700000242,41.49631750999998],[1.0387669699999833,41.496422629999984],[1.0386150400000247,41.49650563],[1.0384626300000264,41.49660467000001],[1.0383739000000105,41.49671549999999],[1.038329439999984,41.496845070000006],[1.0373923199999808,41.49891861999998],[1.0394506800000158,41.50137652000001],[1.0416825600000266,41.50070391000003],[1.0421324499999969,41.500653390000025],[1.0422770199999718,41.50062854999999],[1.042496070000027,41.50054272],[1.0425968100000205,41.50047781000001],[1.0427745000000073,41.500318100000015],[1.0430711600000109,41.50001844000002],[1.0434921199999962,41.49983666000003],[1.0438818399999832,41.49969979999997],[1.0443105300000184,41.49958118000001],[1.044990050000024,41.49936815000001],[1.045577069999979,41.49919933000001],[1.04578669,41.49904015999999],[1.046646140000007,41.49847864999998],[1.0471323799999936,41.49804474000001],[1.0475421599999777,41.49785987000001],[1.0479390899999999,41.49770332999998],[1.048699259999978,41.49744756000001],[1.0495410500000162,41.49713419],[1.0497429600000032,41.49699091000002],[1.0498335500000167,41.49687484999998],[1.0499816700000224,41.49668295999999],[1.050165789999994,41.49635625000002],[1.0503666999999837,41.49614778],[1.0505915599999867,41.495915679999996],[1.0509270300000253,41.49565332999998],[1.0512094299999717,41.49546307999998],[1.0515410300000099,41.495352930000024],[1.0520047499999805,41.49519642000001],[1.0523970799999915,41.49504688000002],[1.0528537800000208,41.49478540000001],[1.05325074000001,41.494529460000024],[1.0534782899999868,41.49438392000002],[1.053895080000018,41.49425912999999],[1.055395390000001,41.49402457000002],[1.0560161600000129,41.49394103999998],[1.0562657500000228,41.49389702000002],[1.0565317200000095,41.493776019999984],[1.0566814900000168,41.493666229999974],[1.0568111000000044,41.49355810999998],[1.0571744499999909,41.49317346999999],[1.0576559699999848,41.492715110000006],[1.0578525700000228,41.49253815999998],[1.0580562800000166,41.49233191000002],[1.0584245900000155,41.49215901000002],[1.0587481000000025,41.49202686000001],[1.0594643100000098,41.49158569999997],[1.0599176200000215,41.491289730000005],[1.0601273500000161,41.49110318999999],[1.0602293900000177,41.49098157999998],[1.0602965100000006,41.49085925999998],[1.0603835399999753,41.49040402000003],[1.0604185099999768,41.49018798999998],[1.060516199999995,41.48997301000003],[1.0607214899999917,41.48980547000002],[1.0612018400000238,41.489277379999976],[1.0613523499999928,41.48912149],[1.0614782100000184,41.488991899999974],[1.0616130000000226,41.48887192000001],[1.0623183000000154,41.48852237],[1.0628811899999846,41.488215009999976],[1.063857789999986,41.48762011000002],[1.0642595300000153,41.48739501],[1.068986940000002,41.487043029999995],[1.0695912300000145,41.48680575999998],[1.070127150000019,41.48663098999998],[1.0707804499999725,41.48644366000002],[1.0711763599999813,41.48630448],[1.0719205600000237,41.48620686999999],[1.07291373999999,41.485908929999994],[1.0732888900000148,41.48572216000002],[1.073917750000021,41.48552086000001],[1.074263089999988,41.48544562000001],[1.0748639500000081,41.48539825],[1.0753934200000117,41.48529628],[1.076114949999976,41.48501021999999],[1.0767852199999766,41.48472115999999],[1.0776142500000105,41.48436824999999],[1.0784260400000107,41.48401934999998],[1.0790018999999802,41.483739420000006],[1.0794827099999793,41.483413600000006],[1.0799894599999789,41.48294303],[1.0801949799999875,41.482682239999974],[1.0803907600000002,41.48239208000001],[1.0805425400000104,41.482081470000026],[1.0806057600000258,41.481641379999985],[1.08080609000001,41.48146661999999],[1.0820989000000054,41.48035334000002],[1.082168519999982,41.48038045999999],[1.0823687600000085,41.48020931999997],[1.0825743600000237,41.480023019999976],[1.082721900000024,41.47989068999999],[1.0828060800000117,41.47981893000002],[1.0828605899999957,41.479745750000006],[1.0829160499999944,41.479639220000024],[1.0829648000000134,41.47951088999997],[1.0830629899999735,41.47947409],[1.0832535800000187,41.47942346000002],[1.083559379999997,41.47934785000001],[1.083738320000009,41.47931127999999],[1.083826359999989,41.47930616999997],[1.0839346999999862,41.479306440000016],[1.084027820000017,41.47929878999997],[1.084227329999976,41.479254930000025],[1.0844888799999808,41.47918636000003],[1.0846059099999934,41.47913469000002],[1.0847574499999837,41.47902461000001],[1.0848979799999938,41.478886939999995],[1.0850737499999923,41.47866819000001],[1.085209969999994,41.478519800000015],[1.085262499999999,41.478471479999996],[1.0853619000000094,41.47839319000002],[1.0854695500000275,41.47834732000001],[1.0855622000000267,41.478325040000016],[1.0856853199999819,41.47830941000001],[1.0857959200000096,41.47830202],[1.0859060600000134,41.478300880000006],[1.0861324499999796,41.478298989999985],[1.0864164000000187,41.47828719],[1.0865998900000022,41.478226070000005],[1.0867890299999772,41.47818121],[1.0869544799999744,41.47814887999999],[1.0871016899999972,41.47811071000001],[1.0873063500000058,41.478033219999986],[1.0874043700000016,41.477949060000014],[1.0875013300000091,41.47784820999999],[1.0875650699999824,41.477785299999994],[1.0876543300000208,41.477739129999975],[1.0877576600000225,41.47770086999998],[1.0878167999999846,41.47767111000002],[1.0878671899999972,41.47762583000002],[1.0880340900000078,41.477441810000016],[1.0881586699999843,41.47734165000003],[1.0882514699999888,41.47731398000002],[1.0883985099999904,41.47732601000001],[1.0885511600000086,41.47734055000001],[1.0889338399999815,41.477356799999995],[1.0891048400000045,41.47735398999998],[1.089240440000026,41.47734141000001],[1.0893762300000276,41.47729884],[1.089527959999998,41.47721373000002],[1.0897973699999852,41.47704994999998],[1.0900694599999952,41.47689752000002],[1.09035437,41.47677700999998],[1.0905884300000253,41.47668064999999],[1.0908224500000188,41.47656955000002],[1.091106179999997,41.476524170000005],[1.0913053200000036,41.47653212],[1.091534299999978,41.476635629999976],[1.0920388900000262,41.47688495],[1.0921467100000086,41.47700044999999],[1.0921766800000228,41.477209440000024],[1.0922228300000256,41.47726836999999],[1.0929219899999794,41.47766494000001],[1.0935067600000252,41.47802730000001],[1.0938426499999991,41.47816949999998],[1.0940614500000265,41.47818246999998],[1.0998582099999794,41.476333839999995],[1.1045815900000093,41.47534897000003],[1.1053242599999749,41.47452068000001],[1.1059836700000005,41.47370747999997],[1.1062848899999835,41.47339776000001],[1.1064391900000032,41.47321851999999],[1.106545849999975,41.472937479999985],[1.106592169999999,41.47265368000001],[1.1065638499999864,41.47235823],[1.1064598599999727,41.47196783999999],[1.1064285499999755,41.471762049999995],[1.1064620799999716,41.471537109999986],[1.1065236399999776,41.47136157],[1.1070916900000043,41.47060942000002],[1.1072443499999736,41.47039487000001],[1.1073337700000252,41.470140730000026],[1.1073152100000243,41.46997295],[1.1071300400000155,41.46954961],[1.1070949200000086,41.469352379999975],[1.1070257299999753,41.469013159999975],[1.1070078500000022,41.468851470000004],[1.1071569999999724,41.46857699999998],[1.1073773900000106,41.46823759],[1.107584270000018,41.46790446],[1.1078701199999728,41.467511609999974],[1.1080647599999907,41.46717416000001],[1.1098350500000151,41.467106150000006],[1.111303640000017,41.46723365999998],[1.1121755899999926,41.467013339999994],[1.1127421099999992,41.46820865000001],[1.1137904099999787,41.468882450000024],[1.1153011299999775,41.468729259999975],[1.1165604600000165,41.468954250000024],[1.1166276399999902,41.46982527],[1.1183482899999717,41.469961660000024],[1.1197053899999787,41.46946274999999],[1.1210917999999879,41.471123850000026],[1.1297282799999948,41.47383001999998],[1.1293418299999871,41.47509554999999],[1.1297915200000261,41.476141900000016],[1.130531239999982,41.47685366000002],[1.1366686000000072,41.47809142],[1.1383388400000172,41.47818431000002],[1.1416151899999818,41.47867846999998],[1.143495420000022,41.478871760000004],[1.145885519999979,41.479361770000025],[1.150161130000015,41.48012576000002],[1.155017120000025,41.480787580000026],[1.1604452000000265,41.48177964000001],[1.162857889999998,41.48243057000002],[1.1687403899999822,41.48490050999999],[1.1698154100000124,41.48523066000001],[1.170788679999987,41.48565454999999],[1.172442139999987,41.48697217],[1.1735835100000145,41.487029740000025],[1.1747890500000153,41.486967909999976],[1.175311469999997,41.486525700000016],[1.175764700000002,41.48631111999998],[1.1763751699999716,41.48630693000001],[1.1770551999999839,41.48645327999998],[1.1785116400000106,41.486940559999994],[1.1809463000000164,41.48811257],[1.182993969999984,41.48811002999997],[1.1846344699999918,41.488293380000016],[1.1874389899999755,41.488884489999975],[1.1896713300000101,41.48914523000002],[1.1909191099999816,41.489180739999995],[1.1926036199999999,41.489488429999994],[1.1987971899999934,41.49063080000002],[1.2010218699999768,41.492251280000005],[1.205090929999983,41.49590221],[1.2092723700000079,41.49610913999999],[1.2100822699999867,41.496961880000015],[1.2130023199999869,41.50006030999998],[1.2111925300000053,41.505394249999995],[1.2134029499999883,41.508626719999995],[1.2189079199999924,41.50651561000001],[1.2196657299999742,41.506379700000025],[1.2270575499999836,41.508782010000004],[1.2253338400000189,41.51523851000002],[1.2244633500000077,41.52118637000001],[1.2269644400000175,41.521139310000024],[1.2326201600000104,41.52169623999998],[1.2327141999999753,41.52056723999999],[1.232471729999986,41.51997290000003],[1.232449669999994,41.51945146000003],[1.2328569599999923,41.518716100000006],[1.2333674800000267,41.51809399000001],[1.2340114200000016,41.51878156999999],[1.237929529999974,41.522085600000025],[1.2386682200000223,41.52257156000002],[1.2466734800000268,41.525337079999986],[1.2343560900000057,41.54240771000002],[1.2345067900000117,41.54237993999999],[1.2346871699999724,41.54233811],[1.2349017999999887,41.54226804000001],[1.2349855599999842,41.54223952000001],[1.235152630000016,41.542182060000016],[1.235277989999986,41.54212947000002],[1.235398640000028,41.54207007000002],[1.2355931700000156,41.541962179999985],[1.2358356999999955,41.541828090000024],[1.2359518600000001,41.54175392000002],[1.2359813499999746,41.541733850000014],[1.236017170000025,41.54170561000001],[1.236093110000013,41.54162653999998],[1.236125130000005,41.54158844],[1.2361656200000084,41.54155352999999],[1.23624405999999,41.54150236999999],[1.236272050000025,41.54149238000002],[1.236351060000004,41.54147981],[1.2363814799999773,41.541470790000005],[1.2364091599999938,41.54145712000002],[1.236521630000027,41.54138351],[1.2366532300000017,41.54129640000002],[1.236769009999989,41.54122100000001],[1.2368436799999927,41.541173449999974],[1.236887309999986,41.5411512],[1.2369598500000052,41.541128679999986],[1.2370891599999823,41.54109575000001],[1.237214789999996,41.54106275999999],[1.2373098099999993,41.54104646000002]]]}}]}