{"type": "FeatureCollection", "features": [{"type": "Feature", "properties": {"OBJECTID": 1746, "ZON_CO_ID": 29, "ZON_DS_NOM": "Jumilla", "CAL_DS_NOM": "D.O.Jumilla", "TPR_DS_DES": "Denominación de Origen", "TPR_DS_GRU": "CALIDAD DIFERENCIADA", "FAM_DS_NOM": "Vinos"}, "geometry": {"type": "Polygon", "coordinates": [[[-1.2850827199999912, 38.83207422999999], [-1.2825732000000016, 38.83055961000002], [-1.2778212900000199, 38.82840816999999], [-1.2769393799999875, 38.82771936], [-1.2759501699999873, 38.82670458000001], [-1.2750546099999838, 38.826105659999996], [-1.272601580000014, 38.82417715999998], [-1.2707278600000222, 38.822590590000004], [-1.2679928900000164, 38.82042354999999], [-1.2633215199999768, 38.816425519999996], [-1.261732870000003, 38.815446759999986], [-1.2601019400000268, 38.81431415999998], [-1.2572178300000019, 38.81262220999997], [-1.2548838600000067, 38.81133937999999], [-1.2542517200000134, 38.81099203000002], [-1.2524910100000284, 38.80952400000001], [-1.2506471500000202, 38.80816281], [-1.249258750000024, 38.807015680000006], [-1.244085900000016, 38.80241466000001], [-1.241633859999979, 38.80051257000002], [-1.236440640000012, 38.796775930000024], [-1.2347087300000226, 38.79556937000001], [-1.2339861099999894, 38.79499077000003], [-1.2325502499999743, 38.79345525000002], [-1.2304631100000165, 38.791720629999986], [-1.2286309599999754, 38.790386309999974], [-1.2257976000000212, 38.78810865999998], [-1.224684850000017, 38.787019480000026], [-1.223898609999992, 38.78576405000001], [-1.2224595700000123, 38.784372529999985], [-1.2182194399999844, 38.781280330000016], [-1.214626590000023, 38.778558309999994], [-1.2136709800000176, 38.77764263], [-1.2124017900000013, 38.77683927999999], [-1.2091362699999877, 38.77459514999998], [-1.2082825800000023, 38.774009879999994], [-1.2040337700000237, 38.77085396000001], [-1.200782619999984, 38.76831698000001], [-1.1883805599999846, 38.759006450000015], [-1.1875572100000227, 38.758344910000005], [-1.1868649699999878, 38.75750518000001], [-1.1836350699999798, 38.75508517999998], [-1.1839375700000119, 38.75495472], [-1.1843889099999956, 38.75474098000001], [-1.1847296000000256, 38.754579569999976], [-1.1854523599999993, 38.75421234999999], [-1.1862098500000116, 38.75383664999998], [-1.1870487699999899, 38.75342617000001], [-1.187574139999981, 38.75312795999997], [-1.1880753699999786, 38.75287442000001], [-1.1886115500000187, 38.752603410000006], [-1.1894502100000182, 38.75220191], [-1.1903082300000278, 38.751944890000004], [-1.1911073699999974, 38.75174100999999], [-1.191999199999998, 38.75151152000001], [-1.1932859699999767, 38.75113496], [-1.1943052199999897, 38.750871389999986], [-1.1954295699999875, 38.75054634999998], [-1.195975400000009, 38.75034754000001], [-1.1960364299999924, 38.75029440999998], [-1.197316360000002, 38.74918782999998], [-1.1979171899999983, 38.74908897], [-1.1988071499999933, 38.74893149000002], [-1.1996398300000237, 38.748764110000025], [-1.2005293400000028, 38.74862464], [-1.20138479000002, 38.74846660999998], [-1.2021592699999815, 38.748325350000016], [-1.2030377199999975, 38.74816765999998], [-1.2039854000000219, 38.74800202], [-1.2045900300000199, 38.747894169999995], [-1.2053031699999792, 38.747760959999994], [-1.2058690200000228, 38.74767953999998], [-1.2066087499999867, 38.74754673000001], [-1.2075446900000202, 38.74738989000002], [-1.2085967699999856, 38.74718976999998], [-1.2088743900000054, 38.747130949999985], [-1.2092431300000044, 38.74710957000002], [-1.2101662000000033, 38.747006580000004], [-1.2109853100000123, 38.74692001], [-1.2116312100000073, 38.746857809999995], [-1.212750260000007, 38.746739779999984], [-1.2136158199999727, 38.746635879999985], [-1.214503929999978, 38.74655032999999], [-1.2154612699999916, 38.74645683], [-1.2163728300000116, 38.74635361999998], [-1.217353179999975, 38.74626045000002], [-1.2181609900000012, 38.746164650000026], [-1.2184952100000146, 38.746142710000015], [-1.2194047500000238, 38.746120529999985], [-1.2202574500000196, 38.74607044999999], [-1.2210059600000136, 38.74604581], [-1.2217664199999945, 38.74600332], [-1.22228444000001, 38.74599318999998], [-1.2228142000000162, 38.745974219999994], [-1.2237137899999766, 38.74588877999997], [-1.2247374500000205, 38.74590433999998], [-1.2256025400000112, 38.745818369999995], [-1.2266158099999984, 38.74578869999999], [-1.2275731299999961, 38.74569509999998], [-1.2283267600000158, 38.74546323999999], [-1.2287481700000171, 38.74517227000001], [-1.229218469999978, 38.744764910000015], [-1.2302417399999968, 38.74432988000001], [-1.2310774100000117, 38.744036170000015], [-1.2319690300000161, 38.743806380000024], [-1.2329535399999827, 38.74354194], [-1.233857100000023, 38.743294289999994], [-1.2347719200000142, 38.743055819999995], [-1.2355823400000077, 38.74285179999998], [-1.2358499800000118, 38.742729689999976], [-1.2362226700000178, 38.74254609000002], [-1.2366407100000174, 38.742390209999996], [-1.2370738999999844, 38.74220301999998], [-1.2374778899999797, 38.742033400000025], [-1.2377806800000144, 38.74188478999997], [-1.2382221600000207, 38.74171123000002], [-1.2386401900000124, 38.74155533999999], [-1.239610319999997, 38.74131765999999], [-1.2406086500000129, 38.74104435999999], [-1.241464599999972, 38.74085901000001], [-1.2421707999999967, 38.74068040999998], [-1.2425994299999843, 38.74056071000001], [-1.242637249999973, 38.74048468000001], [-1.2426841399999944, 38.740390779999984], [-1.2427699400000165, 38.74017580999998], [-1.242917229999989, 38.73979957], [-1.2430600999999797, 38.73960348000003], [-1.243284200000005, 38.73952575999999], [-1.2435364899999968, 38.73941241], [-1.2438390400000117, 38.73927278999997], [-1.244315429999972, 38.739081709999994], [-1.2451286500000265, 38.73876052999998], [-1.2454307500000255, 38.73863892000003], [-1.245884569999987, 38.73842947000003], [-1.2461400099999764, 38.73833418999999], [-1.2468627900000229, 38.73841712000001], [-1.2477120899999932, 38.73850195], [-1.2484813099999883, 38.73856755000003], [-1.2495942499999728, 38.738692360000016], [-1.249757240000008, 38.73861369999997], [-1.2500610899999742, 38.73842001999998], [-1.2503649500000051, 38.738226329999975], [-1.2510781400000042, 38.73775943999999], [-1.2513518599999998, 38.737592329999984], [-1.2518256100000258, 38.73730207], [-1.2520478499999967, 38.73715220999998], [-1.2524551999999858, 38.73696006], [-1.2539483300000143, 38.73611734999997], [-1.2546838200000252, 38.73567781000003], [-1.2554893999999877, 38.73519424], [-1.2557463499999812, 38.735035890000006], [-1.256202309999992, 38.734736329999976], [-1.2569273600000201, 38.73425155000001], [-1.2576526299999955, 38.73375777000001], [-1.2582843499999967, 38.73332565999999], [-1.258927789999973, 38.73288471000001], [-1.2596304699999905, 38.73237255999999], [-1.2603324799999882, 38.73188742000002], [-1.2610574799999767, 38.73140261999998], [-1.261806120000017, 38.730891129999975], [-1.2620869200000016, 38.73069707000002], [-1.2624621100000013, 38.73040529999997], [-1.2627774000000045, 38.730211750000024], [-1.263436200000001, 38.72960881], [-1.2638124700000049, 38.72927198999997], [-1.2639303000000268, 38.72915660000001], [-1.2644957699999964, 38.728547760000026], [-1.2645375999999828, 38.72851234000001], [-1.2651105300000154, 38.727921630000026], [-1.265665370000022, 38.727335159999996], [-1.2662204100000167, 38.72673966999997], [-1.2665313599999877, 38.72624868999998], [-1.266822359999992, 38.72563127000001], [-1.2671704100000056, 38.725032709999994], [-1.267447720000007, 38.724505179999994], [-1.2678094299999998, 38.723816709999994], [-1.2681466099999739, 38.72319096000001], [-1.2684364899999991, 38.72261856], [-1.2685445399999935, 38.72243093999998], [-1.2689357300000097, 38.72195015], [-1.2694920100000218, 38.721300600000006], [-1.2699777700000254, 38.720713079999996], [-1.2708779000000163, 38.7196361], [-1.2709724900000197, 38.719529369999975], [-1.271528950000004, 38.71887081], [-1.271965869999974, 38.71839970000002], [-1.272556370000018, 38.71775966000001], [-1.2730872100000283, 38.71720884000001], [-1.273619119999978, 38.71661297000003], [-1.274197230000027, 38.71600877999998], [-1.2747866099999783, 38.71541375999999], [-1.2749408399999993, 38.715217800000005], [-1.2754948499999728, 38.714658299999996], [-1.2761295399999995, 38.71409097999998], [-1.2768113000000199, 38.71347929000001], [-1.2774928300000283, 38.71287661000002], [-1.2780927800000086, 38.71231777000003], [-1.2787057400000208, 38.71169605], [-1.2792802000000165, 38.71124044999999], [-1.2793857199999934, 38.71115639999999], [-1.280091710000022, 38.71049098999998], [-1.2806903300000272, 38.70998617999999], [-1.281219969999995, 38.709480359999986], [-1.281702110000026, 38.70903691000001], [-1.2818971500000202, 38.70884604999998], [-1.2823850600000242, 38.70837114], [-1.2824796200000037, 38.70826440000002], [-1.2832076799999754, 38.707635340000024], [-1.2838190400000258, 38.707076640000025], [-1.2841339500000117, 38.706892040000014], [-1.2847750600000154, 38.70653200999999], [-1.2855332600000224, 38.706083579999984], [-1.2861617099999876, 38.705741380000006], [-1.2866284899999982, 38.70548690999999], [-1.2868950399999903, 38.70540072], [-1.2878473600000007, 38.70500919], [-1.2888326500000176, 38.70468120999999], [-1.28992310000001, 38.704282680000006], [-1.2909558599999968, 38.70389230000001], [-1.291361199999983, 38.70377208000002], [-1.292683899999986, 38.70327780000002], [-1.2934120099999973, 38.70297305999998], [-1.2935201299999903, 38.70292957999999], [-1.2947401900000273, 38.70239773999998], [-1.295691999999974, 38.70202416000001], [-1.296911399999999, 38.70151930999998], [-1.2977020399999901, 38.70115236999999], [-1.2985056599999893, 38.70072255000002], [-1.2993857199999752, 38.70031184999999], [-1.299712349999993, 38.7001454], [-1.3004952000000003, 38.69974229000002], [-1.300867299999993, 38.699567479999985], [-1.3017517700000099, 38.699120789999995], [-1.3026123999999868, 38.69870978], [-1.3034040499999833, 38.69829777000001], [-1.304148639999994, 38.697930120000024], [-1.3048815199999808, 38.69757131], [-1.306568000000027, 38.696757760000025], [-1.30721613999998, 38.69657791999998], [-1.3080720400000132, 38.69636505], [-1.308857900000021, 38.696196199999974], [-1.3096563099999798, 38.69598248], [-1.3101305499999967, 38.69586319000001], [-1.3111709699999778, 38.695625930000006], [-1.3116207200000076, 38.69556935000003], [-1.3125466199999778, 38.69531239999998], [-1.312663040000018, 38.69525100999999], [-1.3128624700000273, 38.695082679999985], [-1.3134939500000087, 38.694632239999976], [-1.3141513699999905, 38.694056020000005], [-1.3147381200000154, 38.693550870000024], [-1.3155926100000102, 38.69290539999997], [-1.3164128099999743, 38.69225041999999], [-1.317057429999977, 38.69172806], [-1.317702880000013, 38.69116967000002], [-1.318324070000017, 38.690665000000024], [-1.3189795100000197, 38.690169819999994], [-1.3195651500000167, 38.68970968000002], [-1.320138859999986, 38.68926737999999], [-1.3206149299999765, 38.68906698000001], [-1.321474070000022, 38.688709879999976], [-1.3222406200000023, 38.688378469999975], [-1.3226138800000058, 38.68814954999999], [-1.3235703999999942, 38.68755955], [-1.324386479999987, 38.68707565], [-1.324804850000021, 38.68688341000001], [-1.325341719999983, 38.68653969000002], [-1.3258773200000178, 38.68624999999997], [-1.3267978499999913, 38.68572253000002], [-1.327624749999984, 38.685265809999976], [-1.3281592899999737, 38.68502115000001], [-1.3282117599999879, 38.684742570000026], [-1.3283323499999824, 38.68450100000001], [-1.3285536800000273, 38.683882410000024], [-1.3288341499999774, 38.683192589999976], [-1.3289698500000213, 38.682888160000005], [-1.3291424500000062, 38.682449099999985], [-1.3292485700000043, 38.68218029000002], [-1.3302459099999737, 38.68180708], [-1.3311834799999929, 38.681532119999986], [-1.332053540000004, 38.68119311999999], [-1.333072790000017, 38.68086525000001], [-1.3340700900000115, 38.680492000000015], [-1.3353553100000113, 38.68009582000002], [-1.3362708899999802, 38.67977545000002], [-1.3373026400000185, 38.67940267], [-1.3383452400000238, 38.67905707], [-1.3392952699999796, 38.67873716999998], [-1.3402223100000015, 38.67841693999998], [-1.3411144500000205, 38.67811422], [-1.3425627600000212, 38.67762114999999], [-1.3429654099999766, 38.67748268999998], [-1.343524450000018, 38.677292369999975], [-1.344069119999972, 38.677101849999985], [-1.3443231800000035, 38.677051389999974], [-1.344301239999993, 38.67700602000002], [-1.3171742700000095, 38.643557610000016], [-1.300794940000003, 38.622424309999985], [-1.293848330000003, 38.61504228000001], [-1.279959070000018, 38.60653961999998], [-1.2648613499999897, 38.59352088999998], [-1.2476080399999887, 38.577782660000025], [-1.2355646999999976, 38.559083939999994], [-1.2304488500000161, 38.55123013000002], [-1.230256010000005, 38.55093434999998], [-1.2297466399999735, 38.550151700000015], [-1.2295482900000252, 38.54984682000003], [-1.2143766300000038, 38.534621809999976], [-1.2012368700000025, 38.519579299999975], [-1.195466290000013, 38.51325478000001], [-1.1838793399999759, 38.50055013000002], [-1.1728767100000255, 38.48898882999998], [-1.166062860000011, 38.482182490000014], [-1.1554022600000167, 38.471530529999995], [-1.1466994799999952, 38.460012010000014], [-1.1401734699999793, 38.45262751000001], [-1.1313414699999953, 38.44940501999997], [-1.1228412500000218, 38.44711536], [-1.1143271099999765, 38.441860220000024], [-1.111685609999995, 38.44122291000002], [-1.110056840000027, 38.44085419999999], [-1.094162419999975, 38.437929250000025], [-1.093369800000005, 38.43757391999998], [-1.092849660000013, 38.437313140000015], [-1.0918051099999957, 38.436953700000004], [-1.0911470899999927, 38.43670867999998], [-1.090455420000012, 38.43643608000002], [-1.0896731000000273, 38.43612595000002], [-1.0882091600000194, 38.43559743999998], [-1.087778759999992, 38.43541019000003], [-1.0875311099999863, 38.43524394000002], [-1.0869597299999896, 38.43518955000002], [-1.08652957999999, 38.43499329000002], [-1.0862692900000184, 38.43487189000001], [-1.0855666900000074, 38.43458106000003], [-1.0850900199999955, 38.43441107000001], [-1.0848948700000278, 38.43442590000001], [-1.084647949999976, 38.43423263], [-1.0839229300000284, 38.433923400000026], [-1.0835610199999905, 38.43374626000002], [-1.0830848400000264, 38.433558249999976], [-1.0828350599999794, 38.43347305999998], [-1.0826671099999885, 38.43332613000001], [-1.0824318800000015, 38.433124039999996], [-1.0821394000000168, 38.43292100000002], [-1.0816849400000024, 38.43277839000001], [-1.0809687799999779, 38.43256840999999], [-1.0802070600000206, 38.43234867000001], [-1.0795567399999868, 38.432247889999985], [-1.079135210000004, 38.43215987999997], [-1.0788856799999849, 38.432065669999986], [-1.0782284599999912, 38.431793570000025], [-1.077796200000023, 38.43167834000002], [-1.0774102199999902, 38.43154585000002], [-1.0772060200000055, 38.43147040000002], [-1.078175999999985, 38.43117995], [-1.0788807000000133, 38.43095722999999], [-1.0794116100000224, 38.43078121999997], [-1.079608780000001, 38.430716870000026], [-1.0801636599999824, 38.430527719999986], [-1.080867880000028, 38.43032299999999], [-1.0816405499999746, 38.43012841000001], [-1.0823557300000175, 38.42994188], [-1.0827705699999797, 38.42984955999998], [-1.0832331199999885, 38.42968592], [-1.0836137200000167, 38.42958851999998], [-1.0840866500000175, 38.429465600000015], [-1.084847620000005, 38.429279810000025], [-1.0853664599999888, 38.429153129999975], [-1.0852846099999738, 38.42878232999999], [-1.0852225799999928, 38.42852900999998], [-1.0852853000000096, 38.428322779999974], [-1.0853291700000227, 38.42796305000002], [-1.0853012499999863, 38.42771929999998], [-1.0852618800000187, 38.42747536000002], [-1.0852792800000088, 38.427250360000016], [-1.0853698999999892, 38.42685535999999], [-1.0854960600000254, 38.42641587999998], [-1.0856465499999786, 38.425922730000025], [-1.0857257200000276, 38.42552754000002], [-1.0857233099999917, 38.425185080000006], [-1.0856736800000135, 38.424895909999975], [-1.0857239800000116, 38.424482220000016], [-1.0857900199999904, 38.42396065999998], [-1.085759209999992, 38.42339246], [-1.085721030000002, 38.42310348000001], [-1.0856809399999747, 38.422886559999995], [-1.0857353000000103, 38.42256305000001], [-1.0858545500000218, 38.422384780000016], [-1.0858025399999747, 38.422185679999984], [-1.0858445000000074, 38.42189801000001], [-1.0859313099999781, 38.42164711999999], [-1.0859543199999848, 38.42153486000001], [-1.0859839999999963, 38.421386659999996], [-1.0859310299999834, 38.421169529999986], [-1.0859436499999902, 38.42074622000001], [-1.0859951499999738, 38.42053078999999], [-1.0860709799999881, 38.420261700000026], [-1.0860645299999874, 38.420072360000006], [-1.086012750000009, 38.41986426], [-1.085995330000003, 38.41965671999998], [-1.086057330000017, 38.41947750999998], [-1.0861453200000142, 38.419181579999986], [-1.0861450500000274, 38.418758060000016], [-1.0861414500000137, 38.41846063000003], [-1.0861244999999826, 38.41823507999999], [-1.0861786199999983, 38.417920579999986], [-1.0862699300000145, 38.417498550000005], [-1.0863152200000172, 38.41708477999998], [-1.0863962399999991, 38.41618498999998], [-1.086453889999973, 38.41530284999999], [-1.0865079700000138, 38.414555810000024], [-1.086472160000028, 38.414176759999975], [-1.0865539299999796, 38.41368247999998], [-1.0866838599999937, 38.413098890000015], [-1.0867269600000213, 38.412333649999994], [-1.0867593300000067, 38.41154119999999], [-1.0869104799999718, 38.41102102000002], [-1.0870024999999828, 38.41057196999998], [-1.086990539999988, 38.41015727000001], [-1.087096850000023, 38.40960031999998], [-1.0873018699999761, 38.40877463999999], [-1.0874804200000199, 38.40808370000002], [-1.0876353699999868, 38.40741940999999], [-1.0877643300000273, 38.40687184000001], [-1.0878012399999761, 38.40634079], [-1.0878452800000105, 38.40564764999999], [-1.0878859300000272, 38.404431810000005], [-1.0879192699999862, 38.40403586999997], [-1.0879137599999922, 38.40378347000001], [-1.0880205400000023, 38.40323553000002], [-1.088134669999988, 38.40238133999998], [-1.0881091100000049, 38.40204750999999], [-1.0880034400000227, 38.40171237999999], [-1.0877499100000136, 38.40133878], [-1.0876294700000244, 38.40118362999999], [-1.0873955199999727, 38.400882439999975], [-1.08715140999999, 38.40047745999999], [-1.0870992999999771, 38.40039100000001], [-1.0871023500000092, 38.39984136999999], [-1.0871492699999976, 38.39936454999997], [-1.0871198099999901, 38.39917933999999], [-1.0870903399999747, 38.398994130000005], [-1.0870333099999812, 38.39855166000001], [-1.086879720000013, 38.39829684], [-1.0868050600000174, 38.398088359999974], [-1.0866963099999793, 38.39787031999998], [-1.0867248999999788, 38.39765452], [-1.0867544500000008, 38.39740268999998], [-1.0868052199999738, 38.39721429000002], [-1.086798760000022, 38.39702495], [-1.086804939999979, 38.39679075999999], [-1.0868900500000223, 38.39660292000002], [-1.086917920000019, 38.39641413999999], [-1.0868337300000235, 38.39613342000001], [-1.0869070599999873, 38.39508933000002], [-1.0870629300000019, 38.39438899999999], [-1.0871930100000213, 38.39336386000002], [-1.0872518499999728, 38.392869210000015], [-1.0873159199999805, 38.39217639999998], [-1.087377129999993, 38.391591679999976], [-1.0875377300000082, 38.390711210000006], [-1.0875922500000001, 38.389946150000014], [-1.0876872599999956, 38.388947470000005], [-1.0877656600000023, 38.388579289999996], [-1.0877819899999963, 38.38752525000001], [-1.08779616999999, 38.38655226999998], [-1.0877851000000192, 38.38566900000001], [-1.0877999900000077, 38.384668999999974], [-1.0877905799999894, 38.38372267], [-1.0878354800000238, 38.382452820000026], [-1.0878450399999906, 38.38078589999998], [-1.0878341999999748, 38.37989361000001], [-1.087865509999972, 38.378704640000024], [-1.0878955800000085, 38.37712816999999], [-1.087907389999998, 38.37624527000003], [-1.087923520000004, 38.37563276999998], [-1.0879707099999791, 38.37384029999998], [-1.0879976900000088, 38.37238093000002], [-1.0880297100000007, 38.37116493000002], [-1.0880300100000113, 38.3698493], [-1.0880527099999995, 38.368552050000005], [-1.0880619000000138, 38.367768230000024], [-1.0878703700000187, 38.36678288000002], [-1.0876733299999728, 38.36557216], [-1.0875211700000023, 38.36483075000001], [-1.0873763700000154, 38.36381011999998], [-1.0872573400000078, 38.363114310000014], [-1.0870772800000168, 38.36212914999999], [-1.0868805000000066, 38.360909419999984], [-1.0866792200000077, 38.35986083], [-1.0865556499999798, 38.35890361999998], [-1.0863479199999801, 38.357665680000025], [-1.0861671700000102, 38.35670754], [-1.0859310600000072, 38.35524385999997], [-1.0857395900000029, 38.35425851000002], [-1.0855893599999717, 38.35344504], [-1.0853921500000183, 38.352243320000014], [-1.0851725499999816, 38.35102322], [-1.0849238600000035, 38.349604390000025], [-1.0846079300000042, 38.347697849999975], [-1.0844048100000236, 38.34672131000002], [-1.084394780000025, 38.34647783999998], [-1.084383790000004, 38.34621634000001], [-1.0862548700000048, 38.34512050000001], [-1.0872800800000277, 38.344425349999995], [-1.0889926099999911, 38.343263809999996], [-1.090808960000004, 38.34206788], [-1.0934178399999723, 38.34031712000001], [-1.0939888600000245, 38.33992089999998], [-1.0946259199999986, 38.33875078], [-1.0955603099999962, 38.33758549999999], [-1.0969925499999817, 38.33706809], [-1.0983568300000002, 38.33564842999999], [-1.0998528800000145, 38.33443814999998], [-1.101309399999991, 38.33342546], [-1.1028706800000236, 38.332342359999984], [-1.107072119999998, 38.330914459999974], [-1.109582909999972, 38.32894550999998], [-1.1120172199999843, 38.327714189999995], [-1.1147527300000206, 38.32500983], [-1.1165037999999754, 38.32365027999998], [-1.1185868499999856, 38.32227799999998], [-1.1211094700000217, 38.32115603], [-1.1235310600000048, 38.32084338999999], [-1.1271145599999954, 38.31982839], [-1.1322791900000198, 38.31870335000002], [-1.135769919999973, 38.31817323000001], [-1.1377429899999925, 38.31750175000002], [-1.1387070600000015, 38.31737290000001], [-1.1405533899999796, 38.31673540000003], [-1.1412072200000125, 38.316214119999984], [-1.1416419700000233, 38.315761450000025], [-1.1420047199999885, 38.31524454999999], [-1.1426864499999851, 38.31427315000002], [-1.1429681899999764, 38.31398926000003], [-1.1439380099999994, 38.31318461000001], [-1.1445620700000063, 38.31248261000002], [-1.1452652300000068, 38.31181791], [-1.146211629999982, 38.31148145999998], [-1.1463611600000263, 38.31144777999998], [-1.147730509999974, 38.31156856000001], [-1.1487770400000272, 38.31134179999998], [-1.1518687899999804, 38.309840699999995], [-1.1536530899999775, 38.30893166999999], [-1.155674959999999, 38.30806690999998], [-1.1557465999999863, 38.30803199000002], [-1.15942960000001, 38.30617503000002], [-1.1603330899999946, 38.305720640000004], [-1.1612857200000235, 38.30513185000001], [-1.1626715099999956, 38.304144329999986], [-1.1628954399999998, 38.30410728999999], [-1.1656341600000246, 38.303659100000004], [-1.1669891600000142, 38.303436999999974], [-1.1686658099999931, 38.303156839999986], [-1.1693284799999901, 38.30272565000001], [-1.1688888099999986, 38.301565340000025], [-1.170487879999996, 38.30027467999997], [-1.1713477800000192, 38.29972941], [-1.172814379999977, 38.29915755000002], [-1.1737464400000022, 38.2984692], [-1.1745364999999879, 38.29842745000002], [-1.1752449599999863, 38.29844749], [-1.1763711599999738, 38.2986813], [-1.17708472999999, 38.298953729999994], [-1.1776636299999836, 38.29912494000001], [-1.1783071199999995, 38.298999779999974], [-1.1793217900000172, 38.298664110000004], [-1.1823016299999836, 38.29793540999998], [-1.1839803999999958, 38.29664580000002], [-1.1840871399999742, 38.295575110000016], [-1.1848787999999786, 38.29409149999998], [-1.185317170000019, 38.29393608999999], [-1.1875747000000274, 38.29281756], [-1.1882252999999992, 38.29286366000002], [-1.1885352400000215, 38.29281437999998], [-1.189203770000006, 38.292599429999996], [-1.1902700900000127, 38.292480720000015], [-1.191861280000012, 38.29240614999998], [-1.1938407800000164, 38.291427399999975], [-1.1945780300000024, 38.29074487999998], [-1.1950132000000053, 38.290255960000025], [-1.1954866699999798, 38.28960541999999], [-1.1955282499999953, 38.28948441], [-1.1957207799999878, 38.28892416000002], [-1.196054629999992, 38.28837060000001], [-1.1960931200000005, 38.28831711999999], [-1.1963624900000127, 38.28794278999999], [-1.1972741399999904, 38.28806494999998], [-1.19743729999999, 38.28802689999998], [-1.1977809699999966, 38.287942069999986], [-1.1980857300000025, 38.28787016000001], [-1.1975476700000058, 38.28902434999998], [-1.1972870899999748, 38.28938980999999], [-1.1974994000000265, 38.29005089999998], [-1.1998524399999724, 38.291069289999996], [-1.2020523799999978, 38.29273410000002], [-1.2093364699999825, 38.29875701999998], [-1.2092179499999816, 38.29892641999999], [-1.2084645599999817, 38.300266609999994], [-1.2085130699999809, 38.30061878999999], [-1.208689100000015, 38.30090084], [-1.209142359999987, 38.301069970000015], [-1.2100732900000253, 38.301345509999976], [-1.211257269999976, 38.30156183999998], [-1.2119297200000005, 38.301653199999976], [-1.2122616699999753, 38.30164023999998], [-1.2125153700000055, 38.30155399], [-1.2131073599999809, 38.30166214000002], [-1.2137127799999803, 38.30168938999998], [-1.2155718800000272, 38.30188892000001], [-1.2161607900000035, 38.302123170000016], [-1.2163335399999937, 38.30254031999999], [-1.2165342299999793, 38.30275064], [-1.2170644500000094, 38.30304705999998], [-1.2175104600000282, 38.30351343000001], [-1.217608270000028, 38.303722170000015], [-1.2176711299999852, 38.303957430000025], [-1.217700309999998, 38.30463372000003], [-1.2179282899999748, 38.30466422000001], [-1.2193088600000124, 38.30526192999997], [-1.222007010000027, 38.30529388000002], [-1.2248649800000067, 38.30533718999999], [-1.227065419999974, 38.3056138], [-1.2274886199999742, 38.30561118999998], [-1.230583930000023, 38.30671229000001], [-1.232728150000014, 38.3069519], [-1.2343489099999942, 38.30708446], [-1.2350592299999903, 38.30703208], [-1.236489000000006, 38.307495159999974], [-1.2369041399999787, 38.30782581], [-1.2383574300000078, 38.30920837999997], [-1.2387816199999975, 38.30963829000001], [-1.2396145600000068, 38.31019149000002], [-1.2406748700000207, 38.31080215999998], [-1.2426666499999897, 38.31262529999998], [-1.2434287899999958, 38.31374512999997], [-1.2450162700000078, 38.315264790000015], [-1.2522784700000216, 38.32005922000002], [-1.2531194800000094, 38.31972030999998], [-1.253618280000012, 38.319520479999994], [-1.254265299999986, 38.31925077], [-1.2549198699999806, 38.319143370000006], [-1.2556561999999758, 38.318965090000006], [-1.256142060000002, 38.31873802000001], [-1.2564343899999812, 38.31847202], [-1.2567394499999978, 38.31815215], [-1.2572844100000111, 38.31784484999997], [-1.2573543099999824, 38.317791829999976], [-1.257720689999985, 38.31765759000001], [-1.258162029999994, 38.31749744000001], [-1.2582429400000024, 38.3174626], [-1.25893394000002, 38.317265599999985], [-1.258991970000011, 38.31723041999999], [-1.2592815300000098, 38.31704997999998], [-1.2596978500000091, 38.31688945000002], [-1.2599625600000195, 38.31682129000001], [-1.2611016299999847, 38.31654082], [-1.261848499999985, 38.31639869999998], [-1.2624911600000246, 38.31630910000001], [-1.2629347199999756, 38.31641480000002], [-1.2631732599999737, 38.31645437999998], [-1.263344840000002, 38.31648396000003], [-1.2635972400000242, 38.316451649999976], [-1.2639184700000214, 38.31641135000001], [-1.2642280499999856, 38.31637989000001], [-1.26467482999999, 38.316350460000024], [-1.2652583899999854, 38.31634107000002], [-1.2658397999999806, 38.31642176999998], [-1.2662626499999874, 38.316437029999975], [-1.2668684299999882, 38.31645500000002], [-1.2671782200000052, 38.316414529999975], [-1.26825709000002, 38.31625924999997], [-1.2690917699999886, 38.31627157999998], [-1.269711309999991, 38.31622214999999], [-1.271925039999985, 38.31641251000002], [-1.2720893700000033, 38.31644647000002], [-1.273143129999994, 38.31665573999999], [-1.2740406500000176, 38.31691226999999], [-1.2751679300000092, 38.31712711], [-1.276046010000016, 38.317239159999986], [-1.2767964000000234, 38.317430419999994], [-1.277432019999992, 38.317638009999996], [-1.2777009000000135, 38.31787625999999], [-1.2777523099999826, 38.31812031999999], [-1.2776893800000266, 38.318362709999974], [-1.2777437799999802, 38.31848065999998], [-1.2779478900000072, 38.31855574999997], [-1.2797546699999884, 38.31905988], [-1.2807221300000151, 38.319263320000005], [-1.2823305699999992, 38.319449099999986], [-1.283026800000016, 38.31951336999998], [-1.2852165300000138, 38.319302119999975], [-1.2876514700000143, 38.31887812999997], [-1.2891610400000104, 38.31840454000002], [-1.2901473599999917, 38.317806150000024], [-1.292018320000011, 38.31655380000001], [-1.2927983600000061, 38.315970400000026], [-1.2932980599999837, 38.315635240000006], [-1.293940109999994, 38.31523456000002], [-1.2943427499999984, 38.314983600000005], [-1.2950842299999863, 38.31457984999997], [-1.295731069999988, 38.31430990000001], [-1.2965701699999954, 38.31413285999997], [-1.2969543400000134, 38.314120419999995], [-1.2977836300000263, 38.314087400000005], [-1.2981349099999875, 38.31422766999998], [-1.2987016100000233, 38.31493879999999], [-1.299014600000021, 38.315249730000005], [-1.2994635399999765, 38.31561670000002], [-1.2999622199999976, 38.31581317000001], [-1.3000634800000057, 38.31582365000003], [-1.3004185300000017, 38.315864850000025], [-1.3007279000000267, 38.31581075999998], [-1.3010276900000122, 38.31573850000001], [-1.30136447000001, 38.31576590999998], [-1.3014729899999793, 38.31577198999997], [-1.302320380000026, 38.31573020000002], [-1.303329309999981, 38.31562765000001], [-1.3039592299999754, 38.31559170999998], [-1.3049806500000045, 38.31544427], [-1.305981069999973, 38.315215420000015], [-1.3067998099999727, 38.314929870000014], [-1.3073299600000041, 38.3147573], [-1.3076430799999912, 38.314572580000004], [-1.308052910000015, 38.31416395999997], [-1.3083964300000162, 38.31365526000002], [-1.3091902599999798, 38.31296381999999], [-1.3102176900000018, 38.31255508999999], [-1.3110463500000265, 38.31233272999998], [-1.3120795500000213, 38.312167380000005], [-1.3140014400000268, 38.312149980000015], [-1.3150518799999986, 38.31222816000002], [-1.316600180000023, 38.31253877], [-1.3171785100000193, 38.31275433000002], [-1.3178139999999985, 38.31297072000001], [-1.3180753199999913, 38.313046559999975], [-1.318315929999983, 38.313059020000026], [-1.318877960000009, 38.313454579999984], [-1.3204452200000105, 38.31443225999999], [-1.3220013000000108, 38.31540074999998], [-1.3233318399999803, 38.316230829999995], [-1.3238217499999791, 38.31659379000001], [-1.3245015100000046, 38.317094629999986], [-1.3252411899999856, 38.318501990000016], [-1.3252795500000047, 38.31857463], [-1.3255214800000203, 38.31868622000002], [-1.3272260200000119, 38.319485550000024], [-1.3294783800000118, 38.320526959999995], [-1.3314908799999898, 38.32155590000002], [-1.3337636800000041, 38.32221002], [-1.3340685200000166, 38.322385569999994], [-1.335096329999999, 38.32395917000002], [-1.3363244700000223, 38.324778630000026], [-1.3371054200000003, 38.325019499999996], [-1.3376989299999877, 38.32520364999999], [-1.3388195499999824, 38.32572418000001], [-1.3397632499999759, 38.326165600000024], [-1.3400533099999734, 38.32630037000001], [-1.3409474399999795, 38.327223189999984], [-1.3410313599999881, 38.327273950000006], [-1.341274769999984, 38.327417070000024], [-1.3417046199999731, 38.32763041999999], [-1.3429597100000024, 38.32796357000001], [-1.3433193299999857, 38.328058769999984], [-1.3441155599999774, 38.32825925999998], [-1.3453371499999776, 38.32887126999998], [-1.3467237599999748, 38.32977397000002], [-1.3476439600000276, 38.33056192999999], [-1.3489011400000095, 38.33162499000002], [-1.3499332999999751, 38.33252264999999], [-1.3517505600000277, 38.333611589999975], [-1.353809090000027, 38.334658820000016], [-1.354991240000004, 38.334999830000015], [-1.3591970699999933, 38.336212260000025], [-1.3613024800000062, 38.33671031], [-1.363883450000003, 38.33743125000001], [-1.366286720000005, 38.33791535], [-1.3680888600000003, 38.33816574000002], [-1.3701955999999882, 38.338609589999976], [-1.3725028200000224, 38.33929948999997], [-1.3739225200000078, 38.339769769999975], [-1.3749340800000027, 38.340072169999985], [-1.3761728100000141, 38.34044979999999], [-1.3784572700000126, 38.34113927999999], [-1.3786278399999787, 38.34118668999997], [-1.3792891900000086, 38.34135354], [-1.3804710499999828, 38.34165374000003], [-1.3815822199999843, 38.34262432000003], [-1.3835960600000021, 38.343364029999975], [-1.383795360000022, 38.34343887], [-1.385561789999997, 38.343760599999996], [-1.3859741399999734, 38.343838370000014], [-1.3881825700000263, 38.34425626000001], [-1.3885996299999874, 38.344541349999986], [-1.3907686900000158, 38.34631940000003], [-1.3998383399999739, 38.35016538000002], [-1.4125402299999905, 38.354375319999974], [-1.4256359899999893, 38.359490359999995], [-1.4306411000000026, 38.36144092000001], [-1.4451836999999728, 38.36913247000001], [-1.4504765099999872, 38.37214038000002], [-1.4784217900000272, 38.376363579999975], [-1.4785473000000025, 38.376383239999996], [-1.4818197499999997, 38.37591200999998], [-1.4839986000000067, 38.37463352999998], [-1.4850580799999875, 38.37378210999998], [-1.485807589999979, 38.37352145], [-1.4872071600000254, 38.37337731000002], [-1.4882990500000233, 38.37316611], [-1.4923537700000225, 38.369190119999985], [-1.4942374299999983, 38.36888090999997], [-1.4944690500000206, 38.368199000000004], [-1.4951383000000078, 38.367594800000006], [-1.4972918400000026, 38.36564886999997], [-1.5015920299999834, 38.36304547999998], [-1.504947340000001, 38.360736280000026], [-1.5059034399999973, 38.359324619999995], [-1.5089472399999977, 38.35879564999999], [-1.5135163400000238, 38.35800659], [-1.5139663799999994, 38.35793118999999], [-1.5145143299999972, 38.357649760000015], [-1.5145794300000262, 38.357614539999986], [-1.5162434599999983, 38.357392300000015], [-1.517345320000004, 38.356676300000004], [-1.5177365000000123, 38.356014379999976], [-1.518007329999989, 38.35508059], [-1.51866775000002, 38.35468341000001], [-1.5194322500000226, 38.35423347], [-1.5194676099999924, 38.353621120000014], [-1.5204603600000155, 38.35320109000003], [-1.5215173500000105, 38.35299815000002], [-1.5222603899999854, 38.35247583], [-1.5234693900000025, 38.352112569999974], [-1.5245138000000225, 38.350837049999996], [-1.5252535000000194, 38.350476879999974], [-1.525864609999985, 38.350250259999996], [-1.5286858800000118, 38.34881680000001], [-1.5304510400000026, 38.348108990000014], [-1.531628880000028, 38.347583050000026], [-1.5342403600000125, 38.346646969999995], [-1.5348102099999892, 38.346442319999994], [-1.5344425399999864, 38.346338600000024], [-1.5340250099999935, 38.346225230000016], [-1.5358381699999768, 38.345400789999985], [-1.5363442699999723, 38.34583967999998], [-1.5378069399999958, 38.34537130000001], [-1.5386910299999954, 38.34408463], [-1.5397065999999882, 38.343655720000015], [-1.5410940699999855, 38.343510779999974], [-1.541898950000018, 38.34274578999998], [-1.5421008299999812, 38.34237882000002], [-1.5483788899999809, 38.332255420000024], [-1.558197650000011, 38.32520323], [-1.582815719999985, 38.313472690000026], [-1.5895390599999928, 38.30999231999999], [-1.5894597199999794, 38.31026351000003], [-1.589146900000003, 38.311318640000025], [-1.5888180100000113, 38.31242764000001], [-1.588732020000009, 38.31273300999999], [-1.589273960000014, 38.31258181999999], [-1.589318530000014, 38.31256883999998], [-1.589892729999974, 38.31244959000003], [-1.5904196199999774, 38.31241086], [-1.5906720599999744, 38.312368839999976], [-1.5911055500000089, 38.31242811999999], [-1.5915853000000197, 38.31246091999998], [-1.592089489999978, 38.31241290999998], [-1.5926872499999831, 38.312257869999996], [-1.592938819999972, 38.312260890000005], [-1.5933402699999988, 38.31220263], [-1.5937770699999874, 38.312090720000015], [-1.5941813000000025, 38.31188829000001], [-1.5945044299999722, 38.31173897000002], [-1.5949296200000163, 38.311635920000015], [-1.5953880600000048, 38.31158734000002], [-1.5960024199999907, 38.31175691999999], [-1.596661480000023, 38.31198109000002], [-1.5973543299999733, 38.31223270999999], [-1.5983774100000119, 38.31256036000002], [-1.5993263600000205, 38.31258071000002], [-1.600010549999979, 38.313282800000025], [-1.6006051900000102, 38.31388468], [-1.6021860399999923, 38.31375935], [-1.6042599900000027, 38.31356778000003], [-1.6064604000000031, 38.313341630000025], [-1.6081100200000265, 38.31320803], [-1.6100460299999781, 38.31305076000001], [-1.6114665800000125, 38.31293241999998], [-1.6118632800000228, 38.31252257], [-1.6126462799999786, 38.31164868000002], [-1.6141654900000049, 38.311152979999974], [-1.6144286699999952, 38.31114708000001], [-1.6151611899999807, 38.31111969], [-1.615535799999975, 38.311268299999995], [-1.6190240199999835, 38.310678619999976], [-1.6206529099999898, 38.31042744000001], [-1.6225352299999827, 38.310080089999985], [-1.6230738599999768, 38.31002332999998], [-1.6237357200000133, 38.310103200000015], [-1.6242262299999766, 38.31017204], [-1.624856340000008, 38.31011634999999], [-1.6248143500000083, 38.309917600000006], [-1.6248085299999957, 38.30962013999999], [-1.6249730499999941, 38.30938775999999], [-1.6254341800000134, 38.309194909999974], [-1.6259978900000078, 38.309021280000024], [-1.6263535499999762, 38.30896237000002], [-1.626593000000014, 38.30900122000003], [-1.626913170000023, 38.30900496999999], [-1.627256559999978, 38.308990970000025], [-1.6278747100000146, 38.30896216000002], [-1.6284136699999863, 38.30888736000003], [-1.6286795600000232, 38.308737269999995], [-1.6289195200000108, 38.30874908999999], [-1.6290668099999834, 38.30882291], [-1.6291670100000033, 38.30896826999998], [-1.6293247199999996, 38.309096280000006], [-1.6294822599999748, 38.30923330000002], [-1.6298113199999875, 38.30937232000002], [-1.630097190000015, 38.30937566], [-1.6303828900000212, 38.30938801000002], [-1.6305554300000153, 38.30933596], [-1.6308102099999928, 38.30916771], [-1.6310325599999942, 38.30889995000001], [-1.6312057700000082, 38.30881185999999], [-1.6314206600000034, 38.30894052999997], [-1.6318043599999896, 38.309215370000004], [-1.6322566700000039, 38.30949099999998], [-1.6326519799999915, 38.309756960000016], [-1.6331056500000045, 38.309960509999996], [-1.6338085200000023, 38.31029312999999], [-1.6344893799999909, 38.310580430000016], [-1.6346920600000203, 38.31014120999998], [-1.6349054899999942, 38.30973817], [-1.6350266000000033, 38.3093791], [-1.6355092300000251, 38.30925855999999], [-1.63569640999998, 38.30903544], [-1.636549290000005, 38.309297689999994], [-1.6370174400000224, 38.30933919], [-1.6387876399999755, 38.30947691], [-1.6413586300000134, 38.309605869999984], [-1.6433580600000255, 38.30971914999998], [-1.645870720000005, 38.309910419999994], [-1.6479616400000054, 38.310024680000026], [-1.6530230000000188, 38.31031725999998], [-1.65935171000001, 38.31073227000002], [-1.6632701600000246, 38.31098429999997], [-1.665441020000003, 38.31110817000001], [-1.6659836000000041, 38.31083497999998], [-1.6664025700000025, 38.31106504000002], [-1.6668097799999941, 38.311312989999976], [-1.6670699900000159, 38.31146916], [-1.6672862699999769, 38.311525689999996], [-1.6674684100000263, 38.31157281999998], [-1.6676056300000255, 38.311574380000025], [-1.6678233999999748, 38.31154981999998], [-1.6679498500000136, 38.31151520999998], [-1.6681903200000079, 38.31149991000001], [-1.668440569999973, 38.31157485], [-1.6686788999999749, 38.31167669000001], [-1.668848780000019, 38.31176873999999], [-1.6690637500000207, 38.31189734999998], [-1.6691887100000145, 38.31194382000001], [-1.6692797000000041, 38.311971889999995], [-1.6693710200000282, 38.31198194000001], [-1.6695896100000027, 38.311912329999984], [-1.6702463699999726, 38.31164942999999], [-1.6700053100000218, 38.31232258], [-1.669391840000003, 38.31459561999998], [-1.6693191699999943, 38.315441910000004], [-1.6693581600000016, 38.31581183999998], [-1.669556919999991, 38.31620161000001], [-1.6704056400000127, 38.31732871000003], [-1.6713044100000047, 38.31822206999999], [-1.672531240000012, 38.31931738999998], [-1.6727756099999738, 38.31971668], [-1.6728732799999761, 38.32000617], [-1.6729122899999993, 38.320376099999976], [-1.6727656799999977, 38.32088811], [-1.6724920999999995, 38.32146177999999], [-1.6725438600000189, 38.32175975000001], [-1.6727235600000085, 38.32194203], [-1.6729514799999947, 38.321989669999994], [-1.6746217699999875, 38.321981530000016], [-1.6751127399999746, 38.322032139999976], [-1.6754426100000046, 38.322135], [-1.6757133199999998, 38.32234533000002], [-1.6773305899999968, 38.32399473999999], [-1.6776326799999879, 38.32436763999999], [-1.6782087799999772, 38.32477066000001], [-1.678809240000021, 38.325092849999976], [-1.6796727600000168, 38.325417990000005], [-1.6807335099999818, 38.32559214999998], [-1.6824690799999757, 38.325773889999994], [-1.683356969999977, 38.326018180000005], [-1.683686210000019, 38.326157050000006], [-1.683957620000001, 38.326331330000016], [-1.684147820000021, 38.32656777], [-1.684543930000018, 38.327437359999976], [-1.6847144100000264, 38.328764009999986], [-1.6847905700000183, 38.328981150000004], [-1.684993679999991, 38.32913664], [-1.6859160999999858, 38.32937227999997], [-1.6862224899999774, 38.329510889999995], [-1.6867396900000244, 38.330012339999996], [-1.6870472699999937, 38.33071871999999], [-1.687362070000006, 38.331659479999985], [-1.6875700900000083, 38.332653110000024], [-1.6877254799999832, 38.333393820000026], [-1.687751800000001, 38.333520280000016], [-1.6876439700000105, 38.333789430000024], [-1.6875601599999754, 38.33399575999999], [-1.6875574399999778, 38.33477976], [-1.6879507099999955, 38.335811509999985], [-1.6883573200000228, 38.336104439999986], [-1.6887905500000215, 38.33619040000002], [-1.6899897200000282, 38.33631194999998], [-1.6907759499999884, 38.33649197], [-1.6916966900000148, 38.33682668], [-1.6923984800000085, 38.337249050000025], [-1.6926111299999889, 38.33751276999999], [-1.6927314600000045, 38.33782051999998], [-1.6927362499999958, 38.33819004999998], [-1.6926153699999986, 38.33854917999997], [-1.6920941999999854, 38.33953466000003], [-1.6918880499999887, 38.340181210000026], [-1.6918569000000048, 38.34064046999998], [-1.6915730200000212, 38.34179081000002], [-1.6915384600000039, 38.34243928000001], [-1.6916880800000058, 38.34302672000001], [-1.6925105199999848, 38.34437866000002], [-1.692784539999991, 38.345048589999976], [-1.6928320200000258, 38.345589829999994], [-1.6927074000000175, 38.34615618999999], [-1.6924103599999967, 38.346765679999976], [-1.6920840099999737, 38.34709547], [-1.6914476200000195, 38.347484889999976], [-1.6907102000000123, 38.347765030000005], [-1.6900938399999745, 38.34767703], [-1.6885216499999842, 38.34728996000001], [-1.686799590000021, 38.34696427], [-1.6856666200000063, 38.346969590000015], [-1.6849205099999836, 38.3470964], [-1.6842763899999795, 38.34727841], [-1.6820741799999723, 38.34882171999999], [-1.681678149999982, 38.34920476999997], [-1.6815112699999872, 38.349572379999984], [-1.6815743600000133, 38.34987948999998], [-1.6817420500000253, 38.35009766000002], [-1.6827614900000185, 38.35067686999997], [-1.68437689000001, 38.35120869000002], [-1.684876079999981, 38.351448600000026], [-1.6851464399999827, 38.35168593999998], [-1.6852664300000129, 38.35201171], [-1.6852250900000172, 38.35239876000003], [-1.6844801099999813, 38.35372414], [-1.6835759100000018, 38.355624490000025], [-1.6830311100000017, 38.356636700000024], [-1.6823171099999854, 38.35751183000002], [-1.6818491000000222, 38.358705139999984], [-1.6817977700000029, 38.35964179000001], [-1.6819373700000142, 38.36014802], [-1.6822160899999972, 38.36055668], [-1.6839116599999784, 38.361729249999996], [-1.6848591799999895, 38.36249687999998], [-1.6857586799999922, 38.36339013000003], [-1.686676680000005, 38.36452689999999], [-1.6875574499999857, 38.36582544999999], [-1.6891158899999823, 38.36699641000001], [-1.6904634399999736, 38.36780451999999], [-1.6909967700000266, 38.368062810000026], [-1.692269930000009, 38.36855465000002], [-1.692805700000008, 38.368677779999985], [-1.6962145100000043, 38.368805880000025], [-1.696647299999995, 38.36892784999998], [-1.697397140000021, 38.36924259], [-1.6976100599999882, 38.36949729000003], [-1.6976778599999989, 38.370822780000026], [-1.6984729900000275, 38.37180489000002], [-1.6988406599999735, 38.372367699999984], [-1.69906825999999, 38.373082160000024], [-1.6993782299999793, 38.37367137000001], [-1.6996688599999743, 38.3740621], [-1.700311240000019, 38.37462796], [-1.700731659999974, 38.37480384000003], [-1.7012334799999849, 38.37490853999998], [-1.7019429299999729, 38.37492541], [-1.7024821599999882, 38.37485929000002], [-1.7030478099999868, 38.37459519999999], [-1.7035823400000254, 38.37415053000001], [-1.7045996200000104, 38.37295419999998], [-1.7049363500000254, 38.37268756999998], [-1.7056190000000129, 38.37228056999999], [-1.7067508800000155, 38.37171632000002], [-1.7074078900000131, 38.37146223000002], [-1.708651379999992, 38.371701229999985], [-1.7097985099999846, 38.37220952000001], [-1.7105490800000211, 38.37248813999997], [-1.710915, 38.372510190000014], [-1.7114570800000024, 38.37228184999998], [-1.7117936199999804, 38.3720242], [-1.7119934599999738, 38.371729010000024], [-1.7121025399999894, 38.371387760000005], [-1.712032009999973, 38.37084628000002], [-1.711579630000017, 38.36924621999998], [-1.7116305200000284, 38.3689584], [-1.7118934900000227, 38.36833046999999], [-1.7119796700000052, 38.36798897], [-1.7120126300000038, 38.36742158999999], [-1.7119285900000136, 38.36699711], [-1.7120532499999968, 38.366421720000005], [-1.7125562699999932, 38.36516560000001], [-1.712727340000015, 38.364554680000026], [-1.7137920299999791, 38.36325065], [-1.7139536700000235, 38.363171309999984], [-1.7167403400000012, 38.363517279999996], [-1.7172988500000201, 38.36364956], [-1.7181949600000053, 38.36410996000001], [-1.7183065300000067, 38.364273389999994], [-1.7183127299999796, 38.36457085000001], [-1.7181687199999942, 38.364947770000015], [-1.7175785499999847, 38.36595964999998], [-1.7173371000000088, 38.36666894000001], [-1.7172849599999722, 38.36702883999999], [-1.717311489999986, 38.36747071000002], [-1.717530829999987, 38.36801381999999], [-1.717855400000019, 38.36843191000003], [-1.7186493599999721, 38.36884613000001], [-1.7201323799999955, 38.369132690000015], [-1.7224257299999977, 38.36890539000001], [-1.723803710000027, 38.36930791999998], [-1.7250056099999824, 38.369960839999976], [-1.7267256200000247, 38.37109701000003], [-1.7294357299999774, 38.37256832000003], [-1.7298479099999895, 38.37256378000001], [-1.7319179599999757, 38.37201845999999], [-1.7333964399999786, 38.37125944000002], [-1.7336612500000115, 38.371172179999974], [-1.733844050000016, 38.37119217999998], [-1.7340898699999912, 38.37153728999999], [-1.7343212700000095, 38.37205346000002], [-1.7343131000000085, 38.372521989999996], [-1.734115499999973, 38.37400680000002], [-1.7340808299999821, 38.374682310000026], [-1.73416579000002, 38.37506172000002], [-1.7343663199999924, 38.37537930000002], [-1.7347829000000274, 38.37578031999999], [-1.7359125599999743, 38.37664862999998], [-1.738828309999974, 38.37816700000002], [-1.7398703999999725, 38.37880904000002], [-1.7410100600000078, 38.37976753999999], [-1.7417188499999838, 38.38048708000002], [-1.7428746900000078, 38.38117538], [-1.7435138299999835, 38.381290379999996], [-1.7451176000000146, 38.38123547999999], [-1.7473008599999957, 38.380772209999975], [-1.749084709999977, 38.38023254000001], [-1.7500644899999998, 38.37984648999998], [-1.7514399199999957, 38.37975301], [-1.751681689999998, 38.379674480000006], [-1.751904130000014, 38.37938847999999], [-1.7521060000000261, 38.37896706999999], [-1.7522275800000102, 38.37855382999999], [-1.7522695100000192, 38.37811269000002], [-1.7521864600000185, 38.37761616], [-1.7517074599999773, 38.37617818000001], [-1.751713040000027, 38.375853819999975], [-1.7520935599999916, 38.37502878999999], [-1.7525165900000275, 38.374393450000014], [-1.7528554799999938, 38.37399153000001], [-1.753239370000017, 38.373635149999984], [-1.7538385600000197, 38.37340721999999], [-1.7548352399999771, 38.37336374], [-1.7552460399999745, 38.37344021000001], [-1.7562229399999865, 38.37388314999998], [-1.7565625999999952, 38.37410304000002], [-1.7568643800000245, 38.374529800000005], [-1.7575081400000272, 38.37504129000001], [-1.7578212199999825, 38.37547718000002], [-1.7582278799999926, 38.37579690000001], [-1.7591810100000203, 38.37629363999997], [-1.759577159999992, 38.376559180000015], [-1.760653600000012, 38.377210409999975], [-1.7618462199999954, 38.37776373000003], [-1.7649575300000038, 38.378589620000014], [-1.7656392600000004, 38.37889418999998], [-1.7667783800000052, 38.37923060999998], [-1.7681601900000032, 38.37943439999998], [-1.7690650700000106, 38.37940787000002], [-1.7698138200000244, 38.379136370000026], [-1.770721750000007, 38.37892962000001], [-1.7713464099999783, 38.37854866999999], [-1.7716113399999927, 38.37777642999998], [-1.7717784299999835, 38.376696770000024], [-1.7718438800000058, 38.375534930000015], [-1.7716301799999883, 38.37327973999999], [-1.7712567400000125, 38.37234760000001], [-1.7704923300000246, 38.37016774], [-1.770450980000021, 38.36990595999998], [-1.770486070000004, 38.369185379999976], [-1.7704238100000111, 38.36880623000002], [-1.770292120000022, 38.36847141999999], [-1.7700267499999995, 38.36656713999997], [-1.7700900799999886, 38.36620733000001], [-1.7702931800000101, 38.3657048], [-1.7707848200000171, 38.36506111], [-1.7711430900000096, 38.36485759999999], [-1.7714520800000173, 38.364860840000006], [-1.772158730000001, 38.36503947], [-1.772476270000027, 38.365214019999996], [-1.7728292200000055, 38.36532586999999], [-1.7739248199999906, 38.36551757000001], [-1.7741057999999725, 38.36564563000002], [-1.7749041700000134, 38.36581619999998], [-1.7756831400000124, 38.36577928999998], [-1.7768266599999833, 38.36584529999999], [-1.7788333600000215, 38.365631930000006], [-1.7791182600000184, 38.365706999999986], [-1.7793050899999798, 38.36616855], [-1.7795073300000013, 38.367756740000004], [-1.7796286799999734, 38.36802835999998], [-1.779876530000024, 38.36826524000003], [-1.7805461699999796, 38.368605650000006], [-1.7821133499999746, 38.368667019999975], [-1.7824708599999894, 38.36850851999998], [-1.7828786700000023, 38.36808019], [-1.7843558499999972, 38.36599577999999], [-1.7856026800000109, 38.36604476000002], [-1.7880293900000197, 38.367412660000014], [-1.7894258100000116, 38.36810299000001], [-1.790695019999987, 38.36887309000002], [-1.7917059700000095, 38.369343119999996], [-1.792749619999995, 38.36991261999998], [-1.7931134699999802, 38.37006056000001], [-1.7935354400000278, 38.37015502000003], [-1.794666559999996, 38.37028382], [-1.7957542999999987, 38.370267969999986], [-1.7954899499999897, 38.37102225000001], [-1.7953271100000165, 38.37186767999998], [-1.7952924100000018, 38.37257926000001], [-1.7953233100000148, 38.37278685000001], [-1.7955259999999953, 38.375059910000004], [-1.7957466400000044, 38.37625173999999], [-1.7962297099999773, 38.37680641999998], [-1.7979022800000166, 38.378121290000024], [-1.7986568200000193, 38.37887701], [-1.7992741699999897, 38.37962231], [-1.8014000900000156, 38.38399677000001], [-1.802014980000024, 38.38558913000003], [-1.8023310500000207, 38.38655662999997], [-1.8025684899999987, 38.38812710000002], [-1.8028023699999949, 38.38921991000001], [-1.803238790000023, 38.39261277000003], [-1.803568489999975, 38.39622983999999], [-1.8039608000000271, 38.39882921999998], [-1.805546119999974, 38.39991778000001], [-1.8058622699999773, 38.40019135], [-1.810864209999977, 38.405937619999975], [-1.8129820500000164, 38.40809487000001], [-1.81417663000002, 38.408584580000024], [-1.8235737699999959, 38.41177933], [-1.826036600000009, 38.41247090000002], [-1.8302532499999984, 38.41308081], [-1.833010609999974, 38.413270520000026], [-1.833353020000004, 38.41405794000002], [-1.8335588799999982, 38.415501860000006], [-1.8336111699999833, 38.41674598999998], [-1.8336581899999942, 38.41787291999998], [-1.835695840000028, 38.41938011000002], [-1.8384998099999734, 38.42096695999999], [-1.8411703400000192, 38.422309110000015], [-1.8440616699999737, 38.42489698999998], [-1.845385580000027, 38.42592836], [-1.8463260999999989, 38.426577450000025], [-1.8466909200000146, 38.42668917999998], [-1.8494199300000105, 38.427256709999995], [-1.8508027799999809, 38.42746854000001], [-1.8528956900000253, 38.427696319999995], [-1.8542380200000252, 38.42757427999999], [-1.8556315000000154, 38.42784022000001], [-1.8581585399999767, 38.42887418999999], [-1.8601757100000214, 38.429551679999975], [-1.8609157500000038, 38.42984725000002], [-1.8611989999999992, 38.43077821000003], [-1.8614423700000202, 38.43206022999999], [-1.8619033200000104, 38.433713839999996], [-1.8624618800000121, 38.43571985], [-1.8628460099999984, 38.43752590999998], [-1.8628969299999767, 38.438661869999976], [-1.863372179999999, 38.44123480000002], [-1.8640596399999936, 38.44416124999998], [-1.8641939699999739, 38.444820400000026], [-1.8645171100000084, 38.44640959999998], [-1.864841790000014, 38.448359270000026], [-1.8656865400000129, 38.452224460000025], [-1.866177979999975, 38.45596906999998], [-1.866390650000028, 38.457025499999986], [-1.8663387500000113, 38.457412499999975], [-1.8660275299999967, 38.45825658000001], [-1.8658768899999814, 38.45909320999999], [-1.8659475000000043, 38.45970669000002], [-1.8663609500000007, 38.46111651000001], [-1.8665737499999864, 38.46143397999998], [-1.8674230999999963, 38.46209104000002], [-1.867311500000028, 38.46263066], [-1.8672467600000004, 38.46383759999998], [-1.8672694300000217, 38.46458579], [-1.868045670000015, 38.46772034999998], [-1.868658460000006, 38.46958267000002], [-1.8683178599999906, 38.47157096000001], [-1.867965120000008, 38.47213528999998], [-1.8669139500000256, 38.47337773999999], [-1.8663498000000232, 38.47426444000001], [-1.8659468100000254, 38.475107630000025], [-1.864726179999991, 38.47691615999997], [-1.8636147299999948, 38.47833824000003], [-1.86342381999998, 38.478814], [-1.8629735100000175, 38.47974684000002], [-1.8611492200000157, 38.482748019999974], [-1.8602218899999912, 38.48411778000002], [-1.8586217399999896, 38.486706560000016], [-1.857508810000013, 38.488930589999995], [-1.856647329999987, 38.491202120000025], [-1.856521129999976, 38.49193083], [-1.8557447399999774, 38.49461772000001], [-1.8553951800000164, 38.49641663], [-1.8549474000000146, 38.500070979999975], [-1.8547353100000237, 38.50291659999999], [-1.8546651300000008, 38.503862149999975], [-1.8545830699999897, 38.50496978000001], [-1.8546156900000028, 38.50652911999998], [-1.8549307200000271, 38.508361579999985], [-1.8553638700000192, 38.50997890999997], [-1.8554430500000194, 38.510772710000026], [-1.8553583500000173, 38.51105123999997], [-1.8542459000000235, 38.512491239999974], [-1.8516409999999723, 38.51617852999999], [-1.8493252900000243, 38.519697389999976], [-1.8485982199999853, 38.522132399999975], [-1.8473373400000241, 38.524228719999996], [-1.844365429999982, 38.530011950000016], [-1.8429963400000133, 38.533116459999974], [-1.8423456300000112, 38.53434462000001], [-1.8422109300000216, 38.53482991999999], [-1.8419803900000034, 38.53565671000001], [-1.840958310000019, 38.54143205999998], [-1.8401838699999757, 38.54821013999998], [-1.840472009999985, 38.550988570000015], [-1.8411534900000106, 38.55642932000001], [-1.8422251499999902, 38.56259485999999], [-1.8451898100000221, 38.574564529999975], [-1.8462213799999745, 38.57968427999998], [-1.8467290699999808, 38.58095992], [-1.8498288900000261, 38.589587489999985], [-1.8507293100000197, 38.59184922999998], [-1.8515069499999868, 38.59380336999999], [-1.8534980700000006, 38.597842060000005], [-1.8542325000000233, 38.60003906999998], [-1.8552205600000207, 38.60145454000002], [-1.8562857800000074, 38.603798960000006], [-1.8569382200000177, 38.60538236000002], [-1.8575069699999744, 38.60645127999999], [-1.8597012600000085, 38.61003225000002], [-1.860237770000026, 38.61241652000001], [-1.8605803599999717, 38.61326694000002], [-1.861330979999991, 38.614463769999986], [-1.862481100000025, 38.61654761], [-1.8636362600000211, 38.61831608], [-1.864384560000019, 38.619666059999986], [-1.8647447999999827, 38.62085908], [-1.865139039999974, 38.62353932000002], [-1.8654743499999995, 38.62485824999999], [-1.8663426900000104, 38.62734483000003], [-1.8670538200000237, 38.62960459999999], [-1.867484069999989, 38.630735200000004], [-1.8688110300000176, 38.632559360000016], [-1.8705377200000157, 38.63454055], [-1.8718265100000053, 38.63587768000002], [-1.8726725500000043, 38.63687709999999], [-1.8734132399999908, 38.638001659999986], [-1.8742820200000097, 38.63901930999998], [-1.875673230000018, 38.64042948000002], [-1.8762477299999887, 38.64116493], [-1.8760686599999872, 38.643064630000026], [-1.8756036099999847, 38.64341160999999], [-1.8751995299999749, 38.643533890000015], [-1.8742775900000197, 38.64370524999998], [-1.8728728400000136, 38.643889969999975], [-1.8714548899999954, 38.64418267999997], [-1.8700774999999794, 38.64481820999998], [-1.869004480000001, 38.64509620000001], [-1.8655482199999938, 38.645666500000004], [-1.8638192799999729, 38.646001160000026], [-1.8627002599999969, 38.64627865], [-1.8613251900000023, 38.646760900000004], [-1.8585310700000264, 38.648319679999986], [-1.8568830699999808, 38.64933989999997], [-1.8546649900000034, 38.650886179999986], [-1.8542458900000156, 38.65117945999998], [-1.84873048999998, 38.65539670999999], [-1.8472922099999778, 38.661951880000004], [-1.8470210300000076, 38.66452647], [-1.845641360000002, 38.66598171999999], [-1.8454137100000025, 38.666736430000014], [-1.8453528499999834, 38.66748376999999], [-1.8450813200000198, 38.66864356000002], [-1.8444109499999968, 38.671015950000026], [-1.8441202199999793, 38.672653149999974], [-1.843846439999993, 38.67323618], [-1.8435854900000095, 38.674450139999976], [-1.843393209999988, 38.675682800000004], [-1.8433749800000214, 38.678241850000006], [-1.8435455399999796, 38.679072589999976], [-1.8426901799999769, 38.680073400000026], [-1.8426507600000264, 38.680379389999985], [-1.843132570000023, 38.681871039999976], [-1.8437075200000095, 38.68329152000001], [-1.8436674100000232, 38.68435446000001], [-1.8442242899999997, 38.687613080000006], [-1.8445511799999963, 38.688733720000016], [-1.844772110000008, 38.68929460999999], [-1.839162349999981, 38.687797209999985], [-1.8321831000000088, 38.686394010000015], [-1.8276669499999798, 38.68554678999999], [-1.8239147400000206, 38.68509456999999], [-1.8225499199999717, 38.684846540000024], [-1.8186875600000008, 38.68414974000001], [-1.8050733000000037, 38.682182049999994], [-1.8008698300000106, 38.68192273], [-1.796696489999988, 38.68192490000001], [-1.7932548900000143, 38.682168779999984], [-1.7928304899999716, 38.68211033], [-1.7839780699999892, 38.680072129999985], [-1.7759359400000108, 38.67841120999998], [-1.7744910800000184, 38.67819782999999], [-1.7689346299999897, 38.67775196000002], [-1.7649616200000082, 38.67748476999998], [-1.7606633999999985, 38.677412240000024], [-1.7551773299999809, 38.67689438000002], [-1.7529632700000093, 38.67662747999998], [-1.7512067800000182, 38.676491580000004], [-1.7480921700000067, 38.67644926000003], [-1.733546380000007, 38.67731085999998], [-1.7324155900000164, 38.678199740000025], [-1.7312451600000145, 38.67872771999998], [-1.7278011600000127, 38.67780719000001], [-1.7254235799999833, 38.67704235999997], [-1.7252529599999775, 38.67629256999999], [-1.7223218600000223, 38.67562978000001], [-1.7179073899999935, 38.67499572000003], [-1.7121834299999819, 38.67431104000002], [-1.708549860000005, 38.67373027999997], [-1.701622489999977, 38.675401739999984], [-1.6966946300000245, 38.67646430000002], [-1.69228892000001, 38.67725315000001], [-1.6900160000000142, 38.677705300000014], [-1.6875652499999774, 38.67695692000001], [-1.685568939999996, 38.676348759999996], [-1.6804782899999964, 38.67499379999998], [-1.6757974199999808, 38.67386855000001], [-1.671945839999978, 38.673284190000004], [-1.6714644200000066, 38.673170589999984], [-1.6677093999999784, 38.67230332999998], [-1.6671614599999884, 38.67217543999999], [-1.6666759899999875, 38.67243573000002], [-1.666266059999998, 38.67265183000001], [-1.6556092499999977, 38.678305980000005], [-1.651745769999991, 38.678351599999985], [-1.6504130499999974, 38.67830918999999], [-1.6460032699999942, 38.67867272000001], [-1.6395242799999892, 38.679030049999994], [-1.6330786899999907, 38.67944146999997], [-1.631409729999973, 38.679548109999985], [-1.6282776499999727, 38.67981778000001], [-1.622793349999995, 38.67985243999999], [-1.6178767900000253, 38.68025398999998], [-1.615686069999981, 38.680588520000015], [-1.6021118599999795, 38.681625499999996], [-1.593848419999972, 38.685022730000014], [-1.581467009999983, 38.68964003999997], [-1.5767668799999797, 38.691258979999986], [-1.5752172300000211, 38.69170867999998], [-1.5740864100000067, 38.69191116000002], [-1.5694321299999956, 38.69294464000001], [-1.565160129999981, 38.693829429999994], [-1.5630747700000143, 38.69403811000001], [-1.5565758500000015, 38.69415629000002], [-1.5535613199999716, 38.69425418999998], [-1.5522418799999969, 38.69411170000001], [-1.551750850000019, 38.69394341999998], [-1.5496006100000272, 38.69280839999999], [-1.5481633300000226, 38.692240889999994], [-1.5467233400000282, 38.69180849000003], [-1.545855739999979, 38.69150033], [-1.5453096400000277, 38.69121419999999], [-1.5449361500000123, 38.69092118999998], [-1.5441813400000228, 38.690154870000015], [-1.5424975799999743, 38.68757475000001], [-1.5400715100000184, 38.68362466000002], [-1.539844070000015, 38.68293698000002], [-1.5397722299999828, 38.68251256999997], [-1.5398562099999822, 38.68177471000001], [-1.540533900000014, 38.680107109999994], [-1.5374736399999733, 38.683042520000015], [-1.5340095600000154, 38.695605590000014], [-1.5309687899999744, 38.70603822999999], [-1.528950870000017, 38.71296035], [-1.5260640399999943, 38.723592999999994], [-1.5251379900000188, 38.72667209000002], [-1.5236705500000198, 38.73313245999998], [-1.5235289099999818, 38.733725400000026], [-1.5217311700000096, 38.74126288000002], [-1.5208840299999906, 38.741612599999996], [-1.520384760000013, 38.74183154999997], [-1.5197047500000167, 38.74244469000001], [-1.513334240000006, 38.74891477], [-1.5121510800000237, 38.750062119999996], [-1.510633069999983, 38.751538589999996], [-1.5061209899999994, 38.75269745999998], [-1.5020885600000042, 38.753474830000016], [-1.499189940000008, 38.753960259999985], [-1.4943146800000022, 38.754861689999984], [-1.4862241600000061, 38.75651426000002], [-1.4839471700000217, 38.756980329999976], [-1.4772962800000187, 38.75856083999997], [-1.4726833500000112, 38.75961346999998], [-1.4706002500000181, 38.76008632000003], [-1.4696297300000083, 38.76026282999999], [-1.467325140000014, 38.76039481999999], [-1.4668508999999972, 38.76050572999998], [-1.4665135800000257, 38.760672510000006], [-1.463786749999997, 38.76170897999998], [-1.4613902599999733, 38.76183062000001], [-1.4543805499999962, 38.76239586999998], [-1.453056600000025, 38.76241439], [-1.4527104499999837, 38.76245485999999], [-1.451736149999988, 38.76227074000002], [-1.448839430000021, 38.76157452000001], [-1.448104619999981, 38.761492669999996], [-1.4432524200000216, 38.76075229999998], [-1.4410289699999907, 38.760326169999985], [-1.438374049999993, 38.75963290999999], [-1.4350242599999774, 38.758614910000006], [-1.4321105600000124, 38.75765673000001], [-1.4285022799999751, 38.75636474999999], [-1.4246390399999882, 38.755159330000026], [-1.412435759999994, 38.75226385000002], [-1.400715890000015, 38.74940978000001], [-1.3964469300000246, 38.74991896], [-1.3962519599999723, 38.75008298], [-1.3922256399999924, 38.75342924], [-1.3913359599999922, 38.75410181000001], [-1.390666259999989, 38.75471434000002], [-1.3902762999999823, 38.755168519999984], [-1.3893201000000204, 38.75675024999998], [-1.3894926300000066, 38.75726624999999], [-1.39043565999998, 38.75934272000001], [-1.3908128599999827, 38.759969660000024], [-1.391641170000014, 38.76100829000001], [-1.3933172499999955, 38.76273438999999], [-1.3939718299999981, 38.76382468000003], [-1.3945674799999779, 38.76497724000001], [-1.3947305799999867, 38.765402989999984], [-1.3940655399999855, 38.77042187000001], [-1.3934931399999755, 38.77336052999999], [-1.3929994000000079, 38.77689498000001], [-1.3928525599999944, 38.77882127999999], [-1.3928639499999917, 38.78190314], [-1.3928038000000242, 38.78265922999998], [-1.3927675900000054, 38.78311828], [-1.3925204199999826, 38.78387178999998], [-1.3911807700000054, 38.78661968], [-1.3899961600000097, 38.788612769999986], [-1.389347310000005, 38.78930667999998], [-1.3875255500000208, 38.79095755999998], [-1.385936959999981, 38.79247647], [-1.3810508600000162, 38.79775226999999], [-1.3773930199999995, 38.80215285999998], [-1.3755020899999977, 38.80479377], [-1.3734594800000082, 38.80700903000002], [-1.371926789999975, 38.80907817999997], [-1.3699657399999978, 38.810231250000015], [-1.3693602899999746, 38.81102475], [-1.3651966900000048, 38.815318760000025], [-1.362963279999974, 38.81728786000002], [-1.3588073999999892, 38.82121230000001], [-1.3558422300000075, 38.82192749000001], [-1.3549479199999723, 38.82224830000001], [-1.354211399999997, 38.822688459999995], [-1.3527521999999976, 38.82355995], [-1.3519145999999864, 38.82391758], [-1.3507765599999857, 38.82431601000002], [-1.3494086200000197, 38.82469314999997], [-1.3423181200000158, 38.826953549999985], [-1.3392732199999955, 38.82810871999999], [-1.336803180000004, 38.82930804], [-1.3345524800000135, 38.83048339999999], [-1.3322376200000008, 38.83193713999998], [-1.3304320400000051, 38.83229879999999], [-1.3290006400000038, 38.83242250000001], [-1.3275049999999737, 38.83233802000001], [-1.3234802299999728, 38.83202800999999], [-1.3208551700000157, 38.83196327000002], [-1.3182273599999803, 38.83201557000001], [-1.316306709999992, 38.83187977], [-1.313460770000006, 38.83238835999998], [-1.3100784399999839, 38.83316845000002], [-1.3096081099999992, 38.83341845000001], [-1.3094367300000158, 38.833510579999995], [-1.3088946099999816, 38.83402534999999], [-1.304372170000022, 38.83575291], [-1.300772859999995, 38.83692604999999], [-1.2990998500000046, 38.83751441999999], [-1.2983528899999897, 38.837918030000026], [-1.2973181599999748, 38.837344289999976], [-1.296087440000008, 38.83677669000002], [-1.2921046800000227, 38.83518669], [-1.2904177799999843, 38.834909719999985], [-1.2894095099999845, 38.834678699999984], [-1.287650229999997, 38.83405821000002], [-1.2872144799999887, 38.83349315999999], [-1.285636420000003, 38.83252388], [-1.2850827199999912, 38.83207422999999]]]}}]}