{"type":"FeatureCollection","features":[{"type":"Feature","properties":{"OBJECTID":1771,"ZON_CO_ID":43,"ZON_DS_NOM":"Pla de Bages","CAL_DS_NOM":"D.O.Pla de Bages","TPR_DS_DES":"Denominación de Origen","TPR_DS_GRU":"CALIDAD DIFERENCIADA","FAM_DS_NOM":"Vinos","classification":"DO","normalizedName":"Pla de Bages"},"geometry":{"type":"Polygon","coordinates":[[[1.6685158399999978,41.958392720000006],[1.668831329999989,41.95775861999999],[1.6699743400000102,41.95788307999999],[1.6702647000000184,41.95756512000003],[1.6713311400000066,41.95746760999998],[1.6710410599999932,41.95647104],[1.670788449999975,41.95598615],[1.670777419999979,41.95517629],[1.6704235500000095,41.95446142999998],[1.6706652699999722,41.953479189999996],[1.6710183100000222,41.952699489999986],[1.6719759200000226,41.951940149999984],[1.6729691900000034,41.95150346999998],[1.6744199899999899,41.950561919999984],[1.6745932399999788,41.949798550000025],[1.6744535700000256,41.94871482999997],[1.6742685099999903,41.948164159999976],[1.674340970000003,41.94734188000001],[1.6751553700000272,41.94726362],[1.6763027999999736,41.94745087000001],[1.6775177800000165,41.947572320000006],[1.6785835700000007,41.94730370000002],[1.6788962800000036,41.946633659999975],[1.6793224200000054,41.944878570000014],[1.6791195700000117,41.94408554],[1.6787724399999888,41.94329841000001],[1.6782856400000128,41.94258001999998],[1.680031989999975,41.94172536999997],[1.6809537400000067,41.941138490000014],[1.682095189999984,41.94058763999999],[1.6830215200000112,41.94006359000002],[1.6854084400000033,41.93775111999997],[1.6859779600000024,41.93729566000002],[1.687317749999977,41.93731286000002],[1.6882787800000187,41.93874108],[1.6905998700000282,41.938655040000015],[1.6929507799999897,41.93881083000002],[1.6990634,41.938956340000004],[1.7013295099999937,41.93910642999998],[1.7027173000000175,41.93928354000002],[1.7061261800000125,41.94037700000001],[1.7071250600000099,41.940840149999985],[1.708707660000016,41.941369339999994],[1.71449290999999,41.94295908999999],[1.7168243699999834,41.943502360000025],[1.7167122999999833,41.94198540000002],[1.7173879100000136,41.94133634999997],[1.7184636399999818,41.93924829000002],[1.7190921800000183,41.937799859999984],[1.7198651400000244,41.937326859999985],[1.7193403100000069,41.93577289000001],[1.7196826200000146,41.935020510000015],[1.7197291200000109,41.93418128000002],[1.72017950999998,41.932281020000005],[1.7194169699999975,41.93207834999998],[1.7195414799999753,41.931479000000024],[1.7207924599999842,41.93111234000003],[1.7214142999999922,41.93087962999999],[1.7216373800000042,41.93079841000002],[1.7219834800000058,41.930424010000024],[1.722030459999985,41.92991789000001],[1.722592249999991,41.929525590000026],[1.723655430000008,41.92939172000001],[1.7240831299999968,41.92865382000002],[1.7248599999999783,41.92807256999998],[1.7271178400000053,41.92779036000002],[1.7285368600000197,41.92774079999998],[1.7293229800000063,41.92728519000002],[1.7303093900000022,41.92692935000002],[1.7312484199999858,41.92642239999998],[1.7320497900000191,41.92617322000001],[1.733227290000002,41.925305270000024],[1.7340528700000277,41.92440683000001],[1.7335809900000072,41.923733070000026],[1.7330124399999818,41.922568119999994],[1.7326039999999807,41.921936749999986],[1.7312524600000074,41.92029093000002],[1.7309068600000046,41.91953092],[1.7303869799999916,41.91885912999999],[1.7343387799999732,41.917039260000024],[1.7355712899999958,41.91691629000002],[1.7373051800000212,41.916889620000006],[1.738273960000015,41.916786530000024],[1.7385369400000172,41.91672613999998],[1.7394597499999804,41.91652140000002],[1.740961289999973,41.916450269999984],[1.7418559500000015,41.91632320000002],[1.7438995499999805,41.91657171999998],[1.746341099999995,41.91665965999999],[1.747442279999973,41.91672656999998],[1.7509785099999817,41.916935609999996],[1.7526389099999733,41.919000530000005],[1.7530788999999913,41.91972956000001],[1.7542126199999757,41.920384780000006],[1.7549017100000128,41.92186873999998],[1.7592171399999756,41.91672418000002],[1.7594634600000063,41.91643033999998],[1.7600395900000194,41.91607327999998],[1.7607762200000252,41.916717930000004],[1.7623605399999747,41.918101620000016],[1.7644720999999777,41.91699645],[1.7645016800000235,41.91671611999999],[1.7648313400000006,41.913569240000015],[1.7660200899999836,41.912376359999996],[1.7664472899999737,41.912124500000004],[1.7729901600000062,41.91385986],[1.773579610000013,41.914015370000016],[1.7762550099999999,41.914975260000006],[1.7802292399999828,41.91670921000002],[1.7832208699999796,41.918015879999984],[1.7855620199999862,41.918854450000026],[1.7868067800000063,41.91937866000001],[1.7873857999999814,41.919705599999986],[1.78947758999999,41.91978922999999],[1.7913491200000067,41.91999007999999],[1.7945748500000036,41.92009371],[1.7952522699999918,41.92011488000003],[1.7972604000000274,41.91988674999999],[1.798124180000002,41.91967051],[1.7999532399999794,41.91930579000001],[1.8027945499999873,41.921662620000006],[1.8037444500000106,41.92227102999999],[1.8044722399999955,41.923131839999996],[1.805213149999986,41.923685980000016],[1.8090700299999867,41.92559490000002],[1.809661769999991,41.925768129999994],[1.8125780199999895,41.924790340000015],[1.8162011900000152,41.92375575],[1.8179600000000278,41.92325863999997],[1.8196724100000097,41.92246634000003],[1.8206799999999816,41.92191975999998],[1.8231363599999781,41.920762990000014],[1.824166009999999,41.919711259999985],[1.8262439599999993,41.91705780000001],[1.8267734699999778,41.91656732000001],[1.827570709999975,41.91611057],[1.831838179999977,41.914679209999974],[1.8320644699999775,41.91304907],[1.8323570700000005,41.91213640000001],[1.8329226100000255,41.91116720000002],[1.8334780800000203,41.91070259999998],[1.8341967299999737,41.910483209999995],[1.8360413799999833,41.91017126999998],[1.8390981300000249,41.90979010000001],[1.8399996800000054,41.90959895999998],[1.841206590000013,41.90914280999999],[1.841788059999999,41.908704090000015],[1.842095239999992,41.90687243999997],[1.8416870199999948,41.90562024000002],[1.8409209000000146,41.904257099999995],[1.8396668099999829,41.902815540000006],[1.8407339999999976,41.901789099999974],[1.8404749499999866,41.90123283999998],[1.8404362100000071,41.90072128999998],[1.8405885500000068,41.90034572000002],[1.8408931899999743,41.900071749999995],[1.8413854899999933,41.89988889],[1.8419092899999896,41.899803729999974],[1.8445328199999835,41.89975584000001],[1.8451112399999943,41.89959633000001],[1.8453850299999885,41.89923362000002],[1.8454174299999977,41.899025170000016],[1.8449079000000097,41.89786729000002],[1.844931470000006,41.897542180000016],[1.845164909999994,41.89744227],[1.8470053400000097,41.898669900000016],[1.8473256099999844,41.89907950000003],[1.8476126099999988,41.90000370000001],[1.847828189999973,41.900462749999974],[1.8483413700000142,41.90087319000003],[1.8493212600000106,41.90139892000002],[1.8494779100000187,41.901716410000006],[1.849465020000025,41.902023059999976],[1.8491803499999833,41.90224218999998],[1.8486660699999788,41.902453019999996],[1.8478086200000234,41.902588349999974],[1.8469853899999862,41.90285727000003],[1.8470790599999987,41.90393369999998],[1.847240510000006,41.90479118000002],[1.8475817199999938,41.90579410999999],[1.8479877400000078,41.90638015000002],[1.8480142899999805,41.90673014999999],[1.8476781400000277,41.90690644],[1.8462333400000261,41.90803894999999],[1.8459835500000281,41.908400649999976],[1.845986059999973,41.908751670000015],[1.846200070000009,41.909030719999976],[1.846839349999982,41.90935480000002],[1.8470894000000158,41.90963233000002],[1.8471205100000248,41.91036028000002],[1.847301449999975,41.91083880000002],[1.8475932399999806,41.91134864000003],[1.8479564900000014,41.91232363],[1.8479812400000242,41.91280876000002],[1.8477183499999796,41.91379224000002],[1.8476576300000147,41.91426297999999],[1.8480124899999737,41.91496821999999],[1.8477189600000088,41.915547849999996],[1.847616739999978,41.915948319999984],[1.8477387400000111,41.91628528000001],[1.850444159999995,41.91636433000002],[1.8625619900000174,41.91672391999998],[1.8638796100000263,41.91676252000002],[1.8639215900000181,41.91672022],[1.864822629999992,41.91584915999999],[1.8673250800000005,41.91309590999998],[1.868018319999976,41.912544260000004],[1.869243030000007,41.91169092000001],[1.8708295000000135,41.910840199999996],[1.8728782499999852,41.910203869999975],[1.87426542999998,41.909901760000025],[1.8758211599999868,41.909439410000005],[1.8777385500000037,41.90858350000002],[1.8788282699999854,41.90809594000001],[1.8794008699999836,41.90770242000002],[1.8796105700000112,41.90750892],[1.8798739200000227,41.907268120000026],[1.8802886299999955,41.906701250000026],[1.8800906100000248,41.90647560000002],[1.880015510000021,41.90596562000002],[1.8801419000000124,41.90541103999999],[1.8803647099999807,41.90501440999998],[1.8808071799999766,41.904653429999996],[1.8814919600000053,41.90430914000001],[1.8845487899999966,41.90330552],[1.8851429200000211,41.903037100000006],[1.885578140000007,41.902739440000005],[1.8859728599999812,41.902227419999974],[1.8862972300000251,41.90158336000002],[1.8864012500000058,41.90089468000002],[1.8864105499999937,41.90022804],[1.8863004300000057,41.899260389999995],[1.8870698800000127,41.89923657000003],[1.8876920899999732,41.899336070000004],[1.8901531600000112,41.89952813999997],[1.895320579999975,41.89855116000001],[1.896099960000015,41.89849985000001],[1.896693340000013,41.898537499999975],[1.9003357000000278,41.899047989999985],[1.902110040000025,41.89924215999997],[1.9038027500000112,41.89962888000002],[1.904387569999983,41.899711879999984],[1.9060008199999743,41.900633149999976],[1.9069392100000186,41.900926070000025],[1.909509049999997,41.90190534999999],[1.9107161100000098,41.89989091000001],[1.9116926799999874,41.899425889999975],[1.9121703800000205,41.899369390000004],[1.9131135999999742,41.899725079999996],[1.9132022200000165,41.899937360000024],[1.9130037799999968,41.90064812000003],[1.913797929999987,41.90063206000002],[1.9146042099999931,41.90093058999997],[1.9153309800000216,41.90144859999998],[1.9160298599999805,41.90176072999998],[1.9166308700000059,41.90189699000001],[1.9172061900000017,41.90216939999999],[1.918014439999979,41.90217971999999],[1.9197127400000227,41.900288149999994],[1.9211819299999888,41.89886555999999],[1.9245926699999814,41.89980836000001],[1.9282804800000122,41.90074814000002],[1.9336241400000063,41.902372749999984],[1.9359241600000132,41.903128949999996],[1.9367897100000278,41.903568819999975],[1.9396069599999919,41.90337532000001],[1.9403283699999747,41.90335320999998],[1.9474645299999906,41.903216240000006],[1.9486054399999944,41.903320010000016],[1.951688489999981,41.90406906999999],[1.9525181199999793,41.90451036000002],[1.9528225899999825,41.90455121999997],[1.9539889900000276,41.90405062000002],[1.955902110000011,41.904787139999996],[1.9565895700000056,41.90479340000002],[1.9570777000000135,41.904871309999976],[1.9579970199999934,41.905380709999974],[1.958955709999998,41.90546525000002],[1.9609979100000032,41.905844969999976],[1.962395669999978,41.90630659999999],[1.9630147500000135,41.90682896999999],[1.963620600000013,41.907180840000024],[1.9657850599999733,41.90897768000002],[1.975229039999988,41.91153883999999],[1.9752485999999863,41.91581446999999],[1.973473399999989,41.91670185999999],[1.9703307600000244,41.91829679],[1.970535649999988,41.91984544000002],[1.9731438800000092,41.920056320000015],[1.9741530900000157,41.920012499999984],[1.9792522800000256,41.91954783],[1.984101179999982,41.91912083],[1.98388731,41.920705680000026],[1.9835895400000254,41.92198807],[1.9855797499999994,41.923855119999985],[1.9906211499999813,41.92341945999999],[1.991914520000023,41.923309070000016],[1.9923139900000137,41.923021559999995],[1.9932237900000018,41.92139735000001],[1.9955389699999841,41.92263783999999],[1.9968155999999908,41.92339242000003],[1.99875277000001,41.92473037000002],[1.9999409399999877,41.92589391000001],[2.0009343899999976,41.926417730000026],[2.0034659099999885,41.92826081999999],[2.007420570000022,41.927493760000004],[2.002706240000009,41.91671604999999],[2.0026758899999777,41.916636349999976],[2.0032711299999733,41.91607915999998],[2.003643669999974,41.91575677999998],[2.0046337200000153,41.91562348999997],[2.0058267,41.91515720000001],[2.006384149999974,41.91534890999998],[2.0072398199999952,41.91550056],[2.007901230000016,41.915480650000006],[2.0083689699999923,41.91560423999999],[2.0093710200000032,41.91547037999999],[2.01040759,41.915623100000005],[2.0112391999999772,41.915928829999984],[2.0125435100000004,41.91396309999999],[2.012206639999988,41.91335663000001],[2.0120308699999896,41.91280612999998],[2.0122974799999724,41.91205621],[2.0130040399999984,41.91215132999997],[2.015029869999978,41.91200860999999],[2.021595569999988,41.911198720000016],[2.0269113400000265,41.908291599999984],[2.028394549999973,41.905237469999975],[2.0325473699999748,41.902723260000016],[2.0335752699999716,41.90184980999999],[2.0366667800000187,41.90238911],[2.0407827199999815,41.90292825],[2.0438170799999966,41.90009823999998],[2.044711409999991,41.89926208000003],[2.0467886600000043,41.89764004],[2.0518131499999868,41.89946219000001],[2.052625610000007,41.899678429999994],[2.0536817500000097,41.89977587999999],[2.0569249499999955,41.89979476000002],[2.057762029999992,41.899712780000016],[2.058789059999981,41.89944234000001],[2.059574610000027,41.89947066000002],[2.0608554400000116,41.89966614000002],[2.062535480000008,41.900033029999975],[2.063357059999987,41.90005973000001],[2.0639669000000254,41.9004559],[2.064032929999996,41.90113721],[2.0638154900000245,41.901434919999986],[2.0645221300000003,41.90183581000002],[2.0727604499999757,41.900408819999996],[2.073824150000007,41.90014563],[2.081943430000024,41.90616868000001],[2.0826988599999936,41.90642323999998],[2.0834478699999863,41.906597060000024],[2.0913472500000125,41.90908202999998],[2.0914694900000086,41.90834735999999],[2.09139085999999,41.90584804000002],[2.091531410000016,41.905040540000016],[2.0916899599999965,41.904610349999984],[2.0926547000000255,41.904315370000006],[2.095394440000007,41.90376134000002],[2.0970733699999755,41.90350655999998],[2.098262229999989,41.90345363],[2.099719020000009,41.90358680999998],[2.1007313299999737,41.90358673999998],[2.102185640000016,41.90338689999999],[2.1035291700000016,41.90330900999999],[2.1058407200000033,41.90343102999998],[2.1068815200000017,41.903636689999985],[2.1083311699999854,41.90428324999999],[2.1109521899999777,41.90556172999999],[2.114541929999973,41.90689592000001],[2.1157247599999778,41.907068149999986],[2.1166448299999843,41.90727011000001],[2.11712325000002,41.90737476999999],[2.120479649999993,41.907899929999985],[2.125927040000022,41.909249690000024],[2.1266041100000166,41.909426440000004],[2.1273109599999884,41.909673880000014],[2.1282937899999865,41.90975589999999],[2.129603990000021,41.91001231000001],[2.1310098000000153,41.910408459999985],[2.1320704699999737,41.911009130000025],[2.1324372500000095,41.91152385999999],[2.133155439999996,41.91221188999998],[2.134769360000007,41.91324687000002],[2.1351536999999894,41.913679779999995],[2.1351876200000106,41.91455152999998],[2.1373252399999956,41.91265506000002],[2.1380327400000283,41.91156097999999],[2.139161940000008,41.91001582000001],[2.1390042699999867,41.909104609999986],[2.139221980000002,41.90791546000003],[2.139826889999995,41.907195090000016],[2.1399068200000215,41.90684039000001],[2.139620470000011,41.90627705999998],[2.1414857099999836,41.90519398999999],[2.141724629999999,41.90486815999998],[2.1417752199999995,41.90429870999998],[2.1416382099999964,41.903494609999996],[2.141713340000024,41.90323015000001],[2.1428006599999776,41.902515100000016],[2.143158910000011,41.902174909999985],[2.1438151099999914,41.901344180000024],[2.1432157599999755,41.90033577000003],[2.1429138699999726,41.90017827999998],[2.1398839099999805,41.899963230000026],[2.140950739999994,41.89884398999999],[2.1404448299999785,41.895400600000016],[2.1397145899999828,41.89291257999997],[2.1395199500000217,41.888843020000024],[2.1393576099999905,41.888472190000016],[2.133937039999978,41.885636379999994],[2.132009089999997,41.88563277999998],[2.128296999999975,41.88546600000001],[2.1230502500000057,41.88524172000001],[2.1182554499999924,41.88283630000001],[2.112773030000028,41.884332640000025],[2.11178756999999,41.88466473],[2.107309139999984,41.88621502000001],[2.099289650000003,41.88944436999998],[2.0923671900000045,41.88452172000001],[2.093904029999976,41.87931266999999],[2.086960540000007,41.87713646999998],[2.0860278399999856,41.87464805000002],[2.0863705699999855,41.87320134999999],[2.0859568500000023,41.87239145000001],[2.085252099999991,41.871405400000015],[2.0848443500000258,41.870973349999986],[2.084626990000004,41.87020875000002],[2.084361039999976,41.86959034],[2.084487249999995,41.869359659999986],[2.0844438799999807,41.86896546000003],[2.083558089999997,41.86751928000001],[2.08215942999999,41.864619360000006],[2.0820277899999837,41.86417504999997],[2.0818221200000266,41.86386006999999],[2.0812585300000137,41.86358797999998],[2.0807161999999835,41.86343197999997],[2.0804372100000137,41.863255289999984],[2.080491419999987,41.863027810000006],[2.0807700899999872,41.86274536000002],[2.0808362899999793,41.86251734000001],[2.080707729999972,41.86241501000001],[2.080316670000002,41.862495379999984],[2.0795111400000224,41.8625131],[2.078969540000003,41.86236606],[2.078659430000016,41.86210072],[2.0785682000000065,41.861861680000004],[2.078359089999992,41.86165488],[2.0780957700000044,41.86167555999998],[2.0779059800000255,41.86186404],[2.077484599999991,41.862017760000015],[2.076989690000005,41.862003689999995],[2.0764515700000175,41.86174844999999],[2.0759837400000265,41.861012930000015],[2.073940479999976,41.86076135000002],[2.073559190000026,41.86066119999998],[2.0732540899999776,41.86045865],[2.0731053700000075,41.85964596000002],[2.0729506900000274,41.85951776000002],[2.07258496999998,41.85946194000002],[2.072341310000013,41.85927465999998],[2.072236680000003,41.85901820999999],[2.0726358399999754,41.85828028999998],[2.0725665100000015,41.858013270000015],[2.0722734299999956,41.85781016999999],[2.07173339000002,41.85783408999998],[2.070998110000005,41.858433839999975],[2.070777200000009,41.85853365000003],[2.070459490000019,41.85847568999998],[2.0703068600000165,41.858221360000016],[2.070418899999993,41.857811260000005],[2.070336150000003,41.85752682999998],[2.0700275199999965,41.85727939999998],[2.069416120000028,41.85716242000001],[2.0689078199999926,41.85713089000001],[2.0684460300000183,41.856926250000015],[2.0682948400000214,41.85668986000002],[2.0683038500000066,41.85634735000002],[2.0681526700000177,41.856110960000024],[2.067863939999995,41.85611473],[2.067592119999972,41.856027719999986],[2.0674168599999803,41.85563933999998],[2.0672106499999927,41.855468410000015],[2.066874559999974,41.855330219999985],[2.0658537400000228,41.85521332000002],[2.0656799899999783,41.85499592999997],[2.0657610800000157,41.85480328],[2.0655689399999915,41.85450567999999],[2.0651149899999837,41.854399709999996],[2.0648389099999918,41.854258870000024],[2.0645421899999974,41.853704789999995],[2.0643578699999807,41.85350586999999],[2.0635361800000283,41.85347017999999],[2.0633688199999938,41.853333529999986],[2.063459729999977,41.85296039000002],[2.063439860000017,41.85270917999998],[2.0625073400000247,41.852642360000004],[2.062262320000002,41.85243711999999],[2.0621704499999964,41.852189090000024],[2.06229098,41.85173361],[2.0621631199999797,41.85148717999999],[2.062370489999978,41.85106388000003],[2.062279339999975,41.850824820000014],[2.0616066399999795,41.850845549999974],[2.061139190000006,41.85041604999998],[2.0607438600000023,41.85028947000001],[2.0605524599999967,41.85000083],[2.060416700000019,41.84934959999998],[2.0593891899999903,41.847927500000026],[2.0581900000000246,41.84585573999999],[2.0582562800000233,41.84562774],[2.058539289999999,41.84555222],[2.058853440000007,41.84571840000001],[2.0592119799999864,41.845684559999995],[2.0594039100000145,41.84552302999998],[2.0593346499999825,41.845256000000006],[2.058708299999978,41.84433833999998],[2.0576520999999843,41.84331362],[2.0571868999999765,41.843064070000025],[2.0570216699999833,41.842801269999995],[2.056806359999996,41.84266673000002],[2.056468989999985,41.842663619999996],[2.056239650000009,41.84280878999999],[2.0560972200000265,41.84329223999998],[2.05580784,41.843286999999975],[2.05557699000002,41.84310813000002],[2.0556078199999774,41.84227849000001],[2.0555737500000077,41.841541740000025],[2.054759649999994,41.84022721000002],[2.0527816800000096,41.838351810000006],[2.0524802900000054,41.83819405000003],[2.052477269999997,41.83723986000001],[2.052693149999982,41.83692423000002],[2.053348019999987,41.83667926999999],[2.0533733600000232,41.83639004999998],[2.0524988199999825,41.83568137999998],[2.051546739999992,41.83536325],[2.0512650900000153,41.83499754000002],[2.0511739500000203,41.83445237000001],[2.0522104199999944,41.833398320000015],[2.0521940500000255,41.83273280999998],[2.0519652599999745,41.831968640000014],[2.0515651299999718,41.83193226999998],[2.051239790000011,41.83177555999998],[2.0511345900000038,41.8315101],[2.0512290699999767,41.83102876999999],[2.051142860000027,41.830393360000016],[2.05051555,41.830529049999996],[2.0498830399999974,41.82907143],[2.0499188100000083,41.827692379999974],[2.04956937999998,41.82677146999998],[2.048425440000017,41.82584954999999],[2.048512159999973,41.82526954000002],[2.0483370800000102,41.82457500999999],[2.0478946499999893,41.824459460000014],[2.047914380000009,41.82425152000002],[2.048594499999979,41.823717380000005],[2.0488781000000245,41.82334474999999],[2.048769400000026,41.823034440000015],[2.048055309999995,41.82267876999998],[2.047820290000004,41.82213994],[2.0479252700000075,41.82087488000002],[2.0477981999999884,41.82033130000002],[2.046771519999993,41.819215129999975],[2.04533914000001,41.817378580000025],[2.0456170900000075,41.81708723999998],[2.0455874500000277,41.81686346999999],[2.045071710000002,41.81673312999999],[2.0438525800000207,41.816687779999995],[2.0405155099999774,41.81633949000002],[2.040137360000017,41.81612204999999],[2.040080219999993,41.81585446999998],[2.040362420000008,41.81561697000001],[2.04047319,41.815342009999995],[2.0402869399999872,41.81511612000003],[2.0399539499999833,41.815013729999976],[2.0387503599999945,41.815165709999974],[2.037495289999981,41.815121869999984],[2.037155949999999,41.81493871999999],[2.037159490000022,41.81467748],[2.037505899999985,41.81449119000001],[2.037660420000009,41.814313330000004],[2.037544729999979,41.81406633],[2.0370918099999926,41.81396920999998],[2.0356398999999783,41.81417708999999],[2.0333542100000273,41.81326919000003],[2.0331475799999907,41.812630049999996],[2.0341185899999914,41.81028257999998],[2.038244290000023,41.805815730000006],[2.029723680000018,41.802579879999996],[2.02736299999998,41.80178318999998],[2.030576080000003,41.80086788],[2.0333185800000138,41.80009018999999],[2.034074299999986,41.79776119000002],[2.0344096499999864,41.79528859999999],[2.0328349000000117,41.79438544999999],[2.0341028600000186,41.79030534999998],[2.04117647999999,41.78448442000001],[2.0427567899999985,41.78193901999998],[2.044556269999987,41.779275919999975],[2.0446796499999778,41.77625445000001],[2.0447022100000254,41.77577629000001],[2.0452690500000017,41.770898680000016],[2.042349150000007,41.7660305],[2.0534683700000187,41.76077802999998],[2.052779659999999,41.76043026999997],[2.0503942799999777,41.759608119999996],[2.0483888900000125,41.759183310000026],[2.043636040000024,41.756691690000025],[2.045831029999988,41.75004080999997],[2.04621302999999,41.74924071999999],[2.045034670000007,41.74908554000001],[2.044241139999997,41.74831919000002],[2.043651979999993,41.748012010000025],[2.0425992199999996,41.746239720000005],[2.0374212599999737,41.74352345],[2.0379196000000093,41.74282631],[2.0379415699999868,41.74203306999999],[2.037410990000012,41.74170527000001],[2.0371686299999965,41.74137381000003],[2.0370398000000023,41.74065022000002],[2.036354259999996,41.740032129999975],[2.0359042000000045,41.738890509999976],[2.0353216099999827,41.73805181],[2.0347299800000087,41.736790359999986],[2.031819320000011,41.73599988000001],[2.029834380000011,41.73597898999998],[2.0285421599999722,41.735747600000025],[2.027034350000008,41.733373900000004],[2.0262841900000126,41.732695560000025],[2.025991260000012,41.73217722999999],[2.02590084000002,41.73086674000001],[2.026102530000003,41.730371719999994],[2.02603449999998,41.729501400000004],[2.026157249999983,41.72907286999998],[2.0261730099999795,41.728351929999974],[2.0264451499999723,41.727835819999996],[2.026517389999981,41.726761280000005],[2.0259503099999847,41.72657908000002],[2.0170556699999906,41.725024140000016],[2.014683839999975,41.72450672999997],[2.0153766500000074,41.72399023999998],[2.0154130799999734,41.723070329999985],[2.0152352399999813,41.72233084999999],[2.0152854899999966,41.721896500000014],[2.015480860000025,41.72147380000001],[2.0164280999999846,41.720676079999976],[2.0165939099999832,41.72018265999998],[2.016585529999986,41.71868850999999],[2.0161344699999972,41.71644846999999],[2.016483400000027,41.71599204],[2.0169907999999737,41.71556469000001],[2.0176221500000224,41.71518593000002],[2.0177949399999875,41.714782230000026],[2.018208549999997,41.71453903999998],[2.0185630500000116,41.714154389999976],[2.018709080000008,41.71371585000003],[2.019419400000004,41.71311754999999],[2.01960403999999,41.71147989999997],[2.020519369999988,41.710737559999984],[2.020935179999981,41.710215170000026],[2.0209741200000053,41.709790320000025],[2.020758179999973,41.70917856],[2.020968180000011,41.70894428999998],[2.0217706500000077,41.708449970000004],[2.0222281000000066,41.707691669999974],[2.0221853200000055,41.707297410000024],[2.021402969999997,41.70697156],[2.0213412900000094,41.70689324],[2.0201205100000266,41.705317149999985],[2.0203412299999854,41.70475828999997],[2.020857069999977,41.704132490000006],[2.02104300000002,41.70266584000001],[2.0214816000000155,41.70151222999999],[2.0216448900000046,41.70021763],[2.0220398499999988,41.698966900000016],[2.0216972200000214,41.69827067],[2.0209241700000007,41.69790840000002],[2.0206428899999764,41.69707442999999],[2.020328280000001,41.69673709],[2.0192264099999875,41.696317179999994],[2.0190253100000177,41.695740779999994],[2.0184701200000177,41.69493681],[2.0179330600000185,41.69451916999998],[2.017223329999979,41.69435217],[2.0162924499999804,41.69427587000001],[2.0156672300000196,41.69411416000003],[2.015064730000006,41.693627349999986],[2.0138954999999896,41.692958250000004],[2.0130207799999766,41.69206018],[2.0117681099999913,41.692015930000025],[2.0111689600000204,41.691880070000025],[2.010225939999998,41.692110360000015],[2.0095152499999926,41.69239350999999],[2.009513570000024,41.691754360000004],[2.0092179900000247,41.691506189999984],[2.0090224799999987,41.691154600000004],[2.009174920000021,41.69064377000001],[2.0092487699999992,41.689740229999984],[2.008962209999993,41.68868136999998],[2.0090320400000223,41.68849826000002],[2.009280629999978,41.688451380000004],[2.0092944099999954,41.68785657000001],[2.0095296299999745,41.68779228],[2.00931786000001,41.68754044000002],[2.009475710000004,41.68632711999999],[2.010043189999976,41.68636534000001],[2.0104074000000196,41.68502596000002],[2.0110996600000135,41.68373525999999],[2.011287589999995,41.682754699999975],[2.0117942900000116,41.6820123],[2.0120728699999972,41.681270859999984],[2.0129279500000052,41.68068427999998],[2.013055520000023,41.68047163],[2.012853640000003,41.68019235999998],[2.0122961899999723,41.67997365000002],[2.011940320000008,41.67941301000002],[2.010726209999973,41.6789349],[2.01050041000002,41.67865667000001],[2.0105203699999947,41.67829567000001],[2.0093615100000193,41.67837333],[2.0087354400000095,41.67866178000003],[2.0076843699999927,41.677654340000004],[2.006932210000002,41.67709298],[2.00659349,41.677215820000015],[2.0064416299999834,41.677888680000024],[2.0061436999999955,41.67807275000001],[2.005943479999985,41.67750530000001],[2.0048082399999885,41.67618639],[2.004582589999984,41.67575507999999],[2.0046204899999793,41.67500617000002],[2.0048174500000187,41.67429532],[2.0053232399999956,41.67385008999997],[2.006135879999988,41.67256316999999],[2.0066238599999906,41.67142546000002],[2.0071424000000206,41.67083561999999],[2.008113470000012,41.67035204000001],[2.008744340000021,41.67012641000002],[2.008957070000008,41.66992805000001],[2.0090054899999927,41.66916067],[2.00953788999999,41.66782294000001],[2.0100175700000023,41.66735182000002],[2.0104839900000115,41.66671022000003],[2.010924590000002,41.665736630000026],[2.0109405800000104,41.66501568000001],[2.010589600000003,41.664670899999976],[2.0106475100000125,41.663407930000005],[2.0105591999999888,41.66288960999998],[2.0107883399999764,41.661358070000006],[2.0105812900000046,41.66054783999999],[2.010664640000016,41.65914871000001],[2.0104915200000164,41.65815693000002],[2.0099832899999797,41.65733284999999],[2.0094157199999927,41.65682647],[2.0062385300000187,41.65548875000002],[2.005623720000017,41.65514646999998],[2.0052630700000122,41.65467604999998],[2.0038887000000045,41.654601000000014],[2.0026368900000193,41.654403549999984],[2.0018850999999813,41.65461641000002],[2.001206350000018,41.654997149999986],[1.9995481600000176,41.654358230000014],[1.9977896799999826,41.65490305999998],[1.9966979899999728,41.65506769000001],[1.996117149999975,41.65531807999997],[1.9953260999999998,41.65533455000002],[1.9942512900000224,41.65478717000002],[1.9922977599999854,41.65467418999998],[1.991342999999972,41.65443665999999],[1.9897589899999844,41.65428953999998],[1.9838649499999974,41.64946815000002],[1.9824546199999986,41.648314029999995],[1.9812312299999917,41.648326689999976],[1.9807277300000123,41.64833506000002],[1.9792484100000252,41.64845335000001],[1.9715466000000106,41.64882365],[1.9615910599999893,41.64424022999998],[1.960716830000024,41.644422109999994],[1.959528309999996,41.64535584999999],[1.958583420000025,41.64571183999999],[1.9571544400000107,41.64648490000002],[1.9555141399999911,41.64560147999998],[1.9547238600000014,41.64562663999999],[1.9529957400000058,41.646412569999995],[1.9523264599999948,41.64645049000001],[1.951675860000023,41.64626251999999],[1.9512295800000174,41.64592167000001],[1.9506689300000062,41.645810830000016],[1.9497587500000009,41.64599419000001],[1.9487438099999963,41.646533180000006],[1.9484595999999783,41.646896579999975],[1.9486320799999817,41.647267269999986],[1.9484365999999795,41.64800495999998],[1.9486191500000132,41.648663320000026],[1.9482183100000157,41.648914709999985],[1.9475082899999734,41.64889133999998],[1.9464897999999948,41.648602170000004],[1.9449590699999817,41.648677220000025],[1.9437874100000272,41.649051869999994],[1.9430760199999781,41.64901051999999],[1.9426889000000074,41.64865808000002],[1.94238292,41.64858124],[1.9419044800000052,41.648916980000024],[1.941327020000017,41.649527079999984],[1.9408451400000217,41.64981795],[1.9403551099999845,41.65109952],[1.940027509999993,41.65168083999998],[1.940033949999986,41.65239181999999],[1.9421294699999976,41.65529956],[1.9419964800000002,41.65607057],[1.941240989999983,41.65623818],[1.9407059600000025,41.657089540000015],[1.9403985499999976,41.657778029999974],[1.939060139999981,41.65801577000002],[1.9379423299999985,41.658469079999975],[1.9373173399999928,41.658459979999975],[1.9368524399999956,41.658660069999996],[1.9367284799999993,41.65907956000001],[1.9369605900000124,41.65991586000001],[1.9365660400000024,41.660878190000005],[1.936743999999976,41.661320690000025],[1.9362083600000233,41.66169488000003],[1.9352709400000094,41.66199633999997],[1.934462499999995,41.66257134],[1.9340215999999941,41.663085490000014],[1.932660779999992,41.663189079999995],[1.931999850000011,41.663181510000015],[1.9302428199999895,41.66359920999997],[1.9296684799999753,41.663939029999995],[1.92922341000002,41.66439932999998],[1.929225400000007,41.66552464],[1.9288007000000107,41.66672233999998],[1.9287333899999908,41.66694131000003],[1.928487940000025,41.667185949999975],[1.9263510900000256,41.667034720000004],[1.9261240800000223,41.66720652999999],[1.9259320400000206,41.667836009999974],[1.9259300300000177,41.669537719999994],[1.9255269799999724,41.670077230000004],[1.9243753100000163,41.67040580999998],[1.9237085500000148,41.670794590000014],[1.9232240499999875,41.67121154],[1.9221332000000189,41.671393439999974],[1.9219615700000077,41.67166191000001],[1.9221271299999785,41.671942899999976],[1.922689049999974,41.67222487999999],[1.9228426500000069,41.672506390000024],[1.9227333000000044,41.672961250000014],[1.9217755999999895,41.67410078],[1.9217000900000016,41.674527179999984],[1.9212463499999899,41.67503283999997],[1.9203121300000134,41.675694169999986],[1.9192068799999902,41.67631782000001],[1.918643320000001,41.676801179999984],[1.9183461999999736,41.67747116999999],[1.9179478300000028,41.678073470000015],[1.9174779200000103,41.67821068000001],[1.916963169999974,41.67791764999998],[1.9159897499999943,41.67712209000001],[1.915295809999975,41.67699879999998],[1.914481529999989,41.677501889999974],[1.913919280000016,41.67768804999997],[1.913727080000001,41.678002400000025],[1.9138933500000235,41.67892261999998],[1.9134726899999919,41.67939080999997],[1.9110234999999989,41.67924369000002],[1.9104218900000092,41.67970162],[1.9105111499999907,41.68008493999997],[1.9102830200000085,41.680400829999996],[1.9097145800000135,41.680506209999976],[1.908736050000016,41.680431080000005],[1.9065594900000065,41.678975700000024],[1.9036542399999803,41.67725435],[1.901679989999991,41.67845519999997],[1.901170669999999,41.67886413000002],[1.9007447199999774,41.67973766],[1.8997342800000183,41.68034805999997],[1.8994438299999956,41.68079263999999],[1.898954319999973,41.68114668999999],[1.8988465200000064,41.681466409999985],[1.8984541400000126,41.68183431],[1.8961314900000161,41.68287889999999],[1.8958700900000167,41.68323219000001],[1.8956602200000248,41.68410548000003],[1.8948897099999726,41.68502971999999],[1.8945777600000042,41.685034040000005],[1.8934019399999897,41.684417999999994],[1.8928902600000015,41.68432280000002],[1.892540639999993,41.68446376999998],[1.8915815299999963,41.68448669999998],[1.891150830000015,41.68466713999999],[1.8909944200000268,41.68497993],[1.8907248099999947,41.68522552000002],[1.890105960000028,41.68545899999998],[1.8896469300000263,41.68542456],[1.8892254699999853,41.68556859],[1.8885125799999969,41.68567101999997],[1.887969460000022,41.68547811000002],[1.8872599800000103,41.68562539999999],[1.8866530799999737,41.68585836],[1.8852728699999943,41.68587217999999],[1.8844169800000259,41.685989689999985],[1.8820690399999762,41.68607171000002],[1.8808007800000155,41.68581961000001],[1.873284319999982,41.69007842000002],[1.8728654199999824,41.69031681000001],[1.8727728900000216,41.68941140999999],[1.8722785400000248,41.688910229999976],[1.8712268799999947,41.68850476],[1.8693452900000125,41.68824257],[1.868550760000005,41.68806024000003],[1.8688669399999753,41.68684035000001],[1.8698592100000155,41.68312481999999],[1.8657368899999938,41.678158929999995],[1.8647904900000185,41.67819008999999],[1.8615323000000217,41.67830129999999],[1.8597063600000183,41.678135629999986],[1.8588534799999934,41.67797371],[1.857468670000003,41.67792436000002],[1.8572030700000255,41.67774653999999],[1.8568878099999893,41.6772287],[1.856667189999996,41.67685089999998],[1.8565567399999736,41.67681956000001],[1.855649920000019,41.676578870000014],[1.855020589999981,41.676992670000004],[1.8546002499999759,41.676992470000016],[1.8544256900000278,41.67674776000001],[1.854613449999988,41.67637066999998],[1.854543729999989,41.67592345000003],[1.854138149999983,41.67548145000001],[1.853531970000006,41.675246019999975],[1.8527658400000178,41.675278460000015],[1.8519567399999914,41.67553779000002],[1.852115949999984,41.66903959000001],[1.8508392400000275,41.669147640000006],[1.8497301099999959,41.66924857999999],[1.8472730999999953,41.66946954000002],[1.8432083800000214,41.66811075999999],[1.8421002499999872,41.66854472],[1.8396655700000224,41.667143950000025],[1.8393326400000092,41.66670783000001],[1.8362467599999945,41.66350679999999],[1.8316345200000228,41.664286489999995],[1.827738169999975,41.66484679000001],[1.8251240199999756,41.664731759999995],[1.8250053900000012,41.66346727000001],[1.8234833000000208,41.66350431000001],[1.8220684699999765,41.66385193999997],[1.8213376699999912,41.66387366999999],[1.820809220000001,41.66419300000001],[1.8203050600000097,41.664034130000005],[1.8200073400000178,41.66229999000001],[1.8195264099999804,41.66100570999998],[1.8191165800000135,41.66066280000001],[1.818613120000009,41.660512900000015],[1.8183003899999903,41.66018391],[1.8171800299999745,41.66029401999998],[1.8156891099999939,41.66010455999998],[1.8141994700000055,41.65977097000001],[1.8125743499999771,41.65971314000001],[1.8117278500000111,41.65963162999998],[1.8095252499999788,41.65891374],[1.8090950499999963,41.65894078000002],[1.8082785999999942,41.65910108000003],[1.8074500999999827,41.65909979999998],[1.8063900500000045,41.658730090000006],[1.8055848199999787,41.65871881999999],[1.8052204900000106,41.65882413000003],[1.8047451599999818,41.65905113000002],[1.8039040799999952,41.65920341999998],[1.8010216000000128,41.65918909999999],[1.8007855199999767,41.65908194000002],[1.8007588500000224,41.65888497999998],[1.8004867999999874,41.65861726999998],[1.8000970699999925,41.65838149000001],[1.799093570000025,41.65796432000002],[1.7985144099999957,41.65792554000001],[1.7982929699999772,41.657853769999974],[1.7978712600000222,41.657349220000015],[1.7975693299999875,41.65716378000002],[1.7965100700000107,41.656965000000014],[1.7961489699999902,41.65679103999997],[1.7951409300000023,41.656635119999976],[1.7947971500000222,41.656532459999994],[1.7925515000000019,41.655392870000014],[1.7921750900000006,41.655012450000015],[1.7915685899999971,41.65444357000001],[1.7912633899999832,41.65437529000002],[1.7905812199999787,41.65440380000001],[1.790006070000004,41.65425676000001],[1.7890531699999883,41.65354927999999],[1.7886468599999716,41.65308906000001],[1.7882977699999856,41.65291457000001],[1.7877964099999986,41.652629390000016],[1.786701349999987,41.65243201999999],[1.7860531200000196,41.65259413000001],[1.7853556599999933,41.65257822000001],[1.7846216300000037,41.652392770000006],[1.784404209999991,41.652374829999985],[1.7834594600000173,41.652747379999994],[1.783224109999992,41.652973280000026],[1.782918269999982,41.653058069999986],[1.781938910000008,41.65312592999999],[1.7809861299999739,41.653066620000004],[1.7804841500000066,41.65309654999999],[1.7799103699999819,41.65345359999998],[1.7798059899999998,41.65366504000002],[1.779642420000016,41.65372587000002],[1.7791723500000103,41.653700449999974],[1.7785473600000046,41.65401460999999],[1.7781391099999837,41.65401362],[1.7771803399999726,41.65403556000001],[1.7768844600000193,41.654092909999974],[1.7765373799999793,41.65426943],[1.775583910000023,41.65452522999999],[1.7751523900000166,41.65469625999998],[1.7749755099999902,41.65490169999998],[1.7745367200000146,41.65416368000001],[1.774415729999987,41.653826589999994],[1.7743406299999833,41.65329851000001],[1.774250219999999,41.65305017999998],[1.7740015599999879,41.65293448],[1.7737103499999876,41.652892580000014],[1.773329369999999,41.65293545999998],[1.7727043799999933,41.652925460000006],[1.7723825900000065,41.65279479999998],[1.7721784899999875,41.65263221999999],[1.7718467600000167,41.65220485999998],[1.771529620000024,41.652137030000006],[1.7711599400000182,41.652170420000004],[1.770816179999997,41.652391799999975],[1.770509660000016,41.65246758000001],[1.7695070299999998,41.652383240000006],[1.7687517800000023,41.65207251999999],[1.7685171100000048,41.65182118000001],[1.7681342500000028,41.65118884999998],[1.7678915999999845,41.650991859999976],[1.7672753100000023,41.65077438999998],[1.767020730000013,41.650415829999986],[1.7670288400000231,41.649713220000024],[1.7669577600000252,41.649401049999994],[1.7668354599999816,41.64920805999998],[1.7660896300000104,41.64853678999998],[1.7660165699999766,41.64819769000002],[1.7664542100000062,41.647297159999994],[1.7663990400000102,41.64720040999998],[1.7655787300000156,41.646820349999985],[1.7654119200000196,41.646512159999986],[1.765384040000015,41.646297230000016],[1.7652325199999837,41.64603342999999],[1.7650264700000093,41.645843909999996],[1.764467379999985,41.64575009999999],[1.7632640400000241,41.64587211999998],[1.7630060700000172,41.64595486000002],[1.7624395700000264,41.64624850000001],[1.7620366699999863,41.646319249999976],[1.7616158399999904,41.64630971999998],[1.7610115800000017,41.646091720000015],[1.7606387100000234,41.64575606],[1.7593079000000102,41.645289100000014],[1.7588645199999746,41.64513642999998],[1.7574048100000255,41.64454875000001],[1.7571987800000102,41.64435922000001],[1.756989400000009,41.64428686999997],[1.7564017099999774,41.644293240000025],[1.7556882900000232,41.64454791999998],[1.754007549999983,41.64486971000002],[1.7531526199999803,41.64483311999999],[1.751927319999993,41.64498293999998],[1.7510503099999823,41.645298389999994],[1.749393370000007,41.64578118999998],[1.7486719799999833,41.64592811],[1.7475144800000066,41.64602105],[1.746690899999976,41.645758030000025],[1.7453827100000012,41.64543402999999],[1.744707940000012,41.64539891999999],[1.7430458499999872,41.64548568999999],[1.7420274300000074,41.64534773999998],[1.7370555200000126,41.64596739000001],[1.7344311800000014,41.64635487999999],[1.7291346200000248,41.64615026000001],[1.7283568700000274,41.64602027000001],[1.7282558699999981,41.6459524],[1.7284848200000056,41.64563684000001],[1.7288452799999732,41.64547792000002],[1.7290581799999813,41.64527106999998],[1.729137470000012,41.645042709999984],[1.728774890000011,41.64451745000002],[1.7288109200000008,41.6443539],[1.7257750200000146,41.64157990000001],[1.7259333399999832,41.641447330000005],[1.7259375599999771,41.64117705000001],[1.725659310000026,41.640819369999974],[1.725156200000015,41.640669030000026],[1.7250532400000225,41.64057423000003],[1.725213559999986,41.63964926],[1.725382809999985,41.63917409999999],[1.725202280000019,41.63883941],[1.7231712399999992,41.63831083000002],[1.7226116100000013,41.63820783],[1.7219352299999855,41.63782151999999],[1.720600300000001,41.63794851],[1.7202703500000212,41.63819618000002],[1.720114790000025,41.638202579999984],[1.7199652900000046,41.63812770999999],[1.7196236799999838,41.63805172999997],[1.7195028599999773,41.637876629999994],[1.7192543500000284,41.637760809999975],[1.718736530000001,41.63773709999998],[1.7185239199999955,41.63761979999998],[1.7186060199999815,41.63726528000001],[1.7187591100000077,41.637060899999994],[1.7187512300000094,41.63695317999998],[1.7183268300000236,41.63656548],[1.7179985000000215,41.63650696000002],[1.7178442599999926,41.63653132000002],[1.717638529999988,41.63617964000002],[1.7172731599999906,41.63594257],[1.7170289100000105,41.635556459999975],[1.716756480000015,41.63544160999999],[1.7165781300000162,41.634971759999985],[1.7164435500000081,41.63460815000002],[1.7158134800000084,41.63452601],[1.715648090000002,41.63439776000001],[1.7156476000000112,41.63422671000001],[1.7157821600000034,41.63393307000001],[1.715550549999989,41.63355544000001],[1.7153858199999945,41.632778900000005],[1.7147692099999858,41.63255214999998],[1.7143153499999926,41.63241775],[1.7137588900000083,41.63252165],[1.7135767899999905,41.63249311999999],[1.713331270000026,41.63208904999999],[1.7128961099999742,41.631881840000005],[1.7124076800000125,41.63176686000003],[1.7122483800000055,41.63155732000001],[1.7095663000000059,41.62917349999998],[1.7109389899999883,41.628414840000005],[1.7112123800000063,41.62821453999999],[1.7090819499999839,41.62779784000003],[1.7087697499999877,41.627630580000016],[1.7081178600000158,41.626919050000026],[1.7070773300000042,41.62548518],[1.7068201999999815,41.62541470000002],[1.7063067799999772,41.62512063999998],[1.705484829999989,41.62438006000002],[1.7048845200000073,41.623387279999974],[1.7052047399999992,41.623123039999996],[1.7051928299999872,41.62311821999998],[1.7051686300000028,41.62310408000002],[1.705017880000014,41.623001139999985],[1.7050180599999862,41.622992409999995],[1.7050090299999852,41.622915569999975],[1.7049967599999718,41.62283887000001],[1.7049761900000249,41.622744969999985],[1.7049539399999958,41.62265130999998],[1.704935780000028,41.62256888000002],[1.7049237599999856,41.62252812000003],[1.704906429999994,41.62248801999999],[1.7048844899999835,41.622456880000016],[1.7048399399999994,41.622415939999996],[1.704791250000028,41.622377289999974],[1.7046278799999754,41.62224557000002],[1.7044655899999839,41.622113679999984],[1.7043888300000276,41.62204455],[1.7042784999999867,41.62193746999998],[1.7042220600000064,41.62188469],[1.70416259000001,41.621833579999986],[1.7040567500000066,41.62175393000001],[1.7040552199999865,41.621752749999985],[1.7039702899999725,41.62169585999999],[1.7038375899999778,41.62161501000003],[1.7037006099999985,41.62153817000001],[1.7036141099999895,41.621494229999996],[1.703481389999979,41.62143212000001],[1.7034158999999818,41.62140003000002],[1.7033526100000245,41.621365630000014],[1.7031897599999866,41.621267690000025],[1.7030296199999952,41.62116708000002],[1.7028492800000095,41.621049579999976],[1.7026745499999834,41.62092772],[1.7026252300000237,41.620885199999975],[1.7025618299999792,41.620814499999994],[1.702544219999993,41.62079492999999],[1.7025295299999925,41.62077909999999],[1.7024950300000228,41.620745829999976],[1.702459229999988,41.620717420000005],[1.7023911200000157,41.62067196999999],[1.7022833099999843,41.62060699],[1.7022670800000128,41.620596449999994],[1.7022304700000177,41.62057242999998],[1.7021805800000038,41.62053449000001],[1.7021345900000142,41.62049344000002],[1.7021036699999854,41.620461120000016],[1.70208365000002,41.62043584999998],[1.7020599599999855,41.62039605000001],[1.7020460499999785,41.62035383],[1.7020446999999876,41.620313099999976],[1.7020538400000191,41.62026457000002],[1.7020562499999983,41.62025197999998],[1.7020570600000156,41.620247670000026],[1.702060280000012,41.62023076999998],[1.7020620299999791,41.62022142000001],[1.7020640800000137,41.62019091000002],[1.7020567000000142,41.62004402000002],[1.7020471299999826,41.61997058999998],[1.7020309600000019,41.61989719000002],[1.7020114300000273,41.61984742999999],[1.7019870500000138,41.61980643999999],[1.7019334400000048,41.619738100000006],[1.7018464000000222,41.619637409999996],[1.7018088099999886,41.61958475],[1.701793269999996,41.61955719000002],[1.7017807700000276,41.619528590000016],[1.70176127000002,41.61946523],[1.7017515499999831,41.61941729],[1.701747580000017,41.61938176000001],[1.70174363000001,41.61934542],[1.7017424200000164,41.61927424999999],[1.701747130000001,41.61924277999998],[1.7017563200000154,41.61921523000001],[1.7018034999999827,41.61911938999998],[1.70182041999999,41.61907149000001],[1.701823300000001,41.61904756000001],[1.7018212599999742,41.619023579999975],[1.7018054700000107,41.618967199999986],[1.7017578499999786,41.618863799999986],[1.701606790000028,41.618657369999994],[1.696859809999978,41.62121296999999],[1.696723200000008,41.62185721999998],[1.6964784699999882,41.62208862],[1.695963880000022,41.62201073],[1.6954509400000006,41.6218518],[1.6943472300000053,41.62182124999998],[1.6940013899999826,41.62170923999997],[1.6933678999999984,41.62157595000002],[1.6929724199999896,41.62154442999997],[1.6926591299999814,41.621603919999984],[1.691312670000002,41.62230015],[1.6903911599999901,41.62216355999999],[1.6898008200000163,41.62108501],[1.6894326299999989,41.62089166999999],[1.6892804500000125,41.62070079],[1.689052170000025,41.62023793999998],[1.6867740600000047,41.61999666999998],[1.6835622699999817,41.620338240000024],[1.6832497099999841,41.620361679999974],[1.6829502499999762,41.62033122999998],[1.682531890000007,41.62024537000002],[1.681912450000027,41.620013099999994],[1.6815324799999871,41.619810589999986],[1.6810641499999974,41.61946746000001],[1.674483710000004,41.627277470000024],[1.6665018699999905,41.63621899999998],[1.6653145999999879,41.639220490000014],[1.6638501499999734,41.64436710000001],[1.6689454799999908,41.64909376000003],[1.6687978699999917,41.64987408000002],[1.6666047300000173,41.650422530000014],[1.6655640500000004,41.650473869999985],[1.6649041599999919,41.65064477999999],[1.6650705900000276,41.651286270000014],[1.665529040000024,41.65148370000003],[1.6668961400000057,41.65262555999999],[1.6671172499999898,41.65319278999999],[1.6659193400000163,41.65339460000001],[1.6647222799999781,41.65311015999998],[1.6631597200000101,41.65308367],[1.662264279999988,41.653318160000026],[1.6619155000000205,41.65314325999998],[1.660770580000019,41.65308176000002],[1.6607852099999718,41.65345030999998],[1.660878079999975,41.65357259000001],[1.6616018199999871,41.65378627000001],[1.6615207500000224,41.65449185],[1.660632420000013,41.654825070000015],[1.6607088999999746,41.65555125999998],[1.6618115900000134,41.656190709999976],[1.6617518699999891,41.65685940999998],[1.6608722400000033,41.65714725999999],[1.6589694599999802,41.65656732000002],[1.6580512699999872,41.656487570000024],[1.6556533400000149,41.65719718999998],[1.65528058000001,41.65669011],[1.654615779999972,41.657293330000016],[1.6534776600000214,41.65849198000001],[1.6523451699999896,41.65644007999998],[1.6521322500000224,41.655485329999976],[1.6512975200000142,41.65456481000001],[1.6507248799999843,41.65428191000001],[1.650122500000009,41.655251710000016],[1.6496708600000147,41.655315040000005],[1.6486828100000253,41.654931929999975],[1.6482023799999865,41.654762319999975],[1.6476304099999766,41.654155249999974],[1.647033840000006,41.65387329999999],[1.6459069900000145,41.65439614000002],[1.645313310000006,41.654654289999996],[1.6449693800000205,41.65504636999998],[1.6447364100000073,41.65547896999999],[1.643755189999979,41.65502350999998],[1.6422139100000095,41.65495985000001],[1.6423046200000044,41.653884749999975],[1.6425632500000233,41.65264078000001],[1.64280143000002,41.65194686000001],[1.6427656199999774,41.6509489],[1.6414292300000284,41.65089495000001],[1.6412735800000178,41.64873137000001],[1.6414598900000215,41.646481919999985],[1.641636290000008,41.64576348999998],[1.641899340000009,41.64524863999998],[1.6426159100000177,41.64469743000001],[1.6419755499999837,41.64380497000002],[1.6401653199999942,41.64433740999999],[1.6383910100000207,41.64637197000002],[1.6386247600000274,41.64711883000001],[1.6383982799999899,41.64730806],[1.6378424700000096,41.64759163999997],[1.637102470000002,41.64848590999998],[1.6364557699999978,41.650177729999996],[1.636118329999988,41.65032643000001],[1.6348760500000026,41.65041265000002],[1.6342642199999773,41.65075250000001],[1.6323985799999718,41.653024759999994],[1.6316730899999925,41.6536213],[1.6311811900000066,41.65412736000002],[1.6308500600000002,41.65469895000001],[1.630162079999991,41.65632038000001],[1.6287501499999735,41.658394190000024],[1.6279394200000183,41.66014661000003],[1.627788559999999,41.66239460999998],[1.6301884999999743,41.663378179999995],[1.6308559999999943,41.663477279999995],[1.63195386000001,41.66354999999999],[1.633530539999981,41.663936490000026],[1.6339210300000104,41.66419081999999],[1.6341494999999782,41.66553213999998],[1.6345214400000145,41.666363460000014],[1.634617800000001,41.666701699999976],[1.634646260000011,41.66676358000001],[1.6340318499999853,41.66790486999997],[1.6332007500000145,41.66837062000002],[1.6321389199999885,41.668800669999996],[1.630918749999978,41.668363750000026],[1.6297603799999933,41.66912180999998],[1.6282245300000113,41.67030926000001],[1.6263036400000033,41.67115208000001],[1.6231308399999875,41.67396314000001],[1.6233629999999835,41.67452100999998],[1.6243360500000108,41.67569728000001],[1.6266817499999888,41.67876296999998],[1.6266298799999959,41.67904417],[1.6257320000000277,41.67925145999999],[1.623652160000006,41.679389360000016],[1.6219783000000234,41.679997060000005],[1.6204044699999827,41.68049266000003],[1.6196723900000052,41.68117042],[1.6189430100000095,41.68155094000002],[1.6182138699999769,41.68210252],[1.6185879000000227,41.68313189000003],[1.619260469999972,41.683969160000004],[1.6201050899999814,41.685195650000026],[1.6182825299999877,41.68641253999999],[1.6236198199999876,41.69115850999998],[1.6202676099999849,41.69315739000001],[1.6155763699999852,41.69625451000002],[1.6155674500000146,41.69663301999998],[1.6153613299999847,41.69710951000002],[1.6153199299999983,41.69770541999998],[1.6157004699999788,41.69882457],[1.6155274899999768,41.70043420000002],[1.614658870000028,41.701054399999975],[1.6143996600000037,41.70146098999999],[1.6143875199999798,41.70179461999999],[1.6153598399999964,41.703124049999985],[1.616947620000019,41.703150170000015],[1.6190862199999856,41.70298300000002],[1.6214014000000248,41.702430530000015],[1.622040219999974,41.70329615000003],[1.6225362000000132,41.70434759],[1.6236416400000167,41.70518537999999],[1.6242130399999724,41.70644986999997],[1.6267845699999839,41.70645417999998],[1.6292327900000032,41.70624731999999],[1.630747470000017,41.70625818000002],[1.6323999699999945,41.70684870000002],[1.6332017099999803,41.70663624000002],[1.634168929999987,41.706218990000025],[1.635646759999986,41.70571808],[1.6364202899999896,41.70561477000001],[1.636941859999979,41.706016850000026],[1.637316090000013,41.70654194000002],[1.6376663400000098,41.707401129999994],[1.6401640899999848,41.70704797000002],[1.6411176400000045,41.70710842],[1.6420647400000234,41.70674595000003],[1.6430234700000028,41.706878200000006],[1.6449202100000093,41.706522259999986],[1.6455470700000205,41.70688402000002],[1.6458692499999756,41.70751923],[1.6454807399999822,41.70979489000001],[1.6457220099999859,41.71130672999999],[1.6459023699999875,41.71130842000002],[1.6474929199999906,41.711370020000004],[1.6484131899999852,41.711467760000005],[1.6489115599999877,41.71187973000002],[1.6496042599999896,41.71265297000002],[1.6503190299999915,41.713731429999996],[1.6509560599999986,41.714398870000025],[1.6528341499999897,41.71378245],[1.654869959999985,41.71351973999998],[1.6554874299999938,41.71325157000001],[1.6577894700000115,41.71185255],[1.6592413000000192,41.711325380000005],[1.6600791299999855,41.71061605],[1.66196463,41.710602429999994],[1.6631956400000263,41.71034528000001],[1.6641389499999946,41.71059502999998],[1.6651089900000215,41.710384499999975],[1.6644677200000046,41.712976620000006],[1.6649797000000035,41.71407224000001],[1.6660755799999833,41.71708887],[1.6662879699999849,41.717863539999996],[1.6664866599999755,41.71927801999999],[1.667015690000028,41.719778700000006],[1.6677998600000024,41.720151939999994],[1.6670892500000036,41.72079310999999],[1.6665037899999788,41.721834349999995],[1.6660877599999822,41.723057770000025],[1.6659012200000234,41.723965729999975],[1.6660744299999806,41.724696979999976],[1.6660960400000135,41.72532634999999],[1.665688590000002,41.72617127000001],[1.6660989999999742,41.72718997999999],[1.666146270000013,41.728007390000016],[1.6659442199999717,41.72903302999998],[1.6647951599999828,41.730259260000025],[1.667157589999988,41.73167572],[1.6680353300000093,41.732342270000004],[1.669820150000021,41.73325097999998],[1.6703785600000174,41.73249894000003],[1.6710103199999935,41.73209505],[1.6732222100000058,41.73193286999998],[1.6738520800000174,41.73233037],[1.6738177700000278,41.733016039999995],[1.6729543899999726,41.733375369999976],[1.672910370000011,41.733431180000025],[1.672803569999985,41.733615610000015],[1.672865119999983,41.73429737999999],[1.6726382200000103,41.73464876000003],[1.671950279999976,41.73477584],[1.6693486199999938,41.73420656000002],[1.6687953900000139,41.73503040999998],[1.6687105899999892,41.73518693],[1.668208400000026,41.73572059000003],[1.6674250799999868,41.736355720000006],[1.6665221499999916,41.73683366],[1.6650118599999928,41.73739032999998],[1.6642847699999948,41.737807069999974],[1.665897340000015,41.73948815],[1.6652738000000227,41.74050392999999],[1.6642640800000095,41.74149940000001],[1.6643359600000167,41.743153140000004],[1.663482810000005,41.74365604000002],[1.662077829999987,41.74483864000001],[1.6602752699999996,41.74601037000002],[1.6592127900000264,41.746611789999974],[1.6569762600000217,41.74760302999999],[1.6559157500000197,41.74856447000002],[1.6531488100000047,41.750036369999975],[1.6495491000000015,41.75196514999999],[1.648480740000025,41.7513242],[1.6464553499999965,41.75141531000003],[1.645899380000003,41.751707950000025],[1.644708680000008,41.752368450000006],[1.6439327200000093,41.75344431000002],[1.6418978799999877,41.754238009999995],[1.6409543299999996,41.75482543999999],[1.6406228499999997,41.755397089999974],[1.640252490000023,41.756429490000016],[1.637991320000026,41.757754499999976],[1.6371941500000275,41.75803884999999],[1.635017189999985,41.758198919999984],[1.6344181700000036,41.76056410000001],[1.6339965099999745,41.76122040000001],[1.6335194499999943,41.76160884000001],[1.6327238200000238,41.762082169999985],[1.6315829999999778,41.762938599999984],[1.6305711100000053,41.76391586],[1.629941620000011,41.76485967000002],[1.6296929900000237,41.76524785999999],[1.6292848400000253,41.766092679999986],[1.6288106499999913,41.76635492999998],[1.6281633500000225,41.76688526999999],[1.6275163999999904,41.767253530000005],[1.6252015700000015,41.76784215999999],[1.6240315399999758,41.76796138999998],[1.622577289999981,41.767975019999994],[1.6208337599999822,41.768648559999974],[1.617854560000012,41.76869658999999],[1.616547799999978,41.76858715999998],[1.6149612300000058,41.76876808999998],[1.6124636299999793,41.76882360000002],[1.610654629999999,41.768419170000016],[1.6098796499999821,41.768513369999994],[1.6092308699999762,41.76902566000001],[1.6076695400000176,41.77056503],[1.6074707299999886,41.77014085000002],[1.6076046599999927,41.76932513000003],[1.6081764200000066,41.76790656999998],[1.6081508199999917,41.767214319999994],[1.6074551300000053,41.76623387000001],[1.603198529999986,41.76490124999998],[1.6014154000000076,41.76485579000001],[1.5986707999999794,41.76465080000003],[1.594954610000002,41.76456065999997],[1.5947089200000164,41.76545562000001],[1.592927990000021,41.76927518000002],[1.5905714699999862,41.76947777999999],[1.58833525,41.76973493999998],[1.5872916800000212,41.770140019999985],[1.5861035199999947,41.770554129999994],[1.583840720000012,41.771361179999985],[1.5836656800000242,41.77124429999998],[1.5836526400000253,41.77125844],[1.5836238800000046,41.771307620000016],[1.58360239000001,41.77137219999997],[1.583599769999978,41.77141863999998],[1.5836267899999825,41.771492850000016],[1.5836733200000026,41.77154823000001],[1.5837358699999982,41.77159904000001],[1.5838106300000163,41.771673840000005],[1.583847139999989,41.77175054999998],[1.5838490099999945,41.771810140000014],[1.583829460000004,41.77184792999998],[1.5837846300000251,41.771885380000015],[1.5837346800000205,41.77192530000002],[1.5836285099999827,41.77199330000002],[1.5835447200000203,41.772039930000005],[1.5834708400000181,41.772069999999985],[1.5833935699999984,41.77210955999999],[1.5833607000000143,41.77215681000001],[1.5833543200000122,41.77222941000002],[1.5833812399999942,41.77230838999998],[1.5834564099999966,41.77236412000002],[1.5835259599999745,41.77238642999998],[1.5835846400000264,41.772468170000025],[1.5835955900000158,41.772549330000004],[1.5835971500000028,41.772623220000014],[1.5836078899999961,41.77271390999999],[1.5836132599999928,41.77275924999998],[1.5836376699999732,41.772807220000004],[1.5836900900000046,41.772884120000015],[1.5837265499999944,41.77296321],[1.5837819500000023,41.773049679999986],[1.5837938899999813,41.773073780000004],[1.5838028000000008,41.77309113000001],[1.5838105500000097,41.77310634999998],[1.5838122100000191,41.77312153999998],[1.5838037500000155,41.773216760000025],[1.583795450000025,41.77324193999999],[1.5837848599999802,41.77326389000001],[1.5837702700000023,41.773284579999995],[1.5837557899999979,41.77329838000003],[1.5837151800000129,41.773309600000005],[1.5836778199999912,41.77331822000002],[1.5836413299999776,41.773324419999994],[1.583611889999986,41.77332759000001],[1.583439769999984,41.77333737999999],[1.5832450600000243,41.77336119],[1.5830946899999958,41.77339508],[1.5829052899999851,41.77346662000002],[1.582777099999987,41.77350554999998],[1.5826602399999956,41.773553349999986],[1.5826379100000167,41.77355850999999],[1.5826124000000164,41.77356092000002],[1.5825748099999828,41.77356197],[1.5825453699999912,41.773559490000025],[1.5825007700000242,41.77354836000001],[1.5824357800000257,41.773527899999976],[1.5824165999999877,41.77351798000001],[1.582394939999972,41.773511059999976],[1.5823538099999723,41.77350032999999],[1.582214410000006,41.77347000999998],[1.5821810099999993,41.77346577999998],[1.582146239999986,41.77346717],[1.582113310000011,41.77347673999998],[1.5820891899999765,41.77348945],[1.5820797499999912,41.773496290000026],[1.5820770899999843,41.77350713999999],[1.5820809400000257,41.773515350000025],[1.582098980000012,41.773540070000024],[1.58209549999998,41.77355122],[1.5820594599999822,41.77358069000002],[1.5819950000000063,41.77362044],[1.5819604600000048,41.773637570000005],[1.5819202800000198,41.773671320000005],[1.5818783799999778,41.77370973000001],[1.5818402400000195,41.77376447],[1.5817814299999782,41.77383285000002],[1.5817621599999825,41.773895519999996],[1.5817851699999892,41.77395203999998],[1.5818084800000065,41.77405004000002],[1.5818316799999934,41.77415279000002],[1.5818934999999783,41.774236959999996],[1.581946099999982,41.774318419999986],[1.5819640199999867,41.774359360000005],[1.5820102399999882,41.77442903999997],[1.5820597900000166,41.774491609999984],[1.58208707,41.77455391000001],[1.5821331299999883,41.77463073000001],[1.582162760000017,41.77469667999998],[1.5822043800000074,41.77476716000001],[1.5822109800000135,41.774792390000016],[1.5822003600000016,41.77483053999998],[1.5821609100000273,41.774887250000006],[1.5820737299999905,41.774966310000025],[1.5820205900000133,41.77501883000002],[1.5819636200000105,41.775027790000024],[1.581898179999996,41.775094790000026],[1.581821639999987,41.77511421000003],[1.5817085699999893,41.77518908000002],[1.5815953900000181,41.77526870000003],[1.5813994100000173,41.775349689999985],[1.5812920899999767,41.77541696999998],[1.5935949999999934,41.77792770999997],[1.5921602000000235,41.78074035999998],[1.5924264199999811,41.78109884999998],[1.5936258799999905,41.78205921],[1.5998272900000075,41.78903152999999],[1.5989723700000127,41.789525019999985],[1.5983841500000153,41.790214900000024],[1.598052129999985,41.790786449999985],[1.5970431499999904,41.79131312999999],[1.5961590599999909,41.79324838000002],[1.5959139899999855,41.79419459000002],[1.5979678699999909,41.79397716],[1.5973622800000271,41.795433049999986],[1.5971135799999843,41.79649647000002],[1.5949715599999763,41.79649232000003],[1.5944380899999828,41.797107960000005],[1.5940303599999766,41.79880800000001],[1.59445414999999,41.79985346000001],[1.5935748399999738,41.80017681999999],[1.5931223200000204,41.80041104999998],[1.5930766700000163,41.80078202999999],[1.5939478500000064,41.80152143999999],[1.5939356299999758,41.80185506999999],[1.5920867300000054,41.80208221999999],[1.5915859699999828,41.802651509999976],[1.5895053500000245,41.803509159999976],[1.588997489999997,41.80397968],[1.588810149999972,41.80472549000001],[1.5932535300000268,41.81199362000001],[1.5954908100000011,41.812480170000015],[1.6024089399999752,41.81362515000001],[1.607885720000013,41.81598014999997],[1.6114568300000087,41.8177723],[1.6137531699999954,41.82543206999998],[1.6154396599999927,41.83029819000001],[1.6133906700000011,41.83227147000002],[1.611917720000008,41.833384179999996],[1.6117927799999734,41.833488250000016],[1.6114602100000184,41.834555060000014],[1.6100081100000239,41.83612608999999],[1.610799190000023,41.836913589999995],[1.6118422299999793,41.83718675],[1.6120070399999804,41.83830556999999],[1.6142107399999759,41.83964843000001],[1.615027590000011,41.84029079999999],[1.6169486900000152,41.84071762000002],[1.6180148199999849,41.84114284999998],[1.6193278399999826,41.84181921999999],[1.6223812800000132,41.84108384000001],[1.623102270000004,41.84106376],[1.6239614500000243,41.8412902],[1.6252177399999823,41.842013810000026],[1.6260120399999778,41.84234189],[1.6270659300000148,41.84259645999998],[1.6286555199999952,41.84343261999999],[1.6302208199999768,41.844098669999994],[1.6314574400000197,41.844714959999976],[1.6264658499999882,41.848626079999974],[1.6298900200000048,41.85734731000002],[1.6303067499999884,41.85878005000001],[1.6280925600000273,41.86013901000001],[1.6255964200000221,41.86909932999998],[1.6245124899999723,41.86960226000002],[1.6238103100000103,41.87005377000003],[1.6236048000000096,41.87037719],[1.62264128999999,41.870713179999996],[1.6210188599999924,41.87310155],[1.6215385300000094,41.87379186999999],[1.62135988,41.87465442000001],[1.6210868100000084,41.87504358000001],[1.6199004299999729,41.875964769999996],[1.6195681899999954,41.876869520000014],[1.6186652200000253,41.87754518000003],[1.618592050000018,41.87836745999999],[1.6183315600000014,41.87909824000002],[1.6190910199999848,41.88094037000002],[1.6191217900000083,41.88153337],[1.6183017000000177,41.88118828],[1.6172205699999722,41.880898720000005],[1.616783919999989,41.88069122000002],[1.6162469199999805,41.88059580999999],[1.615527429999986,41.880642799999976],[1.6151340100000198,41.88019946999998],[1.6146678000000065,41.88008318999999],[1.613687270000014,41.88018570000003],[1.6130858899999794,41.880534049999994],[1.6116362700000195,41.880313290000004],[1.6109784199999808,41.88054684999997],[1.6104939200000103,41.88084544999998],[1.6099992499999871,41.88150460999998],[1.6093292699999893,41.88207177999999],[1.6090012999999885,41.88220202000002],[1.6079304300000103,41.882389149999995],[1.6063259900000162,41.88386723000002],[1.6058830299999727,41.88407410999997],[1.6039981200000284,41.883330539999974],[1.6026720899999987,41.882483449999995],[1.6023580400000128,41.883477459999995],[1.6019254099999785,41.88382797000003],[1.6017375800000195,41.88423167000002],[1.6007202900000266,41.88348920999999],[1.6001636699999722,41.88295333000002],[1.5994322600000146,41.882667570000024],[1.597533999999996,41.88223955000001],[1.5968980800000168,41.88194093999999],[1.5958186400000045,41.88100284000001],[1.5949392399999738,41.88066896999999],[1.592093200000022,41.87928846],[1.591372060000026,41.877633679999974],[1.5898860799999852,41.87757617],[1.5890743200000088,41.87717650000002],[1.5876638500000126,41.87581941000002],[1.5864936799999896,41.87495689000002],[1.585421139999994,41.874279520000016],[1.5843196600000056,41.87370234000002],[1.5834037299999864,41.873360830000024],[1.5818244299999833,41.87452243000001],[1.5813187699999958,41.87519990999999],[1.5795155000000136,41.87575819],[1.5777769499999863,41.87654794000002],[1.5755172899999934,41.87729546000003],[1.5744239900000139,41.87784331],[1.5729739199999813,41.87828833999998],[1.5709438599999999,41.879215680000016],[1.5689287800000216,41.88001634],[1.5727299600000038,41.884483579999994],[1.5731689799999913,41.885231369999985],[1.574669809999989,41.88835875000001],[1.5763719600000172,41.89160412000001],[1.5828282200000103,41.89291271000002],[1.5832947200000262,41.89269596999998],[1.584686309999995,41.89075853999998],[1.5834484399999837,41.88844912000002],[1.5868787699999984,41.88856394999999],[1.5873374899999817,41.88924787000002],[1.5893593200000282,41.89122873000002],[1.5927372200000036,41.894136609999975],[1.5941408599999818,41.89522378999999],[1.5949363799999787,41.896065239999984],[1.5958733800000005,41.89719812999999],[1.5971262300000149,41.89937175],[1.5995505000000207,41.90191249999998],[1.600158179999994,41.90265341000003],[1.6002977200000146,41.90291791999999],[1.6005025900000192,41.90459335999998],[1.601701950000006,41.903338710000014],[1.6020221800000058,41.902596560000006],[1.6032172000000173,41.90228745000002],[1.6045592699999816,41.90217949999999],[1.6051584400000252,41.90146213999998],[1.6159228199999802,41.90599892],[1.6156784500000185,41.90662100999998],[1.6156007399999908,41.90704729999999],[1.6157361200000082,41.90742],[1.6162356300000056,41.90766098],[1.6170190000000275,41.90816061999999],[1.617356749999999,41.908498140000006],[1.6174121999999898,41.909099149999975],[1.6172916099999952,41.9095992],[1.6170924300000138,41.91001239000002],[1.6189258100000075,41.911865250000005],[1.6200236500000074,41.91271232999998],[1.6215155900000013,41.91317436000003],[1.6227597100000253,41.91337626000001],[1.6222057200000108,41.91521733000002],[1.6222739199999978,41.915493690000005],[1.624389640000004,41.91624562999999],[1.625946010000007,41.916596949999985],[1.6258887700000173,41.91671180999998],[1.6257455699999923,41.91699219999998],[1.625782920000006,41.91734183],[1.626377409999975,41.91756092000003],[1.6324733800000217,41.92083495000003],[1.6329692599999817,41.922021359999974],[1.6336269500000071,41.923111199999994],[1.6342849600000022,41.92403895000001],[1.6370904400000086,41.926149280000004],[1.6376503500000013,41.92672084999998],[1.6382518400000095,41.92720069000001],[1.6394365300000118,41.927575880000006],[1.6402423299999782,41.92771431],[1.641269379999983,41.92774472999997],[1.6419897299999775,41.92786860000001],[1.642046549999975,41.92898272999997],[1.6432263500000204,41.929123979999986],[1.6458995200000004,41.92807023],[1.6462856900000133,41.92791951999999],[1.647784339999987,41.92747157000002],[1.6500034700000015,41.926652219999994],[1.6518696699999964,41.928107039999986],[1.6530052100000034,41.92879919000001],[1.6522069700000088,41.929758979999974],[1.6514276500000165,41.930979089999994],[1.649920160000022,41.933129099999974],[1.6495409199999926,41.933882779999976],[1.6483952099999897,41.93487464999998],[1.6427011499999935,41.94048065999999],[1.6440068599999904,41.94251652999998],[1.644704709999985,41.943820759999994],[1.6477923699999906,41.944487820000006],[1.650420429999997,41.94480429999999],[1.6503249300000107,41.94564551000002],[1.650378699999976,41.946714740000004],[1.6498646699999995,41.947771020000005],[1.64945831,41.948318719999975],[1.6490096200000153,41.94944436999998],[1.6490789299999733,41.95039593000001],[1.6487126900000248,41.95132916],[1.648647359999984,41.952088100000026],[1.647701369999993,41.95251364000001],[1.6474028100000169,41.95288590000001],[1.647339680000016,41.953509699999984],[1.6478956400000015,41.953856289999976],[1.6483846799999924,41.95427761000002],[1.6484018500000275,41.95567246000002],[1.6489800699999932,41.956324259999974],[1.6494105799999943,41.956603900000005],[1.6507093899999745,41.95704635999999],[1.651437470000019,41.957602020000024],[1.654219420000004,41.95770508999999],[1.654820540000003,41.957842719999974],[1.658357369999976,41.96085015],[1.6588500400000044,41.961154239999985],[1.65986319000001,41.96148217000001],[1.6607285200000206,41.961933139999985],[1.6624390800000128,41.96239473000003],[1.6635963800000013,41.96238362999998],[1.6646484799999826,41.96208868000002],[1.6650160699999788,41.96150648999998],[1.6656944000000067,41.96088462],[1.6666392600000108,41.95978371000001],[1.667031780000002,41.95954262999999],[1.668047730000012,41.95924912999999],[1.668406329999982,41.95887436999999],[1.6685158399999978,41.958392720000006]],[[1.7110863099999847,41.890393449999976],[1.7111136500000157,41.88945596999997],[1.709703960000013,41.88880266000001],[1.7087233999999967,41.88906804999999],[1.707701629999974,41.889101040000014],[1.7077762800000187,41.890115349999974],[1.7068318600000225,41.89021717999998],[1.706439880000005,41.88963905999998],[1.705975579999972,41.88938803000002],[1.7062430099999801,41.888764820000006],[1.7070487899999875,41.88841659000002],[1.709734630000014,41.887910060000024],[1.711093510000012,41.887710140000024],[1.71189253,41.88743419000002],[1.7155833099999995,41.885850790000006],[1.7165820600000075,41.88517944],[1.7171712400000274,41.88418281999998],[1.717662990000008,41.88317218999998],[1.7183694199999877,41.88245884000003],[1.7187504799999829,41.88239813000001],[1.7191558600000008,41.88299367000002],[1.719727139999975,41.88404154],[1.7208949399999938,41.88647836000001],[1.723206790000006,41.89004745],[1.7237714199999914,41.89132966],[1.7249091799999974,41.89302939999999],[1.7214094000000273,41.89410103],[1.7205474599999775,41.894667749999996],[1.7199370399999907,41.89537716000001],[1.7196839599999976,41.89439721000002],[1.7192132299999798,41.893570290000014],[1.7182705700000156,41.89287983999998],[1.7164743100000237,41.89221551999998],[1.715288390000012,41.892147299999976],[1.7142791499999817,41.89235088999999],[1.7136568700000225,41.89273663],[1.7133441999999945,41.893235679999975],[1.7129830399999832,41.894384969999976],[1.7126515100000006,41.895118879999984],[1.7121938700000214,41.89577694000002],[1.7116963299999952,41.89622056000002],[1.7109410799999978,41.89676480999998],[1.7104643499999952,41.89700049999999],[1.7093876700000123,41.89710779000001],[1.7087184000000093,41.896856189999994],[1.7083628199999907,41.89660971000001],[1.7081838600000196,41.895815760000005],[1.7083889300000124,41.89467289999999],[1.7089087699999936,41.89387725],[1.7097155999999814,41.89305178000001],[1.7113262299999974,41.89185113000002],[1.7117739299999926,41.89105842999999],[1.7110863099999847,41.890393449999976]]]}}]}