{"type": "FeatureCollection", "features": [{"type": "Feature", "properties": {"OBJECTID": 1747, "ZON_CO_ID": 45, "ZON_DS_NOM": "Priorato, Comunidad de Cataluña", "CAL_DS_NOM": "D.O.Priorato", "TPR_DS_DES": "Denominación de Origen", "TPR_DS_GRU": "CALIDAD DIFERENCIADA", "FAM_DS_NOM": "Vinos"}, "geometry": {"type": "Polygon", "coordinates": [[[0.8085557100000074, 41.30305731999999], [0.8089530899999886, 41.302909080000006], [0.8110353299999815, 41.302984159999994], [0.8113291000000231, 41.30290237999998], [0.8120950300000231, 41.30211154], [0.8124438099999907, 41.30215399999997], [0.8125391599999716, 41.302150840000024], [0.8141151599999716, 41.30235071999999], [0.8149543200000267, 41.302611060000004], [0.8170387399999868, 41.303541429999996], [0.8174795200000062, 41.30393203], [0.8179619000000002, 41.30380794000001], [0.8188367000000198, 41.30385991000003], [0.8190689300000145, 41.30395125000001], [0.8192790699999932, 41.30427745999998], [0.819629759999998, 41.30476110000001], [0.8205778299999906, 41.30504475999999], [0.8214011300000266, 41.30482826000002], [0.821821639999996, 41.30446307], [0.8223054200000206, 41.30415879999998], [0.822841770000025, 41.304140959999984], [0.8244115599999873, 41.303620439999975], [0.8254810899999825, 41.303530799999976], [0.8258530200000109, 41.30335631999998], [0.8263488700000039, 41.303258760000006], [0.8273065700000188, 41.303298900000016], [0.8281000399999812, 41.30338954000001], [0.8292845400000033, 41.30322398999999], [0.8295949500000006, 41.30322265000001], [0.8298773099999721, 41.303150200000005], [0.8310774000000265, 41.30304715], [0.8320890900000109, 41.30319351999998], [0.8339915199999837, 41.303256120000015], [0.8346793200000207, 41.30337724999998], [0.8352140700000064, 41.30333237999997], [0.8358960699999898, 41.30335464000001], [0.8364543399999889, 41.30350709999999], [0.8370565100000249, 41.304000289999976], [0.8384953199999927, 41.30470866000002], [0.8390331699999933, 41.30512293999999], [0.839844630000016, 41.30551907], [0.8403396400000247, 41.30561058000001], [0.8413694199999782, 41.305657199999985], [0.8421036400000048, 41.3055516], [0.8422858800000199, 41.30540143000002], [0.842400610000027, 41.30511842999999], [0.8430054099999893, 41.3042337], [0.8435327600000164, 41.30406297000002], [0.8445050400000014, 41.30414751000001], [0.8447884400000021, 41.30409300000002], [0.8457006400000182, 41.30376530000001], [0.8465857799999981, 41.30378969999998], [0.847130849999985, 41.30371742], [0.8481688200000121, 41.30370067000001], [0.8488134500000228, 41.30410231000002], [0.8491601499999888, 41.30410870999998], [0.8495251100000019, 41.30422255000002], [0.8499936399999797, 41.30426989], [0.8503956800000196, 41.304607610000005], [0.8511131800000271, 41.30482669999998], [0.8514267699999891, 41.30487922999998], [0.8521956499999987, 41.30475439000003], [0.8526361099999917, 41.30473061999999], [0.8532550799999967, 41.30449374], [0.8536446699999942, 41.304012399999976], [0.8539542699999743, 41.303794900000014], [0.8545173399999726, 41.30362293000002], [0.8549681200000236, 41.30357178000003], [0.8552687299999775, 41.303606720000005], [0.8556103999999891, 41.30373033000001], [0.8558990899999799, 41.30376567000002], [0.8565108799999734, 41.30361005999998], [0.8575045900000191, 41.303450629999986], [0.8580064700000207, 41.303253670000004], [0.8594255099999941, 41.30301691], [0.8593829000000142, 41.30330650000002], [0.8598700499999836, 41.304073570000014], [0.8603658999999766, 41.3043811], [0.8614297600000214, 41.303994149999994], [0.8627018299999918, 41.30389736000001], [0.8637439600000221, 41.30354713999998], [0.8645104400000037, 41.303584390000026], [0.8653986799999984, 41.303257350000024], [0.8659672499999829, 41.30297707], [0.8661983900000223, 41.302645110000014], [0.8661098700000025, 41.30235993000002], [0.8661929799999939, 41.30215002], [0.8666182100000128, 41.301667450000025], [0.8673983099999987, 41.30112790999999], [0.8682743699999946, 41.30099935999999], [0.8686093399999777, 41.30080798], [0.8690076199999908, 41.300677510000014], [0.8699414499999989, 41.30071809999998], [0.8723081499999807, 41.301160649999986], [0.8734851799999888, 41.30067073999999], [0.8738866400000234, 41.30059417000001], [0.8745545400000196, 41.30058065999998], [0.8747279799999887, 41.30048476000002], [0.8751330200000211, 41.30006587999998], [0.8753654999999867, 41.299958979999985], [0.8759711399999901, 41.299902540000005], [0.8768853799999761, 41.300015780000024], [0.8776261900000009, 41.30022491], [0.8782649199999923, 41.300122310000006], [0.8790366900000208, 41.299646010000004], [0.8792935399999919, 41.29954729000002], [0.8815527900000006, 41.29958807000003], [0.8821692700000199, 41.299513209999986], [0.8829876199999944, 41.29901731000001], [0.883243010000001, 41.29869350000001], [0.8832892500000185, 41.29846681999999], [0.8837700000000268, 41.29811738000001], [0.885551420000013, 41.29755289000002], [0.886071099999981, 41.29725616000002], [0.8860420799999815, 41.296968979999974], [0.8862659900000267, 41.29671827999999], [0.8865693999999849, 41.29659994999997], [0.888235399999985, 41.29670569000001], [0.8898674800000208, 41.29584], [0.8901731700000255, 41.295559509999975], [0.8906110099999864, 41.29529253999999], [0.8924287099999901, 41.29453761000002], [0.8935231099999896, 41.294068289999984], [0.8941787599999884, 41.293649860000016], [0.8953016500000217, 41.29265727000001], [0.8965862399999764, 41.29197436999999], [0.89727062999998, 41.29143787999999], [0.8975382500000251, 41.29132074], [0.898394259999975, 41.29085946999999], [0.8968235799999889, 41.29014732000002], [0.8957814799999824, 41.28948926999999], [0.8944989600000213, 41.288803340000015], [0.8928725399999848, 41.288156060000006], [0.8910283299999833, 41.28766021000001], [0.8893746300000203, 41.28735598999998], [0.8856046999999876, 41.28619580999998], [0.8850639099999853, 41.285934940000004], [0.8844669200000226, 41.285531890000016], [0.8834484800000268, 41.28466580999998], [0.8811680700000011, 41.28224847000001], [0.8807886199999757, 41.28148685000002], [0.8807742299999859, 41.28064087000001], [0.8808402099999739, 41.28014337000002], [0.8807034800000224, 41.27985081999998], [0.8802840199999764, 41.27962185000001], [0.8789602499999773, 41.278838080000014], [0.8784880200000202, 41.278322720000006], [0.8798393800000213, 41.272729990000016], [0.8803790700000036, 41.269956209999975], [0.8808289400000149, 41.267077400000005], [0.8809667400000194, 41.26618123999998], [0.8815227100000129, 41.26267748999999], [0.882180730000016, 41.25646876000002], [0.8826869800000168, 41.25454257000001], [0.8821590200000173, 41.250066860000004], [0.8816987899999731, 41.247335840000005], [0.8810852999999952, 41.24362844000001], [0.8810862099999781, 41.24324118999999], [0.8798612400000252, 41.24068906999997], [0.8784939299999905, 41.23391834], [0.8783937599999945, 41.233435439999994], [0.8775996200000122, 41.22949096999997], [0.8763077099999919, 41.227211220000015], [0.8757347000000095, 41.22619494999998], [0.8731601599999976, 41.222391500000015], [0.8723893599999997, 41.221255799999994], [0.8723247600000263, 41.22096981999999], [0.8723209400000087, 41.220501679999984], [0.8723752399999967, 41.21738407999999], [0.8650724899999886, 41.20760708], [0.8655273499999794, 41.20763681], [0.8736652800000115, 41.20914594999999], [0.8754546399999867, 41.209157679999976], [0.8805487800000265, 41.209400070000015], [0.8837470099999791, 41.20964326000001], [0.8970107000000098, 41.21211204000002], [0.9041192799999749, 41.215337799999986], [0.9050161600000024, 41.21537938], [0.9059276300000079, 41.21546547999998], [0.9062938999999801, 41.215408009999976], [0.9065725699999803, 41.21528146999998], [0.9068684900000221, 41.21524440000002], [0.9075364600000171, 41.21544682000001], [0.9078485800000067, 41.215481239999974], [0.9084176999999727, 41.21542586999999], [0.9098088700000062, 41.215756769999984], [0.9104047999999807, 41.21615073999999], [0.9107709599999794, 41.21629137000002], [0.9121926000000258, 41.216333039999995], [0.9129300499999999, 41.21610082000001], [0.913561360000017, 41.21608834], [0.9140483400000221, 41.21585563999997], [0.914885819999995, 41.21570105000001], [0.915539850000016, 41.215669760000026], [0.917651630000023, 41.21468829999998], [0.9191377299999886, 41.214412519999996], [0.920103470000015, 41.21401037999999], [0.9207116399999791, 41.21361142000001], [0.9211018299999978, 41.21315686999998], [0.9217473100000007, 41.20680427000002], [0.921212120000007, 41.206030080000005], [0.9211348900000189, 41.205735549999986], [0.9212011299999858, 41.205048910000016], [0.9215313799999763, 41.20419115999999], [0.9218121999999767, 41.20390242000002], [0.9226025899999968, 41.20336216999999], [0.9228374099999996, 41.20310201000001], [0.9226444099999753, 41.20286546], [0.9219722999999931, 41.20239311], [0.9213830400000234, 41.20171082000002], [0.9202032300000269, 41.200922590000005], [0.9196316399999773, 41.20073495999998], [0.9184964500000206, 41.200692619999984], [0.9182152600000109, 41.20057613], [0.9175059899999951, 41.199879899999985], [0.9172309799999994, 41.19926792000001], [0.9162105099999849, 41.19795191999998], [0.916048509999996, 41.19743513999998], [0.9158674500000075, 41.19719816999998], [0.9144642200000135, 41.19685874999999], [0.9140484199999719, 41.19668380000002], [0.9120950199999811, 41.19671426999997], [0.9116737699999931, 41.196647559999974], [0.9110290300000088, 41.19583202000001], [0.9107711400000085, 41.19570571000003], [0.9088572100000079, 41.195797819999996], [0.9085636199999954, 41.19567273000001], [0.9075372600000264, 41.19465401999997], [0.9072799099999997, 41.194536700000015], [0.9069105500000205, 41.19454024999999], [0.9058321499999806, 41.19464893000003], [0.9053059799999801, 41.19462177999998], [0.9039488299999903, 41.19425364], [0.8809628299999872, 41.19443758], [0.880808160000015, 41.19444279999999], [0.8805797699999971, 41.19461260999998], [0.8803402099999857, 41.194593680000025], [0.8801827500000172, 41.194148729999995], [0.8799283100000252, 41.19387816], [0.879620760000023, 41.19371744], [0.879100649999998, 41.19359091000001], [0.87860040999999, 41.19359879000001], [0.8784155700000156, 41.193496960000004], [0.8783159000000182, 41.19261782000001], [0.8784091599999897, 41.19238053999999], [0.8785666900000138, 41.19222214000001], [0.8786237300000153, 41.19197707000001], [0.878381939999997, 41.19151696], [0.8784421600000201, 41.191325819999975], [0.8786527999999976, 41.19105757], [0.8790678199999888, 41.19081843999999], [0.8792298100000266, 41.19053380999998], [0.8792204399999832, 41.19017392000001], [0.8787565399999835, 41.189586229999975], [0.8782825499999944, 41.18882778], [0.8778906900000152, 41.18865189000002], [0.8771052700000155, 41.187867919999974], [0.8771641199999749, 41.1874517], [0.8774024699999927, 41.18704743000001], [0.8775392800000077, 41.18653853000001], [0.8781304600000226, 41.18484362999999], [0.8783931300000063, 41.184447550000016], [0.8790073600000028, 41.18394955000002], [0.879383340000004, 41.18325248000002], [0.8794098700000177, 41.18269326000001], [0.8792112500000258, 41.18235777000001], [0.8784426899999858, 41.18205950999999], [0.8779340300000058, 41.18192359], [0.876730020000025, 41.18131582000001], [0.8764895699999897, 41.18067556], [0.8761291999999798, 41.18042656], [0.8757794499999818, 41.180357300000026], [0.8755092600000012, 41.18022232999999], [0.8746510099999796, 41.179413780000004], [0.874427790000027, 41.17886298000002], [0.8740262300000268, 41.17872342999999], [0.8732604599999831, 41.178875300000016], [0.8731829899999752, 41.17883739000001], [0.8724131700000157, 41.178453579999996], [0.8717008200000009, 41.178702699999974], [0.8712223599999902, 41.178673790000005], [0.8709963499999844, 41.178681400000016], [0.8708632799999805, 41.17862284], [0.8707758799999965, 41.17858075999999], [0.8700137100000234, 41.17798505000002], [0.8690202600000134, 41.17730706999998], [0.8687886700000149, 41.177017690000014], [0.868007509999984, 41.17650365999998], [0.8679088900000238, 41.17624583000003], [0.8672213199999987, 41.175701619999984], [0.8670653400000106, 41.17548174000001], [0.8667813900000283, 41.174707839999996], [0.8656608800000072, 41.174097140000015], [0.8651924700000109, 41.17342848999999], [0.8648115699999721, 41.17323417], [0.8644832800000017, 41.17292100999998], [0.8643069600000217, 41.172557729999994], [0.8641737099999887, 41.171913829999994], [0.8639908000000105, 41.17164081999999], [0.8626676499999917, 41.171027890000005], [0.8623909199999957, 41.170983149999984], [0.8608952100000238, 41.170880290000014], [0.8608756500000254, 41.17014252000001], [0.860729230000004, 41.16967915999999], [0.8607567299999914, 41.168930810000006], [0.8609554799999728, 41.16825776000002], [0.8610804900000062, 41.168154500000014], [0.8612591599999746, 41.16795038999999], [0.8614116499999795, 41.16790924999998], [0.8619489600000065, 41.167927229999975], [0.8623010000000022, 41.16783435999997], [0.862479129999997, 41.167621259999976], [0.8627307200000018, 41.16703647999998], [0.8627246400000104, 41.16673050999998], [0.8628205699999967, 41.166538170000024], [0.8627832999999896, 41.16610717999998], [0.8627344000000221, 41.16588368999999], [0.8625311600000032, 41.16546727000002], [0.8626796600000262, 41.16434564999997], [0.8623730900000055, 41.16399574000002], [0.8619816899999933, 41.16362165999999], [0.8618873400000098, 41.163435719999995], [0.8619409799999858, 41.162929640000016], [0.8617105299999821, 41.162252980000005], [0.8617282299999829, 41.161540979999984], [0.8621875200000204, 41.160841170000026], [0.8623119800000154, 41.16032369999999], [0.8618894200000113, 41.159419360000015], [0.8617033799999945, 41.15909241999998], [0.8622530399999846, 41.159118990000024], [0.8630299499999978, 41.15895782000001], [0.8633523400000058, 41.15876688999998], [0.8633687199999827, 41.15864026999998], [0.863087280000002, 41.15810941000001], [0.8628851000000282, 41.156900510000014], [0.861892580000017, 41.15582620999999], [0.8610477899999864, 41.155440329999976], [0.8596425499999896, 41.15504625], [0.8592205599999829, 41.15496135000001], [0.8587082000000237, 41.15496052999998], [0.858267450000028, 41.1547592], [0.8571502899999928, 41.153995210000005], [0.8569629599999757, 41.153848400000015], [0.856294719999994, 41.15362766999999], [0.8560309200000233, 41.15177245000001], [0.8553241500000013, 41.15130085999999], [0.8556301300000086, 41.15123656999998], [0.8559044200000017, 41.151038270000015], [0.8557924200000002, 41.15075386000001], [0.8555020599999921, 41.15047542999997], [0.8551678399999787, 41.1502615], [0.8547763199999849, 41.149680279999984], [0.8545398699999964, 41.14950809999999], [0.8537873899999795, 41.14927217000002], [0.8521092199999885, 41.148283789999994], [0.8515222400000084, 41.14761905], [0.8513494599999945, 41.14751676999998], [0.8510242300000073, 41.14745562000002], [0.8506112499999858, 41.14752348000002], [0.8494733800000063, 41.14701224999999], [0.8489783100000068, 41.14669563000001], [0.8485574399999791, 41.146628669999984], [0.8482300100000089, 41.146936789999984], [0.8480450399999881, 41.14703302999999], [0.847902280000028, 41.147010790000024], [0.847311349999984, 41.146913489999974], [0.8462062500000229, 41.146554219999985], [0.845316529999991, 41.14600763999999], [0.8447538300000019, 41.145756300000016], [0.8440294200000267, 41.1455914], [0.843935149999993, 41.14540543999999], [0.8440857300000175, 41.14451789999998], [0.8440446000000179, 41.14422210999999], [0.8437789500000008, 41.14375371], [0.8432015600000113, 41.14325070000001], [0.8431350800000246, 41.14292874], [0.8432950100000198, 41.14260820999999], [0.843259670000009, 41.142411279999976], [0.8427668900000072, 41.141725339999994], [0.841607769999996, 41.14044030000002], [0.8407639600000039, 41.139658010000005], [0.8402086300000065, 41.13892012000002], [0.8391052299999728, 41.13797538], [0.8385370099999818, 41.13721989999999], [0.8384163599999965, 41.13698978999997], [0.8383915100000081, 41.136360260000004], [0.8373773399999891, 41.13571870999999], [0.8361399500000175, 41.134517259999996], [0.8359612799999923, 41.13410898000001], [0.8357202000000257, 41.13385586999999], [0.8240174000000025, 41.137631469999974], [0.8181290699999977, 41.13961010999998], [0.8171859199999858, 41.13998361], [0.8169461800000022, 41.140162669999995], [0.8164341500000205, 41.14057587999997], [0.816086069999983, 41.14114575999997], [0.8160226800000032, 41.141490060000024], [0.8147245600000019, 41.14128997], [0.8137450599999738, 41.14144851999998], [0.8130189899999891, 41.14186882000001], [0.812504199999978, 41.14202997000001], [0.8100286999999753, 41.14227407999999], [0.8093122999999878, 41.14245089000002], [0.808760790000008, 41.14259522999998], [0.8069161799999733, 41.143448750000005], [0.8052321900000265, 41.142757029999984], [0.8046566900000016, 41.14372162000001], [0.8020714200000043, 41.142276200000026], [0.8012515600000256, 41.142312300000015], [0.8005181799999832, 41.14281381000001], [0.7992889299999888, 41.142980490000014], [0.7974390300000209, 41.14395109999998], [0.7949750199999812, 41.14315891000001], [0.7943637700000181, 41.14226953999997], [0.7932725200000164, 41.14235056000001], [0.7912004099999876, 41.14132923], [0.7900352999999996, 41.14178185999998], [0.7867028800000071, 41.13997347999998], [0.7842642200000114, 41.13568615999998], [0.7807818900000143, 41.13581866999999], [0.7784010400000057, 41.13625710000002], [0.7769955900000127, 41.135843980000004], [0.7759871299999759, 41.13570598000001], [0.7754407599999809, 41.13573292000001], [0.7743847099999925, 41.13601072], [0.7739298399999939, 41.13597161000001], [0.7730428899999993, 41.135460379999984], [0.7697919500000125, 41.13651250999999], [0.7689649100000224, 41.13642254000001], [0.7675859899999864, 41.1354321], [0.76684419999998, 41.13558246000002], [0.7660879100000102, 41.13589538999997], [0.7650690199999985, 41.13619890000001], [0.7638319999999794, 41.1364375], [0.7625893200000178, 41.136577209999984], [0.761502269999994, 41.1365227], [0.7606819200000245, 41.13654952000002], [0.7614725299999918, 41.14120645000003], [0.7506177999999863, 41.146585809999976], [0.7471892799999864, 41.14830049], [0.7432883800000241, 41.15030060999999], [0.7425558699999897, 41.15103586999999], [0.7404448099999854, 41.15371608999999], [0.7397824199999832, 41.15380067000001], [0.7389154100000042, 41.15363973000001], [0.7376218100000074, 41.15351966999998], [0.7376975099999754, 41.15401250999997], [0.7382685000000038, 41.15546183999999], [0.7374697600000104, 41.155244649999986], [0.7361087099999963, 41.15624343000002], [0.7350329899999792, 41.15576506000002], [0.7348008899999741, 41.155664530000024], [0.7339853899999866, 41.15578104999997], [0.7333068099999878, 41.15453330999998], [0.7324277600000073, 41.15311195999999], [0.7317317200000275, 41.151765720000014], [0.7308695899999975, 41.15064097999999], [0.7298943900000268, 41.15004221999999], [0.7296266399999922, 41.149942839999994], [0.7285442799999942, 41.149554669999986], [0.7266029599999797, 41.14809564000001], [0.7259810099999982, 41.147422370000015], [0.7257740900000158, 41.14692475999999], [0.7255974099999776, 41.14548961000003], [0.7252437199999804, 41.14492471], [0.7248635500000091, 41.14452276999998], [0.7240887599999724, 41.14430470000002], [0.723149879999994, 41.144344090000004], [0.7225928799999792, 41.14397487999997], [0.7213759599999889, 41.14331182000001], [0.7204984399999717, 41.14296196999999], [0.7197748099999899, 41.14280525999999], [0.7183470800000009, 41.142626269999994], [0.7156202099999973, 41.142435190000015], [0.714797410000017, 41.14220961000001], [0.7145715799999834, 41.140532870000015], [0.713835500000016, 41.139944249999985], [0.7122134499999788, 41.13927616000001], [0.7110938600000054, 41.13864586], [0.7094085800000016, 41.13770059000001], [0.7072135999999887, 41.13679873000001], [0.704739399999994, 41.136013890000015], [0.6975562700000069, 41.134308859999976], [0.6968218900000238, 41.135016889999974], [0.6971481799999992, 41.13658237999999], [0.6973548400000027, 41.13750331], [0.6964463499999738, 41.13850510999998], [0.6957842499999742, 41.13965209000003], [0.694609469999989, 41.142274429999986], [0.6922205600000098, 41.14343183], [0.6918534100000215, 41.143893890000015], [0.6903061900000012, 41.14688838000001], [0.6894964900000105, 41.14731961000001], [0.6893243399999847, 41.14807259999998], [0.6881347899999923, 41.14874114000003], [0.6878865099999985, 41.14919938999998], [0.6876304599999798, 41.15079257999997], [0.6830700200000024, 41.15338824999998], [0.682935069999985, 41.15374379000002], [0.6821270600000275, 41.156120120000026], [0.6787571899999989, 41.160622709999984], [0.6760869500000126, 41.16422029], [0.6765313899999796, 41.165773049999984], [0.6761876099999995, 41.16601817999998], [0.6765252499999974, 41.166727820000006], [0.6765783600000077, 41.16682517999999], [0.6766701799999737, 41.16697534000002], [0.6769728300000111, 41.167911230000016], [0.6771595000000161, 41.16826548], [0.6775347700000225, 41.17007258000001], [0.677253520000022, 41.171009130000016], [0.6773312999999916, 41.17154697000001], [0.6771481900000254, 41.17189502999997], [0.6766028299999789, 41.172371750000025], [0.6736590599999772, 41.17450107000002], [0.6729100700000004, 41.17517339], [0.6706760600000052, 41.17678466000001], [0.6666908700000249, 41.179694489999974], [0.6664992899999902, 41.18010585000002], [0.6664672599999903, 41.18038603999997], [0.666103239999984, 41.18091095], [0.6657241500000168, 41.18116619], [0.6642502000000263, 41.18187956999998], [0.6607151700000031, 41.18410845], [0.6596858699999757, 41.18488867000002], [0.658370839999975, 41.185461840000016], [0.6585713700000042, 41.1858517], [0.6591842600000177, 41.18765129000002], [0.659496909999973, 41.18812763], [0.6599483499999792, 41.18852750999997], [0.6604943699999808, 41.18869925000001], [0.6623856900000078, 41.18905326999999], [0.6653201899999885, 41.189301969999974], [0.6662984299999835, 41.18995518999998], [0.6667942099999777, 41.18986733999998], [0.6675724099999911, 41.18950031000003], [0.667761989999974, 41.189053], [0.6679973099999756, 41.188784329999976], [0.6685073300000113, 41.18852491000001], [0.6688923099999897, 41.18816141999997], [0.6704576999999858, 41.18631037], [0.6709242800000084, 41.18634049999997], [0.6733530500000029, 41.18671320999999], [0.6748365999999919, 41.186809890000006], [0.6788188500000274, 41.187249880000024], [0.6790978799999721, 41.18712388], [0.6794186500000023, 41.187104610000006], [0.6797434499999895, 41.18715725999999], [0.681361030000005, 41.186880340000016], [0.6817575300000271, 41.18672356000002], [0.6833935500000052, 41.18656308999999], [0.6860628100000099, 41.185910209999975], [0.687031950000005, 41.18576207000001], [0.6901150200000075, 41.185474039999974], [0.6913132500000074, 41.18537254], [0.6942871599999876, 41.18505189000001], [0.6949651300000141, 41.18481398], [0.6963608199999953, 41.18398565000001], [0.7001339999999914, 41.18135176999999], [0.7016760299999873, 41.17910482000002], [0.7035146000000054, 41.17662315000001], [0.7037054200000057, 41.176202760000024], [0.7041123700000185, 41.17538817000002], [0.704867830000012, 41.174202130000026], [0.7055546500000105, 41.17285621000002], [0.7060488899999768, 41.172110850000024], [0.706399690000012, 41.171991479999974], [0.7069861599999854, 41.172035619999974], [0.7085959899999921, 41.17226289000001], [0.712428999999986, 41.17281464000001], [0.71233718000002, 41.173087769999995], [0.7126447300000223, 41.174311579999994], [0.7148528399999918, 41.175843250000014], [0.7176487199999997, 41.177860169999974], [0.7194650000000138, 41.17878302999998], [0.7202877700000272, 41.178999569999974], [0.7202218099999982, 41.17930788000001], [0.7200446900000088, 41.17954774999998], [0.7198124899999812, 41.18007757999999], [0.7199678100000142, 41.18050481], [0.7200046699999803, 41.18094488000003], [0.7201696700000184, 41.18154290000001], [0.7215470400000186, 41.18292119], [0.7225541099999759, 41.18365405999998], [0.7234954200000061, 41.18448810000001], [0.7214000800000235, 41.186005790000024], [0.7210070699999847, 41.186432749999994], [0.7209501300000056, 41.18647962], [0.7198360200000025, 41.18743420999999], [0.7185785799999849, 41.188384410000026], [0.71861715, 41.18864431999998], [0.718829430000028, 41.18902469], [0.7207571600000051, 41.19190709999998], [0.7212147600000094, 41.19282885000001], [0.7223751399999969, 41.194790479999995], [0.7228419699999904, 41.19461328], [0.7233055599999716, 41.19458925999999], [0.7243340699999976, 41.194646009999985], [0.724621720000016, 41.19467272000003], [0.7323880800000211, 41.19706848999999], [0.7343354100000283, 41.19650997999997], [0.7354225600000177, 41.19633958999998], [0.7371419500000229, 41.196175659999994], [0.7374790100000155, 41.196650999999974], [0.7377820300000053, 41.19694733], [0.7388165300000082, 41.19836356000002], [0.7388543199999731, 41.19923583999997], [0.7395483600000148, 41.200744180000015], [0.7404196400000274, 41.20180549000003], [0.7407530500000234, 41.20242502000002], [0.7411457599999949, 41.20345686000002], [0.7411920100000202, 41.20405871000003], [0.741086580000001, 41.205764139999985], [0.7412440499999775, 41.206434419999994], [0.7417090399999893, 41.20685154], [0.7418924899999979, 41.20734986999997], [0.7414653299999827, 41.207805029999975], [0.7410962499999982, 41.20802415999998], [0.7410371400000031, 41.20824220999998], [0.7412406999999916, 41.20888396999999], [0.7417454100000214, 41.209578969999995], [0.7420552699999803, 41.21082962999998], [0.7424363599999992, 41.211447599999985], [0.7426976099999933, 41.21163720999999], [0.7432248299999742, 41.21189020999998], [0.7441395199999761, 41.21245477999997], [0.7444513699999789, 41.212903900000015], [0.7440548800000215, 41.21306089000001], [0.7438808499999823, 41.21335472999999], [0.7423925200000099, 41.21527628000001], [0.7412388700000179, 41.216376449999984], [0.7411079899999891, 41.21826282000001], [0.7406358200000227, 41.21855734000002], [0.7406728600000179, 41.21899739999998], [0.7403389899999979, 41.220043869999984], [0.7402929900000004, 41.220909870000014], [0.740500069999996, 41.221821680000005], [0.7404392999999914, 41.22221988000001], [0.7395377799999778, 41.222933609999984], [0.7394269399999871, 41.22308129999999], [0.7392922399999975, 41.22427436999999], [0.7391253399999869, 41.224694039999974], [0.7378871700000218, 41.22661640000001], [0.7377600799999868, 41.22710682000002], [0.7377126800000156, 41.22857621000003], [0.7374568299999851, 41.22973719999999], [0.7379347400000142, 41.22954155999997], [0.7385001999999758, 41.22920799000002], [0.7387715899999989, 41.22894702000002], [0.7390950999999859, 41.22897252000001], [0.739216220000003, 41.229004610000004], [0.7401364699999817, 41.22924483000003], [0.7406712200000243, 41.229209430000026], [0.7449527699999976, 41.23024074], [0.7463777500000219, 41.23054552000002], [0.7466806400000223, 41.23041857999999], [0.7477583500000264, 41.22923979000001], [0.7487167400000203, 41.22868624], [0.7493162299999767, 41.22853162000001], [0.7506321199999775, 41.22838963999999], [0.7522155999999995, 41.22833797999999], [0.7527550400000109, 41.22817629000002], [0.7531355799999915, 41.22794773999999], [0.7535559500000204, 41.22778992999997], [0.7545053200000211, 41.22770489999999], [0.7553293799999778, 41.227723019999985], [0.7560737200000176, 41.22780676999997], [0.7576311999999916, 41.22813409999998], [0.7580856299999823, 41.22836238999997], [0.7591608899999756, 41.23005624000001], [0.759531949999996, 41.230494369999974], [0.7617342899999926, 41.23207931000002], [0.7638110099999835, 41.23313701000001], [0.7671964799999955, 41.23454801999998], [0.7678104299999973, 41.23485210000001], [0.769141349999984, 41.235799050000026], [0.769654839999987, 41.23684484], [0.7702889500000083, 41.23853503999999], [0.7696252100000152, 41.239025079999976], [0.7684654600000158, 41.23960340999997], [0.7681733399999757, 41.24116187999999], [0.7682017700000188, 41.241863360000025], [0.7683456500000148, 41.24249801000002], [0.7691574199999991, 41.24354303000001], [0.7713288699999907, 41.24478658999999], [0.7706018999999742, 41.24542279000002], [0.7703331299999832, 41.24676438], [0.7710341999999741, 41.247128610000004], [0.771019669999987, 41.24832678000001], [0.7711915500000259, 41.249653920000014], [0.771167719999994, 41.250068940000006], [0.7711656500000004, 41.25024010999999], [0.7700155900000141, 41.25016075000002], [0.7692346900000189, 41.250897769999995], [0.7678556000000185, 41.253059199999996], [0.7676738299999784, 41.253218240000024], [0.7670788099999868, 41.25345385999998], [0.7667856900000061, 41.25375163000001], [0.766800690000025, 41.25401228999999], [0.7671310100000142, 41.254775919999986], [0.7682303500000103, 41.25563140999998], [0.7692483999999808, 41.256939820000014], [0.7696316099999763, 41.25717040000001], [0.7702494200000274, 41.257330249999995], [0.7731443100000206, 41.257865649999985], [0.7752872899999943, 41.258398650000004], [0.7755462299999749, 41.258543239999995], [0.7767882100000065, 41.26000632], [0.7775262900000257, 41.261008660000016], [0.7774201899999866, 41.261858640000014], [0.7774756599999932, 41.26240612999999], [0.7779842499999745, 41.262533510000026], [0.7790974800000185, 41.26465817000002], [0.7795269999999732, 41.265895779999994], [0.7799559200000203, 41.266503030000024], [0.7801937699999826, 41.26731468999998], [0.7813487799999734, 41.26726769999999], [0.7820474700000091, 41.26717267999999], [0.7827705299999934, 41.26729297000003], [0.7835827499999937, 41.267716510000014], [0.7841189800000166, 41.26852733999999], [0.7845722800000203, 41.26893566000001], [0.7859486899999979, 41.26982688999999], [0.787185710000017, 41.270371479999994], [0.7877176999999733, 41.27048903000002], [0.7888933899999984, 41.27018013999998], [0.7900914100000023, 41.27005059999999], [0.7907990200000086, 41.27031543999999], [0.7930231500000104, 41.27182699999997], [0.7937532099999771, 41.27247829999999], [0.794032580000021, 41.27297336999999], [0.79422169999998, 41.273147230000006], [0.7952069500000221, 41.27325879], [0.7961514099999931, 41.27369587999999], [0.796834830000023, 41.27415960000002], [0.800002510000013, 41.275675869999986], [0.8003273200000081, 41.27571917], [0.8022204900000247, 41.27543143999998], [0.8029815099999951, 41.27558637999999], [0.8032929400000057, 41.275810209999975], [0.8036137799999779, 41.27619582], [0.8046336900000028, 41.27710762999999], [0.8052622100000235, 41.27744704000003], [0.8057170399999904, 41.27746801000001], [0.8071599900000024, 41.27703300000002], [0.8077872499999899, 41.27694018], [0.8097022700000025, 41.276822709999976], [0.8105663599999957, 41.276902129999996], [0.8113263600000096, 41.27703903999998], [0.8119102800000064, 41.277226799999994], [0.8124507300000232, 41.27748804999999], [0.8125320299999998, 41.277449330000024], [0.8131078399999865, 41.277907519999985], [0.813422590000016, 41.278392380000014], [0.8134953900000141, 41.278822219999995], [0.8132353799999805, 41.27968636000003], [0.8133376399999861, 41.280007160000025], [0.8136497799999916, 41.28044706999998], [0.814719249999996, 41.2815913], [0.8137808700000164, 41.28208169999999], [0.8134589200000164, 41.28249763000002], [0.8135095999999749, 41.28316233999999], [0.8132893800000147, 41.28389007999999], [0.8133149199999821, 41.284123369999975], [0.8135405300000116, 41.284512129999996], [0.8134220399999776, 41.28473219], [0.8131936799999835, 41.284910860000025], [0.812540169999977, 41.2853738], [0.8119781799999828, 41.28556354], [0.8114541599999825, 41.28599516000003], [0.8107083099999954, 41.28630805], [0.8100475599999868, 41.28685225999999], [0.8097055200000227, 41.28753899999998], [0.8097170400000095, 41.287736740000014], [0.8096612200000095, 41.28882823999999], [0.809080559999984, 41.28992812000001], [0.8088478299999906, 41.290647260000014], [0.8088775400000259, 41.29095245000002], [0.8090357199999971, 41.29120836999999], [0.8091691199999786, 41.292473710000024], [0.8090475800000263, 41.29284695000001], [0.8089584900000091, 41.29377746], [0.8087278500000252, 41.29453253999998], [0.8071994399999767, 41.296582349999994], [0.8067503500000157, 41.29686738999999], [0.8062234700000204, 41.297046920000014], [0.8048742700000275, 41.29725367999998], [0.804244830000016, 41.297517649999975], [0.8034596200000124, 41.29818301], [0.8023137199999724, 41.29880625999999], [0.8013945600000056, 41.29901675999997], [0.8006694200000197, 41.299689109999974], [0.8004803900000184, 41.29992950000002], [0.8004650199999901, 41.30028121999999], [0.7996518200000082, 41.30108254999999], [0.799626509999996, 41.301263500000005], [0.8000695499999892, 41.30231149000002], [0.8003396899999871, 41.30264476000002], [0.800518669999974, 41.30305308999999], [0.8006014599999958, 41.30386084000003], [0.8004649000000086, 41.304387659999975], [0.7992939900000238, 41.307254030000024], [0.7987284899999736, 41.310469609999984], [0.798687359999974, 41.31120040000002], [0.7989037899999971, 41.31184164000001], [0.7993531100000268, 41.31176375000001], [0.8011342799999852, 41.310354089999976], [0.8018432100000155, 41.30919598000003], [0.8045860899999866, 41.30769141000002], [0.805054919999975, 41.307333700000015], [0.8054464599999847, 41.30687948000002], [0.8056554300000016, 41.30616113999997], [0.8055563600000255, 41.305074769999976], [0.8055840399999852, 41.30452452999998], [0.8057133400000112, 41.304078979999986], [0.805866079999987, 41.30383078], [0.8076940199999854, 41.303229939999994], [0.8085557100000074, 41.30305731999999]]]}}]}