{"type": "FeatureCollection", "features": [{"type": "Feature", "properties": {"OBJECTID": 1749, "ZON_CO_ID": 47, "ZON_DS_NOM": "Ribeira Sacra", "CAL_DS_NOM": "D.O.Ribeira Sacra", "TPR_DS_DES": "Denominación de Origen", "TPR_DS_GRU": "CALIDAD DIFERENCIADA", "FAM_DS_NOM": "Vinos"}, "geometry": {"type": "Polygon", "coordinates": [[[-7.684573750000027, 42.87528438999999], [-7.683746620000022, 42.875192260000006], [-7.683087660000012, 42.87521928000001], [-7.681111190000024, 42.87417491000002], [-7.680908429999988, 42.87392212999998], [-7.680265459999987, 42.87254399], [-7.679691849999983, 42.87208132000001], [-7.679088429999979, 42.871709899999985], [-7.678789400000028, 42.871317009999984], [-7.678585240000018, 42.870722160000014], [-7.678305190000003, 42.870256470000015], [-7.677964180000004, 42.87011738000001], [-7.67712898000002, 42.869917499999985], [-7.67667068999998, 42.86968417999998], [-7.675656520000018, 42.869383579999976], [-7.675480919999984, 42.86916568999999], [-7.675425169999983, 42.86778149000003], [-7.675356669999985, 42.867523199999994], [-7.675111940000022, 42.86736215000002], [-7.674320159999979, 42.86708844999998], [-7.673985270000003, 42.86686807000001], [-7.673664610000003, 42.86651207], [-7.672855889999994, 42.86617602000001], [-7.67220580999998, 42.86599553999997], [-7.671418819999985, 42.86594671], [-7.670458289999999, 42.86603100000002], [-7.669882110000003, 42.86618060000001], [-7.66862943000001, 42.86693405], [-7.667165210000007, 42.86764212000003], [-7.666572739999992, 42.867738350000025], [-7.666138900000021, 42.86766604000002], [-7.665065179999999, 42.86689962000003], [-7.663275069999997, 42.86507304999998], [-7.6626975799999855, 42.86455642999999], [-7.662300389999984, 42.86432056000001], [-7.661587320000024, 42.864115579999975], [-7.660907450000025, 42.86402628000002], [-7.660439769999982, 42.86382929000001], [-7.658683080000003, 42.86211831999998], [-7.651854270000001, 42.863585039999975], [-7.644116329999974, 42.86272948999999], [-7.643258930000002, 42.862557279999976], [-7.642169860000024, 42.86207035000001], [-7.6408347500000104, 42.86009889000002], [-7.639780029999997, 42.85876424999998], [-7.639511930000026, 42.85812691000001], [-7.639085899999998, 42.857504989999995], [-7.638249280000025, 42.856629639999994], [-7.637587269999983, 42.85628738999998], [-7.635392280000019, 42.855737250000004], [-7.634535089999986, 42.85540291000001], [-7.632684340000026, 42.85503682000001], [-7.631743219999976, 42.8545618], [-7.630248989999984, 42.854217240000025], [-7.628727229999981, 42.85350463999998], [-7.627975880000008, 42.85311193000001], [-7.627286760000004, 42.85289676000002], [-7.626841529999979, 42.85283377000002], [-7.626247780000028, 42.85291183999999], [-7.625458040000012, 42.8531509], [-7.624840759999984, 42.853896150000026], [-7.624467809999999, 42.854145329999994], [-7.62401361000002, 42.85428975999997], [-7.623462599999982, 42.854285059999995], [-7.622356669999988, 42.85405972000001], [-7.621672810000007, 42.854078389999984], [-7.620685019999996, 42.854451470000015], [-7.619953819999978, 42.85432799], [-7.619151960000011, 42.853586140000004], [-7.618878730000006, 42.85287693999999], [-7.618754850000016, 42.851873590000025], [-7.6186067200000025, 42.85152844999999], [-7.617457020000018, 42.85104374000002], [-7.617148429999986, 42.850516019999986], [-7.617053450000014, 42.84826005999997], [-7.612944130000017, 42.84730067999999], [-7.609833159999994, 42.84561661999999], [-7.611532940000018, 42.839038689999995], [-7.612289260000011, 42.83605510000001], [-7.611093849999975, 42.833474420000016], [-7.611076969999999, 42.833412080000016], [-7.61085257000002, 42.832862939999984], [-7.611077630000011, 42.82997282000002], [-7.6086736099999825, 42.827584950000016], [-7.60719186, 42.82641128], [-7.606684029999997, 42.826161660000025], [-7.606298639999977, 42.82607816000001], [-7.606112380000013, 42.82604065999999], [-7.605871830000012, 42.82609537000002], [-7.605350269999974, 42.82664758999999], [-7.605086299999982, 42.82704537000001], [-7.605067570000017, 42.82745126999998], [-7.605139059999999, 42.827754500000026], [-7.605164609999974, 42.827933529999996], [-7.605895250000003, 42.82953365999998], [-7.60542946999999, 42.829849550000006], [-7.603874500000018, 42.82933602000003], [-7.601862879999999, 42.82827365999998], [-7.60038037999999, 42.82725298999998], [-7.600337790000026, 42.82717366999998], [-7.600065210000025, 42.826797510000006], [-7.599776899999995, 42.82538661000001], [-7.599054190000004, 42.823561040000016], [-7.5986796099999765, 42.82296389999999], [-7.599202730000002, 42.822267599999975], [-7.600322570000003, 42.82104307999998], [-7.601331860000016, 42.819318829999986], [-7.6019092899999805, 42.81787306000001], [-7.601942430000008, 42.81733152999999], [-7.601835310000013, 42.81506703000002], [-7.601871710000012, 42.811113139999975], [-7.60234121000002, 42.808051130000024], [-7.60300024999998, 42.80622392999999], [-7.60371643000002, 42.805330760000004], [-7.604403649999995, 42.80487090999998], [-7.605634769999995, 42.804326100000026], [-7.606648259999986, 42.803979130000016], [-7.607621660000007, 42.80375081], [-7.6092513199999985, 42.80346899], [-7.609142630000008, 42.80250102000002], [-7.608783800000026, 42.80178624000001], [-7.606180629999983, 42.80245843], [-7.6051327700000115, 42.802671739999994], [-7.602557699999977, 42.80355879000001], [-7.602193510000006, 42.80342940999998], [-7.599196059999997, 42.80241570999999], [-7.591647309999985, 42.79987433000002], [-7.588244760000009, 42.80114544000003], [-7.57908999, 42.799694079999995], [-7.576715270000022, 42.79617891999999], [-7.574625679999997, 42.79403880000001], [-7.568131779999987, 42.79500089999999], [-7.5603038099999935, 42.79843777000002], [-7.55484998999998, 42.79975373000002], [-7.552541959999985, 42.798459219999984], [-7.5486091199999805, 42.798012640000024], [-7.543588629999988, 42.79540337999998], [-7.53336637000001, 42.795377289999976], [-7.52103292999999, 42.79741457], [-7.520878379999999, 42.79747471000002], [-7.519154119999996, 42.79780402], [-7.518025210000019, 42.79808274999999], [-7.5165349100000185, 42.79826772000001], [-7.51552289, 42.79864084000002], [-7.513293719999979, 42.79908905000002], [-7.510759969999981, 42.79972031], [-7.507014200000015, 42.800498360000006], [-7.50930261000002, 42.79363755999998], [-7.509577100000001, 42.79304151000002], [-7.51007881999999, 42.79153615000001], [-7.510543750000011, 42.790869559999976], [-7.511844479999979, 42.789593749999995], [-7.512864159999992, 42.788320020000015], [-7.513482459999977, 42.78724220999999], [-7.513716820000013, 42.78643165], [-7.5193535199999815, 42.78880179999999], [-7.5210290399999735, 42.788645480000014], [-7.52198082000001, 42.78845475999998], [-7.522845050000001, 42.785053300000015], [-7.5233157900000265, 42.781955530000005], [-7.523773370000015, 42.77951551000001], [-7.523888689999978, 42.77942091], [-7.52799650999998, 42.77608901999997], [-7.52886196999998, 42.775388469999996], [-7.531299919999981, 42.77295994999997], [-7.532233539999993, 42.77202258], [-7.532541550000019, 42.77172225999999], [-7.532659190000004, 42.77149250999997], [-7.5321572799999785, 42.770477029999995], [-7.531500540000025, 42.76968376999997], [-7.5308950599999775, 42.76925762000002], [-7.528661279999994, 42.768454840000004], [-7.527985609999973, 42.76823853000002], [-7.526482339999973, 42.765723130000026], [-7.524465899999996, 42.76605509000001], [-7.524104299999976, 42.76612342999999], [-7.5239402700000255, 42.76621996], [-7.521040620000008, 42.76650579], [-7.5201648899999896, 42.766729510000005], [-7.51886810000002, 42.76670876999998], [-7.517474059999984, 42.76686293], [-7.5163519999999835, 42.76706035000001], [-7.509426510000026, 42.76676665999997], [-7.508893030000024, 42.76581534000002], [-7.508286039999973, 42.764524800000004], [-7.508925350000027, 42.762896969999986], [-7.50920364000001, 42.76235479000002], [-7.509147349999978, 42.76090747000001], [-7.509258540000019, 42.76058797000002], [-7.509552690000021, 42.76043229999999], [-7.50989186999999, 42.76039191000001], [-7.510857840000028, 42.760569859999976], [-7.511273379999977, 42.760571459999994], [-7.511604729999988, 42.76042332999998], [-7.511888429999999, 42.76012401999998], [-7.512037459999988, 42.759821020000004], [-7.51209467000001, 42.75943161999999], [-7.511968700000011, 42.758707319999985], [-7.512090320000027, 42.758027260000006], [-7.512249559999987, 42.75769685], [-7.513041869999995, 42.756999310000026], [-7.513278560000003, 42.756557799999996], [-7.51336839999999, 42.756113089999985], [-7.513368389999982, 42.75560890000003], [-7.5128939100000025, 42.75462827000001], [-7.512897599999974, 42.75400689000003], [-7.5132741499999725, 42.75313669000002], [-7.513310250000018, 42.752793139999994], [-7.513209089999975, 42.75240998999999], [-7.51247970999998, 42.75111529999998], [-7.512597169999992, 42.75071451000002], [-7.51296566000002, 42.75006972], [-7.513116620000005, 42.74979366000002], [-7.51341635, 42.74853934999999], [-7.513586449999991, 42.74819050999997], [-7.514138500000001, 42.747718529999986], [-7.515146449999975, 42.74730056999999], [-7.516387780000002, 42.74690038], [-7.516990060000012, 42.746615469999995], [-7.518335069999978, 42.745625949999976], [-7.518554499999993, 42.745284149999975], [-7.518652789999976, 42.74495614], [-7.518651009999985, 42.74459607], [-7.518881319999991, 42.74423582999998], [-7.521031119999975, 42.74255720000002], [-7.544096739999986, 42.72608446999999], [-7.539230669999995, 42.72316271], [-7.537303650000013, 42.72202377999997], [-7.527023980000024, 42.719199249999974], [-7.521047950000025, 42.71241316999999], [-7.52003787000001, 42.71128268000001], [-7.519555459999992, 42.71086058999998], [-7.5160357600000225, 42.70879388999998], [-7.51346030000002, 42.70745507999999], [-7.512320209999984, 42.70671679999998], [-7.511274809999975, 42.702067279999994], [-7.511189000000002, 42.70155747000001], [-7.510911589999978, 42.69554511000001], [-7.510759549999989, 42.692606979999994], [-7.509800760000019, 42.690493000000004], [-7.513622539999972, 42.689675869999974], [-7.516284219999989, 42.68834626], [-7.51964092999998, 42.68667398000002], [-7.521055750000016, 42.68615884000002], [-7.5339912499999855, 42.68163088], [-7.538418079999985, 42.68008665000002], [-7.5410969499999965, 42.678503680000006], [-7.547398680000015, 42.67674054999998], [-7.5515104400000155, 42.675235369999996], [-7.557760550000012, 42.67294251999999], [-7.560737440000025, 42.66927642000002], [-7.559149810000008, 42.666755790000025], [-7.556093449999992, 42.66416764000002], [-7.554850880000004, 42.66285764000003], [-7.554560960000003, 42.662563079999984], [-7.554014670000015, 42.661765539999976], [-7.553401010000016, 42.660880640000016], [-7.553050989999974, 42.660264340000026], [-7.551589680000006, 42.65646006999998], [-7.549858760000006, 42.65246843], [-7.552792060000002, 42.64971362], [-7.554842259999987, 42.64756115], [-7.55553980000002, 42.64642593000002], [-7.556708749999984, 42.64373232000003], [-7.557429909999996, 42.642254019999996], [-7.557878940000023, 42.64072354000001], [-7.560573410000018, 42.639049460000024], [-7.5606145200000014, 42.63811147000001], [-7.561261269999989, 42.63628497000002], [-7.561790350000024, 42.63518345], [-7.5621527999999785, 42.63463777999999], [-7.563416239999981, 42.63340789], [-7.563895969999976, 42.63296558000002], [-7.5678181800000175, 42.631413380000026], [-7.56637563999999, 42.62969734000001], [-7.561983450000014, 42.625325970000006], [-7.561905260000003, 42.625257069999975], [-7.5604042100000015, 42.62390341999998], [-7.557836210000005, 42.62196205999999], [-7.55480934000002, 42.62057913000001], [-7.554883080000025, 42.61958580999999], [-7.554687909999984, 42.61557805000001], [-7.554791009999974, 42.613818270000024], [-7.554817700000001, 42.61334901999999], [-7.5544488400000205, 42.61313862999998], [-7.553961730000026, 42.612977969999974], [-7.552086809999992, 42.612674500000026], [-7.549670590000005, 42.612302510000006], [-7.547257660000014, 42.61197535000002], [-7.543154940000022, 42.61104005999999], [-7.540627610000001, 42.61031215000003], [-7.536261089999982, 42.60775745000001], [-7.535148619999973, 42.607711549999976], [-7.530724529999986, 42.60721171], [-7.530389870000022, 42.60713493999998], [-7.528684049999981, 42.606806370000015], [-7.521056260000023, 42.60498346000003], [-7.51892934, 42.60439229000002], [-7.514365940000005, 42.60314102000001], [-7.513275560000011, 42.59918650999998], [-7.513138560000016, 42.598471640000014], [-7.512556229999973, 42.59699103000003], [-7.510930700000017, 42.593552810000006], [-7.509412510000004, 42.59109172000001], [-7.508590930000025, 42.590007679999985], [-7.504651290000027, 42.584886900000015], [-7.4996110899999735, 42.58341970999999], [-7.496961250000027, 42.58265963000002], [-7.487986970000009, 42.581202529999985], [-7.487186329999986, 42.58108090000002], [-7.484587340000019, 42.58051660000001], [-7.479948429999979, 42.579537000000016], [-7.47197134999999, 42.58042551], [-7.466533570000024, 42.582411760000014], [-7.468295249999983, 42.58234292999998], [-7.46888045999998, 42.58268921000001], [-7.469123570000022, 42.583021840000015], [-7.469262479999998, 42.58343057000002], [-7.469423170000027, 42.58397351000002], [-7.46988773999999, 42.584846700000014], [-7.4702005500000155, 42.58513159], [-7.470410500000014, 42.58568159999999], [-7.470270550000009, 42.585939180000025], [-7.468371680000018, 42.58715685999999], [-7.466387779999991, 42.58871995999999], [-7.465509220000001, 42.589213459999996], [-7.464804029999982, 42.58991627], [-7.45636460999998, 42.58912905], [-7.456346489999987, 42.59194788000002], [-7.4561376799999834, 42.59414389], [-7.456115969999985, 42.594351819999986], [-7.455541690000018, 42.59484237999999], [-7.454740340000001, 42.59522473999999], [-7.454535700000008, 42.595430799999974], [-7.45388281999999, 42.596698720000006], [-7.45351955000001, 42.59690195000002], [-7.452419510000027, 42.597881159999986], [-7.4522148699999775, 42.598258269999974], [-7.45127475999999, 42.59994253000002], [-7.451115539999989, 42.60061499], [-7.451070179999988, 42.60134605000002], [-7.450300200000015, 42.60370795], [-7.450327770000001, 42.60460723], [-7.44997982000001, 42.605196999999976], [-7.449846820000005, 42.60606652000001], [-7.450253099999998, 42.606978079999976], [-7.447368639999979, 42.607378419999975], [-7.444692680000003, 42.60796866999999], [-7.444148270000028, 42.60802583999998], [-7.442797129999974, 42.60873561], [-7.441378820000011, 42.60901580000001], [-7.440788320000024, 42.609281829999986], [-7.438494690000027, 42.61062239], [-7.437290109999992, 42.609966859999986], [-7.434552839999981, 42.60866850000002], [-7.433680250000009, 42.60856727999999], [-7.431097739999984, 42.608073149999996], [-7.430273829999976, 42.607798960000025], [-7.428880499999991, 42.60774488999999], [-7.428086549999989, 42.60789269000003], [-7.426686650000022, 42.608433090000005], [-7.426512020000018, 42.60837681999999], [-7.426274120000016, 42.60811591999999], [-7.425740669999982, 42.607812439999975], [-7.42474181, 42.60850835999997], [-7.424413619999996, 42.60852105999999], [-7.4240138299999785, 42.60838346999998], [-7.423631919999991, 42.60832621999998], [-7.423141199999975, 42.60845324000002], [-7.422862839999993, 42.60865309000002], [-7.4224111199999925, 42.608814619999976], [-7.4208379799999875, 42.608803420000015], [-7.4189371400000255, 42.60915600999999], [-7.418356220000021, 42.60921446999998], [-7.415680880000025, 42.610335229999976], [-7.41522642000001, 42.61080296], [-7.414899709999986, 42.61169792999999], [-7.414498390000006, 42.61205555999999], [-7.414205919999972, 42.61222892000001], [-7.414176359999999, 42.612500169999976], [-7.4143137199999956, 42.612891030000014], [-7.414561839999976, 42.61312454], [-7.415096559999995, 42.613446039999985], [-7.415826489999972, 42.61359792000002], [-7.416741399999978, 42.61360760000002], [-7.417127149999999, 42.613718749999975], [-7.4173836300000175, 42.61389792], [-7.41784457, 42.61472644999998], [-7.418671350000011, 42.61590099], [-7.420194449999997, 42.61830011000001], [-7.420746800000018, 42.61955726999997], [-7.420836160000022, 42.62013005], [-7.420824579999987, 42.620310570000015], [-7.420780910000019, 42.62072641999998], [-7.420603439999979, 42.62131851999999], [-7.42000932000002, 42.623772470000006], [-7.4195775399999775, 42.6266253], [-7.419585550000022, 42.627426309999976], [-7.419743349999976, 42.62810449], [-7.418900619999988, 42.627911970000014], [-7.4152531099999806, 42.627539679999984], [-7.413021800000024, 42.629777690000026], [-7.412830340000028, 42.630001170000014], [-7.411805780000009, 42.631202169999995], [-7.405948539999997, 42.63458830000002], [-7.4047806899999955, 42.635317569999984], [-7.400813930000027, 42.63889168999998], [-7.400509199999988, 42.63992983000003], [-7.4003653799999825, 42.64152001000002], [-7.396453740000027, 42.64674852000002], [-7.395053819999987, 42.64747761000001], [-7.393289729999992, 42.64805861000002], [-7.391750240000022, 42.64871198999998], [-7.390137890000005, 42.649197070000014], [-7.386648159999993, 42.65004228999999], [-7.382542199999989, 42.651838399999974], [-7.377021430000013, 42.65207686999997], [-7.377064669999982, 42.65112983], [-7.3773539700000015, 42.649345040000014], [-7.375710869999978, 42.64731008000001], [-7.373638060000019, 42.64436415], [-7.37265622000001, 42.64253794000001], [-7.371992169999999, 42.64106872999997], [-7.37129342999998, 42.63806120999999], [-7.371465549999982, 42.63755942], [-7.371617109999988, 42.63711245000002], [-7.371657570000025, 42.63699386000002], [-7.3723362100000145, 42.63571639999998], [-7.37042525999999, 42.633331450000014], [-7.368844060000015, 42.63147408999998], [-7.368092820000015, 42.63084551999998], [-7.368165149999982, 42.63031153999998], [-7.368435599999998, 42.62947287999998], [-7.368783829999984, 42.628874329999974], [-7.369242750000012, 42.62828956999999], [-7.370234390000007, 42.62747736], [-7.367005319999976, 42.62628618000002], [-7.365458129999979, 42.62560696000003], [-7.3640713400000095, 42.62512866999998], [-7.362159019999979, 42.62428326000003], [-7.361126560000002, 42.62398949999999], [-7.360635390000027, 42.62376512999998], [-7.360214050000025, 42.62349308], [-7.359965439999996, 42.62325046000001], [-7.359640119999995, 42.62295674000001], [-7.358784039999989, 42.62239512999997], [-7.356949359999987, 42.621960839999986], [-7.356198500000005, 42.62168331999999], [-7.3556901900000184, 42.62138755000001], [-7.354382269999974, 42.62046495999999], [-7.353883010000004, 42.62012382], [-7.351438040000005, 42.61792994000001], [-7.350396079999996, 42.61767247], [-7.348272919999999, 42.61729403999999], [-7.34587694999999, 42.616673830000025], [-7.3447545700000205, 42.616311310000015], [-7.343133860000023, 42.61667], [-7.339365799999996, 42.617353279999975], [-7.3382151299999805, 42.61745996000002], [-7.337283630000002, 42.61773840000001], [-7.335191780000002, 42.61851101000002], [-7.334535860000017, 42.61889602000002], [-7.333725290000018, 42.61951198000003], [-7.332061399999986, 42.61995317999998], [-7.331196859999977, 42.61996792000002], [-7.329628660000026, 42.61985623999999], [-7.328913139999997, 42.61991033999999], [-7.328195440000002, 42.62010858000002], [-7.326978559999986, 42.62066784000001], [-7.326046329999997, 42.62093721000002], [-7.321564060000014, 42.62205208], [-7.320584730000007, 42.62217012000002], [-7.317705779999983, 42.62337731000002], [-7.3165820099999905, 42.62369884999998], [-7.315007690000016, 42.62402838000003], [-7.312117929999999, 42.624200410000014], [-7.310645050000005, 42.62405785999999], [-7.308171070000014, 42.62371890999998], [-7.307172209999976, 42.62337838000002], [-7.303034519999983, 42.621013119999986], [-7.300616439999999, 42.61953743999999], [-7.29864157999998, 42.61847721999999], [-7.297406449999983, 42.61771331], [-7.294620969999983, 42.61532392999999], [-7.293611619999979, 42.614119319999986], [-7.293109660000027, 42.612670560000026], [-7.292820590000019, 42.611303840000005], [-7.292854610000006, 42.61073533000001], [-7.292652470000007, 42.610454800000014], [-7.291104990000008, 42.609576489999995], [-7.289603709999994, 42.60866041000003], [-7.288771499999996, 42.60807937999999], [-7.285628729999985, 42.608107159999975], [-7.284863340000015, 42.607433549999996], [-7.283651060000011, 42.60664163000001], [-7.282856190000018, 42.60624822], [-7.282343860000026, 42.60570918000002], [-7.28130311000001, 42.60297501000002], [-7.280381019999993, 42.59823756999998], [-7.280354059999979, 42.59731119999998], [-7.279342690000021, 42.59660173999998], [-7.274262840000006, 42.59431568999997], [-7.2726751800000216, 42.592484239999976], [-7.269686649999983, 42.58958861000002], [-7.268774469999983, 42.58872229000002], [-7.2676402399999915, 42.58745908999998], [-7.266387350000002, 42.585885159999975], [-7.264903670000024, 42.58342845999999], [-7.26485077000001, 42.583367409999994], [-7.264371229999995, 42.58223282], [-7.2638099000000125, 42.580434990000015], [-7.263570249999987, 42.57799490999997], [-7.26361922000001, 42.5765705], [-7.264262859999974, 42.573863389999985], [-7.26455537999999, 42.573330269999985], [-7.265327590000027, 42.57232907000002], [-7.266199690000008, 42.57082894000001], [-7.2668094399999745, 42.57048206000002], [-7.26779461000001, 42.570103159999974], [-7.268105020000007, 42.56911917000002], [-7.268476050000004, 42.56795284999998], [-7.272041409999986, 42.566118029999984], [-7.27273845000002, 42.56562379000002], [-7.273738330000015, 42.56474909000002], [-7.275990779999972, 42.56544822000001], [-7.275434490000009, 42.56408245], [-7.27546787, 42.564036180000016], [-7.276003709999998, 42.56332286000003], [-7.273590280000008, 42.559199320000005], [-7.274298760000022, 42.558695650000004], [-7.280801610000026, 42.55494999000001], [-7.2824236299999825, 42.55391687000002], [-7.284305730000028, 42.55241480000001], [-7.284775109999998, 42.551622899999984], [-7.28627591999998, 42.54971189999998], [-7.288515099999984, 42.54969098999999], [-7.289144669999985, 42.54946030000002], [-7.290715540000008, 42.54857304000001], [-7.291537570000003, 42.548308109999994], [-7.294047890000002, 42.54744856999997], [-7.2946644699999865, 42.54702925999999], [-7.294798490000005, 42.54685316000001], [-7.29462196999998, 42.545878389999984], [-7.293039529999987, 42.54482132999999], [-7.292398009999999, 42.54399006], [-7.291712440000026, 42.543403539999986], [-7.291265629999998, 42.54292509999999], [-7.291066650000005, 42.54250939000002], [-7.291201100000023, 42.54091969000001], [-7.29139127000002, 42.53978710000001], [-7.291064779999999, 42.538754919999974], [-7.290742529999989, 42.53831681999998], [-7.2900953100000265, 42.537755860000004], [-7.291891239999984, 42.53695918], [-7.2972392099999865, 42.535056689999976], [-7.29724133000002, 42.534201259999975], [-7.297025259999998, 42.533714169999996], [-7.296681180000007, 42.53331293000002], [-7.295915620000017, 42.53280145999997], [-7.2949802599999884, 42.53247643999998], [-7.289085549999982, 42.53261659999998], [-7.286880359999998, 42.52992612999998], [-7.283414760000028, 42.52838127000001], [-7.28047521000002, 42.527762010000004], [-7.279290220000007, 42.527166179999995], [-7.278002230000027, 42.52666604000001], [-7.276708929999984, 42.52644428999997], [-7.275343290000023, 42.52605416], [-7.2739065200000255, 42.52551360000001], [-7.272776379999982, 42.52500659999998], [-7.271866030000012, 42.524509379999984], [-7.270808890000012, 42.52417969999999], [-7.267416860000026, 42.52477449000003], [-7.266440339999974, 42.52528811000002], [-7.265455120000013, 42.525459909999995], [-7.264650389999986, 42.525976119999996], [-7.263153369999998, 42.526157979999994], [-7.262346690000015, 42.526467149999974], [-7.261581219999982, 42.526666750000004], [-7.260675460000016, 42.52677252000001], [-7.259550450000006, 42.52669737000002], [-7.259012009999992, 42.526834459999975], [-7.254824369999994, 42.52899814], [-7.2549860899999885, 42.52956836999999], [-7.254900829999997, 42.53046290999998], [-7.253379719999998, 42.52993423999999], [-7.252551509999989, 42.52974893999999], [-7.250895160000027, 42.529558399999985], [-7.2476125000000025, 42.53015755000001], [-7.245237330000009, 42.530137679999996], [-7.243234280000024, 42.52986084999998], [-7.238360119999982, 42.530149600000016], [-7.237724490000005, 42.53065034999997], [-7.237142889999973, 42.531248129999994], [-7.236591620000013, 42.531538660000024], [-7.2339079600000105, 42.532178250000015], [-7.234113279999974, 42.53377332000002], [-7.233787329999984, 42.53561315000002], [-7.233458880000001, 42.53651667999998], [-7.232938540000021, 42.53764339999998], [-7.232567549999999, 42.538278390000016], [-7.231283280000014, 42.53981152], [-7.230704580000008, 42.54007603000002], [-7.230145300000004, 42.54008771000002], [-7.228121929999986, 42.53987439000002], [-7.225681370000018, 42.53997357999998], [-7.222728220000022, 42.54059584999999], [-7.220914779999987, 42.541689210000015], [-7.219909070000028, 42.54212247999999], [-7.218925780000006, 42.54270797999999], [-7.217516699999976, 42.543660320000015], [-7.213835539999991, 42.54504751000002], [-7.213028300000019, 42.54553643999998], [-7.212501079999981, 42.54602496000001], [-7.211679580000009, 42.54722479999998], [-7.211119259999975, 42.54846994000002], [-7.210647129999984, 42.54923463], [-7.210107049999976, 42.54971370999999], [-7.206385099999977, 42.55158835999998], [-7.205376030000025, 42.552156690000004], [-7.204354130000013, 42.552896550000014], [-7.20389222, 42.553633830000024], [-7.203380040000013, 42.55398579000001], [-7.201558999999975, 42.55552031000002], [-7.201351719999991, 42.55587908000001], [-7.200471289999996, 42.55800119000003], [-7.200167340000007, 42.55837159999999], [-7.199683629999981, 42.55878553000002], [-7.198755889999973, 42.559134719999975], [-7.1976466099999925, 42.559283479999976], [-7.196153449999997, 42.55935627000002], [-7.194652440000027, 42.55933028999999], [-7.193247340000028, 42.55942683000001], [-7.192467659999977, 42.559968630000014], [-7.190492099999972, 42.560113049999984], [-7.189311069999974, 42.56030036999999], [-7.188685190000001, 42.560593410000024], [-7.1883253999999965, 42.560858689999975], [-7.1876951899999995, 42.561268919999975], [-7.18667677000002, 42.56170236999998], [-7.184421670000006, 42.56187492999999], [-7.183602679999979, 42.56201292999998], [-7.182772020000016, 42.562322429999995], [-7.18178432000002, 42.56303381999999], [-7.181499649999978, 42.56351243], [-7.180282700000021, 42.56607796999998], [-7.178483620000009, 42.569412090000014], [-7.17800090999998, 42.57057320000001], [-7.1776793000000225, 42.571593370000016], [-7.177278450000017, 42.572157249999975], [-7.176599889999977, 42.57275827000001], [-7.175740379999979, 42.57320382], [-7.175040650000028, 42.573670549999974], [-7.175171180000007, 42.575259459999984], [-7.174188060000006, 42.57531425000002], [-7.173079540000003, 42.575497859999984], [-7.1704273199999875, 42.57609880000001], [-7.165871509999988, 42.57775043999999], [-7.164629709999986, 42.5781288], [-7.163595279999981, 42.57832853000002], [-7.162336670000002, 42.57847336999998], [-7.15841026999999, 42.57876924999999], [-7.157545340000013, 42.57897176], [-7.1559131500000035, 42.57950828000003], [-7.152969330000019, 42.579210020000005], [-7.15095556, 42.57917507000002], [-7.1472936600000025, 42.57923586999999], [-7.146034639999982, 42.57917347], [-7.145018950000008, 42.57892215999999], [-7.144245979999994, 42.57847296], [-7.144063189999997, 42.57883973999998], [-7.143828569999982, 42.58026183999999], [-7.142582730000015, 42.58168454999998], [-7.141869750000012, 42.582691780000005], [-7.14168669999998, 42.58323863999999], [-7.141205370000023, 42.58369726000001], [-7.139597980000019, 42.58499797000002], [-7.137336979999986, 42.58601616999999], [-7.135600880000027, 42.58922129000001], [-7.134504719999995, 42.58904482000003], [-7.133956959999978, 42.58997400999999], [-7.133257609999987, 42.59229525000001], [-7.127804439999977, 42.594968230000006], [-7.123901009999997, 42.59491093999998], [-7.119767459999991, 42.595059890000016], [-7.118605549999984, 42.597028550000005], [-7.116319120000014, 42.598578480000015], [-7.115363030000026, 42.60163817], [-7.109398380000016, 42.60156448999999], [-7.108372630000019, 42.60134922999998], [-7.1058720300000004, 42.60372598999999], [-7.103691949999984, 42.60375019999998], [-7.099616079999976, 42.60571513000002], [-7.099150819999977, 42.60549771000001], [-7.098616149999998, 42.605336790000024], [-7.09789576999998, 42.60531758000002], [-7.096985549999999, 42.60537720000002], [-7.09572498, 42.60492713000002], [-7.093353809999996, 42.605012009999996], [-7.091756669999995, 42.60221582999998], [-7.091198440000028, 42.60169466000002], [-7.090142730000025, 42.60102110999998], [-7.090311569999983, 42.60024973999998], [-7.090361169999994, 42.59951866], [-7.090039540000021, 42.598701800000015], [-7.08914077999998, 42.59800461999998], [-7.0885008899999775, 42.59735221], [-7.0882298999999875, 42.59619139], [-7.0867609399999765, 42.59553256999999], [-7.086243949999982, 42.59321904000001], [-7.081571069999995, 42.59182820000001], [-7.080423909999979, 42.592175250000025], [-7.07861508000002, 42.59060105999998], [-7.07779776000001, 42.59077425999999], [-7.075397010000017, 42.58946421000002], [-7.071867020000013, 42.589896039999985], [-7.070718839999984, 42.586488410000015], [-7.072081270000012, 42.586079770000026], [-7.072436900000014, 42.58555389000003], [-7.073770009999976, 42.58394874999999], [-7.073387050000008, 42.58199954000003], [-7.072631790000003, 42.58144118000001], [-7.071475819999989, 42.580735000000004], [-7.069901689999995, 42.58030480000002], [-7.069895169999995, 42.579269580000016], [-7.069564440000022, 42.57811984], [-7.06923716, 42.57777133000002], [-7.0687136500000065, 42.57740278], [-7.067534500000022, 42.57725562000002], [-7.0673872200000005, 42.57686468999998], [-7.067086490000008, 42.576362159999974], [-7.066258779999998, 42.57543716999999], [-7.0661364800000115, 42.57243420999998], [-7.066339229999983, 42.571805729999994], [-7.0691390900000215, 42.566348860000005], [-7.070112950000009, 42.55941723000001], [-7.062713459999998, 42.55335587000002], [-7.064019060000021, 42.553338310000015], [-7.065028330000018, 42.55338978999998], [-7.065658100000007, 42.553429540000025], [-7.066623740000011, 42.553633830000024], [-7.067647340000008, 42.55373700000001], [-7.068396880000023, 42.55385802000001], [-7.068971079999983, 42.55394203999998], [-7.06967056000002, 42.55394868000002], [-7.068861309999988, 42.553752359999976], [-7.068305010000017, 42.55360646999998], [-7.067865600000005, 42.553291650000006], [-7.067551869999988, 42.55290573000002], [-7.067233810000005, 42.55262170999998], [-7.066898359999982, 42.55246346000001], [-7.066671199999973, 42.55226625], [-7.066218909999975, 42.55186543999997], [-7.065771279999979, 42.55151759], [-7.0655545700000175, 42.55127498000002], [-7.065324680000003, 42.5509419], [-7.065089220000004, 42.55057930999999], [-7.064917890000004, 42.55036030000002], [-7.064806009999984, 42.5501941], [-7.064724259999991, 42.54989176999999], [-7.064641740000013, 42.54957775999998], [-7.06457223000001, 42.54933261999997], [-7.064480890000027, 42.54905135000001], [-7.064306830000021, 42.54869646999998], [-7.064204220000022, 42.548448010000016], [-7.064244229999986, 42.54820167999998], [-7.06477203999998, 42.547703920000004], [-7.065553930000021, 42.54718092000002], [-7.065926820000016, 42.546735479999995], [-7.066046819999997, 42.54637106000001], [-7.066097280000008, 42.54542386000003], [-7.067799949999994, 42.543706610000015], [-7.068281899999988, 42.54287913000002], [-7.069210250000026, 42.540865250000024], [-7.069809550000002, 42.53997055000002], [-7.07064828, 42.53901330999997], [-7.07092904000001, 42.53846308999999], [-7.070955289999972, 42.53793092000001], [-7.070412390000001, 42.537446020000004], [-7.069558340000015, 42.537044209999976], [-7.06757263999998, 42.53627745], [-7.066714520000005, 42.53674914999999], [-7.066073979999999, 42.537384180000004], [-7.065415920000021, 42.537749710000014], [-7.064588259999994, 42.537941190000026], [-7.063824150000016, 42.537986339999975], [-7.062828550000006, 42.537841619999995], [-7.061905739999986, 42.537505220000014], [-7.06131148999998, 42.53716616000003], [-7.060783829999991, 42.53578927000001], [-7.060683270000027, 42.53480241], [-7.060852269999998, 42.53384199999999], [-7.060595649999982, 42.53307675999997], [-7.060060739999983, 42.53215032999998], [-7.059926770000004, 42.53139876], [-7.060248520000016, 42.530540970000004], [-7.059852890000002, 42.52932147000001], [-7.061222069999985, 42.52734602999999], [-7.062008800000001, 42.52652576000003], [-7.0631415899999865, 42.52616139999998], [-7.063989590000006, 42.52534794000002], [-7.065318040000022, 42.52331088], [-7.0679797299999905, 42.51893940999997], [-7.068761719999998, 42.51823631000002], [-7.068801899999983, 42.516794249999975], [-7.068986269999982, 42.515510930000005], [-7.069603359999974, 42.51324520999998], [-7.0702945200000045, 42.51241927000001], [-7.071068560000015, 42.51122121999998], [-7.071893729999999, 42.510435529999995], [-7.073175129999981, 42.509741640000016], [-7.074481619999972, 42.50943401000001], [-7.074996890000023, 42.508749369999975], [-7.075607199999979, 42.50840348999998], [-7.076649019999991, 42.50833036], [-7.077053639999974, 42.50818988999998], [-7.076556779999976, 42.5071001], [-7.076980900000024, 42.50595049999998], [-7.077603179999983, 42.50541509999999], [-7.076796290000004, 42.50330091000001], [-7.076350119999972, 42.501867170000025], [-7.075778339999999, 42.50018578999999], [-7.07578522, 42.50010451000003], [-7.075732360000018, 42.498917870000014], [-7.07628225000002, 42.49745765], [-7.076187530000027, 42.49674971000002], [-7.076320339999995, 42.49654688999999], [-7.077390369999989, 42.49578845000002], [-7.07816815000001, 42.495400570000015], [-7.080027889999997, 42.494064709999975], [-7.080577199999993, 42.493531899999994], [-7.082774050000012, 42.49176978999998], [-7.084312580000017, 42.49017521000002], [-7.08506693999999, 42.488869720000025], [-7.087533979999989, 42.48509898999998], [-7.087918600000023, 42.48409480999999], [-7.088081989999978, 42.48324259999998], [-7.088013950000004, 42.482758820000015], [-7.088055310000016, 42.48115464], [-7.088184539999986, 42.48089791000001], [-7.088894190000019, 42.48021526000002], [-7.089258760000007, 42.47946390999999], [-7.089842260000012, 42.477966400000014], [-7.091236139999978, 42.47546749999998], [-7.0923735800000145, 42.47444539000003], [-7.092694409999979, 42.473956699999974], [-7.093338449999976, 42.47245701999998], [-7.094232320000003, 42.47180376], [-7.099966940000002, 42.46817693000003], [-7.1002745700000105, 42.467859780000026], [-7.099872389999973, 42.46505594000001], [-7.09936596, 42.46307519999999], [-7.099214510000024, 42.461315850000005], [-7.099391799999978, 42.460679219999975], [-7.099580829999979, 42.45910576], [-7.099742260000028, 42.45878484000002], [-7.100008370000012, 42.45857720999999], [-7.100364679999984, 42.45844740000001], [-7.101036399999998, 42.45830626999998], [-7.102625020000005, 42.458240330000024], [-7.104365459999997, 42.45807887000001], [-7.1058636399999955, 42.457746009999994], [-7.107122919999995, 42.457664799999975], [-7.1105261000000155, 42.45764165000003], [-7.112306180000019, 42.4573436], [-7.113913239999988, 42.45681762999999], [-7.121161570000027, 42.45183874999998], [-7.123153979999984, 42.44903878000002], [-7.123426779999988, 42.44874983], [-7.123863169999993, 42.44854501999998], [-7.128442140000004, 42.44718239000002], [-7.129849999999976, 42.44659136000001], [-7.13064860999998, 42.44339314000001], [-7.131366249999985, 42.442845009999985], [-7.130796050000015, 42.44119985999998], [-7.130867939999973, 42.440999180000006], [-7.1320449099999905, 42.44059652999999], [-7.136241620000021, 42.44193057000001], [-7.1373508500000185, 42.441791420000015], [-7.14222503000002, 42.43994035999998], [-7.148082460000012, 42.437153060000014], [-7.149268570000004, 42.43615563999998], [-7.151383370000019, 42.433026600000005], [-7.151709729999993, 42.432447509999974], [-7.1518358899999726, 42.43196573], [-7.151942940000026, 42.430827350000015], [-7.151981209999974, 42.42901616], [-7.151628340000002, 42.42643583], [-7.151391509999996, 42.42542696999999], [-7.150998860000016, 42.42445077999997], [-7.150417329999982, 42.423742549999986], [-7.150195450000012, 42.42332742000002], [-7.149805370000024, 42.42312547], [-7.14934611000001, 42.42298004999998], [-7.148660059999997, 42.42289686999999], [-7.14805505999999, 42.42293681000001], [-7.147332310000024, 42.42266588000001], [-7.147036860000014, 42.42242447000001], [-7.146883930000001, 42.42213287999999], [-7.14687588999999, 42.42182703999998], [-7.147175689999983, 42.42158207], [-7.147899209999991, 42.42131275000003], [-7.148664100000019, 42.42093385999999], [-7.149219329999994, 42.42050855999997], [-7.151026800000011, 42.418804290000026], [-7.153322530000025, 42.41676713999999], [-7.154102330000001, 42.41606353999998], [-7.155289509999989, 42.41527310999999], [-7.157053879999978, 42.41384042999999], [-7.157560260000025, 42.41359693999999], [-7.158144129999982, 42.41342265999998], [-7.158448000000021, 42.413240540000004], [-7.1585551900000155, 42.41284046999999], [-7.158594479999977, 42.411047259999975], [-7.162178009999991, 42.40956639000001], [-7.163961519999987, 42.40659323], [-7.1657568900000115, 42.404718100000025], [-7.166200779999997, 42.404449829999976], [-7.164656579999985, 42.4025972], [-7.164438270000005, 42.40223598], [-7.164368969999998, 42.40192336000001], [-7.164492010000004, 42.40139665999999], [-7.165398589999995, 42.39931075999999], [-7.165545420000001, 42.398576100000014], [-7.165599149999991, 42.39830402000001], [-7.165222819999997, 42.396841069999994], [-7.1651615399999855, 42.395915890000026], [-7.165725099999975, 42.39421163999998], [-7.16606213, 42.39319093], [-7.166400839999994, 42.393169590000014], [-7.167341430000022, 42.39343248], [-7.16771755000002, 42.39250937999998], [-7.168691290000027, 42.389790740000024], [-7.169683780000014, 42.38647714000001], [-7.171853419999991, 42.37923090999999], [-7.177378869999984, 42.37630116999998], [-7.179024089999984, 42.37675432999998], [-7.179462000000001, 42.37676535000003], [-7.180628749999983, 42.37659667999998], [-7.181728350000014, 42.37633140999998], [-7.182122330000027, 42.376046900000006], [-7.182320679999975, 42.37574252000002], [-7.182499930000006, 42.375150710000014], [-7.182664320000015, 42.374883590000024], [-7.1838251300000024, 42.37389574000002], [-7.18570926000001, 42.371368770000004], [-7.182316549999996, 42.365631210000004], [-7.187721189999991, 42.36456020000003], [-7.19051576999999, 42.364043719999984], [-7.195736780000004, 42.35257045999998], [-7.195762860000002, 42.3509578], [-7.195688229999973, 42.350384280000014], [-7.193945020000001, 42.34462258999997], [-7.194196110000007, 42.34256048999998], [-7.195276760000013, 42.34019784999998], [-7.196073150000018, 42.338214789999995], [-7.1979932500000245, 42.333426299999985], [-7.198059580000006, 42.332964660000016], [-7.1977726299999745, 42.33302921000001], [-7.19731440999999, 42.33307301999997], [-7.196636769999998, 42.33273771], [-7.195914730000027, 42.33191780999999], [-7.194694140000024, 42.33090007999999], [-7.194270000000017, 42.33072654], [-7.193679980000013, 42.330613099999994], [-7.192935569999975, 42.330550329999994], [-7.192281279999975, 42.33056528999998], [-7.190801560000011, 42.331123709999986], [-7.190332430000012, 42.33118589999998], [-7.189557239999999, 42.3310252], [-7.1888651599999775, 42.330654349999975], [-7.1882828000000245, 42.33010840999998], [-7.187731830000018, 42.329669360000025], [-7.186810550000018, 42.329135819999976], [-7.185635670000011, 42.328620539999974], [-7.184742099999994, 42.328869310000016], [-7.183099540000001, 42.328803289999996], [-7.182305960000008, 42.32891332999998], [-7.181899339999973, 42.328820140000005], [-7.180835609999974, 42.32796760000002], [-7.179681239999979, 42.32757756000001], [-7.179454009999972, 42.327261720000024], [-7.179034290000004, 42.32697091], [-7.178231789999984, 42.32694617999999], [-7.177666240000008, 42.32775017], [-7.177858560000004, 42.3301022], [-7.177218960000005, 42.33052171999998], [-7.176548780000019, 42.33066323000003], [-7.175872449999986, 42.33034574999999], [-7.174216999999999, 42.32935266999999], [-7.173292819999972, 42.32932333999997], [-7.170583939999972, 42.32964716999999], [-7.168754429999979, 42.32950672999999], [-7.167590959999984, 42.32916191999999], [-7.167065480000019, 42.32782144999999], [-7.1669357000000105, 42.326592619999985], [-7.167098720000013, 42.325938399999984], [-7.169392329999994, 42.32410808999998], [-7.1697094900000025, 42.323583310000004], [-7.169924309999999, 42.322612049999975], [-7.170336949999978, 42.32169662000001], [-7.170311840000011, 42.32095020000003], [-7.170126180000011, 42.32034469000001], [-7.170303869999998, 42.319545860000005], [-7.171341489999975, 42.31872470000002], [-7.173882090000006, 42.31751559000003], [-7.174456329999998, 42.31702644000001], [-7.174569449999979, 42.31653610000001], [-7.174134579999986, 42.31583164], [-7.173566970000024, 42.315321100000006], [-7.172850149999988, 42.31512213000002], [-7.172261859999992, 42.31521559999999], [-7.171301149999977, 42.31554775000001], [-7.170952320000026, 42.31577656000002], [-7.17024619, 42.31573925999999], [-7.1694861600000195, 42.31525371999999], [-7.16879007, 42.31445070000001], [-7.166996919999974, 42.313201400000025], [-7.16686175000001, 42.31244098000002], [-7.166976340000019, 42.31178851999999], [-7.167361330000006, 42.311189239999976], [-7.16818674000001, 42.31064595999999], [-7.171276209999974, 42.30966903000001], [-7.17172819000001, 42.30916633999999], [-7.171901079999998, 42.30829564999999], [-7.171723180000015, 42.30780691000001], [-7.170509770000024, 42.30706778000001], [-7.168806549999999, 42.30662559000001], [-7.165430660000027, 42.30693758000001], [-7.164255749999995, 42.307331480000016], [-7.162503029999982, 42.308160569999984], [-7.162344280000013, 42.30832842000001], [-7.160760340000024, 42.309142339999994], [-7.1593793800000185, 42.309723770000005], [-7.1580399499999885, 42.310015539999995], [-7.15505281999998, 42.311996850000014], [-7.154319629999975, 42.31228457999998], [-7.153696809999985, 42.312406220000014], [-7.152466170000025, 42.312324820000015], [-7.151152270000011, 42.31208434000001], [-7.149478569999985, 42.31209100000001], [-7.147661449999987, 42.31286818000001], [-7.143197600000008, 42.31287677], [-7.142679240000007, 42.31311161999997], [-7.141230080000014, 42.31450566000001], [-7.140659149999976, 42.31467938999998], [-7.139008090000004, 42.31484714999999], [-7.138069029999997, 42.315142209999976], [-7.136992070000019, 42.315739389999976], [-7.135518929999989, 42.31621581000002], [-7.13475287, 42.316189459999975], [-7.133938720000003, 42.31598475999999], [-7.133396870000013, 42.315121929999975], [-7.133594770000002, 42.314439479999976], [-7.133920769999975, 42.31386044999999], [-7.13488768000002, 42.31288010999998], [-7.134532750000005, 42.31172240000001], [-7.1345602800000165, 42.31121718000003], [-7.135491109999975, 42.31042721], [-7.135745310000004, 42.310048859999995], [-7.1355691800000045, 42.30939792999999], [-7.135556599999973, 42.30865104999998], [-7.13583146000002, 42.30821793000001], [-7.136369890000026, 42.30791934000001], [-7.138978640000005, 42.307374849999974], [-7.139976600000011, 42.307239709999976], [-7.140558969999972, 42.307056579999994], [-7.141681769999991, 42.307160020000026], [-7.1427366899999924, 42.30696877999998], [-7.144953950000001, 42.307113619999996], [-7.145617179999988, 42.30705358], [-7.146201889999986, 42.30690635000002], [-7.146892250000008, 42.306152010000005], [-7.146936509999989, 42.30571822000002], [-7.149683400000015, 42.30414201000002], [-7.149731190000011, 42.30376209999997], [-7.149524269999972, 42.30338243], [-7.148965550000014, 42.303186589999996], [-7.148523109999985, 42.30291448999998], [-7.148100139999997, 42.30220049000002], [-7.148937020000005, 42.29980210000002], [-7.149124930000028, 42.298417659999984], [-7.148988710000026, 42.29505508], [-7.148708629999987, 42.29466905999999], [-7.148479629999997, 42.29450628000001], [-7.147920989999989, 42.29431041999999], [-7.147501050000017, 42.29401050000001], [-7.14728709000002, 42.29352303000002], [-7.14724252000002, 42.29266024999998], [-7.147046859999989, 42.29208208], [-7.146607759999995, 42.29130562], [-7.146135019999974, 42.29075548999998], [-7.1443462299999965, 42.29010893999998], [-7.143507600000021, 42.29026535999998], [-7.141364699999997, 42.29013580999998], [-7.140420710000001, 42.29035004000002], [-7.138258510000014, 42.291220580000015], [-7.137045049999983, 42.29157958000002], [-7.135894160000021, 42.29178323999997], [-7.134662300000002, 42.29093633999997], [-7.134065809999981, 42.289976439999975], [-7.1337606199999755, 42.288834940000015], [-7.133997659999977, 42.286899500000004], [-7.134304770000028, 42.28566386], [-7.134816940000007, 42.28441179999999], [-7.134888230000001, 42.28346379999999], [-7.136529399999972, 42.28297230999999], [-7.137267969999982, 42.28258546000001], [-7.1377250900000035, 42.28197467000001], [-7.137996040000019, 42.28129856999999], [-7.138091739999993, 42.28053877000002], [-7.138025149999976, 42.279892889999985], [-7.137228330000028, 42.279390439999986], [-7.136275710000007, 42.279100719999974], [-7.134593269999982, 42.27840515999998], [-7.133694439999999, 42.27782533999999], [-7.131984950000003, 42.2757891], [-7.131059569999991, 42.27424678], [-7.13119863999998, 42.27266603999999], [-7.131669209999984, 42.27133445999999], [-7.132134629999996, 42.270480280000015], [-7.132928610000022, 42.26983034], [-7.133991260000016, 42.269395789999976], [-7.136669009999991, 42.26696700000002], [-7.137564950000012, 42.26639437], [-7.138635480000005, 42.26589646999997], [-7.140087059999985, 42.26566389999999], [-7.147127119999993, 42.26377034000001], [-7.149605650000012, 42.26293319000001], [-7.151239060000023, 42.261964560000024], [-7.152919899999972, 42.26079609999999], [-7.153960120000022, 42.260209110000005], [-7.154601819999982, 42.259276409999984], [-7.155920939999987, 42.258139029999995], [-7.1565246399999864, 42.25791902999998], [-7.157015320000028, 42.257270919999996], [-7.1578514899999846, 42.255610820000015], [-7.158417320000012, 42.25481590999999], [-7.159224699999982, 42.25419231000001], [-7.159674970000026, 42.253851810000015], [-7.16100861000001, 42.25256977999999], [-7.161361660000011, 42.25130538000002], [-7.161185670000009, 42.250105229999974], [-7.161122190000015, 42.24969334999997], [-7.1614435000000185, 42.249051380000026], [-7.161774600000001, 42.24874220999999], [-7.163754270000027, 42.24788687], [-7.1662291299999765, 42.24645522999998], [-7.166506249999998, 42.24624705000002], [-7.166957019999984, 42.245915500000024], [-7.169825460000027, 42.245676], [-7.173225209999998, 42.24540805999999], [-7.1744990600000165, 42.24469531], [-7.176170249999984, 42.24376096999998], [-7.187728709999988, 42.237324030000025], [-7.187998359999995, 42.23663886000003], [-7.190442910000002, 42.23129103000002], [-7.19934348999999, 42.22866886000003], [-7.208199869999987, 42.22593957999999], [-7.21615066999999, 42.22363015000002], [-7.216623159999983, 42.223630749999984], [-7.235721259999991, 42.22715765999999], [-7.236437889999991, 42.227185159999976], [-7.2445728000000145, 42.226910850000024], [-7.245128729999976, 42.22671015999998], [-7.261198560000025, 42.218522759999985], [-7.263064069999984, 42.217805020000014], [-7.264442050000014, 42.21740254000002], [-7.266593290000003, 42.21697123000001], [-7.273676200000011, 42.215311429999986], [-7.27511020999998, 42.21484370000002], [-7.27723825999999, 42.21425098999998], [-7.279037710000011, 42.21381458000002], [-7.279955840000014, 42.213600180000014], [-7.305290000000014, 42.223389999999995], [-7.310350000000028, 42.230849999999975], [-7.303809999999999, 42.235029999999995], [-7.3047599999999875, 42.23689000000002], [-7.305560000000014, 42.238279999999975], [-7.307579999999973, 42.241359999999986], [-7.309259999999995, 42.24437999999998], [-7.311080000000004, 42.24698999999998], [-7.312689999999975, 42.24883], [-7.3126100000000065, 42.25013999999999], [-7.312430000000006, 42.25069000000002], [-7.311440000000005, 42.252430000000004], [-7.311329999999998, 42.25362000000001], [-7.310900000000004, 42.254520000000014], [-7.310490000000016, 42.25630000000001], [-7.310470000000009, 42.25738000000001], [-7.310450000000003, 42.257619999999974], [-7.315470000000005, 42.25754999999998], [-7.315760000000012, 42.26274000000001], [-7.311919999999986, 42.26990000000001], [-7.313350000000014, 42.27296000000001], [-7.316039999999987, 42.28339], [-7.31686000000002, 42.283270000000016], [-7.317679999999996, 42.28338000000002], [-7.318690000000004, 42.28365000000002], [-7.319430000000011, 42.28401000000002], [-7.320080000000019, 42.284220000000005], [-7.320859999999982, 42.28438], [-7.32177999999999, 42.284490000000005], [-7.32238000000001, 42.28469999999999], [-7.323339999999973, 42.285199999999975], [-7.323789999999974, 42.28532999999999], [-7.3259800000000155, 42.285259999999994], [-7.326259999999991, 42.28532999999999], [-7.327130000000011, 42.28613999999999], [-7.327639999999974, 42.28687000000002], [-7.327839999999981, 42.28735], [-7.327929999999981, 42.288009999999986], [-7.327890000000025, 42.28890999999999], [-7.327679999999987, 42.289679999999976], [-7.326919999999973, 42.290970000000016], [-7.326689999999985, 42.291240000000016], [-7.3264500000000226, 42.291380000000004], [-7.327269999999999, 42.29432000000003], [-7.3285999999999945, 42.29725000000002], [-7.3434199999999805, 42.30200000000002], [-7.349629999999991, 42.30509000000001], [-7.362610000000018, 42.307000000000016], [-7.36142000000001, 42.308659999999975], [-7.361060000000009, 42.31043], [-7.360340000000008, 42.31202999999999], [-7.359820000000013, 42.31274000000002], [-7.358249999999998, 42.314329999999984], [-7.357489999999984, 42.31482999999997], [-7.355970000000013, 42.315380000000005], [-7.355419999999981, 42.315650000000005], [-7.354649999999992, 42.31632000000002], [-7.353999999999985, 42.31715000000003], [-7.353729999999985, 42.31740000000002], [-7.353850000000023, 42.31781000000001], [-7.3537600000000225, 42.31833], [-7.353520000000003, 42.31869999999998], [-7.353200000000015, 42.318870000000004], [-7.352520000000027, 42.31896999999998], [-7.349969999999985, 42.31889000000001], [-7.3468899999999735, 42.31948999999997], [-7.344569999999976, 42.32033000000001], [-7.344290000000001, 42.32056], [-7.3440499999999815, 42.32139000000001], [-7.343549999999993, 42.322119999999984], [-7.343470000000025, 42.32243999999997], [-7.343489999999974, 42.32290999999998], [-7.343259999999987, 42.323800000000006], [-7.343039999999974, 42.32423], [-7.342010000000016, 42.325289999999995], [-7.341619999999978, 42.325829999999996], [-7.341099999999983, 42.32715000000002], [-7.339929999999981, 42.329200000000014], [-7.339530000000025, 42.32970999999998], [-7.339179999999999, 42.32992999999999], [-7.3384699999999725, 42.33064999999999], [-7.338009999999997, 42.33098000000001], [-7.337339999999983, 42.33134000000001], [-7.336520000000007, 42.33157], [-7.335469999999987, 42.331770000000006], [-7.33456000000001, 42.33181000000002], [-7.333939999999984, 42.33177999999998], [-7.332859999999982, 42.33217000000002], [-7.331299999999999, 42.333320000000015], [-7.330969999999979, 42.33354000000003], [-7.328659949999974, 42.335104520000016], [-7.330354469999975, 42.335922789999984], [-7.330970789999981, 42.336061529999995], [-7.331562899999994, 42.33620119], [-7.332893119999994, 42.337015199999996], [-7.333098399999983, 42.33752965000002], [-7.333747599999981, 42.33779319000001], [-7.336769160000017, 42.34166742000002], [-7.3399667799999975, 42.34280673000001], [-7.341593209999985, 42.34280805999998], [-7.342403509999997, 42.34347061], [-7.343109340000012, 42.34349784], [-7.343631669999979, 42.34385617999999], [-7.344952159999991, 42.34329281999999], [-7.352669960000014, 42.34380084999998], [-7.354408439999986, 42.34314045000002], [-7.367642439999997, 42.33813414999997], [-7.3688902999999755, 42.33775336999997], [-7.381130429999985, 42.33576371999999], [-7.394894169999986, 42.333534180000015], [-7.395300640000016, 42.33344653], [-7.402988349999987, 42.33180040000002], [-7.414380849999986, 42.32605821999999], [-7.420195770000021, 42.322295259999976], [-7.426342560000023, 42.31549389999998], [-7.428206349999982, 42.31353100000001], [-7.4285160900000164, 42.313104839999994], [-7.429844619999983, 42.31060438999998], [-7.437461209999981, 42.30851753000002], [-7.440772429999981, 42.31144133999999], [-7.441965900000014, 42.31219635000002], [-7.4424465700000155, 42.312303740000004], [-7.443602390000024, 42.31183568], [-7.4435066600000255, 42.312370620000024], [-7.4432379099999935, 42.31251612], [-7.44306143, 42.31276607000001], [-7.442752770000027, 42.31389452000002], [-7.444929969999976, 42.318104749999975], [-7.452031490000024, 42.323834139999974], [-7.456327480000027, 42.33345394999998], [-7.456342759999984, 42.33349836999997], [-7.456843779999986, 42.33474838000001], [-7.4534009500000025, 42.33840289], [-7.450623590000021, 42.34134713999998], [-7.446250080000027, 42.34283173], [-7.448406079999984, 42.343801359999986], [-7.448999080000021, 42.34618229], [-7.450549669999987, 42.34613998999998], [-7.453213740000024, 42.34639648000001], [-7.453908720000015, 42.346612530000016], [-7.4549394300000245, 42.346770479999975], [-7.45515155999999, 42.34685225999999], [-7.456366319999972, 42.34738119000002], [-7.45807222000002, 42.348332149999976], [-7.459046160000014, 42.349401650000004], [-7.4598781700000245, 42.34949526999998], [-7.46439952999998, 42.34923789999999], [-7.465741849999972, 42.34916750000002], [-7.4727188100000035, 42.34588772000001], [-7.472243489999983, 42.34483485999999], [-7.472219259999974, 42.34449367000002], [-7.47255174999998, 42.344048499999985], [-7.473082369999986, 42.34382966999999], [-7.473464540000009, 42.34340056000002], [-7.473425640000016, 42.342852849999986], [-7.474252279999973, 42.34099278000002], [-7.474353370000017, 42.339170079999974], [-7.474374339999997, 42.33861102999998], [-7.4748162500000035, 42.337315219999994], [-7.475572220000004, 42.33651133000001], [-7.475732049999976, 42.33619895999999], [-7.475667680000015, 42.33580531000001], [-7.475124339999979, 42.33550243000002], [-7.474633219999987, 42.33508045999997], [-7.475720910000007, 42.333480269999995], [-7.475754660000007, 42.33344294], [-7.476629030000026, 42.332598399999995], [-7.476947390000021, 42.33195568000002], [-7.47692619999998, 42.33063297000001], [-7.477070749999996, 42.33044724000001], [-7.477710779999995, 42.33023312], [-7.477941299999998, 42.33006203000002], [-7.477844419999997, 42.32955261000001], [-7.477846290000002, 42.32923741000002], [-7.478017560000012, 42.32891556999999], [-7.480188139999996, 42.32974897999998], [-7.485086720000027, 42.32884576999999], [-7.490038889999994, 42.32869655000002], [-7.493574539999997, 42.32825162], [-7.499120409999989, 42.329960459999995], [-7.498625749999974, 42.330340060000026], [-7.498733529999981, 42.33065994999998], [-7.499405830000001, 42.33276738000001], [-7.4995762199999945, 42.333453969999994], [-7.5001071300000035, 42.33544991000002], [-7.499913180000021, 42.337321299999985], [-7.500384559999986, 42.338653309999984], [-7.5003147799999965, 42.33920526999998], [-7.500011389999997, 42.34005454999999], [-7.500159970000027, 42.34162435000002], [-7.50043740000001, 42.342279710000014], [-7.500783969999986, 42.34237411999999], [-7.501688450000017, 42.34229350999999], [-7.503556740000022, 42.34228301000002], [-7.504052489999992, 42.34259663], [-7.504471109999997, 42.34386767000001], [-7.504103040000018, 42.34516968999998], [-7.504549970000028, 42.34581836000001], [-7.505046950000008, 42.34597887000001], [-7.510124000000019, 42.34687728], [-7.51093204, 42.345449859999974], [-7.510958039999991, 42.34344102], [-7.510608530000013, 42.342797529999984], [-7.510677050000027, 42.34239867000002], [-7.511122960000023, 42.34150772999999], [-7.51064150000002, 42.34071638], [-7.5110506899999905, 42.34016002999999], [-7.510605670000018, 42.339538319999974], [-7.510751299999981, 42.339199440000016], [-7.5115083300000265, 42.338755419999984], [-7.51285974000001, 42.33847702999998], [-7.513593949999972, 42.33822298000001], [-7.514554099999998, 42.337734909999995], [-7.515675789999989, 42.336961350000024], [-7.516213779999987, 42.33667901000001], [-7.517196160000026, 42.33616303000002], [-7.518791159999978, 42.33555983000002], [-7.51965598999999, 42.335435630000006], [-7.520133079999994, 42.335488810000015], [-7.52109901, 42.33592784000001], [-7.522497520000002, 42.336475810000024], [-7.523116609999988, 42.33647834999999], [-7.523725389999981, 42.33633723000003], [-7.5243977399999835, 42.336067549999996], [-7.525003120000008, 42.33571046999998], [-7.526116109999975, 42.33464903999999], [-7.526435730000003, 42.334537350000005], [-7.526966230000028, 42.33448935000001], [-7.5278668400000015, 42.334525740000004], [-7.528349579999997, 42.33448863000001], [-7.529547519999994, 42.33376593999998], [-7.530470390000005, 42.33377440999999], [-7.530825649999997, 42.33365229999998], [-7.530906309999978, 42.333424019999995], [-7.534199590000014, 42.332141079999985], [-7.534675479999976, 42.33167204], [-7.53484997999999, 42.33106187999999], [-7.534879090000004, 42.33028641999999], [-7.534938300000022, 42.330266059999985], [-7.535281429999998, 42.33014442000001], [-7.5360037199999965, 42.33023283], [-7.536949440000001, 42.330222349999985], [-7.537799269999994, 42.32989151999999], [-7.537981220000006, 42.329722240000024], [-7.538435450000009, 42.329290060000005], [-7.538959299999988, 42.32847695999999], [-7.539413710000019, 42.32821582999998], [-7.539851220000003, 42.328225480000015], [-7.540207469999984, 42.32845444999998], [-7.541096240000002, 42.32933753999998], [-7.541710869999974, 42.329952400000025], [-7.542032580000011, 42.33003867000002], [-7.5423540900000035, 42.329953880000005], [-7.542819740000027, 42.329512220000026], [-7.542896460000009, 42.329230059999986], [-7.542717849999974, 42.32843582999999], [-7.5428379900000095, 42.328250990000015], [-7.542924430000028, 42.3281035], [-7.54335506000001, 42.327681240000004], [-7.543815750000022, 42.32683460999999], [-7.544754730000022, 42.326563220000025], [-7.545291840000004, 42.32627178000001], [-7.545566459999975, 42.325873709999996], [-7.54583027000001, 42.32549408], [-7.547766469999999, 42.32626348000002], [-7.548394739999992, 42.32605842999999], [-7.54922436999999, 42.32595342000002], [-7.551735699999995, 42.325781500000005], [-7.552450580000027, 42.32560000000001], [-7.553005129999974, 42.32504671999999], [-7.554563550000012, 42.32377821], [-7.554455920000009, 42.32329629999998], [-7.554556779999984, 42.323013179999975], [-7.556972640000026, 42.320684089999986], [-7.558174199999996, 42.319348709999986], [-7.558542729999999, 42.31924399000002], [-7.560254120000025, 42.31958995999997], [-7.560874080000019, 42.31943919999998], [-7.562226810000027, 42.318349850000004], [-7.562244249999992, 42.31808804999997], [-7.562018099999989, 42.317142690000026], [-7.569145330000026, 42.31789370000001], [-7.57093832999999, 42.31869541999998], [-7.572150210000018, 42.32854192999997], [-7.576048430000014, 42.330925089999994], [-7.5771665299999995, 42.332284920000006], [-7.578387510000027, 42.332722260000025], [-7.578949860000023, 42.333447060000026], [-7.578977319999979, 42.33349098000002], [-7.5797178700000245, 42.33449675000003], [-7.580082469999979, 42.334671230000026], [-7.585890629999994, 42.33594216], [-7.595806990000028, 42.33846140000003], [-7.59676558000001, 42.33879203999999], [-7.599257879999982, 42.34034852000002], [-7.601857320000022, 42.34220677000002], [-7.605079980000028, 42.34528234999999], [-7.608467140000016, 42.34827919000003], [-7.610243060000016, 42.349657200000024], [-7.610765940000022, 42.350167339999985], [-7.611566659999994, 42.35016208000002], [-7.618818280000028, 42.35139112000002], [-7.622485009999991, 42.351900279999995], [-7.6234327199999825, 42.35207806], [-7.625711910000007, 42.352535139999986], [-7.6281830099999866, 42.35329052999998], [-7.633532450000018, 42.35455956999999], [-7.634610549999991, 42.355353219999984], [-7.644370439999989, 42.362592370000016], [-7.645454959999995, 42.363304630000016], [-7.654092020000007, 42.36714919000002], [-7.6596309399999996, 42.36652755], [-7.661651740000025, 42.366436220000026], [-7.665064319999999, 42.364811540000005], [-7.665549999999996, 42.36366629999998], [-7.66635315000002, 42.362382060000016], [-7.666924489999985, 42.36173752000002], [-7.667864370000018, 42.3609879], [-7.668157090000022, 42.36067883999999], [-7.6683450900000025, 42.360103949999996], [-7.6686599999999885, 42.35976697000001], [-7.669416070000011, 42.35932195999999], [-7.679007319999982, 42.35215047999998], [-7.687752579999994, 42.35336806999999], [-7.689016419999973, 42.353550359999986], [-7.699233690000028, 42.35740777000001], [-7.703684269999997, 42.35897153000002], [-7.7041481399999725, 42.35933060000002], [-7.70495016000001, 42.35999088], [-7.708772300000021, 42.36272371000001], [-7.714356500000008, 42.36628416000002], [-7.714988559999995, 42.365970000000004], [-7.715787369999987, 42.36545088999998], [-7.716256009999995, 42.36506243000002], [-7.71791404999999, 42.36369758000001], [-7.718438499999991, 42.36356790999997], [-7.721521989999985, 42.36308055000001], [-7.727996840000003, 42.36248902], [-7.728603319999991, 42.362481960000025], [-7.733259859999976, 42.36370291999998], [-7.733817310000006, 42.36385091], [-7.734928159999981, 42.36409305000001], [-7.736159320000013, 42.36415913000002], [-7.740406280000002, 42.36461345999999], [-7.742800129999978, 42.36496440000002], [-7.744003790000022, 42.36514857999998], [-7.745178090000024, 42.364460640000004], [-7.7499257499999885, 42.36447069000002], [-7.751914349999993, 42.36508135999998], [-7.753070659999992, 42.364799240000025], [-7.754192009999997, 42.364536559999976], [-7.76061507999998, 42.362621839999974], [-7.764699679999978, 42.36189359000002], [-7.769356200000004, 42.3610243], [-7.771206210000003, 42.360767090000024], [-7.774431820000018, 42.36056049000001], [-7.77466038, 42.360532939999985], [-7.77599816999998, 42.36040507000001], [-7.778551549999975, 42.35838073999997], [-7.778705109999976, 42.35864442000002], [-7.779658180000013, 42.36032423], [-7.780318990000012, 42.36151207], [-7.780485520000013, 42.361946269999976], [-7.780690100000015, 42.36399948000002], [-7.781105879999984, 42.365476650000005], [-7.781860540000025, 42.366939650000006], [-7.784607149999999, 42.37096630999997], [-7.785041869999986, 42.371254239999985], [-7.789656030000003, 42.372852790000024], [-7.790218379999999, 42.37354049999999], [-7.791835129999981, 42.37579563000003], [-7.793790590000015, 42.37675808], [-7.794095319999997, 42.37836589], [-7.791845079999973, 42.37990970999999], [-7.789192739999976, 42.38159636], [-7.788166160000003, 42.382467640000016], [-7.779682550000018, 42.39163666000002], [-7.779364530000009, 42.39176699000001], [-7.778346670000019, 42.391638450000016], [-7.773655519999977, 42.39223948], [-7.773040250000008, 42.39245421999999], [-7.772379109999974, 42.39254483000002], [-7.769749579999996, 42.392465440000024], [-7.768991959999994, 42.39224494000001], [-7.767954889999999, 42.391702959999975], [-7.76686479, 42.39126220999998], [-7.764170669999999, 42.38872748], [-7.763493630000028, 42.389088800000025], [-7.764148780000028, 42.38988081000002], [-7.762885690000019, 42.39004145000001], [-7.762464659999978, 42.390094999999974], [-7.76306851999999, 42.39069108000001], [-7.763227410000013, 42.39086452999999], [-7.763432280000018, 42.391324180000026], [-7.76334780000002, 42.39245311000002], [-7.763503700000001, 42.39306785000002], [-7.7639100700000085, 42.39394225000001], [-7.764099729999998, 42.39468162999998], [-7.764031989999978, 42.395710829999985], [-7.765708829999994, 42.39700047000002], [-7.766130480000015, 42.39759513000001], [-7.7671265100000255, 42.39951635], [-7.767382839999982, 42.399532669999985], [-7.767927439999994, 42.39918584999998], [-7.768725640000014, 42.39881946000003], [-7.769538140000009, 42.39864153000002], [-7.771003339999993, 42.39794118999998], [-7.772034290000022, 42.39760107000001], [-7.7727411899999765, 42.397472540000024], [-7.773637210000004, 42.39743514999998], [-7.7745797800000105, 42.39753086000002], [-7.775896530000011, 42.39775499000001], [-7.779499069999986, 42.398486830000024], [-7.780581869999992, 42.39882871999998], [-7.782119210000019, 42.39955674999999], [-7.782553179999979, 42.40366211000003], [-7.784771630000023, 42.405036859999996], [-7.787157869999987, 42.406539599999974], [-7.788808990000007, 42.40764089999999], [-7.789851769999984, 42.40809242], [-7.7913979200000085, 42.40861287000001], [-7.7923591699999974, 42.408950730000015], [-7.793579070000021, 42.409493829999974], [-7.795548940000003, 42.40935723000001], [-7.796847940000021, 42.40918571999998], [-7.79701725000001, 42.40997090000002], [-7.79705586, 42.41015835000002], [-7.797097220000012, 42.410381700000016], [-7.7984191099999975, 42.411622720000025], [-7.798851679999984, 42.41203672], [-7.798766680000028, 42.412355400000024], [-7.799572420000004, 42.41304186000002], [-7.799859669999989, 42.41346196000001], [-7.8000063999999725, 42.41395097999998], [-7.80001077999998, 42.414644039999985], [-7.8010832499999765, 42.41548134999999], [-7.801425590000008, 42.41582711000001], [-7.80162396999998, 42.41619691], [-7.801545400000009, 42.41675841], [-7.801496069999985, 42.4170666], [-7.803920409999989, 42.420485059999976], [-7.804711569999995, 42.420343790000004], [-7.805260750000002, 42.42037472999999], [-7.805653399999983, 42.420583309999984], [-7.805952590000004, 42.42084083999998], [-7.806442810000021, 42.42232378], [-7.807451420000007, 42.42264152000001], [-7.810545960000013, 42.42401493], [-7.8125724999999875, 42.42492902999999], [-7.81415020999998, 42.42585298], [-7.8146085899999775, 42.426283850000004], [-7.8147396400000275, 42.42656642999998], [-7.814405720000025, 42.42965959000003], [-7.814765710000017, 42.43039170999998], [-7.815244399999983, 42.432037149999985], [-7.815596149999976, 42.43266156999999], [-7.81635829999999, 42.433565810000005], [-7.8174719699999855, 42.43493239999998], [-7.818260989999999, 42.435394340000016], [-7.819828990000019, 42.43856041999999], [-7.820349550000003, 42.439798929999995], [-7.821093640000015, 42.44030774999999], [-7.822307290000026, 42.44028358999998], [-7.823438500000009, 42.44045196000002], [-7.825652999999988, 42.44000741000002], [-7.827495639999995, 42.43978557999998], [-7.829169659999991, 42.43974191000001], [-7.8296677800000225, 42.43973887999999], [-7.832999180000002, 42.43975118999998], [-7.834469669999976, 42.43959000000001], [-7.837009749999993, 42.43942857000002], [-7.837903180000012, 42.43919269999998], [-7.838759910000022, 42.43879633], [-7.840999839999995, 42.43962885000002], [-7.842186799999979, 42.43973165], [-7.843017250000003, 42.44025468000001], [-7.845196629999975, 42.44014435999998], [-7.845173970000019, 42.44236910000001], [-7.845716859999982, 42.443417469999986], [-7.844677320000017, 42.443650590000004], [-7.846213780000028, 42.44497196999998], [-7.8474094499999865, 42.44471421999998], [-7.848594059999982, 42.444627990000015], [-7.849655100000007, 42.44467301999998], [-7.850825509999993, 42.444560360000025], [-7.851331990000006, 42.44466491999998], [-7.854389649999973, 42.444120999999996], [-7.857365000000016, 42.44408468], [-7.857262600000013, 42.44433212000001], [-7.858272680000027, 42.445288559999995], [-7.861130020000019, 42.44623849999999], [-7.861571480000009, 42.44644481], [-7.861743600000011, 42.44662656000003], [-7.861859530000004, 42.447494930000005], [-7.861866580000026, 42.44978142999997], [-7.861638379999988, 42.45060142], [-7.861207449999995, 42.45382486], [-7.8611298499999975, 42.45564680000001], [-7.8612119300000245, 42.45858734000001], [-7.861146120000001, 42.45946343999998], [-7.859673090000001, 42.4633614], [-7.859522190000007, 42.46361089999999], [-7.859523990000014, 42.463790889999984], [-7.859524609999994, 42.46458314], [-7.8591341200000215, 42.465977210000005], [-7.859082590000014, 42.46719482999998], [-7.859513069999991, 42.47023760000002], [-7.858221300000025, 42.470202470000004], [-7.858109759999991, 42.47221490999999], [-7.856888079999976, 42.47386936999999], [-7.854386369999986, 42.475956310000015], [-7.850799919999986, 42.479115579999984], [-7.8492193499999985, 42.48038005000001], [-7.847665360000008, 42.48151732000002], [-7.844452799999999, 42.48527275999999], [-7.843804789999979, 42.48617352000002], [-7.843795440000008, 42.48620992999997], [-7.8427855699999895, 42.488566520000006], [-7.842084609999972, 42.49051388999999], [-7.842045159999998, 42.49094771], [-7.842346420000013, 42.49313172000001], [-7.842847870000014, 42.496765770000025], [-7.845124769999984, 42.49836189000001], [-7.847851859999992, 42.49822827999998], [-7.850937180000017, 42.499420869999994], [-7.852762620000021, 42.50005464999998], [-7.8531251300000235, 42.500336360000006], [-7.854381939999996, 42.50069715000001], [-7.854886109999995, 42.50076576999999], [-7.85747963, 42.50188902999997], [-7.861497129999975, 42.504113089999976], [-7.8661167000000205, 42.504060589999995], [-7.866933679999988, 42.50392677999997], [-7.86844941999999, 42.503547130000015], [-7.870224699999994, 42.50321943], [-7.871670429999995, 42.50287873000002], [-7.874977440000009, 42.50190946999999], [-7.877892239999994, 42.50262242000002], [-7.87837356, 42.50317808], [-7.879001329999994, 42.504519759999994], [-7.879556349999973, 42.50633270999998], [-7.877867999999978, 42.50762018], [-7.8757013900000175, 42.50995438000001], [-7.875413729999991, 42.51094798999998], [-7.878362560000028, 42.51162346000001], [-7.878995120000013, 42.511308369999995], [-7.880012980000004, 42.51140896999999], [-7.880446339999992, 42.51119240000003], [-7.8848200099999985, 42.510789509999995], [-7.886918690000016, 42.510861869999985], [-7.887769559999981, 42.51100554999999], [-7.888682679999988, 42.51101152000001], [-7.889698160000023, 42.510770019999995], [-7.890274219999981, 42.51051130000002], [-7.890948900000012, 42.51011331000001], [-7.891983610000011, 42.509339780000005], [-7.892439760000002, 42.509104190000016], [-7.8941732299999785, 42.50855281999998], [-7.894914910000011, 42.507611750000024], [-7.896817730000009, 42.50564861999999], [-7.898075189999986, 42.50632399], [-7.8988235699999905, 42.506246910000016], [-7.899542209999993, 42.50656722999997], [-7.900072439999974, 42.50696764999998], [-7.905251640000017, 42.50660147000002], [-7.905302979999988, 42.507256489999975], [-7.907202400000017, 42.50742706], [-7.9096554500000025, 42.50751979], [-7.911929509999993, 42.50827737999998], [-7.912523589999978, 42.508404910000024], [-7.913179169999978, 42.508385729999986], [-7.913165330000027, 42.508674429999985], [-7.910725329999991, 42.51247052999997], [-7.906928020000009, 42.513704959999984], [-7.905565780000018, 42.51402452000002], [-7.902685140000017, 42.51453523999999], [-7.901601330000005, 42.52136101999997], [-7.90940157, 42.52243075000001], [-7.910362360000022, 42.52273158999998], [-7.912884669999983, 42.52338845999998], [-7.924005550000004, 42.52504363999998], [-7.916864390000001, 42.52679153999998], [-7.914688590000026, 42.526984149999976], [-7.911988880000024, 42.527325280000014], [-7.911563430000001, 42.52748760999998], [-7.91119285000002, 42.52772861], [-7.907476770000017, 42.53094026000002], [-7.904912700000011, 42.53037509000001], [-7.9027585000000045, 42.528981999999985], [-7.900237189999984, 42.53160197], [-7.902087979999976, 42.535024799999974], [-7.901016070000026, 42.536259169999994], [-7.900332579999997, 42.53670262000003], [-7.897994200000028, 42.53762212999999], [-7.897485630000006, 42.53796803], [-7.8966204199999765, 42.53873435000003], [-7.896081439999989, 42.53884747000001], [-7.895395259999987, 42.539101930000015], [-7.894132469999988, 42.539300060000016], [-7.892155070000001, 42.53907860999999], [-7.890617710000015, 42.538568199999986], [-7.889903930000003, 42.538625749999994], [-7.889344680000022, 42.538946769999995], [-7.888732709999999, 42.53812665999999], [-7.888519089999988, 42.54146694000002], [-7.890042160000007, 42.55019778000002], [-7.8927697600000215, 42.551287460000026], [-7.894370120000019, 42.551353989999996], [-7.900832460000004, 42.55394904000002], [-7.905735970000023, 42.554674990000024], [-7.911557000000016, 42.55607254], [-7.912031300000024, 42.55652930999997], [-7.912456210000016, 42.55713226], [-7.914050089999989, 42.558198119999986], [-7.917430330000002, 42.561689950000016], [-7.918444120000004, 42.563428929999986], [-7.920184329999984, 42.56665813000001], [-7.921248250000019, 42.568412920000014], [-7.925141129999986, 42.572368600000004], [-7.926122599999985, 42.576008530000024], [-7.928002610000021, 42.57852935], [-7.930749129999981, 42.578599940000004], [-7.930060560000015, 42.578827709999985], [-7.925188610000021, 42.581000449999976], [-7.920906769999988, 42.58339966], [-7.9192740999999955, 42.58432524], [-7.91273756999999, 42.591673809999975], [-7.913671650000026, 42.596882419999986], [-7.913556879999987, 42.59743653999999], [-7.913230129999988, 42.597774689999994], [-7.912947569999972, 42.59820997999998], [-7.912563789999979, 42.59921681999998], [-7.912356559999978, 42.60091828999998], [-7.911528990000022, 42.60124196999999], [-7.910077629999989, 42.602465730000006], [-7.907454130000019, 42.60412695000002], [-7.907600699999989, 42.60552512999999], [-7.905872279999983, 42.607877110000004], [-7.905121730000019, 42.61042118], [-7.904628279999997, 42.61158575000002], [-7.903580069999975, 42.611585719999994], [-7.903940709999972, 42.61322680000001], [-7.9037735599999905, 42.61389120000001], [-7.90304728000001, 42.614885689999994], [-7.9020881299999814, 42.61508888999998], [-7.90238918, 42.61628237999997], [-7.902433630000019, 42.61684767000003], [-7.9023231200000055, 42.617302559999985], [-7.901616699999977, 42.618395229999976], [-7.901010900000017, 42.618907379999996], [-7.900485349999997, 42.619200009999986], [-7.898961289999988, 42.61966149], [-7.897827319999976, 42.62151970999997], [-7.896484190000024, 42.62506145999998], [-7.896178519999978, 42.625515699999994], [-7.892551700000013, 42.62963238999998], [-7.89227803, 42.633290339999974], [-7.893410930000016, 42.63840056999999], [-7.892097190000015, 42.640149399999984], [-7.892423590000021, 42.641665939999996], [-7.892147589999979, 42.64234398000002], [-7.891651400000001, 42.64301345000001], [-7.8918345999999815, 42.64410397], [-7.891774030000022, 42.64581714000002], [-7.88954966, 42.65150324000001], [-7.888896760000023, 42.652197409999985], [-7.889706400000023, 42.656295150000005], [-7.888004579999972, 42.65932097000001], [-7.887517179999975, 42.66088134], [-7.887573379999992, 42.66113102000003], [-7.888128380000012, 42.66167446999998], [-7.888310030000014, 42.66227889999999], [-7.888178390000007, 42.66293274999998], [-7.888747509999973, 42.66365565000001], [-7.888709440000014, 42.66441354], [-7.888953300000026, 42.665654519999975], [-7.889575680000007, 42.66674426999998], [-7.890461239999979, 42.667831750000005], [-7.8909126400000105, 42.66838861999997], [-7.891351450000002, 42.66931514999999], [-7.892101850000017, 42.67048043], [-7.891972399999986, 42.67178240999999], [-7.892102659999978, 42.67235302], [-7.892605460000027, 42.67766129], [-7.891513760000009, 42.67976073], [-7.889896169999986, 42.67998302000001], [-7.889713180000001, 42.683709109999995], [-7.88723920000001, 42.685768619999976], [-7.887420580000025, 42.68605796000003], [-7.887313590000019, 42.686404659999994], [-7.8865480599999955, 42.68644640000002], [-7.882831230000022, 42.68728955], [-7.878432569999973, 42.68862085000001], [-7.874760410000022, 42.689569860000006], [-7.874644900000021, 42.68980886999998], [-7.874288690000014, 42.691336579999984], [-7.876433700000007, 42.692388429999994], [-7.876839829999994, 42.693676530000005], [-7.876882260000002, 42.694061850000026], [-7.876611930000024, 42.69450554000002], [-7.876628530000005, 42.69549516000001], [-7.876006329999996, 42.69689918], [-7.873822729999972, 42.69940516999998], [-7.873082759999988, 42.69946375000001], [-7.871957930000008, 42.69943970000003], [-7.871629680000012, 42.69930063999999], [-7.870628290000013, 42.69851505999998], [-7.869949580000025, 42.69826490000003], [-7.869306460000018, 42.698157270000024], [-7.86853210999999, 42.69824428999999], [-7.8678906499999925, 42.698469690000024], [-7.867347660000007, 42.69839379000001], [-7.866683500000022, 42.69848510000003], [-7.866121819999989, 42.69895018], [-7.865536980000002, 42.69958729000001], [-7.863816349999979, 42.70318075], [-7.861428009999997, 42.7061994], [-7.861528850000013, 42.70670827999999], [-7.863429520000011, 42.70962539999999], [-7.864728920000005, 42.71078548000003], [-7.866710580000017, 42.71332997000002], [-7.866870909999989, 42.71381831000002], [-7.866950420000023, 42.715768579999974], [-7.866871479999986, 42.71741050000003], [-7.866726719999974, 42.71852403999998], [-7.866392440000027, 42.72002378000002], [-7.866391560000011, 42.72063601999997], [-7.863210270000025, 42.723202319999984], [-7.862515159999987, 42.72274573999999], [-7.862322059999997, 42.72215075999998], [-7.860506880000003, 42.72157978000001], [-7.859029669999984, 42.72095839000002], [-7.854361890000007, 42.71872601000001], [-7.850634169999978, 42.716957690000015], [-7.834750320000012, 42.71806312000001], [-7.833801979999976, 42.718742469999995], [-7.829373250000003, 42.72192777999999], [-7.825752389999991, 42.72404346000002], [-7.823729459999981, 42.72330961], [-7.81303029999998, 42.71949338000002], [-7.81315029000001, 42.71836294000002], [-7.805906370000002, 42.72068458000001], [-7.803111790000003, 42.72386315], [-7.8010808000000225, 42.72618127999999], [-7.800198070000022, 42.733087739999974], [-7.800195089999988, 42.73399718000002], [-7.800798489999977, 42.74306495000002], [-7.792967809999993, 42.74890363999998], [-7.791408530000012, 42.75006741999999], [-7.790518729999974, 42.75072595], [-7.802944790000026, 42.75722662999999], [-7.803518499999996, 42.75753562], [-7.803182709999987, 42.75777482000001], [-7.794074319999993, 42.76433352999999], [-7.794603769999981, 42.76770547000001], [-7.793387849999988, 42.767783510000015], [-7.788610100000028, 42.768100919999995], [-7.78040999000001, 42.76634662999999], [-7.768912969999974, 42.76795253], [-7.763285999999994, 42.78203407000001], [-7.762382779999996, 42.78427749000002], [-7.76152337000002, 42.80188738999999], [-7.7656401099999925, 42.808675110000024], [-7.759811010000021, 42.80776574999999], [-7.761168789999999, 42.818269810000004], [-7.761757960000011, 42.822908849999976], [-7.760509850000005, 42.82401424], [-7.757006799999999, 42.82713118999999], [-7.760763929999996, 42.831134099999986], [-7.760607740000012, 42.83180684000001], [-7.7605226200000175, 42.831972440000015], [-7.7597767799999815, 42.83340800000002], [-7.759745029999976, 42.83347235000002], [-7.758150399999977, 42.83930077000002], [-7.755639770000016, 42.84244837], [-7.75517413, 42.845780890000015], [-7.748535819999972, 42.84425642999997], [-7.741824489999999, 42.85135057999997], [-7.738937009999972, 42.85199260000002], [-7.729177789999994, 42.853342399999974], [-7.71700715999998, 42.85693371000002], [-7.717397220000009, 42.86429115999999], [-7.715347759999986, 42.86373656000001], [-7.713128799999993, 42.8640082], [-7.710547220000024, 42.864339770000015], [-7.699060739999993, 42.868279099999995], [-7.6935033799999815, 42.87117251000001], [-7.693329829999982, 42.871143630000006], [-7.69188582999999, 42.870986879999975], [-7.691142930000012, 42.87119745000001], [-7.690674479999984, 42.87115367000001], [-7.689937470000018, 42.870796799999994], [-7.689589800000022, 42.87492550000002], [-7.687695469999994, 42.87448108000001], [-7.685677090000013, 42.87401470999998], [-7.6856244300000185, 42.874773129999994], [-7.685495689999982, 42.87501249000002], [-7.685120170000005, 42.87522596000002], [-7.684573750000027, 42.87528438999999]]]}}]}