{"type": "FeatureCollection", "features": [{"type": "Feature", "properties": {"OBJECTID": 1759, "ZON_CO_ID": 53, "ZON_DS_NOM": "Rueda", "CAL_DS_NOM": "D.O.Rueda", "TPR_DS_DES": "Denominación de Origen", "TPR_DS_GRU": "CALIDAD DIFERENCIADA", "FAM_DS_NOM": "Vinos"}, "geometry": {"type": "Polygon", "coordinates": [[[-4.919317299999989, 41.56136213000002], [-4.916673319999973, 41.556299360000025], [-4.915964680000002, 41.554635899999994], [-4.914014029999976, 41.55151595000001], [-4.913940519999983, 41.55146313], [-4.913415260000022, 41.55235454000001], [-4.913142149999999, 41.55366507999997], [-4.91304722000001, 41.554918610000016], [-4.910534410000025, 41.556320389999996], [-4.908290420000014, 41.55667285999999], [-4.900437039999986, 41.55302002000002], [-4.8990649799999915, 41.552844540000024], [-4.893326000000002, 41.552587889999984], [-4.889441350000027, 41.55259774000001], [-4.885677820000012, 41.55017361], [-4.885020150000003, 41.54940979999998], [-4.8833205700000235, 41.54744713000002], [-4.878240189999985, 41.54962881], [-4.875542110000026, 41.550861750000024], [-4.870258939999985, 41.55351474999998], [-4.868610530000012, 41.55498263999999], [-4.867356990000019, 41.553507869999976], [-4.867067609999992, 41.55303520000001], [-4.866439609999986, 41.55204563000001], [-4.866310660000011, 41.55048052000001], [-4.865471220000018, 41.55047612999999], [-4.864708959999973, 41.551488259999985], [-4.862459769999987, 41.55424388], [-4.862018669999998, 41.553965500000004], [-4.85939559000002, 41.55226780999999], [-4.858488439999974, 41.55157453999999], [-4.857117280000011, 41.550671679999994], [-4.855742109999994, 41.54996252000001], [-4.854707650000023, 41.54951084999999], [-4.852523029999986, 41.54871112000001], [-4.851218459999984, 41.547783700000025], [-4.8500055800000155, 41.547169139999994], [-4.848588170000028, 41.546234500000025], [-4.8466576100000225, 41.544960419999995], [-4.845207490000007, 41.54379929999999], [-4.843221669999991, 41.542516139999975], [-4.842281819999982, 41.541926839999974], [-4.8413631500000065, 41.54140745000001], [-4.839894500000014, 41.54060141999997], [-4.839104469999995, 41.54000880000001], [-4.838068099999987, 41.539437220000025], [-4.836853510000026, 41.538709960000006], [-4.835481420000008, 41.537498819999996], [-4.834286850000012, 41.53645956999998], [-4.833625620000021, 41.53571262999998], [-4.832576940000024, 41.534743090000006], [-4.8322257799999875, 41.53415063], [-4.8314128100000175, 41.533461939999995], [-4.8313360399999965, 41.53329022999998], [-4.831285809999997, 41.53316674000001], [-4.831263030000002, 41.533081530000004], [-4.831339930000013, 41.53296052000002], [-4.831364300000018, 41.53271963999998], [-4.831414240000015, 41.53189742000001], [-4.831421840000019, 41.53186936999998], [-4.831963459999997, 41.53092852999998], [-4.8320913800000085, 41.53070401999997], [-4.832408729999997, 41.530141430000015], [-4.832571389999998, 41.529916370000024], [-4.832770989999972, 41.52930162000001], [-4.832796449999989, 41.52914178999998], [-4.832871179999984, 41.528647019999994], [-4.832858199999976, 41.52818696999998], [-4.832314230000009, 41.52819383999997], [-4.831997779999995, 41.52823581000001], [-4.831633669999974, 41.52824521000002], [-4.83128929999998, 41.52823178], [-4.830976000000021, 41.52817282000001], [-4.830695919999982, 41.52810162999998], [-4.83031526000002, 41.527991499999985], [-4.830019199999981, 41.527863809999985], [-4.8298158700000045, 41.527794089999986], [-4.829607199999998, 41.52770463000002], [-4.829420340000013, 41.527751739999985], [-4.8292721400000005, 41.52776670999998], [-4.829088669999976, 41.52772098999998], [-4.828818730000023, 41.52766944000001], [-4.828526640000007, 41.52763986000002], [-4.828238220000003, 41.52765525000001], [-4.828042449999998, 41.52764124999999], [-4.827932190000013, 41.52759887000002], [-4.827770110000017, 41.527504169999986], [-4.8275758600000245, 41.52741629000002], [-4.827352099999985, 41.52734419000001], [-4.82709921999998, 41.52730227000001], [-4.826779600000009, 41.52727401999999], [-4.826440789999992, 41.52724518000002], [-4.826211510000007, 41.52719028000001], [-4.82606149999998, 41.527183649999984], [-4.825788950000003, 41.52725192999998], [-4.825597739999978, 41.52727207999999], [-4.825310030000026, 41.52727033999997], [-4.824872540000001, 41.527270079999994], [-4.824501409999982, 41.52724264], [-4.824195229999987, 41.52722318000002], [-4.823997089999978, 41.52721011], [-4.823912600000028, 41.527274499999976], [-4.823847059999991, 41.527288150000004], [-4.82376026999998, 41.527270610000016], [-4.823655850000023, 41.527222730000005], [-4.82354042999998, 41.52712458000002], [-4.823411959999987, 41.52703115000003], [-4.823201170000004, 41.526951629999985], [-4.822936470000002, 41.52687295999999], [-4.822693029999982, 41.526825480000014], [-4.822383849999994, 41.52678443999997], [-4.8221123600000055, 41.52676262], [-4.82190485000001, 41.526714570000024], [-4.821697939999979, 41.52664490000001], [-4.8215357799999765, 41.52654659000001], [-4.821312180000007, 41.526351980000015], [-4.821065050000016, 41.52617305000001], [-4.820795739999994, 41.526057519999995], [-4.820448699999986, 41.525948630000016], [-4.8201245999999855, 41.525845670000024], [-4.819807350000019, 41.52577323999998], [-4.819521699999996, 41.525716509999995], [-4.819198579999977, 41.525690999999995], [-4.818948799999987, 41.525630999999976], [-4.818635340000014, 41.525565700000016], [-4.8183961299999964, 41.52562623], [-4.8182184600000255, 41.52565876], [-4.817950380000013, 41.525672910000026], [-4.817746629999988, 41.525630190000015], [-4.817536410000002, 41.52557046999999], [-4.817209699999978, 41.52558823999999], [-4.816894139999988, 41.52557611999998], [-4.816719990000024, 41.52552032], [-4.816551039999979, 41.52539329000001], [-4.816376890000015, 41.52533749999998], [-4.816135889999998, 41.52524853], [-4.815841649999982, 41.52514149000001], [-4.815539720000004, 41.52501655999998], [-4.81525283000002, 41.52495804], [-4.814927179999984, 41.52488482000001], [-4.814569660000018, 41.52470041999999], [-4.814160270000002, 41.52450421999998], [-4.813880499999982, 41.52444287999998], [-4.813477330000012, 41.52446906], [-4.813404359999993, 41.52447417000002], [-4.81266727000002, 41.524732219999976], [-4.811412809999979, 41.524445749999984], [-4.809122609999974, 41.52440975000002], [-4.808432229999994, 41.524150399999996], [-4.807611619999989, 41.524379469999985], [-4.8067779900000005, 41.524140380000006], [-4.805732439999986, 41.52360737999999], [-4.805272699999989, 41.523452469999995], [-4.803420039999992, 41.523202319999996], [-4.802482359999999, 41.52266759999998], [-4.802152169999999, 41.522861920000025], [-4.800165509999999, 41.52296510000002], [-4.799311950000003, 41.52287037000002], [-4.798501330000022, 41.52259483], [-4.796873870000013, 41.52181865], [-4.7960403100000235, 41.521579480000014], [-4.795381469999995, 41.52115743000002], [-4.794348090000028, 41.52019180000002], [-4.793963309999981, 41.51971142999997], [-4.792790369999977, 41.51759507000003], [-4.791290660000016, 41.51666369999998], [-4.79053682, 41.51627012], [-4.789269300000001, 41.51506490000003], [-4.789042289999998, 41.51465410999998], [-4.787096640000016, 41.5131892], [-4.786112660000015, 41.512267759999986], [-4.785421260000021, 41.511963260000016], [-4.784494719999998, 41.51007715999998], [-4.782004190000009, 41.50664807999999], [-4.7816241599999785, 41.50589738000002], [-4.781031270000028, 41.505249049999975], [-4.780787190000012, 41.50464935999997], [-4.780160500000022, 41.50364127], [-4.779098999999974, 41.50250478999999], [-4.778935180000019, 41.50221010000001], [-4.779102009999974, 41.50173914999999], [-4.779029719999983, 41.50084857000002], [-4.778448879999985, 41.50020003999998], [-4.777697279999984, 41.4998784], [-4.777103739999973, 41.49920304], [-4.776292940000019, 41.49846797999999], [-4.775619959999972, 41.497514620000004], [-4.7736501399999725, 41.49557248000002], [-4.771497590000024, 41.495713739999985], [-4.770566910000014, 41.494971480000004], [-4.7692396300000155, 41.49462261000002], [-4.769010639999976, 41.49457209000002], [-4.767124720000027, 41.49394357], [-4.764772800000003, 41.49335819999999], [-4.763787449999995, 41.49368856000001], [-4.761971430000017, 41.494310859999985], [-4.760931819999996, 41.49440784000001], [-4.759222309999984, 41.49498342999999], [-4.759154070000022, 41.492903850000005], [-4.758220010000002, 41.488928009999995], [-4.758064009999998, 41.48758834], [-4.757897749999984, 41.48631188000002], [-4.757977789999984, 41.483068119999984], [-4.75798567999999, 41.48247352999999], [-4.757827519999978, 41.48105283000001], [-4.757495740000024, 41.47896825999999], [-4.75739083000002, 41.47774491000001], [-4.757186199999978, 41.473271520000026], [-4.7567556299999865, 41.47063000999998], [-4.756092459999991, 41.470018649999986], [-4.756011230000013, 41.469227269999976], [-4.755055210000023, 41.46708016000002], [-4.755173039999988, 41.46656496000003], [-4.7549933899999814, 41.46434295], [-4.754218069999979, 41.460454700000014], [-4.753766620000022, 41.45702987999999], [-4.751286030000017, 41.45516716999998], [-4.750692459999982, 41.454464640000026], [-4.749807579999981, 41.45361342000001], [-4.748179069999992, 41.45181874000002], [-4.746964149999997, 41.450711309999974], [-4.746518859999981, 41.45017763999999], [-4.745731410000019, 41.44893760000002], [-4.745138629999985, 41.44915376], [-4.744457350000005, 41.44964147000002], [-4.744093700000008, 41.45036755000001], [-4.7425417800000105, 41.45276895000001], [-4.740709600000002, 41.45454405999999], [-4.739255490000005, 41.456133290000025], [-4.73833891999999, 41.45767834999998], [-4.737835819999987, 41.458118290000016], [-4.734898450000003, 41.460216230000015], [-4.732789369999978, 41.46195036], [-4.731959930000016, 41.462728449999986], [-4.731123529999991, 41.46279507999998], [-4.7303620499999965, 41.462527309999984], [-4.730195200000026, 41.46255683999999], [-4.728897500000016, 41.46283755000002], [-4.724189019999983, 41.46092663000002], [-4.720283110000025, 41.45947189999998], [-4.717472149999992, 41.45957693999998], [-4.716715410000006, 41.45993951000003], [-4.716296030000024, 41.45992775000002], [-4.715229739999984, 41.45944825999999], [-4.711826980000012, 41.458904459999985], [-4.7108091800000125, 41.458901579999974], [-4.709499400000027, 41.45872288999999], [-4.708714359999988, 41.45846433000003], [-4.707133569999996, 41.45845177000001], [-4.705746340000019, 41.45805801], [-4.704816100000016, 41.458197900000016], [-4.703655630000014, 41.45823309999997], [-4.701534379999998, 41.45815640000001], [-4.7004698200000234, 41.45682105999998], [-4.699319880000019, 41.455423929999995], [-4.69803834999999, 41.454488089999984], [-4.696834539999998, 41.45331691000001], [-4.695103539999991, 41.45074835999998], [-4.694269630000008, 41.44998602999999], [-4.693503560000011, 41.449069570000006], [-4.691926350000017, 41.448264110000025], [-4.689436440000009, 41.44734592999998], [-4.687639660000002, 41.446840880000025], [-4.686557769999979, 41.446667590000004], [-4.68514596, 41.44669728000002], [-4.6801329099999975, 41.44773434000001], [-4.678144869999983, 41.44909639999997], [-4.677568459999975, 41.449492109999994], [-4.676339030000008, 41.45056385999999], [-4.673590059999981, 41.452603450000026], [-4.671326420000014, 41.453501029999984], [-4.668645920000017, 41.45448567], [-4.667028640000012, 41.454914429999974], [-4.666351070000019, 41.45510438000002], [-4.664552630000003, 41.45594104999998], [-4.663785510000025, 41.45590709999999], [-4.663918319999993, 41.45501347999999], [-4.662403659999995, 41.45477416], [-4.662083759999973, 41.454436509999994], [-4.661046240000019, 41.45412722999998], [-4.660363599999982, 41.45411906999999], [-4.660220019999997, 41.45365277000002], [-4.6598798699999975, 41.453459520000024], [-4.659035500000016, 41.45274211999998], [-4.658407899999986, 41.45254399999999], [-4.657294680000007, 41.452551029999995], [-4.656677909999985, 41.452307710000014], [-4.65616215, 41.45227009000001], [-4.655861420000008, 41.45174300000002], [-4.654744839999978, 41.45114658], [-4.653683469999976, 41.450837579999984], [-4.653406930000017, 41.450319139999976], [-4.648815780000007, 41.44204444000002], [-4.647625059999996, 41.439926809999974], [-4.636437479999984, 41.43437596000001], [-4.634102810000002, 41.43434609000002], [-4.6333695899999725, 41.43374401], [-4.6327294000000165, 41.43255515999999], [-4.632799610000006, 41.43201374], [-4.633473449999997, 41.431202540000015], [-4.6337806700000215, 41.430567689999975], [-4.6358355200000005, 41.4304214], [-4.635652639999989, 41.42933413999998], [-4.635413799999981, 41.42840080000002], [-4.634936610000011, 41.42798425000001], [-4.634827350000023, 41.427445379999995], [-4.634989179999991, 41.42674052000001], [-4.634890989999974, 41.42616547], [-4.634433670000021, 41.42510913000001], [-4.632438830000012, 41.42429978000001], [-4.631643199999985, 41.424067879999996], [-4.63085301000001, 41.42357468], [-4.630455989999973, 41.42349023999998], [-4.628842399999996, 41.42356712999998], [-4.624061439999991, 41.422833060000016], [-4.62290680000001, 41.42259715], [-4.621119290000024, 41.42241517999997], [-4.620554609999999, 41.422324049999986], [-4.620497360000002, 41.42194655999998], [-4.620068619999984, 41.42154728000003], [-4.617574939999997, 41.42135717999997], [-4.6161685700000135, 41.42158409000001], [-4.614517369999987, 41.42158926000002], [-4.613170200000013, 41.420824530000004], [-4.611322280000024, 41.42061623000001], [-4.61039433000002, 41.420349999999985], [-4.609471489999976, 41.420290850000015], [-4.607676140000024, 41.42075728999998], [-4.607052339999996, 41.41681190000003], [-4.606982319999986, 41.41639855], [-4.607099049999988, 41.41627983000001], [-4.612207269999999, 41.410921229999985], [-4.614294389999998, 41.40872127], [-4.615529589999994, 41.408839039999975], [-4.616388529999995, 41.40680938999998], [-4.616412609999998, 41.405367909999995], [-4.6161248700000215, 41.40389478999998], [-4.616454499999975, 41.40319662000002], [-4.616659260000006, 41.40277041000002], [-4.616796869999973, 41.402047900000014], [-4.616838449999989, 41.401795119999974], [-4.616790519999995, 41.40130941000001], [-4.617279699999983, 41.401257499999986], [-4.61761408000001, 41.40123478999999], [-4.617945910000003, 41.400626639999984], [-4.6189262699999745, 41.39964008999999], [-4.620387590000007, 41.39875483999998], [-4.620979890000001, 41.398521319999986], [-4.6211097400000085, 41.397970050000026], [-4.620075680000014, 41.39823682000002], [-4.618988409999986, 41.398288149999985], [-4.618330179999987, 41.39779300999999], [-4.616868819999979, 41.39626433000001], [-4.617086190000009, 41.39586495999998], [-4.615833689999988, 41.395522270000015], [-4.615461729999993, 41.39450969000001], [-4.614228290000028, 41.39396856000002], [-4.610659240000018, 41.393298010000024], [-4.6102787400000125, 41.389997730000005], [-4.6099603100000195, 41.386786649999976], [-4.610138730000017, 41.38626175000002], [-4.611160849999976, 41.38503148000001], [-4.612006310000027, 41.38439814999998], [-4.612376659999995, 41.383897579999996], [-4.612702809999973, 41.382091590000016], [-4.612755250000021, 41.381793619999996], [-4.613988769999992, 41.38138000999999], [-4.61476110000001, 41.38069365000001], [-4.615923160000023, 41.37932626999998], [-4.616118809999989, 41.37756714], [-4.615874770000005, 41.375435890000006], [-4.61779451000001, 41.373283249999986], [-4.619125759999974, 41.37103076], [-4.620205989999988, 41.37119569999999], [-4.623196469999982, 41.36787497], [-4.621767439999985, 41.36666115000003], [-4.624904959999981, 41.363014050000004], [-4.620800340000017, 41.35803697], [-4.62069262, 41.3551382], [-4.619827659999999, 41.354483860000016], [-4.618642840000007, 41.34815051999999], [-4.618097900000009, 41.34448328000002], [-4.614959950000014, 41.33841152999997], [-4.613693039999987, 41.33501560000002], [-4.613417920000018, 41.33355130000001], [-4.613392250000004, 41.333479599999976], [-4.613111240000023, 41.332744950000006], [-4.612853560000019, 41.33053281000002], [-4.612640010000007, 41.32962608999998], [-4.612375810000003, 41.32860298000003], [-4.609270879999997, 41.325764160000006], [-4.604445779999992, 41.32390400999998], [-4.600949029999981, 41.32114249], [-4.59821359, 41.32165788999998], [-4.598011719999988, 41.32121934999998], [-4.597581810000008, 41.320738930000005], [-4.596849290000023, 41.32058697000002], [-4.597628279999981, 41.31921607999999], [-4.597836079999979, 41.31842956999998], [-4.599769170000002, 41.316376100000014], [-4.600656969999989, 41.31603949999999], [-4.60258699000002, 41.314355320000004], [-4.605149610000012, 41.31313967], [-4.604233220000026, 41.311819379999974], [-4.603261830000008, 41.31020262999999], [-4.601819599999999, 41.30935801999999], [-4.602055399999983, 41.30874225000002], [-4.600964420000025, 41.307604519999984], [-4.601395729999979, 41.306679789999976], [-4.602225750000002, 41.30545226999999], [-4.602432850000014, 41.30415234999998], [-4.601978140000028, 41.30265448], [-4.597721349999972, 41.300020510000024], [-4.595771809999974, 41.298930670000004], [-4.593962209999972, 41.297208350000005], [-4.593393059999983, 41.29639658000002], [-4.593136319999985, 41.29566154999998], [-4.592058619999989, 41.295054960000016], [-4.591408039999976, 41.293838979999975], [-4.590203630000019, 41.29194610000002], [-4.585224670000002, 41.29051057999999], [-4.580535680000025, 41.28821518000001], [-4.5782709700000055, 41.286408789999996], [-4.576526199999989, 41.284865439999976], [-4.575615560000017, 41.283743000000015], [-4.575460220000025, 41.28274533000001], [-4.575488090000022, 41.281420879999985], [-4.57529070999999, 41.27966717999999], [-4.576204270000005, 41.27793429000002], [-4.576624250000009, 41.27702780999999], [-4.576117119999992, 41.27629617000002], [-4.573881949999986, 41.275200840000025], [-4.574875519999978, 41.27381814], [-4.576389810000023, 41.27323897000002], [-4.580994169999997, 41.272076930000026], [-4.582554150000021, 41.27141597999997], [-4.5855125900000075, 41.27033041999999], [-4.587880460000008, 41.27049593999999], [-4.5905166699999995, 41.26892830999998], [-4.593773329999976, 41.26735203999999], [-4.597614739999983, 41.26479476999998], [-4.598673829999996, 41.264167569999984], [-4.599782940000011, 41.26118876999999], [-4.600884510000014, 41.25937200999999], [-4.602006109999991, 41.257888219999984], [-4.604010440000025, 41.25589673000002], [-4.603296880000016, 41.254051170000025], [-4.605472510000027, 41.25223741000002], [-4.607207229999972, 41.25045678999999], [-4.607366979999995, 41.25015732000003], [-4.608199060000004, 41.24856041999999], [-4.608970360000001, 41.24740572000002], [-4.612529409999979, 41.24411330999999], [-4.6151707199999805, 41.24136508999999], [-4.6126584200000025, 41.23965290000001], [-4.611194230000024, 41.23882671000001], [-4.609215819999974, 41.23698086000002], [-4.607778900000028, 41.23580296], [-4.607648129999973, 41.235822799999994], [-4.604837669999995, 41.23312378999998], [-4.59956563999998, 41.23564713000002], [-4.598280810000006, 41.236295480000024], [-4.594520499999987, 41.238194109999995], [-4.593813860000012, 41.23808680000002], [-4.593287019999991, 41.23801302999999], [-4.592129499999999, 41.23801101999999], [-4.590083129999982, 41.23776908000002], [-4.585759730000007, 41.23810793000001], [-4.584476610000024, 41.23784637], [-4.583481520000021, 41.23765288999999], [-4.580366809999987, 41.23714623000001], [-4.576725710000005, 41.23757446000002], [-4.5726997799999936, 41.23638649999998], [-4.568606760000023, 41.23537947], [-4.5684380399999895, 41.235309710000024], [-4.566054950000023, 41.23445041000002], [-4.562895819999994, 41.23406999000002], [-4.560792189999972, 41.233918370000026], [-4.555249720000006, 41.23517333000001], [-4.553534599999978, 41.23580898], [-4.54924410000001, 41.238046569999995], [-4.550780569999972, 41.23944003999998], [-4.55229688999998, 41.241995710000026], [-4.551364250000006, 41.243935850000014], [-4.549957800000016, 41.24350442999997], [-4.5494372800000065, 41.24622264999999], [-4.549422320000019, 41.24811439000001], [-4.550461340000027, 41.25016309], [-4.550992689999987, 41.25395702999998], [-4.550632389999976, 41.25588044], [-4.551211519999981, 41.25715167999999], [-4.553521989999979, 41.25894901999999], [-4.555461130000026, 41.260183859999984], [-4.55762722999998, 41.26092018999998], [-4.559556439999994, 41.261731750000024], [-4.5612573199999815, 41.262978729999986], [-4.562143820000017, 41.26561485000002], [-4.561943269999972, 41.26671646], [-4.561038719999999, 41.267332220000014], [-4.560264010000026, 41.268387570000016], [-4.560285449999981, 41.269288010000025], [-4.559497570000019, 41.269289679999986], [-4.559388650000017, 41.26922810999997], [-4.557133360000023, 41.27027645999999], [-4.557158510000022, 41.27033017000002], [-4.55469961, 41.27135421000003], [-4.551744659999997, 41.27160125], [-4.549200569999982, 41.273572090000016], [-4.546176989999992, 41.275468260000025], [-4.542533890000016, 41.27692228000001], [-4.531010809999998, 41.28044484999998], [-4.5303347899999835, 41.28012957999999], [-4.529324379999991, 41.28032316000002], [-4.527419740000028, 41.28006020999999], [-4.526189859999988, 41.28005851], [-4.520976469999994, 41.28076704], [-4.519462379999993, 41.28086810999997], [-4.518526269999995, 41.2811777], [-4.508498270000018, 41.280751099999975], [-4.505491679999977, 41.27981767], [-4.494578180000019, 41.27824850000002], [-4.494516439999984, 41.27815922000002], [-4.491313419999983, 41.274354630000005], [-4.487713219999989, 41.270392930000014], [-4.483468669999979, 41.27011442999998], [-4.481487959999981, 41.269635530000016], [-4.480756509999992, 41.26843795000002], [-4.47964853000002, 41.26801083999999], [-4.475896009999985, 41.266248529999984], [-4.473907150000002, 41.26540029], [-4.472409270000014, 41.264617799999996], [-4.468322000000001, 41.26228305000001], [-4.4638257199999885, 41.25925977999998], [-4.457232630000021, 41.25639798999998], [-4.453855630000021, 41.254828359999976], [-4.451314500000024, 41.25380654000003], [-4.448292739999999, 41.25155670999999], [-4.4460061799999835, 41.250162269999976], [-4.443780360000005, 41.24881205999998], [-4.445384170000011, 41.24847668000001], [-4.448247330000015, 41.247882249999975], [-4.449445229999981, 41.24754290999999], [-4.451654529999985, 41.24760515999998], [-4.454234240000005, 41.247149260000015], [-4.456525160000012, 41.24658886999998], [-4.458210249999979, 41.24669365], [-4.458818339999993, 41.24666793], [-4.459760700000004, 41.24664698999999], [-4.460473250000007, 41.24595339000001], [-4.463942110000005, 41.24256759000002], [-4.467006009999977, 41.24189806999999], [-4.469149819999984, 41.24117716000001], [-4.470100600000023, 41.24047144999997], [-4.471894120000002, 41.23744005999998], [-4.472827610000024, 41.23490604], [-4.473331210000026, 41.232890940000004], [-4.475845240000012, 41.23220120000002], [-4.477388050000002, 41.22971338000002], [-4.480132490000017, 41.22655255000001], [-4.483329219999973, 41.221773489999975], [-4.482080259999975, 41.21665533999999], [-4.482910319999974, 41.21485216999997], [-4.483119310000006, 41.213543389999984], [-4.4831144300000005, 41.21332727999999], [-4.483103439999979, 41.212841019999985], [-4.483476479999979, 41.212457900000004], [-4.483234190000019, 41.21018213000002], [-4.482674169999996, 41.20756818000001], [-4.482941059999973, 41.20565515999999], [-4.481487959999981, 41.20204386], [-4.481941290000009, 41.200993159999996], [-4.4836329999999975, 41.20038589000001], [-4.48462330000001, 41.19987771000001], [-4.485456750000026, 41.19929048], [-4.4852533600000015, 41.19873464], [-4.48342255, 41.19846100000001], [-4.481683659999987, 41.198033020000025], [-4.480219770000019, 41.19710606000001], [-4.479241259999981, 41.19601971999998], [-4.477315369999985, 41.19575621000001], [-4.473795820000021, 41.195684210000024], [-4.4739627199999745, 41.194087749999994], [-4.473254699999984, 41.19335819999998], [-4.470682539999984, 41.19298574999999], [-4.467954529999986, 41.19364207000001], [-4.466650070000014, 41.19343350999998], [-4.466037519999986, 41.192702699999984], [-4.467269929999986, 41.18968749999999], [-4.467331450000017, 41.188704900000005], [-4.466356640000015, 41.18830298], [-4.464954369999987, 41.18905043000001], [-4.463322489999996, 41.19019711999999], [-4.459756459999994, 41.18962985000002], [-4.458540340000013, 41.18963624000003], [-4.457267679999973, 41.19031890000002], [-4.456236009999998, 41.19111559999999], [-4.455159820000006, 41.18990416999998], [-4.454578309999988, 41.18787581999999], [-4.454479559999982, 41.18772394000001], [-4.453151900000023, 41.18592116999997], [-4.451890509999998, 41.18495525999998], [-4.4494735299999775, 41.184030889999974], [-4.447919599999977, 41.18331181000002], [-4.445146930000021, 41.182472889999985], [-4.4436289000000215, 41.183383660000004], [-4.442508929999974, 41.184505609999974], [-4.441345449999972, 41.1852768], [-4.440202109999973, 41.185336140000004], [-4.436402470000019, 41.18387931000001], [-4.436101339999993, 41.18264902999999], [-4.436006309999982, 41.181028860000026], [-4.436172409999983, 41.179900840000016], [-4.436634509999976, 41.17867905999998], [-4.436941059999981, 41.1774322], [-4.436951500000021, 41.17681956000001], [-4.4340038799999775, 41.17668513000001], [-4.432415460000016, 41.17546184999998], [-4.43071574999999, 41.17460022], [-4.426351319999981, 41.17289785000003], [-4.423982630000012, 41.17141386999998], [-4.421077060000016, 41.16880150999998], [-4.41977073999999, 41.167925860000025], [-4.415779470000018, 41.166912060000016], [-4.415658559999997, 41.16683247999998], [-4.414801990000001, 41.16635659000002], [-4.414496610000015, 41.165459580000004], [-4.413890130000027, 41.16497158999999], [-4.411578500000019, 41.163342520000015], [-4.408766409999998, 41.16282746000002], [-4.40749648000002, 41.161410750000016], [-4.404848990000005, 41.159668529999976], [-4.406146770000021, 41.15793223999998], [-4.4072402599999805, 41.15723430999998], [-4.4087101299999745, 41.15574809999998], [-4.409542199999976, 41.15508937999999], [-4.411579490000008, 41.15394749000001], [-4.414014150000014, 41.152998860000025], [-4.416146609999998, 41.151855720000015], [-4.41714146999999, 41.15101478999998], [-4.419578320000028, 41.14962464000001], [-4.420425809999983, 41.14913679], [-4.4242536799999925, 41.14705380999999], [-4.427593279999996, 41.14499476999998], [-4.428275240000005, 41.14457196000001], [-4.431717289999995, 41.14230435000002], [-4.431281189999993, 41.14197647999998], [-4.432222969999998, 41.14090188], [-4.430297440000004, 41.139475549999986], [-4.429104080000002, 41.138841790000015], [-4.430294790000005, 41.137160600000016], [-4.431137760000013, 41.13702403000002], [-4.43153190999999, 41.135424769999986], [-4.432578390000003, 41.13369129], [-4.431082140000001, 41.126791939999976], [-4.431857530000002, 41.125196949999975], [-4.431485989999999, 41.125093479999975], [-4.4311245999999755, 41.124908800000014], [-4.430857119999985, 41.12465990999999], [-4.429833859999974, 41.12306923], [-4.429078699999991, 41.12230392999999], [-4.428562709999994, 41.12158069999998], [-4.42364366999999, 41.11554331999997], [-4.4227063600000065, 41.11460907999998], [-4.421992750000015, 41.114104440000006], [-4.416710529999989, 41.111061810000024], [-4.412804269999981, 41.108848809999984], [-4.411801570000023, 41.10818551], [-4.4112190800000235, 41.10767919], [-4.410236339999983, 41.10627699999998], [-4.410025630000007, 41.10533376000001], [-4.409270279999987, 41.103424329999996], [-4.408932670000013, 41.098212939999996], [-4.408556449999992, 41.09620878999999], [-4.40784635, 41.09306472999998], [-4.407460990000004, 41.09174528], [-4.406374910000011, 41.08883099000002], [-4.406335549999994, 41.08810183999998], [-4.4041423099999975, 41.08462451999998], [-4.404189770000016, 41.083497969999996], [-4.404274499999985, 41.08132604999997], [-4.404292960000021, 41.08051511999997], [-4.408576859999982, 41.08043583], [-4.412539200000026, 41.078126380000015], [-4.413252039999975, 41.077505110000004], [-4.414055630000007, 41.07667554], [-4.417216970000027, 41.07422260999999], [-4.418610430000001, 41.07315154999998], [-4.420111150000025, 41.07208816999997], [-4.420814660000019, 41.071593070000006], [-4.420934590000002, 41.07052866999999], [-4.421569099999999, 41.06793558999999], [-4.422059869999998, 41.06640721000002], [-4.421563830000025, 41.06492702999998], [-4.420917509999981, 41.06420536000002], [-4.421697830000028, 41.06341206000002], [-4.423792100000014, 41.06339522000002], [-4.431821780000007, 41.064322660000016], [-4.433313370000008, 41.064502300000015], [-4.436815239999987, 41.06517932999998], [-4.439997800000015, 41.06540085], [-4.443981880000024, 41.06472045999999], [-4.447824819999994, 41.064663250000024], [-4.452723909999975, 41.06446649999998], [-4.453157400000009, 41.06469523999999], [-4.45603662000002, 41.06627132], [-4.458166319999975, 41.06731632999998], [-4.461011219999989, 41.068406289999984], [-4.463039630000026, 41.07024517999997], [-4.463855449999983, 41.07107255], [-4.466802070000028, 41.070836910000025], [-4.468047679999984, 41.07064989999998], [-4.470907300000022, 41.07078458000001], [-4.473014260000014, 41.070793690000016], [-4.473810700000001, 41.07074748000002], [-4.476076400000011, 41.070403209999995], [-4.47695994999998, 41.07052700000003], [-4.479091719999985, 41.07111219000001], [-4.479966620000027, 41.07138020000002], [-4.4808927600000175, 41.07180968], [-4.481049270000028, 41.07188874000002], [-4.4819058499999755, 41.07240017999999], [-4.4826519100000155, 41.07275991], [-4.483903489999989, 41.071779960000015], [-4.4845697499999915, 41.072825290000026], [-4.4853480300000115, 41.07249998999998], [-4.486139270000024, 41.07275100999999], [-4.487199540000006, 41.07279138000001], [-4.486123869999972, 41.07048123999999], [-4.485611489999997, 41.06939790000001], [-4.485514210000019, 41.06877761999999], [-4.485626539999998, 41.066893530000016], [-4.485787790000018, 41.06612579], [-4.486483099999987, 41.06581956000002], [-4.488484799999981, 41.06433446], [-4.492886859999999, 41.06163822000002], [-4.4937442099999885, 41.05955531000001], [-4.494732960000022, 41.059074080000016], [-4.495780640000021, 41.05804260000002], [-4.496716520000007, 41.05680539000002], [-4.497229559999994, 41.056339320000006], [-4.4977234899999985, 41.05608067999998], [-4.4983287700000005, 41.056009759999995], [-4.499114959999986, 41.05604457999999], [-4.501581789999989, 41.05672407999998], [-4.506912600000021, 41.04992564999998], [-4.50011139999998, 41.04385301000002], [-4.4994314300000156, 41.04324932999998], [-4.488462659999982, 41.02849250000003], [-4.4891029199999934, 41.023646989999975], [-4.487966149999977, 41.02281492999998], [-4.488602899999989, 41.022041039999976], [-4.487111889999994, 41.02132164], [-4.488404749999972, 41.02010689999997], [-4.488514940000016, 41.01971814000001], [-4.485106490000021, 41.018879330000004], [-4.487555260000022, 41.01776681000001], [-4.488913980000007, 41.01683946999998], [-4.491250320000006, 41.01549412000003], [-4.492618890000017, 41.015007990000015], [-4.494528960000025, 41.01480307999998], [-4.495308340000008, 41.01455877000001], [-4.498902219999991, 41.013088849999974], [-4.5016749999999774, 41.012124949999986], [-4.503600129999995, 41.011541360000024], [-4.5043529999999805, 41.01118022999998], [-4.508485469999982, 41.00779331000001], [-4.509469249999995, 41.007131860000015], [-4.511552440000003, 41.00723067000001], [-4.513387150000028, 41.008422670000016], [-4.515234360000022, 41.00911903000002], [-4.516882609999982, 41.00995310000002], [-4.517357600000025, 41.010442290000015], [-4.518442610000022, 41.01108556999998], [-4.519124789999978, 41.01127475999999], [-4.520222639999986, 41.01144044], [-4.520971599999996, 41.01143056000001], [-4.522790429999986, 41.011919990000024], [-4.523442970000019, 41.01237077000002], [-4.5263369599999805, 41.013584579999986], [-4.527294069999982, 41.013833120000015], [-4.529094900000018, 41.01353900999999], [-4.532181550000018, 41.012795410000024], [-4.534666449999975, 41.01328480000001], [-4.5355451600000265, 41.01322806000002], [-4.5362411699999825, 41.013498029999994], [-4.538400630000012, 41.01482040000002], [-4.540681720000009, 41.015744770000026], [-4.545646959999999, 41.01702045000002], [-4.546194389999982, 41.017544569999984], [-4.5476794300000165, 41.01900193], [-4.548879549999981, 41.01946321999998], [-4.550218289999975, 41.02025593000002], [-4.551236940000024, 41.02058452], [-4.5524129600000265, 41.02052364999997], [-4.553672679999977, 41.019975209999984], [-4.555196720000026, 41.022575930000016], [-4.557197770000016, 41.02522424], [-4.558197459999974, 41.02272455999997], [-4.560521069999993, 41.01988268000002], [-4.561949009999978, 41.01789962999999], [-4.562760400000002, 41.01700585999998], [-4.565930180000009, 41.0157648], [-4.5690228199999865, 41.01328160999998], [-4.577246580000008, 41.00855734999999], [-4.580724859999975, 41.008311530000014], [-4.583065369999986, 41.00822535999998], [-4.586996629999987, 41.00753173999999], [-4.598291800000027, 41.00599747000001], [-4.603734970000005, 41.00539039], [-4.6089053100000115, 41.00481389999999], [-4.610247399999992, 41.00475011999998], [-4.611740320000024, 41.00404465999998], [-4.613466510000023, 41.003642179999986], [-4.614345909999997, 41.00313444], [-4.617247910000003, 41.00365224000001], [-4.620422080000026, 41.005571359999976], [-4.621139490000019, 41.006218839999974], [-4.623594400000002, 41.00692292000002], [-4.622786729999973, 41.00938442], [-4.627231909999978, 41.01654597999999], [-4.630259519999981, 41.019718969999985], [-4.638151760000028, 41.02864185999999], [-4.639530920000027, 41.03005447999999], [-4.638912590000018, 41.03006327999998], [-4.638289149999991, 41.03130620000002], [-4.641522000000009, 41.031197150000025], [-4.6450814899999955, 41.03130854], [-4.645990820000009, 41.03152075000003], [-4.648532859999989, 41.03233114], [-4.651188509999997, 41.033401079999976], [-4.652779810000027, 41.03424301000001], [-4.653844349999986, 41.03542577000002], [-4.6559427000000255, 41.037035049999986], [-4.659667169999977, 41.04038638999998], [-4.6595874999999864, 41.041477480000026], [-4.6597421600000075, 41.04289847000001], [-4.659687990000009, 41.04358382999999], [-4.659467310000025, 41.0442716], [-4.659673220000002, 41.044890169999974], [-4.654047049999974, 41.04637625999999], [-4.653795080000009, 41.04676719999998], [-4.653520210000011, 41.04719451], [-4.65300824000002, 41.048607059999995], [-4.6513062700000205, 41.04906383000002], [-4.650674770000023, 41.04950524999998], [-4.6502739900000165, 41.05013251999998], [-4.650343360000022, 41.05052785999999], [-4.650540480000018, 41.051750089999985], [-4.650684249999983, 41.0536937], [-4.650892829999975, 41.05489774], [-4.650088929999981, 41.05558482999999], [-4.650503560000004, 41.05693905999999], [-4.649138719999996, 41.05756212], [-4.650042190000022, 41.05847698000002], [-4.650240530000019, 41.06069904999998], [-4.650276469999994, 41.06118494999998], [-4.654187060000027, 41.06289439], [-4.656492930000013, 41.063725999999974], [-4.655975560000002, 41.06539987000002], [-4.657682379999983, 41.06606892000002], [-4.658598569999981, 41.06653313999999], [-4.660532980000028, 41.06678452], [-4.660912339999982, 41.06672501000003], [-4.661617349999972, 41.067309350000016], [-4.66644199000001, 41.070311300000014], [-4.672212530000024, 41.07351550999999], [-4.673268080000014, 41.07336507000002], [-4.674059080000006, 41.07404716999997], [-4.674534090000009, 41.07447264000001], [-4.6748289600000135, 41.07717966000001], [-4.675562360000015, 41.077466249999986], [-4.675815209999996, 41.077579679999985], [-4.676574710000011, 41.078424359999985], [-4.677712489999976, 41.07916444], [-4.678358500000002, 41.07929015000002], [-4.680262439999979, 41.08346898000002], [-4.680553120000013, 41.084131300000024], [-4.680731939999987, 41.08554290000001], [-4.68198074999998, 41.087362240000004], [-4.682540229999972, 41.08875926000002], [-4.683935940000026, 41.09119795999999], [-4.685707550000018, 41.09343296999998], [-4.687649510000028, 41.09254880999998], [-4.688520340000025, 41.09214873000002], [-4.68931606000001, 41.09160560999999], [-4.690343709999979, 41.09035648999998], [-4.692299960000014, 41.088643349999984], [-4.693348309999976, 41.088204580000024], [-4.69443511999998, 41.08787333999999], [-4.6955363600000055, 41.08764094999998], [-4.69661394000002, 41.08787731000001], [-4.699028240000018, 41.08916584999997], [-4.700442409999994, 41.08906392], [-4.702034519999984, 41.08986011000002], [-4.704755209999973, 41.090558509999994], [-4.706192079999994, 41.08949235], [-4.707149800000025, 41.088775569999996], [-4.707346729999983, 41.089484260000006], [-4.71176767999998, 41.088716060000024], [-4.714206740000009, 41.08911216000001], [-4.715866619999986, 41.089303640000026], [-4.7171493700000156, 41.089185439999994], [-4.717885019999983, 41.09000318], [-4.71487406, 41.09096681], [-4.713344409999991, 41.091665139999975], [-4.713112070000022, 41.093262949999996], [-4.712791489999972, 41.09467289999998], [-4.710922460000006, 41.09743899], [-4.710484880000024, 41.09847235000001], [-4.710029309999982, 41.09927177999998], [-4.711358759999996, 41.100486090000004], [-4.713481380000019, 41.101976820000004], [-4.715327539999976, 41.10382292999998], [-4.716064920000008, 41.10424431000001], [-4.715808340000024, 41.105824470000016], [-4.715716530000009, 41.10733010000001], [-4.715123969999979, 41.110644709999974], [-4.716439439999988, 41.111309689999985], [-4.718327480000028, 41.11292092000002], [-4.7214460199999735, 41.11649541000003], [-4.721546310000008, 41.11714245000002], [-4.722190710000007, 41.11855601000002], [-4.724561129999984, 41.12265501000002], [-4.724652849999984, 41.12342828999999], [-4.724455480000017, 41.12498955000001], [-4.724617000000023, 41.12569873000001], [-4.724118159999989, 41.12712038000001], [-4.723810300000025, 41.12855718999998], [-4.719425329999979, 41.13034317], [-4.716721459999974, 41.132644400000004], [-4.719949229999997, 41.13489315999999], [-4.719653540000024, 41.140905599999996], [-4.7203669599999785, 41.14540771999998], [-4.722101769999995, 41.14931806999999], [-4.729003980000016, 41.150772940000024], [-4.737395880000008, 41.15041243000002], [-4.739157009999985, 41.148962659999995], [-4.7441742600000225, 41.14942724000002], [-4.748925439999994, 41.1497425], [-4.756797189999986, 41.14642504], [-4.7623647699999765, 41.14430428999998], [-4.767078790000028, 41.14235851000001], [-4.771394550000025, 41.14421980999998], [-4.773900889999993, 41.144370390000006], [-4.778755610000019, 41.14499809], [-4.786187729999995, 41.143558970000015], [-4.7890074300000265, 41.13989421000002], [-4.796127839999997, 41.13579308999999], [-4.800615259999972, 41.13564195999999], [-4.804156130000024, 41.13573066999999], [-4.805844270000023, 41.13516377000002], [-4.806782940000005, 41.13420327], [-4.80871424999998, 41.132515590000025], [-4.811003679999999, 41.130858269999976], [-4.813524200000018, 41.129377420000026], [-4.81227376999999, 41.126361599999996], [-4.812831099999983, 41.12420005000001], [-4.813393120000001, 41.1220204], [-4.817047919999993, 41.11676550999999], [-4.817722730000014, 41.11489031999997], [-4.818214169999976, 41.111982160000025], [-4.817250380000019, 41.11115066999997], [-4.817544209999994, 41.10971383999998], [-4.818900939999992, 41.10795397999999], [-4.814966070000025, 41.103449230000024], [-4.827957770000012, 41.099154399999975], [-4.830660630000011, 41.099579870000014], [-4.832556309999973, 41.09966682999999], [-4.834639809999999, 41.09922833000002], [-4.8375025600000185, 41.09940789000001], [-4.839925359999995, 41.10003576999998], [-4.846558060000007, 41.10047008999999], [-4.8532068000000095, 41.09977785000001], [-4.854329889999974, 41.10033625], [-4.8555555600000275, 41.10073087000001], [-4.857976699999995, 41.099601940000014], [-4.85842335000001, 41.09854987], [-4.86054605999999, 41.097398680000026], [-4.863055999999972, 41.09520534000001], [-4.8636772400000154, 41.094015309999975], [-4.867959499999984, 41.09639600000003], [-4.870067399999982, 41.09683018999999], [-4.872109650000027, 41.097886930000016], [-4.8726579699999775, 41.09916608999998], [-4.870422070000018, 41.09967979999999], [-4.8702482400000235, 41.10026811], [-4.871762849999982, 41.10035160000001], [-4.874566080000022, 41.103458639999985], [-4.8754635000000235, 41.103191830000014], [-4.878941329999975, 41.10530596000001], [-4.880941940000014, 41.104471649999994], [-4.886474630000009, 41.10805622999999], [-4.888157330000013, 41.10859613000002], [-4.889774569999986, 41.10934426], [-4.894111319999979, 41.11313722], [-4.899876179999978, 41.11480775000001], [-4.901879959999974, 41.11449544999999], [-4.903150320000009, 41.11600572999998], [-4.90334931000001, 41.117533700000024], [-4.9050156800000195, 41.11873116999999], [-4.9071147099999735, 41.11923688000002], [-4.909018689999982, 41.118764], [-4.911846739999987, 41.11976198000002], [-4.9159627899999805, 41.12163020999998], [-4.921557959999973, 41.12396905000003], [-4.923826169999984, 41.12413837999998], [-4.927571259999979, 41.12674198000002], [-4.928906600000005, 41.127188020000006], [-4.931016590000013, 41.129269410000006], [-4.939289200000019, 41.13186872], [-4.940811300000007, 41.1325817], [-4.9421283799999856, 41.13361336999998], [-4.945141929999977, 41.13762484], [-4.95080925000002, 41.14070862], [-4.9541968999999995, 41.13963339999998], [-4.9559434600000145, 41.139468650000026], [-4.957991069999991, 41.13901053000001], [-4.954894609999997, 41.13223556000003], [-4.957599309999978, 41.13184737], [-4.956613279999999, 41.129936550000025], [-4.960286849999989, 41.12888330999999], [-4.96239245999999, 41.125586829999975], [-4.962865980000004, 41.12348906], [-4.965008300000022, 41.12063325999998], [-4.965715079999995, 41.11917103000002], [-4.968568000000005, 41.11738392000001], [-4.970063110000012, 41.115601939999976], [-4.968072399999983, 41.11235728999998], [-4.969540849999987, 41.10928772], [-4.968118590000017, 41.10832119000003], [-4.968121020000012, 41.10560991], [-4.968106120000016, 41.10431310000001], [-4.9687006600000245, 41.103086940000026], [-4.968639080000003, 41.102619600000025], [-4.967903910000018, 41.10232589999998], [-4.967902110000011, 41.10186655000001], [-4.96527248000001, 41.10233477999998], [-4.958419769999978, 41.09813686000001], [-4.952626950000024, 41.09552389999999], [-4.951395139999988, 41.094535930000006], [-4.949306349999972, 41.09395876999997], [-4.94505786000002, 41.094030550000014], [-4.941568060000009, 41.093584969999995], [-4.943219069999998, 41.090620709999996], [-4.945774359999973, 41.086028829999975], [-4.945727540000007, 41.083633640000016], [-4.945794949999993, 41.08349738999999], [-4.946398970000018, 41.08218111000002], [-4.949149009999985, 41.07855866], [-4.950593649999973, 41.07709302000001], [-4.9511944800000265, 41.07647935], [-4.953112079999983, 41.07531193], [-4.954973049999978, 41.07424451999998], [-4.958147209999993, 41.07090290000002], [-4.963060289999987, 41.06561298999998], [-4.967246050000028, 41.064694900000006], [-4.968231030000027, 41.06420069000001], [-4.971312469999987, 41.06217536999998], [-4.9739852299999825, 41.06041819000001], [-4.97774462000001, 41.057597439999995], [-4.979073289999974, 41.05626853000001], [-4.988098320000006, 41.05208683000001], [-4.992353379999997, 41.05113961000001], [-4.995821079999985, 41.05209745000002], [-5.002764309999975, 41.04759034], [-5.008596370000021, 41.043741710000006], [-5.010384590000001, 41.042296350000015], [-5.013426279999976, 41.041774850000024], [-5.0161780999999905, 41.03994325000002], [-5.020993910000016, 41.03830959999999], [-5.021865230000003, 41.03801507999998], [-5.023366950000025, 41.04121341000001], [-5.022522869999989, 41.04239919999998], [-5.023386860000016, 41.04419453999998], [-5.0264258899999845, 41.04707758000001], [-5.0263605600000005, 41.048438850000025], [-5.027608919999977, 41.049182529999996], [-5.029755829999999, 41.048189939999986], [-5.0347838600000046, 41.051506080000024], [-5.036495249999973, 41.051439819999985], [-5.037269349999974, 41.05570469000003], [-5.041758689999995, 41.056192710000005], [-5.04237981, 41.05703741000002], [-5.043151729999977, 41.05814067], [-5.045772259999978, 41.06052620999998], [-5.047548810000023, 41.06025145000001], [-5.061071420000019, 41.062658580000004], [-5.063361840000027, 41.064356050000015], [-5.061852950000002, 41.06558106], [-5.061059960000023, 41.066865310000026], [-5.059133210000027, 41.07034064999999], [-5.054180439999982, 41.074500450000016], [-5.057597709999982, 41.07682648000002], [-5.058570519999989, 41.07748468], [-5.0673770700000205, 41.08349719], [-5.071610550000003, 41.086384640000006], [-5.074451640000007, 41.09154890000002], [-5.082856540000023, 41.09680186999998], [-5.102148989999989, 41.10772906], [-5.105535640000028, 41.106379170000025], [-5.109627190000026, 41.10398944000002], [-5.110998180000024, 41.10255016999997], [-5.114221100000009, 41.102049729999976], [-5.115287560000013, 41.10188605000002], [-5.1172542699999894, 41.10528178999999], [-5.120934709999972, 41.10530419999998], [-5.129165849999993, 41.10537763999997], [-5.12793455000002, 41.118136660000005], [-5.126943550000021, 41.122856679999984], [-5.126619930000004, 41.125744940000004], [-5.124929230000021, 41.13204509000002], [-5.128549910000004, 41.132383600000026], [-5.128292709999982, 41.13364034], [-5.132352260000005, 41.13612325999998], [-5.131804059999979, 41.13685398000001], [-5.132924870000011, 41.13761684000002], [-5.13300774999999, 41.13833588], [-5.1342577699999765, 41.138672989999975], [-5.135396889999981, 41.14073251000002], [-5.136447750000002, 41.14117238], [-5.135630719999995, 41.142430520000005], [-5.136554999999987, 41.143007839999996], [-5.136170370000002, 41.14400576000003], [-5.14085252000001, 41.14581928000001], [-5.142209340000022, 41.14723516999999], [-5.145082100000025, 41.14763203000001], [-5.145615860000021, 41.14901818999999], [-5.148577219999993, 41.149935719999974], [-5.1486796799999865, 41.151248839999994], [-5.154597509999974, 41.15365121000002], [-5.156160390000025, 41.15552244000003], [-5.158344569999997, 41.15598591000003], [-5.160089099999993, 41.15721417999998], [-5.161634269999979, 41.15672581000001], [-5.163114259999986, 41.15751764999999], [-5.164173730000016, 41.15892987000001], [-5.165119109999978, 41.159047190000024], [-5.16608875999998, 41.16026291999998], [-5.168027549999977, 41.16014536], [-5.16886691000002, 41.16066096999998], [-5.170051170000022, 41.16043148], [-5.170366139999999, 41.16130823999998], [-5.171330660000024, 41.16092076000001], [-5.1734299299999975, 41.16169178000001], [-5.174513250000018, 41.161293020000016], [-5.175136479999992, 41.162118910000004], [-5.17423272000002, 41.16254129999999], [-5.174556989999985, 41.163336800000025], [-5.176977350000016, 41.16264254999999], [-5.177333809999993, 41.163329350000026], [-5.177911510000001, 41.16313828], [-5.178603319999979, 41.16459334000001], [-5.176646559999995, 41.165251850000004], [-5.177258849999987, 41.166104940000025], [-5.178806239999972, 41.166805220000015], [-5.179658280000012, 41.16729348000001], [-5.180669910000006, 41.167247299999985], [-5.180876319999982, 41.166811059999986], [-5.181641790000015, 41.166003939999996], [-5.185062669999979, 41.166722660000005], [-5.187670179999998, 41.16520498], [-5.189796709999996, 41.163921560000006], [-5.189525969999977, 41.16366550999999], [-5.189843080000003, 41.163524370000005], [-5.189463339999975, 41.16321635000003], [-5.189863530000025, 41.16306462], [-5.191261970000028, 41.16211027000003], [-5.19468741999998, 41.16261244999998], [-5.195074980000015, 41.16315449000001], [-5.19637419999998, 41.16315672000002], [-5.198997940000027, 41.16570065000002], [-5.200079949999974, 41.16526564999998], [-5.2003603699999985, 41.16580971000002], [-5.200501190000011, 41.16645552], [-5.2018843000000174, 41.16611382000002], [-5.2024889200000075, 41.165660909999986], [-5.202821229999984, 41.16561852000001], [-5.204669609999996, 41.16493462], [-5.207136760000026, 41.164932369999974], [-5.207920440000009, 41.16681781], [-5.211720200000002, 41.16370948000002], [-5.2134653599999865, 41.162441969999975], [-5.215495780000026, 41.16079963999999], [-5.218219850000025, 41.15958525999997], [-5.220414749999975, 41.16105612000001], [-5.222406400000011, 41.16215255999998], [-5.2215190200000166, 41.16340365999997], [-5.220295659999977, 41.16458918000001], [-5.220462909999981, 41.16530650999999], [-5.218356470000003, 41.16681526999997], [-5.218309739999995, 41.16684319000001], [-5.2173444599999925, 41.16755533000003], [-5.218729429999996, 41.16833025], [-5.218260190000024, 41.16890673], [-5.219472960000019, 41.16952284000001], [-5.22227337999999, 41.170558640000024], [-5.223567730000013, 41.17464079000001], [-5.224597280000012, 41.176530360000015], [-5.223864719999995, 41.17707593], [-5.223617170000011, 41.17821558000003], [-5.224395790000017, 41.178677900000025], [-5.225362070000017, 41.17799271000001], [-5.225711199999978, 41.17844530999997], [-5.224489829999982, 41.179342589999976], [-5.224556020000023, 41.180593269999974], [-5.224942999999996, 41.181459459999985], [-5.228366600000015, 41.18327567], [-5.228439569999978, 41.18542689999998], [-5.227855739999995, 41.18578947999998], [-5.227612829999998, 41.186712880000016], [-5.2296228100000235, 41.188322219999975], [-5.228687900000011, 41.18923201000001], [-5.229257099999984, 41.18984246000002], [-5.229602349999993, 41.19052930999999], [-5.230753579999998, 41.190020619999984], [-5.234606170000006, 41.192161580000004], [-5.234747110000001, 41.19314960000003], [-5.236040339999988, 41.193385680000006], [-5.238826529999983, 41.19388993000001], [-5.238884120000023, 41.19487957000001], [-5.242017729999986, 41.19585436], [-5.241378359999999, 41.19668644000001], [-5.242502899999977, 41.19714190000002], [-5.244363840000005, 41.196114869999974], [-5.248658130000024, 41.196157149999976], [-5.247796110000024, 41.19814649], [-5.251123450000023, 41.199198309999986], [-5.252011670000002, 41.199018809999984], [-5.252967769999998, 41.19977469000003], [-5.255613149999988, 41.19763327999999], [-5.261465390000012, 41.197896730000025], [-5.264174159999982, 41.19725803], [-5.264246160000027, 41.19761688], [-5.266754880000008, 41.19774763999999], [-5.267138180000018, 41.19848766000001], [-5.268619399999977, 41.19925108000001], [-5.27188996000001, 41.19796163000001], [-5.269668109999998, 41.19578077], [-5.270599230000016, 41.195465179999985], [-5.273973969999986, 41.197190920000025], [-5.278166619999979, 41.19567590999998], [-5.278918449999992, 41.196723840000004], [-5.28255686, 41.19504850999999], [-5.282845889999976, 41.19615963000001], [-5.286724970000023, 41.19523598000001], [-5.287161470000001, 41.19578573000001], [-5.288467239999989, 41.195615669999995], [-5.289395710000008, 41.19317434999999], [-5.289011259999995, 41.19240740999999], [-5.2902526600000215, 41.19210349999997], [-5.289833699999974, 41.19068874999999], [-5.291194819999987, 41.189715939999985], [-5.291897989999995, 41.187315109999986], [-5.290414590000012, 41.18648898999999], [-5.290510159999997, 41.184442520000005], [-5.291587740000011, 41.183889669999985], [-5.288743720000014, 41.18199176000002], [-5.292723790000025, 41.181255039999996], [-5.29697692000002, 41.18117024999998], [-5.298127910000005, 41.181696699999975], [-5.297985089999997, 41.18272632999998], [-5.299475799999982, 41.184101639999994], [-5.300288099999989, 41.18380619999999], [-5.301147420000007, 41.18519409999999], [-5.301740049999978, 41.185434439999995], [-5.30738679000001, 41.183267839999985], [-5.30844184, 41.18445360999999], [-5.325584730000003, 41.17801092000002], [-5.326977680000027, 41.177622489999976], [-5.329814689999978, 41.17795240999999], [-5.3302677899999935, 41.177618989999985], [-5.331349629999977, 41.17854281000001], [-5.332508130000008, 41.17826715000001], [-5.33186274000002, 41.17889269], [-5.327809849999994, 41.18159572000002], [-5.32963620999999, 41.18435090999998], [-5.334608730000014, 41.18706032], [-5.336638820000019, 41.18782074000001], [-5.337453929999981, 41.18727279000001], [-5.338578499999983, 41.18838481], [-5.336167569999986, 41.18999194999998], [-5.337013189999993, 41.191641059999995], [-5.340296529999989, 41.19410528999998], [-5.339043689999983, 41.19475222], [-5.337802169999975, 41.19672292000001], [-5.33602602000002, 41.19841623999997], [-5.334560570000008, 41.20013024999997], [-5.330764240000008, 41.202702079999995], [-5.3311606099999835, 41.20311736999997], [-5.329849729999978, 41.20415267999999], [-5.3275063500000215, 41.20566819999999], [-5.3228624100000275, 41.207896619999985], [-5.31829190000002, 41.21086193999997], [-5.315382899999975, 41.211911240000006], [-5.312848669999994, 41.21547485000002], [-5.311215119999986, 41.21650742000003], [-5.3115611700000045, 41.21752724999999], [-5.310937449999983, 41.21980049000001], [-5.310076649999985, 41.219745709999984], [-5.311530629999993, 41.221400800000026], [-5.310952980000025, 41.22193478999998], [-5.3098836699999765, 41.22137981999998], [-5.308381899999972, 41.222094459999994], [-5.308902530000012, 41.22265143999999], [-5.307617950000008, 41.22479378999998], [-5.304709000000003, 41.22654533999997], [-5.302714009999988, 41.224090390000015], [-5.293651549999993, 41.226252810000005], [-5.293694870000024, 41.226468109999985], [-5.298010780000027, 41.22604876999998], [-5.297884490000001, 41.22687091], [-5.296369850000019, 41.22722537999999], [-5.295453109999983, 41.229324229999975], [-5.296164079999983, 41.22952621000002], [-5.297200999999973, 41.22949650999999], [-5.297772699999996, 41.22980934999998], [-5.297203319999994, 41.230244029999994], [-5.2979131100000245, 41.23075225000002], [-5.297484970000028, 41.231472329999974], [-5.298509109999998, 41.231758119999995], [-5.2968764299999975, 41.234195510000006], [-5.297254930000008, 41.23478239999997], [-5.296603310000023, 41.235254750000024], [-5.296903709999981, 41.23599632000003], [-5.296330809999972, 41.23633199], [-5.294694769999978, 41.23629256999999], [-5.294842679999988, 41.23710922999999], [-5.295229950000021, 41.23760589], [-5.295981670000003, 41.23692439000001], [-5.29679821000002, 41.23741247999999], [-5.295896579999976, 41.23858332999998], [-5.2964395199999785, 41.23909488999999], [-5.2949652300000025, 41.24061040999999], [-5.29604046999998, 41.241669779999995], [-5.297277199999996, 41.24359055999997], [-5.298569229999998, 41.25014869], [-5.298758360000022, 41.25111764000002], [-5.299686450000024, 41.25273833], [-5.299202579999985, 41.25459437000001], [-5.302207490000001, 41.259271850000005], [-5.302123520000009, 41.25970584999999], [-5.301520359999984, 41.26281621999999], [-5.299389539999993, 41.26400266000002], [-5.296956589999979, 41.26644701999999], [-5.291740460000028, 41.26918998000002], [-5.296569060000024, 41.27071493], [-5.294953949999979, 41.28253692999999], [-5.2972683300000085, 41.29234408000002], [-5.303675810000016, 41.300331029999995], [-5.303242420000004, 41.30837365999997], [-5.306473719999985, 41.311596380000026], [-5.3035103400000025, 41.31597893000003], [-5.305488449999984, 41.318209000000024], [-5.305848749999996, 41.318940329999975], [-5.309758830000021, 41.31869979999999], [-5.312975660000006, 41.319463799999994], [-5.3159253100000115, 41.32044023999998], [-5.317997199999979, 41.32192966000002], [-5.319967469999995, 41.32358320999998], [-5.321364119999998, 41.32523028000003], [-5.322120139999981, 41.326331849999974], [-5.321872600000006, 41.327435649999984], [-5.32180532000001, 41.32890508999998], [-5.3235884100000135, 41.33167015999999], [-5.323174129999984, 41.33245310000001], [-5.323138649999976, 41.33347156999997], [-5.323130230000004, 41.333570810000026], [-5.323214080000014, 41.335928869999975], [-5.323929249999992, 41.33822914000001], [-5.324425360000021, 41.340416749999974], [-5.32794690999998, 41.34667725000003], [-5.332163419999972, 41.35597679], [-5.332641029999991, 41.357300090000024], [-5.333127760000025, 41.35820890000002], [-5.333477669999979, 41.36130909000002], [-5.333494359999975, 41.36478531], [-5.333480000000009, 41.36605553999999], [-5.33462449000001, 41.370643710000024], [-5.334136399999977, 41.37237388], [-5.334004040000025, 41.37502451], [-5.334077069999978, 41.37773401999999], [-5.333314359999974, 41.379812000000015], [-5.333041270000024, 41.38153779999999], [-5.331846639999981, 41.38391274999998], [-5.325238010000021, 41.39041419], [-5.322752900000012, 41.39350865], [-5.32229854000002, 41.39418432000002], [-5.321462689999976, 41.39590344999999], [-5.321351460000017, 41.39849061000001], [-5.321136109999998, 41.39916144], [-5.320483079999974, 41.39963396000002], [-5.320224069999995, 41.400422760000026], [-5.3204880200000275, 41.40145321], [-5.318714849999992, 41.403056119999974], [-5.317790979999984, 41.40365116999999], [-5.315990769999985, 41.40550676999999], [-5.312156430000016, 41.407691460000024], [-5.311126290000004, 41.40866686999999], [-5.310741210000003, 41.40927805000001], [-5.3103739800000085, 41.41039325000003], [-5.310261459999992, 41.41126916000002], [-5.308586119999973, 41.41260876000001], [-5.307536560000017, 41.41405286999998], [-5.3116492199999925, 41.41681190000003], [-5.3161406799999895, 41.41982433999999], [-5.318354929999998, 41.420851519999985], [-5.327202469999975, 41.42233006999999], [-5.327908470000011, 41.423000290000004], [-5.3283925599999975, 41.42315260999999], [-5.330251099999998, 41.42325907999998], [-5.330542260000016, 41.42337026000001], [-5.331389549999983, 41.423974550000025], [-5.331814819999977, 41.42415506999998], [-5.332856100000015, 41.42416097], [-5.333665660000008, 41.42404548000002], [-5.33405055999998, 41.424100710000005], [-5.335768850000022, 41.42463325], [-5.336630119999995, 41.42462475999997], [-5.337093879999998, 41.424543289999974], [-5.337614830000007, 41.42505507999999], [-5.337906019999991, 41.42516625000002], [-5.3385152100000255, 41.425135850000004], [-5.33923784000001, 41.425598509999986], [-5.337795449999987, 41.42742014999999], [-5.335863860000018, 41.43195369], [-5.334085679999987, 41.434430580000026], [-5.333276829999988, 41.43623931000002], [-5.333321710000007, 41.43682382999998], [-5.333798419999994, 41.437768860000006], [-5.333285699999976, 41.438490779999995], [-5.3330415799999855, 41.439360369999974], [-5.332390529999998, 41.43956271000002], [-5.3323694200000205, 41.44064393000002], [-5.3328414100000145, 41.444128920000026], [-5.330964670000014, 41.44520274000001], [-5.327930859999981, 41.44605677999999], [-5.327230110000016, 41.44721480999999], [-5.329342380000014, 41.44803667999997], [-5.330433089999985, 41.448744120000015], [-5.332221119999986, 41.45020297000002], [-5.329274839999982, 41.452505340000016], [-5.325723059999973, 41.454954980000025], [-5.324791140000002, 41.45534309999999], [-5.324589189999983, 41.45471672000002], [-5.324117619999981, 41.45391565], [-5.323379989999978, 41.453038900000024], [-5.322222080000017, 41.45212559999999], [-5.3213276899999755, 41.45121597000002], [-5.320580010000015, 41.45072669000001], [-5.319303090000005, 41.45016700999997], [-5.3188218099999744, 41.449762410000005], [-5.318163340000012, 41.44942443000002], [-5.317484480000019, 41.44918593], [-5.315608440000005, 41.44894450999999], [-5.314783040000009, 41.44896112999999], [-5.313019020000013, 41.44917674999999], [-5.312036840000019, 41.44916047999999], [-5.310067520000018, 41.44932614999999], [-5.308655489999978, 41.449678740000024], [-5.304314330000011, 41.45115284000002], [-5.303977780000025, 41.45111455], [-5.302253839999992, 41.44941978999998], [-5.301854359999993, 41.44861718999999], [-5.301247079999996, 41.44599939], [-5.301052589999983, 41.44354446], [-5.300358749999987, 41.43982958999999], [-5.300210800000002, 41.43801321000001], [-5.300423560000013, 41.436243649999994], [-5.299957080000013, 41.43523522999999], [-5.299371769999993, 41.434589449999976], [-5.297700150000026, 41.43334391000002], [-5.295597110000017, 41.432079939999994], [-5.294157779999978, 41.43164932000002], [-5.292902840000011, 41.43101686], [-5.291302770000016, 41.430778550000014], [-5.2875614000000155, 41.42852031000001], [-5.286950649999994, 41.429189940000015], [-5.286741080000013, 41.429356229999996], [-5.286100710000028, 41.42986432999999], [-5.284049610000011, 41.43177846999998], [-5.281971320000025, 41.43360304999999], [-5.279521530000011, 41.43575920000001], [-5.278543019999972, 41.43686838999997], [-5.278485419999981, 41.43693258000002], [-5.277977430000021, 41.43814953999998], [-5.2771940100000165, 41.43902069000001], [-5.277069050000023, 41.439554559999976], [-5.277217940000014, 41.44004697999998], [-5.276422529999991, 41.44057609999999], [-5.2753576499999895, 41.441614930000014], [-5.274320090000003, 41.44343679000002], [-5.27413181999998, 41.44421509], [-5.272222510000006, 41.44609921], [-5.271528020000005, 41.44677942999999], [-5.271094210000001, 41.447040189999996], [-5.271120520000011, 41.44848073999998], [-5.270592249999993, 41.44877939000003], [-5.2693731599999865, 41.45020850999998], [-5.268864580000013, 41.451416429999995], [-5.266863919999992, 41.45343737000002], [-5.261512040000014, 41.45928003], [-5.259842349999985, 41.46050174999999], [-5.259075199999984, 41.46220108], [-5.2583146399999805, 41.46271138999998], [-5.254115399999989, 41.466612639999994], [-5.249353040000017, 41.47017348999998], [-5.246579080000004, 41.47272258999999], [-5.241591219999975, 41.47706210000001], [-5.240372330000014, 41.4771399], [-5.238355210000009, 41.47803483000001], [-5.236442239999974, 41.47847737000001], [-5.234082080000007, 41.478802470000005], [-5.23199206999999, 41.479671689999975], [-5.229728210000019, 41.48001283999997], [-5.225270290000026, 41.47993709999997], [-5.224390760000006, 41.48013426], [-5.223037970000007, 41.48015142000003], [-5.221401909999997, 41.47993986], [-5.220061699999974, 41.4796235], [-5.216994629999988, 41.47994388000001], [-5.215860669999984, 41.479353290000006], [-5.212340050000023, 41.479015790000005], [-5.210711660000015, 41.47938037], [-5.210292100000004, 41.47972169000002], [-5.20950363999998, 41.48013314000002], [-5.208955820000028, 41.480224729999975], [-5.206473420000009, 41.47977702999998], [-5.205432739999992, 41.47981500999998], [-5.2038142600000015, 41.479413729999976], [-5.20290258, 41.479016890000025], [-5.201921190000007, 41.48009848999999], [-5.201695830000006, 41.48051712], [-5.20105946000001, 41.481177790000004], [-5.198716040000022, 41.483069030000024], [-5.197955270000023, 41.48288543000001], [-5.196414080000011, 41.48158188000002], [-5.19564269, 41.481083230000024], [-5.195157670000015, 41.48055209], [-5.1948041800000055, 41.480369689999975], [-5.192271989999995, 41.47950832999999], [-5.191799279999998, 41.47898593999997], [-5.190675559999988, 41.478692120000005], [-5.190743300000008, 41.47963654], [-5.190587129999983, 41.48104458], [-5.189979460000018, 41.483983360000025], [-5.189200819999996, 41.48682631999998], [-5.188157699999977, 41.489287020000006], [-5.187672329999998, 41.49016991000002], [-5.183467989999997, 41.493384219999996], [-5.1830865300000255, 41.49379677000002], [-5.180360489999998, 41.49252452000002], [-5.179050280000013, 41.49167570999998], [-5.177080479999972, 41.49080335000002], [-5.174011070000006, 41.489285259999974], [-5.17112161, 41.48741242], [-5.1693917100000135, 41.48618413000003], [-5.16299773999998, 41.48769169000002], [-5.162546459999987, 41.48852880999999], [-5.160976740000024, 41.492116020000026], [-5.160825299999999, 41.492965509999976], [-5.15884281000001, 41.49242633], [-5.157769229999985, 41.49292386000002], [-5.156397009999978, 41.49236416999997], [-5.156248189999985, 41.493294660000004], [-5.155866530000026, 41.494067400000006], [-5.155256189999989, 41.49480840000001], [-5.154169140000022, 41.497431759999984], [-5.1538958200000025, 41.49786019999999], [-5.153689509999992, 41.49850355000001], [-5.153772339999989, 41.49919552], [-5.153704300000015, 41.50003443000003], [-5.145880099999999, 41.49928010999997], [-5.143685979999987, 41.49959125999999], [-5.142356570000004, 41.49996730999999], [-5.140732669999977, 41.50013267999998], [-5.140470149999999, 41.50016459], [-5.140433040000005, 41.500129249999986], [-5.139514019999979, 41.49950688000001], [-5.137723979999976, 41.49972033], [-5.136611519999974, 41.500137310000014], [-5.136504950000017, 41.50017531999998], [-5.1330798399999935, 41.501310750000016], [-5.130299999999977, 41.50239809999999], [-5.128250659999992, 41.50311156999999], [-5.127592470000025, 41.50240322000002], [-5.125483920000022, 41.501307380000014], [-5.123566429999983, 41.50018996], [-5.123492829999975, 41.50013726999998], [-5.122576019999997, 41.49957777999998], [-5.1215998600000034, 41.500136209999994], [-5.1215058399999975, 41.50019198000001], [-5.12050923999999, 41.50085887], [-5.111843599999986, 41.507016969999995], [-5.109049710000022, 41.50879758000002], [-5.107406190000006, 41.50984549999998], [-5.105669999999975, 41.511363449999976], [-5.104637149999974, 41.51203085999998], [-5.103447420000009, 41.51266511], [-5.102214720000006, 41.51345325], [-5.099992820000011, 41.51515112999999], [-5.099077229999978, 41.516113570000016], [-5.096578529999988, 41.51778042000001], [-5.095428830000003, 41.51891823], [-5.094263130000002, 41.51956095999998], [-5.0931525699999725, 41.52042783000002], [-5.091512949999981, 41.522358129999986], [-5.0886952999999835, 41.52530057000001], [-5.087088300000005, 41.52676186000002], [-5.086336179999989, 41.52797342000002], [-5.0841254900000195, 41.52930151999999], [-5.082340910000028, 41.53009044999999], [-5.0806435999999735, 41.53098584999998], [-5.0784300600000165, 41.532980399999985], [-5.076163780000002, 41.53557931], [-5.068994079999982, 41.53515926], [-5.0670449699999836, 41.53493314999997], [-5.065704059999973, 41.53498430000002], [-5.062782640000023, 41.535469130000024], [-5.061850719999995, 41.53518864], [-5.061805090000007, 41.53526151], [-5.0608336399999985, 41.536756070000024], [-5.060151889999986, 41.536804329999995], [-5.059883230000025, 41.53778189000002], [-5.057432600000027, 41.53875352], [-5.056908580000027, 41.538105410000014], [-5.056536890000018, 41.538103060000026], [-5.053816659999995, 41.53851200999998], [-5.0550962899999945, 41.539930219999974], [-5.054539990000023, 41.540912909999975], [-5.05365046999998, 41.54197362000002], [-5.0528370900000255, 41.54316806000003], [-5.052271410000003, 41.542718820000005], [-5.052121909999983, 41.54291963999998], [-5.050927399999978, 41.54343635999999], [-5.049653060000026, 41.543323999999984], [-5.048182189999977, 41.54306202999999], [-5.046343639999975, 41.54254537999998], [-5.04644165000002, 41.54337227000002], [-5.047786869999982, 41.54459123999999], [-5.047602719999986, 41.54559427999999], [-5.047764690000008, 41.54616784000001], [-5.047514149999984, 41.54658662000003], [-5.047037970000019, 41.54669418999998], [-5.045088150000026, 41.54569313000002], [-5.042897219999986, 41.54655176], [-5.044135030000007, 41.54702510999999], [-5.044577179999976, 41.54735950000003], [-5.044415309999977, 41.54792981000003], [-5.044370930000014, 41.548804270000005], [-5.044508629999996, 41.549369249999984], [-5.043688320000001, 41.54959100999997], [-5.043097110000019, 41.549853729999995], [-5.042666489999988, 41.55026670000001], [-5.0423933499999976, 41.55073091000003], [-5.041611890000013, 41.550663740000005], [-5.040174659999991, 41.54995072000003], [-5.039675240000008, 41.54932009999999], [-5.03865337000002, 41.549995749999994], [-5.0390773899999886, 41.55089792000001], [-5.038674479999997, 41.55104918000001], [-5.0380263600000035, 41.55064636999998], [-5.037296120000008, 41.55106463999999], [-5.035523599999976, 41.551510389999976], [-5.035324440000011, 41.55242362000001], [-5.0361438400000225, 41.55255319999998], [-5.035761949999994, 41.55299230000003], [-5.035840230000019, 41.55357636000002], [-5.0352523399999995, 41.553947059999985], [-5.034383160000004, 41.55414259999998], [-5.034215410000002, 41.55491114], [-5.033293759999992, 41.55496348999998], [-5.032400160000009, 41.55629427000002], [-5.031932059999974, 41.556662819999985], [-5.031699720000006, 41.556135540000014], [-5.031050160000007, 41.55645326000001], [-5.029758979999997, 41.555809599999975], [-5.030022159999987, 41.55693977999999], [-5.026725800000008, 41.55774556], [-5.025363009999978, 41.55711212], [-5.024694780000004, 41.557601250000005], [-5.024938500000019, 41.55811032999998], [-5.024480919999974, 41.558433630000025], [-5.023762680000004, 41.55847331000001], [-5.023627280000028, 41.55874589000001], [-5.022935280000013, 41.55770432000003], [-5.022695629999987, 41.55655569999999], [-5.022671339999988, 41.55500698999998], [-5.021633619999989, 41.55441281999998], [-5.020995379999988, 41.55432497999999], [-5.020742869999992, 41.55430239999998], [-5.019979820000003, 41.55444191999999], [-5.019917229999976, 41.55204717999999], [-5.01911776999998, 41.551016430000004], [-5.016768679999984, 41.548733879999986], [-5.015740830000027, 41.54806737000001], [-5.0158265800000095, 41.54735432000001], [-5.015260220000016, 41.54649057], [-5.0148611500000015, 41.546380469999974], [-5.014707310000006, 41.54335682999999], [-5.0148373200000265, 41.542138609999995], [-5.014146240000002, 41.541889509999976], [-5.0146929, 41.54134852999999], [-5.012841540000011, 41.54118278999999], [-5.009944420000011, 41.5409272], [-4.999522809999974, 41.54002797999999], [-4.9921434899999895, 41.53981372999999], [-4.986585190000028, 41.541125790000024], [-4.985146509999993, 41.54347440999999], [-4.983438980000017, 41.54173850000001], [-4.981510720000017, 41.54101515000002], [-4.979188640000018, 41.539956270000005], [-4.973621920000028, 41.53666529999998], [-4.970564309999986, 41.53506042999999], [-4.965664489999995, 41.53278442999999], [-4.964028299999995, 41.531794590000004], [-4.958550629999991, 41.52981638], [-4.956038729999989, 41.52879629], [-4.954257460000008, 41.52735842999999], [-4.953351999999995, 41.52674331999998], [-4.952569330000017, 41.5262252], [-4.951705520000019, 41.525798510000016], [-4.949907250000024, 41.52578397000002], [-4.9478538000000185, 41.52605294], [-4.946498389999988, 41.526418139999976], [-4.944143559999986, 41.527430709999976], [-4.943019619999973, 41.527521750000005], [-4.940215379999984, 41.52793836000001], [-4.935626619999994, 41.528402949999986], [-4.929420199999981, 41.52888548999999], [-4.927329810000003, 41.529127689999996], [-4.925680310000018, 41.52968671999997], [-4.920741729999975, 41.529679199999975], [-4.920226039999989, 41.530075109999984], [-4.918530130000022, 41.53068884999999], [-4.920479539999974, 41.534592350000025], [-4.922034510000003, 41.53650286999999], [-4.923507879999988, 41.53929741000002], [-4.925533700000017, 41.54252401999997], [-4.936725850000016, 41.54154356999999], [-4.93820869000001, 41.54222113999998], [-4.941952930000014, 41.54395038000001], [-4.945140110000011, 41.54588706999999], [-4.945820210000022, 41.54777603000002], [-4.945959280000011, 41.54921479000001], [-4.946383990000015, 41.55098196], [-4.946021900000005, 41.55250124999998], [-4.945773060000022, 41.55419875000001], [-4.945611919999976, 41.55682244000002], [-4.942519870000012, 41.557279989999984], [-4.940780510000025, 41.55766060000002], [-4.939043959999992, 41.55773491000002], [-4.93742549000001, 41.55814946999999], [-4.935347630000024, 41.55884193000003], [-4.932135879999976, 41.55971552], [-4.931928630000016, 41.559601910000026], [-4.929128509999998, 41.55818978999997], [-4.9255622399999766, 41.55681744999998], [-4.925010680000014, 41.557222980000006], [-4.923672360000012, 41.55819107000002], [-4.921414309999989, 41.55968789999997], [-4.919317299999989, 41.56136213000002]], [[-4.909213829999999, 41.530186319999984], [-4.91605088, 41.52750569], [-4.916821599999992, 41.52722263999999], [-4.920473350000009, 41.525873760000025], [-4.925903119999987, 41.52345919999999], [-4.926036549999992, 41.521088150000026], [-4.926753089999977, 41.517770600000006], [-4.928536559999998, 41.51608343999999], [-4.930479530000014, 41.513718059999974], [-4.932252010000013, 41.51126542999998], [-4.9332736700000055, 41.50935679999998], [-4.93343907000002, 41.507264410000005], [-4.93325329999999, 41.50585344000001], [-4.9331331199999795, 41.50503583], [-4.932908370000007, 41.50432805000003], [-4.932525740000017, 41.50314556000001], [-4.931585380000001, 41.50214356999999], [-4.927941120000014, 41.504096170000025], [-4.925692410000011, 41.50462921000002], [-4.916115730000001, 41.50573486000002], [-4.912906379999981, 41.50620258999999], [-4.910811099999989, 41.50625543000001], [-4.907881340000017, 41.50563754000001], [-4.905279319999977, 41.50475295000001], [-4.902043590000005, 41.504320140000004], [-4.8995499999999765, 41.50427128000001], [-4.898178840000014, 41.50450108000001], [-4.892298240000002, 41.506228239999984], [-4.890418650000015, 41.50710579999998], [-4.889231540000026, 41.507899899999984], [-4.8885808, 41.50900944], [-4.887501750000013, 41.51228766000003], [-4.886584869999979, 41.513725799999975], [-4.888061310000012, 41.51422396999999], [-4.888194629999987, 41.514275829999974], [-4.892518559999985, 41.51667265999998], [-4.894779570000026, 41.517770299999995], [-4.896028950000016, 41.51869543999999], [-4.896546080000007, 41.51957859999999], [-4.897232519999989, 41.520512999999994], [-4.89950005999998, 41.521826610000005], [-4.899337360000004, 41.524459320000005], [-4.903731730000004, 41.52840373999999], [-4.90550638000002, 41.529653329999974], [-4.906219039999996, 41.52983968000001], [-4.90702859999999, 41.53006044], [-4.909213829999999, 41.530186319999984]]]}}]}