{"type":"FeatureCollection","features":[{"type":"Feature","properties":{"OBJECTID":1807,"ZON_CO_ID":255,"ZON_DS_NOM":"Sierra de Salamanca","CAL_DS_NOM":"V.C.Sierra de Salamanca","TPR_DS_DES":"Vino de Calidad","TPR_DS_GRU":"CALIDAD DIFERENCIADA","FAM_DS_NOM":"Vinos","classification":"VC","normalizedName":"Sierra de Salamanca"},"geometry":{"type":"Polygon","coordinates":[[[-5.996006609999995,40.585038310000016],[-5.9944933500000275,40.585014530000024],[-5.992679689999989,40.585142640000015],[-5.990237390000004,40.585214940000014],[-5.989089540000009,40.58517261999998],[-5.983057840000015,40.58369842000002],[-5.982537019999995,40.58367585000002],[-5.981252989999973,40.58349285000003],[-5.977687329999981,40.58300845000002],[-5.976408509999999,40.582942360000004],[-5.974813250000011,40.58319964999998],[-5.974449839999977,40.58326305999998],[-5.974001030000011,40.58326562000002],[-5.973501030000023,40.58317942999997],[-5.972082279999995,40.582621510000024],[-5.97125355999998,40.58204839000001],[-5.970744249999996,40.581485050000026],[-5.968111560000011,40.57912090999997],[-5.969225489999985,40.57626407999999],[-5.9696093900000164,40.57559669],[-5.967006959999992,40.57497909],[-5.966252090000012,40.57473728999997],[-5.965479070000015,40.57435184000002],[-5.964653020000014,40.574102849999974],[-5.962243039999976,40.57356125000001],[-5.960588219999977,40.57300025000001],[-5.959510369999975,40.57239741000001],[-5.956419589999996,40.57034198000002],[-5.955171489999998,40.56962636999998],[-5.953195979999975,40.56794759000002],[-5.950940660000015,40.56661821],[-5.9487212799999725,40.565567069999986],[-5.946175989999972,40.564623289999986],[-5.9438641400000165,40.56496149999998],[-5.940864110000007,40.56549733999998],[-5.938197510000009,40.56609666999998],[-5.936482920000003,40.56632044999998],[-5.932826009999985,40.56696287],[-5.930834109999978,40.567598929999974],[-5.924309030000018,40.56476509999999],[-5.922725889999981,40.56421074000002],[-5.919997809999984,40.56285667999998],[-5.919481529999985,40.562662569999986],[-5.918688309999993,40.562889799999994],[-5.917656539999996,40.562519580000014],[-5.916643220000026,40.56230199999999],[-5.915981789999989,40.56230069999998],[-5.915265289999979,40.562390849999986],[-5.911395120000009,40.563290170000016],[-5.9106612400000245,40.56352485000002],[-5.90911675000001,40.563041380000016],[-5.907673279999983,40.56270846000001],[-5.902566149999984,40.56122475000001],[-5.899035719999972,40.56042178000001],[-5.897591239999997,40.559242100000006],[-5.896738669999991,40.55864201000003],[-5.895899079999992,40.55806861000002],[-5.8951412999999775,40.55747514000001],[-5.8924725200000125,40.55501105000002],[-5.888974759999996,40.55770171],[-5.883446830000025,40.56042499],[-5.882243870000025,40.56101346999998],[-5.879757229999996,40.562237460000006],[-5.877810339999996,40.56310567000003],[-5.877326019999998,40.56337896000002],[-5.874571899999978,40.56580745000002],[-5.871911940000018,40.567404880000026],[-5.87128752000001,40.56771765000002],[-5.867217059999973,40.566161539999996],[-5.865856169999972,40.563610289999986],[-5.866273100000001,40.56314056999997],[-5.86654685000002,40.5615305],[-5.8667270600000165,40.558283459999984],[-5.867008039999973,40.55767300000002],[-5.867860979999989,40.555246899999986],[-5.869594829999983,40.55381670999998],[-5.869087229999991,40.552991659999975],[-5.8685998899999845,40.55236427],[-5.867310879999991,40.550937139999974],[-5.866432400000008,40.550274419999994],[-5.864394730000015,40.550117839999984],[-5.863663970000005,40.549595539999984],[-5.86287655000001,40.549128689999975],[-5.861395809999976,40.54846285000002],[-5.861011220000023,40.55246254999997],[-5.860979550000025,40.55338205999999],[-5.859873189999973,40.55152699000001],[-5.859516170000006,40.551184550000016],[-5.858097380000004,40.55030997],[-5.857753319999972,40.54999422999998],[-5.857611700000007,40.54971850999999],[-5.857651540000006,40.54926717000001],[-5.857541480000009,40.548900600000024],[-5.856223179999972,40.54788839999998],[-5.855388590000018,40.54714344000001],[-5.854367210000021,40.54644812999999],[-5.853674239999975,40.54597888000001],[-5.853275559999986,40.546321999999975],[-5.852197339999975,40.54678998999998],[-5.850610340000003,40.54695529999998],[-5.8495115100000135,40.54721661999997],[-5.849164140000028,40.54737831],[-5.848936630000026,40.54758208999999],[-5.848764319999987,40.54797365000002],[-5.848300160000008,40.54844446999999],[-5.846378720000018,40.54935655000003],[-5.8458638999999835,40.549468330000025],[-5.845109739999998,40.54950493000001],[-5.844578950000027,40.549797239999975],[-5.8440382900000145,40.55069326],[-5.843207640000003,40.55087586000002],[-5.842473240000004,40.55082189000001],[-5.841470200000003,40.55055835000002],[-5.841260149999982,40.550338350000004],[-5.840859850000015,40.54952854999999],[-5.839399829999991,40.54962752],[-5.837421930000005,40.55004545000003],[-5.8366947299999765,40.550720850000005],[-5.831749390000027,40.55189611999998],[-5.828106820000016,40.555128939999975],[-5.8322354700000005,40.55726148999997],[-5.83055803000002,40.55977060999999],[-5.828341920000014,40.56239197999997],[-5.826170250000018,40.564669949999995],[-5.824428230000024,40.56649601999999],[-5.807278429999997,40.56875188999999],[-5.806466660000012,40.568546449999985],[-5.806264189999979,40.56850634],[-5.805743510000013,40.56848296999999],[-5.804784980000022,40.56872243999999],[-5.803714609999986,40.56882951],[-5.797146899999973,40.56825027000002],[-5.796462930000018,40.56884330999998],[-5.791663270000015,40.569310770000016],[-5.788482190000025,40.56950475999997],[-5.784230139999977,40.56950832000001],[-5.782578899999976,40.56956616000002],[-5.782193240000026,40.56966553000001],[-5.781743860000006,40.56993756999998],[-5.7807944200000065,40.57096925000002],[-5.780502290000015,40.57161580000002],[-5.780204050000009,40.57183014999998],[-5.77979775,40.572002069999996],[-5.779127000000017,40.57206325999999],[-5.777833680000015,40.57192325],[-5.775061870000002,40.57144949000002],[-5.774041829999987,40.571347909999986],[-5.773110359999976,40.571388309999975],[-5.769801980000011,40.571936119999975],[-5.76876771000002,40.57234824],[-5.768426340000019,40.570086609999976],[-5.76770289000001,40.56743782000001],[-5.767684929999973,40.56642943999998],[-5.76817834000002,40.56378749999999],[-5.7684273699999835,40.562952859999996],[-5.76851782,40.561995920000015],[-5.768454889999987,40.56104266],[-5.767943989999992,40.55867701],[-5.767904659999999,40.55772317999998],[-5.767844939999975,40.55627444999999],[-5.7680332599999815,40.554540540000005],[-5.768057530000021,40.554269739999995],[-5.76777973999998,40.55354681],[-5.769144630000028,40.54970400000002],[-5.769167999999979,40.548838750000016],[-5.769172379999986,40.54865849999999],[-5.769084389999989,40.54766981],[-5.7688563300000055,40.54672051],[-5.768511890000013,40.54466609999997],[-5.7685180500000115,40.544242610000026],[-5.769205460000023,40.54258679999998],[-5.769501300000002,40.54203025999999],[-5.76966256999998,40.54135984999999],[-5.769676370000013,40.54054886],[-5.770766060000028,40.538342950000015],[-5.770713899999976,40.53765063999998],[-5.768935929999998,40.53490104000002],[-5.767959840000003,40.532699649999984],[-5.766999370000008,40.53087618000001],[-5.768637409999997,40.52880126000002],[-5.769970240000021,40.52676967000002],[-5.770604880000008,40.525556470000026],[-5.770916440000008,40.52481039000003],[-5.771167470000023,40.52374150999998],[-5.771741299999974,40.52134080000002],[-5.772087100000022,40.52056686999998],[-5.772531290000018,40.51988967],[-5.773714069999983,40.51851916999999],[-5.775347080000017,40.517191879999984],[-5.777091509999991,40.51542052999997],[-5.777618529999984,40.51475032000002],[-5.779902540000023,40.51375859000001],[-5.7817940699999895,40.512695210000004],[-5.7836973199999875,40.51163150999997],[-5.788601770000014,40.50923431000001],[-5.790182189999996,40.50835845],[-5.792701449999981,40.50650509000002],[-5.794600790000004,40.505639470000006],[-5.7953966300000275,40.50519686000001],[-5.796780940000019,40.504433740000024],[-5.799608599999999,40.503194269999995],[-5.803546460000007,40.501981820000026],[-5.806214339999997,40.501160389999995],[-5.804664259999981,40.50020725000002],[-5.804603450000002,40.50016369999997],[-5.8042522399999825,40.499947039999995],[-5.801909609999996,40.49809436999999],[-5.799834490000023,40.496712539999976],[-5.798406049999983,40.49385582999997],[-5.797912339999982,40.49304812999998],[-5.795863810000014,40.48832386999999],[-5.795418439999992,40.48754201000003],[-5.792494069999975,40.484730420000005],[-5.789326899999992,40.48117701000001],[-5.787884759999997,40.47882489],[-5.791734780000013,40.47239071000001],[-5.792680800000028,40.47045828],[-5.793498499999998,40.46827674000002],[-5.7936597799999845,40.46761529999998],[-5.794381729999998,40.46682320000002],[-5.794727179999995,40.466337450000026],[-5.794876450000004,40.465955529999974],[-5.795046179999986,40.46464536000002],[-5.795087000000024,40.463923780000016],[-5.795015620000015,40.46334002999998],[-5.795035330000019,40.46239378000001],[-5.7952326700000185,40.46174948999999],[-5.795858679999981,40.46006797000001],[-5.796194420000006,40.4587808],[-5.796524890000001,40.457935109999994],[-5.797175170000003,40.45570356000002],[-5.79856178,40.451895879999995],[-5.799227280000025,40.449465780000025],[-5.799574310000025,40.44873677999999],[-5.80035638999999,40.44741176000002],[-5.8011986399999955,40.445833059999984],[-5.801471779999986,40.44474554999999],[-5.80142767000001,40.44368374999999],[-5.801374769999995,40.44269422000002],[-5.801912619999996,40.441167940000014],[-5.802233220000005,40.44065575000002],[-5.803431849999981,40.43942869],[-5.803823840000007,40.438932780000016],[-5.805030680000016,40.439038589999996],[-5.806605020000006,40.43891027000001],[-5.809809780000023,40.43886838999998],[-5.81058440999999,40.438786489999984],[-5.811705969999991,40.43854302],[-5.815529249999997,40.43750411000002],[-5.819533680000006,40.43628953000001],[-5.822367030000009,40.43554477999999],[-5.823233560000006,40.43540651000001],[-5.824480300000005,40.43534],[-5.826986299999987,40.43522465000001],[-5.827813919999983,40.43556468000003],[-5.828570140000011,40.43588844999999],[-5.83252195,40.43735887999998],[-5.834144299999991,40.437814489999994],[-5.838989490000017,40.438938510000014],[-5.841438540000013,40.439427739999985],[-5.84401299000001,40.44009397000002],[-5.84562901999999,40.44039643999997],[-5.845855060000019,40.440444920000004],[-5.849079949999975,40.440878829999974],[-5.849536650000005,40.44275909999999],[-5.850636959999974,40.444803620000016],[-5.8519558300000085,40.447275090000005],[-5.8537052600000266,40.44960981000003],[-5.854265720000001,40.45003731999998],[-5.854376290000005,40.45014268],[-5.855111640000018,40.451358500000026],[-5.85657101999999,40.453799419999996],[-5.856921199999988,40.45760984999998],[-5.857059590000006,40.45809281999999],[-5.857759690000023,40.45903027000003],[-5.860557050000011,40.461870369999986],[-5.862100590000011,40.463228249999986],[-5.867747909999991,40.46070126000001],[-5.871187870000028,40.45923769000001],[-5.8765425799999775,40.45733003999999],[-5.879202340000006,40.45638106000001],[-5.881103510000003,40.45451419],[-5.885306749999984,40.45078837],[-5.8863276299999825,40.45012336000002],[-5.88799143,40.44960438999999],[-5.890132479999977,40.44921756999997],[-5.891494439999974,40.44908441000001],[-5.892899450000016,40.44913029999998],[-5.8962404399999855,40.449505939999995],[-5.898838309999974,40.44987312000001],[-5.904164739999999,40.450081599999976],[-5.905762240000001,40.449942350000015],[-5.908528550000028,40.449566489999995],[-5.911397980000004,40.44939513000003],[-5.915962850000028,40.44944213000002],[-5.917144580000013,40.44923215],[-5.919534380000016,40.44860433000002],[-5.921329669999977,40.448405820000005],[-5.92229734,40.44842638],[-5.9228206799999725,40.44826002000002],[-5.924405719999982,40.447292170000026],[-5.925399860000027,40.446564439999975],[-5.926149399999986,40.44590595],[-5.926973820000001,40.44561485000003],[-5.927453979999996,40.44526941999999],[-5.927894949999995,40.44456468999999],[-5.928365960000008,40.44482297000002],[-5.928801589999978,40.445352360000015],[-5.928983270000003,40.445735060000004],[-5.928935290000027,40.44625868999998],[-5.928694959999973,40.44669712000001],[-5.928265810000028,40.44713134],[-5.927836609999986,40.44783576999998],[-5.927659849999998,40.448380680000014],[-5.927907839999989,40.44893284],[-5.928434149999987,40.44964907000002],[-5.930337870000017,40.451402229999985],[-5.931033449999973,40.45194301999999],[-5.932825130000026,40.45274422],[-5.933934509999972,40.45358074000001],[-5.934479769999996,40.454188380000005],[-5.934743149999974,40.45482119000002],[-5.934970399999997,40.45570713000001],[-5.935314670000025,40.456301859999996],[-5.935797960000002,40.456568790000006],[-5.9375749299999825,40.45675779999999],[-5.938600409999992,40.45756038000002],[-5.939334239999994,40.4562717],[-5.943560810000008,40.44964292999998],[-5.944537459999992,40.44851917],[-5.948323379999977,40.44504494],[-5.951874970000006,40.441612599999985],[-5.952294909999978,40.441241590000004],[-5.952856150000002,40.440866959999994],[-5.953467250000017,40.440554099999986],[-5.954709869999988,40.44012600999997],[-5.955185959999994,40.43996070999998],[-5.957471030000022,40.43937983000001],[-5.960397300000011,40.43836814000002],[-5.961010310000006,40.438100229999975],[-5.9654899799999725,40.434886870000014],[-5.967116719999979,40.43354807999998],[-5.9688171999999895,40.432279429999994],[-5.970833130000017,40.430948590000014],[-5.972523809999984,40.42999538999999],[-5.974416700000006,40.42855057000003],[-5.975042140000028,40.428300279999974],[-5.976766829999974,40.428120750000005],[-5.977092900000002,40.42803128000003],[-5.97888088000002,40.42661611],[-5.981271740000011,40.42417655999998],[-5.982714859999987,40.421896549999985],[-5.985159109999984,40.41747398000001],[-5.985613460000025,40.41682272999998],[-5.985812199999998,40.41652035999999],[-5.986661000000026,40.41546261000002],[-5.988954019999994,40.41322358999997],[-5.990698810000026,40.41377290999998],[-5.992390549999982,40.414719890000015],[-5.994041840000023,40.415550800000005],[-5.994961380000007,40.41635561999999],[-5.99645344999999,40.41572246999999],[-5.99867783000002,40.414863130000015],[-5.9995007499999815,40.414553539999986],[-6.005326459999992,40.412006270000006],[-6.015093149999984,40.40774367],[-6.014506729999994,40.40411110000002],[-6.013260930000001,40.40233317000002],[-6.012187719999986,40.40125327999999],[-6.009165789999997,40.39900818000001],[-6.007765070000005,40.398243019999995],[-6.003061160000016,40.39923005000003],[-6.001507479999987,40.399792830000024],[-5.999007399999982,40.403451580000024],[-5.997715840000012,40.40328693999999],[-5.996450400000015,40.40291444000002],[-5.9950463499999955,40.40233835999999],[-5.994481059999998,40.40181258000001],[-5.994313499999976,40.40122244999998],[-5.99466314,40.40033970000002],[-5.9947385300000064,40.39991441000001],[-5.994550240000024,40.39938787],[-5.99393791,40.398863310000024],[-5.9913049599999795,40.397670500000004],[-5.990628839999999,40.39730070000002],[-5.990177500000016,40.39695209000001],[-5.989469929999984,40.39587153000002],[-5.989079109999977,40.39449453999998],[-5.98902056999998,40.39317199999999],[-5.988767180000025,40.39197159999998],[-5.989162329999999,40.39105166000002],[-5.989028159999975,40.39041562],[-5.988605020000023,40.38990415000001],[-5.987940359999982,40.389525030000016],[-5.986983710000004,40.38946869],[-5.986670629999992,40.389314660000025],[-5.986233819999995,40.38822707000003],[-5.985909110000023,40.38701049000002],[-5.985629350000011,40.386810560000015],[-5.983615260000022,40.38654731999998],[-5.982775769999989,40.386208710000005],[-5.982084869999994,40.38576717000001],[-5.981638270000019,40.38525628000002],[-5.981407680000018,40.38456867999997],[-5.981388229999993,40.38412783000001],[-5.98199163999999,40.38312148],[-5.981660579999982,40.38229235],[-5.980905059999998,40.381185949999974],[-5.978125509999984,40.37905085],[-5.9761682899999755,40.37739892000002],[-5.97420575000001,40.37589120000001],[-5.972783339999978,40.37461274999998],[-5.972136009999986,40.37381875],[-5.9703942900000015,40.37090017000003],[-5.969563569999991,40.37021894999998],[-5.968066410000006,40.36991513999999],[-5.967239440000014,40.36985530999999],[-5.965297920000012,40.369085480000024],[-5.962639560000014,40.367811589999974],[-5.962457270000016,40.36633907999999],[-5.9628496899999845,40.36454558999998],[-5.960793120000005,40.36383267999997],[-5.959634090000009,40.36344802999997],[-5.958481759999984,40.36321633],[-5.956639040000027,40.36308334],[-5.955017399999974,40.362620400000026],[-5.953423600000008,40.361985600000025],[-5.952568110000016,40.361809300000004],[-5.951271969999993,40.36178835999999],[-5.950053050000008,40.36164833999999],[-5.949411250000026,40.36151159000002],[-5.946375939999996,40.35994969000001],[-5.945187659999988,40.359430540000005],[-5.943477589999986,40.358555360000025],[-5.942517510000016,40.35813845000001],[-5.941026229999977,40.35769002000001],[-5.936770029999991,40.35674439000002],[-5.935068979999983,40.35688668],[-5.933582349999995,40.35708655000002],[-5.931202530000007,40.3578675],[-5.928299299999992,40.35852655999997],[-5.925621509999985,40.358954659999995],[-5.919912249999982,40.36062125000001],[-5.918116460000022,40.36102690000001],[-5.915667129999974,40.36129586999999],[-5.914900660000001,40.36127017000001],[-5.9112168600000246,40.36048930999999],[-5.910079189999976,40.36031980000001],[-5.909133989999987,40.36024450999997],[-5.907903239999996,40.360374560000025],[-5.90478263,40.36009274000003],[-5.903028570000004,40.36010077999998],[-5.901137600000027,40.36021131000001],[-5.899693010000021,40.36057182000002],[-5.897628279999992,40.36129914999998],[-5.894177860000013,40.36211519],[-5.893451289999973,40.36219643999999],[-5.892768690000025,40.36220451999998],[-5.892100540000001,40.362275280000006],[-5.891819399999974,40.362309340000024],[-5.89111496999999,40.36263321000001],[-5.8895394300000135,40.363789510000004],[-5.887997489999975,40.36545837],[-5.887319999999988,40.36586261000002],[-5.8857949200000235,40.366549229999976],[-5.884001689999991,40.36757577999998],[-5.883677690000013,40.36770997000002],[-5.882912550000015,40.36744082000001],[-5.881960230000004,40.36692412999997],[-5.878878480000026,40.36479415000002],[-5.878566519999993,40.364657799999975],[-5.877902819999974,40.36455724000001],[-5.875911229999986,40.363967290000005],[-5.871013349999998,40.36287306999998],[-5.870060570000021,40.36289674],[-5.868386579999992,40.36340667000002],[-5.866860959999997,40.36408404000002],[-5.86586466,40.36474827000001],[-5.864485539999976,40.365827309999986],[-5.862078080000003,40.36737316],[-5.859988069999986,40.36835265000002],[-5.858500939999999,40.368830790000004],[-5.857529479999982,40.36897191000003],[-5.856829730000015,40.36913333000001],[-5.855983879999997,40.36946047999999],[-5.854982430000007,40.36972842],[-5.854366900000002,40.36965355000001],[-5.8534018600000195,40.36966837],[-5.848893920000023,40.37000476999998],[-5.848448019999978,40.370042790000014],[-5.8482941099999834,40.36666882999998],[-5.848366220000003,40.36642386],[-5.848703969999974,40.36605523999998],[-5.849930809999989,40.365268370000024],[-5.8504195699999855,40.36485098999998],[-5.8524602800000025,40.362143479999986],[-5.853537879999976,40.36117110999999],[-5.854369609999992,40.361069499999985],[-5.8572774300000106,40.35854766],[-5.860755499999982,40.35475961999998],[-5.864857930000028,40.35043357000001],[-5.867512599999998,40.34779164999998],[-5.867958659999999,40.34748334],[-5.870620410000015,40.34667867000002],[-5.871730720000016,40.34648895999999],[-5.874476790000017,40.34628558999998],[-5.877606720000017,40.34292905000001],[-5.87804275000002,40.34238676000001],[-5.878132230000006,40.34227643999998],[-5.879258919999984,40.340536989999976],[-5.880496119999975,40.338353419999976],[-5.8808923500000105,40.33798324999998],[-5.8825319100000115,40.335852680000016],[-5.8841268900000046,40.333507010000005],[-5.885803049999993,40.33141151000001],[-5.8842447200000265,40.326604480000015],[-5.885048489999974,40.32613405000001],[-5.886041739999996,40.32541570000001],[-5.886951140000008,40.32466340000002],[-5.887388900000019,40.32416606999999],[-5.888881200000014,40.32356133000002],[-5.890632030000006,40.32212142999998],[-5.890785470000026,40.321856379999986],[-5.890985999999998,40.32104070999998],[-5.891276269999992,40.320673150000005],[-5.892749849999973,40.319357249999996],[-5.893460030000028,40.318627900000024],[-5.893701720000024,40.31822553000001],[-5.8937689599999885,40.316494439999985],[-5.893634940000027,40.31556103999998],[-5.892251199999976,40.31264126999997],[-5.89219903999998,40.31224624999999],[-5.892301970000005,40.31190140000001],[-5.893317519999982,40.310885180000014],[-5.894102970000006,40.309991809999985],[-5.8952273599999785,40.30849546000002],[-5.895421269999986,40.30752682000002],[-5.896126219999985,40.30530236999999],[-5.896854910000002,40.304734670000016],[-5.900993860000028,40.30055958000003],[-5.901868859999979,40.29956483000001],[-5.903274510000017,40.29585455],[-5.903593310000019,40.29533313000002],[-5.906859950000012,40.29223359000002],[-5.9070739,40.29146257999997],[-5.907802689999983,40.29035436999999],[-5.908334299999979,40.29013383],[-5.909230910000019,40.28992212000003],[-5.911115049999978,40.28805521999999],[-5.912762100000009,40.286968890000026],[-5.913978439999994,40.28708236],[-5.914009340000007,40.28643305000003],[-5.9145511500000225,40.28535653],[-5.915984760000015,40.28177149999999],[-5.917026669999984,40.278925930000014],[-5.917151909999973,40.278283250000015],[-5.91717374000001,40.27769721999999],[-5.920839810000018,40.28090135000002],[-5.937782420000019,40.28106660999998],[-5.941667730000006,40.28441762],[-5.9456859699999995,40.285405200000014],[-5.953728259999991,40.28750588999998],[-5.956793600000026,40.28848140000002],[-5.9623790100000065,40.290599250000014],[-5.964946820000023,40.2914882],[-5.965383669999994,40.290450169999986],[-5.966134699999998,40.289872460000026],[-5.966550579999989,40.28969966],[-5.968485240000007,40.289559929999996],[-5.9707407500000045,40.29110530000003],[-5.971524960000011,40.29155351999998],[-5.973237779999977,40.29198687000002],[-5.974164589999987,40.292467439999996],[-5.974978169999986,40.29277977999999],[-5.975642170000015,40.293168019999996],[-5.976459420000026,40.293831539999985],[-5.978030530000012,40.29612395999999],[-5.97887965000001,40.296975789999976],[-5.9819062899999835,40.298122750000005],[-5.982441789999996,40.29826206000001],[-5.9846050400000195,40.29823326000002],[-5.985539270000004,40.298344250000014],[-5.9899054699999965,40.29918619],[-5.992144639999992,40.29901117000003],[-5.993247940000003,40.29948701000001],[-5.999736970000015,40.30257044000001],[-6.005319900000018,40.30537079999999],[-6.005939179999984,40.30580506000001],[-6.006200330000013,40.30612252999998],[-6.006435020000026,40.30663885000001],[-6.006580719999988,40.30753578000002],[-6.006777759999977,40.30799903000002],[-6.0070429200000035,40.308406460000015],[-6.008680249999998,40.310039200000006],[-6.009503310000014,40.31135083999999],[-6.01026459000002,40.31233082],[-6.0108915700000125,40.31293599000003],[-6.011390629999994,40.31331030000001],[-6.011769909999998,40.31337246999999],[-6.012650959999974,40.31334050999999],[-6.012962140000013,40.313458500000024],[-6.013476570000023,40.31391346999999],[-6.015654030000007,40.31630663999999],[-6.016428399999995,40.316520620000006],[-6.0172088499999745,40.31924744000003],[-6.019584370000018,40.32264415999998],[-6.018373639999993,40.332439539999996],[-6.018183860000022,40.333462310000016],[-6.018154209999977,40.33358917999999],[-6.016850809999994,40.3355057],[-6.016316319999987,40.336717599999986],[-6.016028989999995,40.33819326999998],[-6.016016620000016,40.34029226000001],[-6.021054069999991,40.340016590000005],[-6.025187379999977,40.339791390000016],[-6.027682789999972,40.33952789],[-6.032602510000004,40.34109225999998],[-6.0366074699999785,40.34220306999998],[-6.045669540000006,40.34294640000002],[-6.04676379,40.34293557000001],[-6.048321859999987,40.34250718999999],[-6.050001940000016,40.34191342999998],[-6.052163230000019,40.34155012999997],[-6.056526589999976,40.34355148999998],[-6.06294711999999,40.346002580000004],[-6.067725310000014,40.347533150000004],[-6.072267860000011,40.34827717000002],[-6.096941109999989,40.35467104999998],[-6.098414880000007,40.35497380999999],[-6.099003030000006,40.35521924],[-6.104178880000006,40.356435859999976],[-6.105715669999995,40.356795369999986],[-6.105124880000005,40.357775000000004],[-6.104592430000025,40.358230649999996],[-6.10410803000002,40.35845082999998],[-6.103513249999992,40.35857489],[-6.103018109999994,40.35856116999997],[-6.102175339999974,40.35841266],[-6.101268819999973,40.35815778],[-6.099318419999975,40.35670593999998],[-6.098572849999982,40.356365659999994],[-6.09800223000002,40.35624584999999],[-6.097289040000021,40.35635503999998],[-6.096930680000014,40.35649975000001],[-6.096519300000011,40.35677198000002],[-6.096180940000011,40.35709630000002],[-6.095453420000013,40.35817861999999],[-6.094581059999996,40.35918375],[-6.093325059999984,40.36081161999999],[-6.092459870000027,40.361717469999974],[-6.091813230000014,40.36199598000002],[-6.09107972999999,40.362177729999985],[-6.09035265,40.36224220999998],[-6.088175019999994,40.36174199999999],[-6.08590756000001,40.360820820000015],[-6.085579510000002,40.36085659999998],[-6.085316820000003,40.36103474999999],[-6.084090370000013,40.36228344],[-6.082378269999992,40.363211809999996],[-6.0821200799999815,40.36348891],[-6.081745780000006,40.36431854],[-6.081494809999981,40.36604556999998],[-6.081650850000017,40.366626870000005],[-6.081746160000023,40.36742594999998],[-6.0820790299999885,40.36878614],[-6.082140709999976,40.36962215],[-6.081955800000003,40.37047374000002],[-6.081553699999972,40.37172743999997],[-6.0812627799999746,40.373095260000014],[-6.083124940000005,40.37390125000002],[-6.086368849999985,40.375048600000014],[-6.0869253000000185,40.375628189999986],[-6.087025310000001,40.37601282000003],[-6.0869193500000165,40.37652904999999],[-6.086328439999988,40.37803100000002],[-6.085885850000011,40.37865529999999],[-6.0853693999999905,40.37920951000001],[-6.084260799999981,40.37995067000003],[-6.0836232500000165,40.38017485],[-6.08220848000002,40.380401749999976],[-6.079163049999977,40.38077118000001],[-6.076944219999973,40.38092938],[-6.076299790000007,40.38126177999999],[-6.074800900000014,40.38222940999998],[-6.074170770000023,40.38287666999997],[-6.072900570000002,40.38472988000001],[-6.072350200000017,40.38609557000001],[-6.072155819999978,40.387001440000006],[-6.0722708100000204,40.38745774],[-6.072478190000027,40.387614359999986],[-6.0734405599999945,40.387795919999974],[-6.0745708200000195,40.38778386000001],[-6.076261699999975,40.387666790000026],[-6.078778979999981,40.38759071999999],[-6.080361630000027,40.38768363999998],[-6.08216262000002,40.38791481999999],[-6.083789350000018,40.38845686000002],[-6.085077130000002,40.38931416999998],[-6.085318340000015,40.389695029999984],[-6.085328609999976,40.38991993000002],[-6.085166259999994,40.390491699999984],[-6.084893500000021,40.39096734999998],[-6.08364628999999,40.39228865000001],[-6.083357069999977,40.39240446000002],[-6.081581540000002,40.39221765000002],[-6.080418660000021,40.39203250000003],[-6.079832290000013,40.39183197],[-6.077457059999972,40.39063428999998],[-6.0769482800000105,40.39058478999999],[-6.07666918000001,40.39066428000001],[-6.076261610000017,40.391026409999995],[-6.07582610999998,40.39155140999998],[-6.075270429999989,40.39280015999998],[-6.075164070000028,40.39356858999997],[-6.074893910000014,40.39462058999999],[-6.074575340000024,40.39538565999999],[-6.074192900000014,40.39578313999999],[-6.073741380000001,40.395957280000005],[-6.073030179999989,40.396120310000015],[-6.07180083999998,40.39628811],[-6.070142169999997,40.396341199999995],[-6.069574100000011,40.39628424],[-6.068998270000009,40.39605634999998],[-6.067738169999984,40.395288189999974],[-6.067056050000019,40.39505409999998],[-6.066630009999983,40.39501137000002],[-6.06614922,40.395060150000006],[-6.065652660000012,40.395280490000005],[-6.0653581700000245,40.39554049999998],[-6.064957530000015,40.396316730000024],[-6.064958830000023,40.396604920000016],[-6.065126910000004,40.39693371999999],[-6.065559169999972,40.39737259999998],[-6.067307620000008,40.398776329999976],[-6.0681562500000155,40.39930321999998],[-6.068899299999998,40.39958072000002],[-6.070053389999998,40.399829280000006],[-6.071533699999975,40.39999709],[-6.07315533000002,40.40042233999998],[-6.073891559999993,40.400808059999974],[-6.074226899999985,40.401186440000004],[-6.074987969999995,40.402634320000004],[-6.075152660000015,40.40340454],[-6.077042210000002,40.40298493],[-6.0791699600000015,40.40262199],[-6.079935260000013,40.4026106],[-6.082227190000026,40.402747610000006],[-6.082943510000007,40.40295366999999],[-6.083319809999978,40.40319582000001],[-6.083695449999993,40.40368117999998],[-6.0839697000000115,40.40426832000003],[-6.084405619999984,40.40581488999999],[-6.084709999999973,40.40654532999997],[-6.085097840000003,40.40703936],[-6.085789359999978,40.40773244000002],[-6.0871477499999855,40.40857882],[-6.08773180999998,40.40872533999999],[-6.088838870000018,40.408713750000004],[-6.091882409999982,40.40801984000001],[-6.092271359999984,40.40827963999999],[-6.0926039500000115,40.408594979999975],[-6.092823389999978,40.409012440000026],[-6.092873950000012,40.40934434000002],[-6.092701250000005,40.41071801999999],[-6.092818910000005,40.41122826999998],[-6.09302888000002,40.41143880999999],[-6.093403200000012,40.411635950000004],[-6.093893560000026,40.411793939999995],[-6.09636420999999,40.41222312000002],[-6.096655750000025,40.412413449999974],[-6.097406279999973,40.41310487999999],[-6.097891090000019,40.41339811],[-6.098489470000004,40.41359821999998],[-6.099821669999983,40.413868709999974],[-6.1027623699999936,40.41426711999998],[-6.1035404400000175,40.41478662999998],[-6.104164860000026,40.415040050000016],[-6.1055282199999965,40.41470616999999],[-6.106271269999979,40.41420882],[-6.107098599999972,40.41400642999997],[-6.107895009999993,40.41415612999998],[-6.10939725999998,40.414791219999984],[-6.110124310000003,40.41496978999999],[-6.111059889999979,40.41507068999999],[-6.11246294,40.41508692999997],[-6.1133078400000045,40.41501011999998],[-6.11583588000002,40.41463571000003],[-6.116324229999975,40.41474863000002],[-6.116662500000018,40.41492864999998],[-6.117238100000009,40.41539948000002],[-6.1179780599999845,40.41585687000003],[-6.1183750100000225,40.41807086],[-6.11887925000002,40.419291190000024],[-6.119179320000001,40.41940918],[-6.120458919999976,40.419302560000006],[-6.12232118999998,40.419054070000016],[-6.122784679999995,40.41939280999998],[-6.123385779999978,40.42041234999999],[-6.123895539999978,40.42073181000001],[-6.124222190000012,40.42065993],[-6.124623719999988,40.4204239],[-6.125087539999981,40.420006039999976],[-6.12576863999999,40.41969938],[-6.126363070000025,40.419557199999986],[-6.126991459999999,40.41963926],[-6.129484190000028,40.42078766999998],[-6.1288010900000245,40.422067140000024],[-6.127906940000003,40.42337033000001],[-6.127545020000014,40.424460959999976],[-6.125885279999977,40.425775869999995],[-6.125537469999983,40.426154559999986],[-6.125326229999985,40.42668268],[-6.125128130000007,40.42800304000002],[-6.125096910000025,40.429363920000014],[-6.124171550000028,40.43050582000001],[-6.123495760000026,40.430929409999976],[-6.121136709999973,40.43292967000002],[-6.119291250000003,40.43507813999997],[-6.117049300000019,40.435282789999974],[-6.11612654999999,40.441585480000015],[-6.115798149999989,40.442386950000014],[-6.113564829999973,40.44559057999999],[-6.110663139999986,40.44938861999998],[-6.1099532599999975,40.450101270000005],[-6.105228280000006,40.45220993999999],[-6.10337930999998,40.454304209999975],[-6.098823949999996,40.45780413],[-6.093211899999972,40.45730612],[-6.089149669999983,40.45743289000001],[-6.085794729999975,40.45858542000002],[-6.080930659999979,40.46000329999998],[-6.07537026,40.46063791],[-6.071093410000003,40.46097689999999],[-6.070601590000024,40.46286341000001],[-6.070480110000005,40.46459596],[-6.0706392000000164,40.465240230000006],[-6.070838620000018,40.467027289999976],[-6.071391240000025,40.46750797999999],[-6.072228080000002,40.46775592],[-6.073410749999994,40.46834593],[-6.073470059999977,40.46835335999998],[-6.073793430000023,40.468461839999975],[-6.075003530000004,40.46861876000003],[-6.076600009999993,40.468972529999974],[-6.07858809999999,40.47221603999998],[-6.076959390000013,40.47399779],[-6.074182370000017,40.47853015999999],[-6.07344028,40.47958570999998],[-6.073162860000025,40.480484769999975],[-6.073170790000006,40.48091689],[-6.073736940000003,40.482982400000026],[-6.073795570000016,40.483233040000016],[-6.073633470000004,40.485624169999994],[-6.073924130000023,40.49147088000001],[-6.074194869999985,40.49249044999999],[-6.07432682000001,40.49305436999998],[-6.074709530000007,40.49600742000001],[-6.075607409999975,40.50016268000002],[-6.075622889999977,40.50024332999999],[-6.075471110000024,40.50208477000001],[-6.075419619999991,40.50379744999998],[-6.0752875300000255,40.50452151000002],[-6.075177940000003,40.506253749999985],[-6.077363390000016,40.50656479000003],[-6.078068219999977,40.50675315000001],[-6.078646859999992,40.507278129999975],[-6.079579910000007,40.507811660000016],[-6.082867000000022,40.508984870000006],[-6.083474690000003,40.509112749999986],[-6.0840290500000265,40.50910694999999],[-6.08480892,40.50784315999999],[-6.0855655500000125,40.50710239],[-6.086041749999993,40.50693654999998],[-6.087372519999974,40.50662175000002],[-6.088708650000001,40.50642388],[-6.090239339999982,40.50609469],[-6.090548449999972,40.505888260000006],[-6.090932000000009,40.505760899999984],[-6.092441370000017,40.50625187999998],[-6.095272249999994,40.50750900999998],[-6.0961688300000105,40.50801637000001],[-6.0971313900000155,40.50867505999997],[-6.098043329999996,40.509515239999985],[-6.099108109999975,40.51034231],[-6.099495219999994,40.51054807999998],[-6.100009489999991,40.51069639000002],[-6.10062154000002,40.51066193999998],[-6.100971399999992,40.51057148000001],[-6.101418609999996,40.51028925999998],[-6.102074319999986,40.509154790000025],[-6.102661710000007,40.50884178000001],[-6.103216470000007,40.50884488000003],[-6.103833909999992,40.50892735000002],[-6.104915399999982,40.50934860000001],[-6.106449090000012,40.50959554999997],[-6.108247349999999,40.50943905999998],[-6.108967119999988,40.50943769000003],[-6.109536590000005,40.50950340999998],[-6.110508719999984,40.509855500000015],[-6.111318489999974,40.510013809999975],[-6.11319026000001,40.510170500000015],[-6.115504480000027,40.51019812999999],[-6.1167272999999796,40.510102070000016],[-6.1170496899999875,40.510183429999984],[-6.117820259999974,40.51051388000002],[-6.118717460000028,40.51103004999999],[-6.117898260000004,40.51219603999999],[-6.1152060200000165,40.51572735000002],[-6.114063330000022,40.51704616000001],[-6.110925810000026,40.52040023000001],[-6.10889788999998,40.522742600000015],[-6.108764339999993,40.522917329999984],[-6.107162060000007,40.52502303],[-6.100172480000026,40.52728256],[-6.097032409999997,40.52727678999997],[-6.096441760000005,40.52777901000002],[-6.093988079999974,40.530375719999995],[-6.0938052899999775,40.53819851999998],[-6.093745950000027,40.538704499999994],[-6.093566629999998,40.53916865000002],[-6.092958889999977,40.53981541000002],[-6.092496779999976,40.54054833999999],[-6.089289059999999,40.542165409999996],[-6.088083999999981,40.542918199999974],[-6.087086639999995,40.54305297000002],[-6.085791579999977,40.54313264000001],[-6.084993849999989,40.54324402999998],[-6.0834972600000015,40.543563240000026],[-6.081832679999991,40.54382386999998],[-6.0790121900000145,40.54436750000002],[-6.078008350000005,40.54461945000003],[-6.077342460000011,40.544258920000004],[-6.075821850000011,40.543281690000015],[-6.074390510000001,40.541158189999976],[-6.0742053999999825,40.540982989999975],[-6.073915399999976,40.540837599999975],[-6.072198720000017,40.540216799999996],[-6.071198620000018,40.53977506000001],[-6.069581249999999,40.53925965000002],[-6.068238529999974,40.53907018000001],[-6.066462580000007,40.53844185999998],[-6.063661630000013,40.53785872999998],[-6.06189723,40.537482220000015],[-6.061286030000019,40.53728226999999],[-6.0592929399999775,40.53629031999998],[-6.057481189999976,40.53513140000001],[-6.057037149999985,40.534972030000006],[-6.055858790000002,40.53476003999998],[-6.054280370000015,40.53457665000002],[-6.046306800000025,40.534724289999986],[-6.045490669999992,40.53390818999998],[-6.045139329999984,40.533449099999984],[-6.044851419999986,40.53308741000001],[-6.044482959999982,40.532250480000016],[-6.044325959999981,40.531651160000024],[-6.043722469999977,40.53031605000001],[-6.043707419999976,40.53024439000001],[-6.0433963099999914,40.52936992000002],[-6.043309659999977,40.52875972999999],[-6.0433459999999855,40.52617379999998],[-6.043447940000021,40.52503625000003],[-6.042561309999996,40.52526677999998],[-6.04230235,40.52528260999998],[-6.041547400000013,40.52503229000001],[-6.040781470000013,40.52453908000001],[-6.039652530000012,40.52410945999998],[-6.03928258000002,40.52402011999999],[-6.038334159999977,40.52418920000002],[-6.034784279999997,40.52660635000001],[-6.033715850000021,40.5272559],[-6.033124719999989,40.527496610000014],[-6.031977519999998,40.52640087999998],[-6.03098387,40.527138519999994],[-6.029699810000011,40.52876644999998],[-6.028203070000018,40.53039093000001],[-6.0270596400000045,40.531474720000006],[-6.025616060000004,40.53297169000001],[-6.025172909999981,40.53283018000002],[-6.024673640000003,40.5327532],[-6.02367221999998,40.532797440000024],[-6.023121679999974,40.532892919999995],[-6.022404810000012,40.53322694000002],[-6.02209246000001,40.533631420000006],[-6.021494809999979,40.53346692000002],[-6.0210435800000255,40.53314547999997],[-6.020836659999986,40.533006779999994],[-6.020479690000002,40.532944069999985],[-6.019613960000015,40.53338102999999],[-6.018949620000001,40.53330834000002],[-6.018643859999997,40.53333435000002],[-6.017838279999978,40.53379675000002],[-6.017513380000025,40.533922329999996],[-6.015117830000008,40.53367867999998],[-6.014507110000011,40.53374867000002],[-6.014277339999978,40.53388977999998],[-6.013415590000022,40.53441665999998],[-6.0118014099999755,40.53553961],[-6.010545659999991,40.533861049999985],[-6.009405340000001,40.533440429999985],[-6.00729235,40.532387640000024],[-6.007063490000007,40.532285520000016],[-6.006309110000018,40.53178276],[-6.003982500000006,40.530438240000024],[-6.002978939999991,40.529905919999976],[-6.0027379,40.5297951],[-5.999766469999997,40.52801691000002],[-5.9962545199999795,40.52549608999999],[-5.994249630000013,40.52394486999998],[-5.991534880000017,40.52261915999998],[-5.988868809999985,40.52158936000001],[-5.986880589999998,40.52093826999999],[-5.98634487999999,40.52083503],[-5.985968420000006,40.520862780000016],[-5.98616045,40.52173148999998],[-5.9860117800000125,40.52210461999999],[-5.985714449999989,40.52231947000001],[-5.985204500000009,40.52253080999998],[-5.984967310000002,40.522771130000024],[-5.98467574,40.523913540000024],[-5.984099630000003,40.52449587000001],[-5.983907359999989,40.525482599999975],[-5.983853599999975,40.52560108],[-5.983638569999982,40.52607499999999],[-5.983377780000012,40.52631592],[-5.9821061900000245,40.52718642000002],[-5.9813855200000035,40.52797062000002],[-5.981045160000008,40.52854685],[-5.980857669999978,40.529110119999984],[-5.98366704,40.529641019999985],[-5.985938869999984,40.530293830000005],[-5.986516830000028,40.53054909000002],[-5.988569910000024,40.53185602000002],[-5.988856709999993,40.53219985999999],[-5.990224650000016,40.534290080000005],[-5.990936009999984,40.53515434000002],[-5.991359139999986,40.53537755000002],[-5.992867100000012,40.535572650000006],[-5.99211557000001,40.54069906000001],[-5.992226169999981,40.54132668],[-5.992200640000021,40.54181371999999],[-5.992507950000004,40.54261638000003],[-5.995139880000011,40.54577260000002],[-5.995483340000021,40.54606092],[-5.996654610000007,40.54664299000001],[-5.998532720000014,40.54718867999998],[-5.999409739999976,40.54752617999998],[-6.000533080000025,40.54809144000001],[-6.001201849999973,40.54852440000002],[-6.0015827400000035,40.54885675999998],[-6.002713260000007,40.55063775000002],[-6.002988300000027,40.55124305999999],[-6.002907219999997,40.55154240000002],[-6.000776970000004,40.55302089000003],[-6.000989549999986,40.553285570000014],[-6.002471280000009,40.55394057000001],[-6.003524519999985,40.55425543000001],[-6.004953880000016,40.554794679999986],[-6.005841900000007,40.555375019999985],[-6.006434249999984,40.55594504999999],[-6.006847259999972,40.55646569999999],[-6.007476999999994,40.55813359000001],[-6.008027449999986,40.55882178000002],[-6.0085838499999795,40.55990613],[-6.0085147799999845,40.56073657000002],[-6.007771400000024,40.562332149999975],[-6.007738840000002,40.56239605000002],[-6.006438339999988,40.56447450000002],[-6.007602879999979,40.564633300000025],[-6.007772100000011,40.56972681000002],[-6.007472070000006,40.57331037],[-6.00745452000001,40.57344592999999],[-6.0074467499999855,40.57353619999998],[-6.0072218700000235,40.574316650000014],[-6.008216559999994,40.57647940999999],[-6.008480179999992,40.57761642000003],[-6.008424209999987,40.578212329999985],[-6.008933010000021,40.579811310000025],[-6.00822555000002,40.580631359999984],[-6.008354750000024,40.58219518999999],[-6.008565850000025,40.58347767999999],[-6.008586130000026,40.58366629],[-6.008504449999975,40.58447904000002],[-6.009538080000027,40.58645161999999],[-6.008340980000014,40.58636574000002],[-6.002728830000024,40.585566159999985],[-6.001031699999999,40.585394140000005],[-5.997313500000018,40.585202530000004],[-5.996006609999995,40.585038310000016]]]}}]}