{"type":"FeatureCollection","features":[{"type":"Feature","properties":{"OBJECTID":1773,"ZON_CO_ID":55,"ZON_DS_NOM":"Somontano","CAL_DS_NOM":"D.O.Somontano","TPR_DS_DES":"Denominación de Origen","TPR_DS_GRU":"CALIDAD DIFERENCIADA","FAM_DS_NOM":"Vinos","classification":"DO","normalizedName":"Somontano"},"geometry":{"type":"Polygon","coordinates":[[[-0.05159192000002122,42.35411505000002],[-0.050188230000003387,42.35401588000002],[-0.049200519999999415,42.3541075],[-0.04824550000000727,42.354019859999994],[-0.052088659999981246,42.34998551000001],[-0.056701379999992696,42.34817706000001],[-0.05803221999997277,42.34827428],[-0.05749436000002106,42.34705379000002],[-0.05715602999998737,42.34546019999999],[-0.05717557000002671,42.34400188000001],[-0.05624774000000343,42.342555240000024],[-0.05563710000001265,42.34185516000002],[-0.05567911000002823,42.34095573000002],[-0.055542930000001434,42.340492970000014],[-0.05518564999999853,42.33982641],[-0.05505114999999705,42.33932768],[-0.05518168999998352,42.338871770000026],[-0.05550199999998995,42.338510799999995],[-0.05594810000002326,42.33831515000003],[-0.05653632000002062,42.33819519000002],[-0.05685823999999684,42.338059380000004],[-0.05705689000001257,42.337704280000025],[-0.05695790999999417,42.337224470000024],[-0.05603673000001663,42.336417359999984],[-0.055680240000015147,42.335993959999996],[-0.056053399999996145,42.33476085000001],[-0.05539121999998997,42.33490591999998],[-0.05505429999999478,42.33484322999999],[-0.054991229999984625,42.334634489999985],[-0.05510292000002437,42.334322180000015],[-0.055925679999973,42.333857060000014],[-0.05597800999998981,42.33351621000003],[-0.0560311200000001,42.33341852000001],[-0.05617957999999135,42.33309815000001],[-0.05716631000001371,42.33197985999999],[-0.05813202000001638,42.33131128000002],[-0.059033709999994244,42.33097422999998],[-0.05942542999997613,42.33064209999998],[-0.05945553999998765,42.3305168],[-0.0593142800000237,42.33042311999998],[-0.05868897999999945,42.330299009999976],[-0.058288960000027146,42.33028873000001],[-0.055877520000024106,42.33046990999998],[-0.05486426999999594,42.33059694999997],[-0.05062771000001476,42.32983958],[-0.04994248999997808,42.32892141999997],[-0.04907816999997294,42.32742232999999],[-0.04692500999999538,42.32442218],[-0.04450531999998475,42.321676260000004],[-0.0436496500000203,42.32103282999998],[-0.04268608000000995,42.32062073999998],[-0.0419023200000197,42.319997160000014],[-0.039835059999973055,42.31776452999998],[-0.03851627000000235,42.31664983000002],[-0.03731985000001714,42.31577241999997],[-0.03691596999999547,42.31532972999997],[-0.03642144000002645,42.31320074000001],[-0.036172860000021956,42.31229380000002],[-0.03589032000002135,42.31159309999998],[-0.03778992999997399,42.30989525000001],[-0.038326439999991635,42.30906264999999],[-0.039318439999988186,42.30808873000001],[-0.03986250000002656,42.30709422000001],[-0.040567060000000765,42.305005240000014],[-0.04057012999999188,42.304681130000006],[-0.04022577000000638,42.30297027],[-0.04039140999998381,42.30254230999998],[-0.040806959999997616,42.30195871000001],[-0.04147653000001128,42.30035508999998],[-0.04159255000001849,42.298656119999976],[-0.04166684000000487,42.297847579999996],[-0.041470989999993435,42.29762640000001],[-0.0410976399999754,42.29731057999999],[-0.04110153999999966,42.29696848999998],[-0.04174082999998063,42.293680129999984],[-0.04248053999998547,42.2918712],[-0.04142903000001752,42.29205116000003],[-0.04166120999997247,42.29123769],[-0.04164709000002631,42.29102119999999],[-0.04147801999999956,42.290746679999984],[-0.04140797999997403,42.290429700000004],[-0.04217799999997851,42.28900877000001],[-0.04242931999999655,42.28830384999998],[-0.04257036000001335,42.28762310000002],[-0.0424920899999961,42.28696371000001],[-0.04186872000002495,42.28525465000001],[-0.040973650000012185,42.28416893000002],[-0.040550230000008014,42.28388783999998],[-0.03956175000001849,42.28350210000002],[-0.03873356999997668,42.28331859999997],[-0.03627486999999974,42.282993859999976],[-0.03413828999998714,42.28252433],[-0.033555349999971895,42.28228410999998],[-0.033442250000007334,42.282110079999995],[-0.03371335999997882,42.28124360999999],[-0.0337105400000155,42.28104542],[-0.033609130000002096,42.28088070000001],[-0.03243187999999009,42.28064310000002],[-0.03129816000000574,42.280253519999974],[-0.030566099999987273,42.28009046],[-0.030234160000020438,42.279928770000026],[-0.0299941900000249,42.279616369999985],[-0.03012376999998878,42.27943963000001],[-0.032096290000026784,42.278752329999975],[-0.032931840000003376,42.278260690000025],[-0.033112389999985226,42.27803123000001],[-0.03327546999997821,42.277657239999996],[-0.033419949999995424,42.27690454999998],[-0.03387283000000707,42.27578163999999],[-0.03417037999997774,42.275384110000005],[-0.03463959999999133,42.274946],[-0.03672677999998086,42.27336108999998],[-0.0369816400000218,42.27309752999997],[-0.037095819999990454,42.27273127000001],[-0.03708058000000847,42.272280620000004],[-0.03690043000000287,42.271726650000005],[-0.03687760000002527,42.27143790000002],[-0.03708612000002631,42.27112811000001],[-0.03748925000002146,42.27080534999999],[-0.03813330999997788,42.27051583000002],[-0.03845870999998624,42.270299120000004],[-0.038617520000002514,42.27001505999999],[-0.038469899999995505,42.26954297999998],[-0.038066829999991114,42.26883015999999],[-0.0374760899999842,42.26668968000001],[-0.0374268599999823,42.265670829999976],[-0.037643790000004174,42.26518116],[-0.03817428999997219,42.264726619999976],[-0.03837026000002197,42.264425510000024],[-0.037443660000008094,42.26453663000001],[-0.03096261000001732,42.264945160000025],[-0.029299460000004274,42.26499209999997],[-0.023615339999992102,42.264952619999974],[-0.02131463000000622,42.262578510000026],[-0.02081903999999213,42.26254761000001],[-0.020431570000027932,42.26253753999998],[-0.017353539999987788,42.26302476000001],[-0.01723119000001816,42.26304858999998],[-0.016489180000007764,42.263101310000025],[-0.013744830000007369,42.26293974999999],[-0.010932070000023941,42.26319957999999],[-0.009779449999996359,42.262962389999984],[-0.008442240000022139,42.26278338999998],[-0.007022170000027472,42.262818340000024],[-0.005806310000025405,42.26238133999999],[-0.003591630000016721,42.26204428],[-0.00218624000001455,42.26202552000001],[0.00028933999999480875,42.26207778000003],[0.0034345700000244506,42.26168018999999],[0.004968850000011571,42.26156791],[0.009463910000022224,42.25489421999998],[0.008496429999979682,42.253667930000006],[0.00642776000000822,42.252479530000016],[0.004651410000008127,42.25131945999999],[0.0039434299999925315,42.25095980999998],[0.0030256599999916034,42.25077675],[-0.0009480900000085057,42.249539089999985],[-0.006003829999997379,42.24771722000003],[-0.007662540000012541,42.24698611000002],[-0.008035339999992175,42.24602329999999],[-0.008443870000007792,42.24430498999999],[-0.008743349999974726,42.243610409999974],[-0.008734259999982896,42.24303385000002],[-0.008980640000004314,42.242436940000005],[-0.008855059999973491,42.240479549999975],[-0.008940870000003542,42.24020263],[-0.00940573000002587,42.239854560000026],[-0.009314000000017586,42.239744110000004],[-0.008605400000021746,42.239608540000006],[-0.008288040000024921,42.23837556000001],[-0.007512369999972179,42.23812117],[-0.007831590000023425,42.237265019999995],[-0.007821420000027501,42.23696758],[-0.007340129999988676,42.23612653999999],[-0.007004460000018753,42.235793590000014],[-0.006452159999980722,42.235941249999996],[-0.006210099999975682,42.235934929999985],[-0.005186750000007123,42.23502567999998],[-0.005026069999985339,42.234580230000006],[-0.00542680000000928,42.2340504],[-0.0055665599999770166,42.23365783000003],[-0.005419500000016342,42.23292457000002],[-0.005255180000006021,42.23281221000002],[-0.004621159999999236,42.23289469000002],[-0.004136389999985113,42.23315216999998],[-0.0037317200000188677,42.23299751000002],[-0.0033434100000135913,42.232753220000006],[-0.0031901699999821176,42.23240701999998],[-0.0031989400000043133,42.231966],[-0.0014024500000004991,42.23100948000001],[-0.001143019999972239,42.230858599999976],[-0.0008650999999986198,42.23084232000002],[-0.00021900000001551234,42.23092446999999],[0.00018597000001818742,42.23026549000002],[0.0005137300000228606,42.23002278000001],[0.0005913499999792293,42.22961551999998],[0.0007474000000229353,42.22958440999997],[0.00113023000000112,42.229736479999985],[0.001496270000018285,42.22978992999998],[0.0023350199999754295,42.22933569999998],[0.0027115999999978158,42.22910071000001],[0.00286081000001559,42.22892569999999],[0.0027900599999952647,42.228711429999976],[0.0025261100000193437,42.22851122999998],[0.0025733900000091126,42.22823082999997],[0.0029150999999956184,42.22777162],[0.005668930000013006,42.226312629999995],[0.005914080000025024,42.22611709],[0.0060780800000088675,42.22574358000003],[0.006141860000013821,42.22530065000001],[0.0060980000000085965,42.22488757000002],[0.00618370000000823,42.224651189999975],[0.006505430000004253,42.22428253999999],[0.0064450699999838434,42.22403198000001],[0.006536449999998695,42.223660370000005],[0.00695071000001235,42.22319924999999],[0.0074805699999842545,42.223131309999985],[0.008165459999986524,42.223266420000016],[0.010084790000007615,42.22388239000003],[0.010094869999988987,42.223584949999974],[0.010318919999974696,42.22320085000001],[0.010214410000003227,42.22304150999997],[0.009954320000019834,42.222922270000026],[0.0098485299999993,42.22273594000001],[0.009923819999983152,42.222535849999986],[0.0101464599999872,42.22237690999998],[0.010494800000003579,42.222313729999996],[0.010788629999979094,42.222378049999975],[0.011572349999994458,42.222807709999984],[0.012103790000026038,42.22302787000001],[0.012301480000019183,42.22259944000001],[0.012987339999995129,42.222500360000026],[0.013317910000012034,42.22257271000001],[0.014740290000020195,42.22318366000002],[0.01584998999999243,42.22333456000001],[0.017148360000021512,42.222868129999995],[0.018234140000004118,42.222263209999994],[0.01969208000002709,42.22133329000002],[0.019956219999983205,42.22102916],[0.020096780000017134,42.22067425],[0.020140120000007755,42.22031291000002],[0.020501130000013745,42.21975407999997],[0.0210020999999756,42.219335650000005],[0.021168139999986124,42.21900708999999],[0.021321740000018963,42.21841770999998],[0.021482540000022254,42.21823337000001],[0.021648930000026212,42.218165950000014],[0.022352839999996377,42.21819240999997],[0.02316901000000371,42.218540080000025],[0.023712190000026112,42.21849873000002],[0.023995700000000397,42.218347170000015],[0.02415736000000379,42.21818080999998],[0.024192439999978887,42.21790073],[0.023993340000004082,42.21753677999999],[0.02343733999998676,42.21705616999998],[0.023356589999991684,42.21688720999998],[0.023395540000024084,42.216688069999975],[0.023613819999980024,42.21643917],[0.024796219999984714,42.215831639999976],[0.025024939999980234,42.21529429999998],[0.02603768000000173,42.21569979999998],[0.026315950000025623,42.215692450000006],[0.026465929999972104,42.21553540999997],[0.026703170000018872,42.215430089999984],[0.027105010000013863,42.21547349999997],[0.027417860000014116,42.215429210000025],[0.027879770000026838,42.215462030000026],[0.0282375699999875,42.215344519999974],[0.02914234000002125,42.215518710000026],[0.029778840000005857,42.215402830000016],[0.03030855999998039,42.21558692999997],[0.03137799000000996,42.21565770000001],[0.031871449999982815,42.21559060999999],[0.03225343999997676,42.215472439999985],[0.033450459999983195,42.21466631999999],[0.034547429999975066,42.21556478999997],[0.03478202000002284,42.215909780000004],[0.03513323999999329,42.21666590000001],[0.03527021000002151,42.21674331999998],[0.035391199999992295,42.21674010999999],[0.036131440000019666,42.216261239999994],[0.036441690000003746,42.21616297000003],[0.03762781000000359,42.216140540000026],[0.03798211999998102,42.21620317999998],[0.038193850000027396,42.216323639999985],[0.03839087000000063,42.2166426],[0.038519609999980275,42.217053410000005],[0.03872484999999415,42.21729111000002],[0.03892447999999149,42.217411879999986],[0.039385970000012094,42.21743565999998],[0.039774439999973765,42.21720023],[0.03988118000000895,42.21690023000002],[0.04031026000001248,42.216753770000025],[0.04073761000000786,42.21682347000001],[0.04111914999998589,42.217956990000005],[0.041353350000008504,42.21804082],[0.04207973000001175,42.21803053999997],[0.042300109999985125,42.218078719999994],[0.04256284000001642,42.21825183999999],[0.04293791999998575,42.21874616000002],[0.044709130000001096,42.21804173999999],[0.046230949999994664,42.21719082999999],[0.046599529999980405,42.21704596000001],[0.04732113000000027,42.21693671999998],[0.048543110000025536,42.216904209999996],[0.04920550999997886,42.21682354000001],[0.05000790000002553,42.21663109000002],[0.05035918999999467,42.21663074000003],[0.05070186000000376,42.21670266000001],[0.05180626999998594,42.21649315000002],[0.053239990000008675,42.21658101999998],[0.0539062299999955,42.21632913000002],[0.05413654000000179,42.21633200000002],[0.05467713000001595,42.21648868],[0.05559483000001819,42.21617605],[0.056086530000015955,42.21607289000002],[0.05714685999998892,42.21595454999999],[0.05760096000000203,42.21582536],[0.05890355000002501,42.21520527000001],[0.05947035999997752,42.21490197000003],[0.06126849999998285,42.21425961],[0.061807260000023234,42.214128140000014],[0.06346244000002343,42.212535030000026],[0.0677912500000275,42.20812381000002],[0.06978166999999758,42.206206450000025],[0.08337426000002779,42.20800265999998],[0.0849807899999746,42.21213774],[0.0880302699999902,42.213316280000015],[0.08785638000000517,42.214221469999984],[0.08784308000002738,42.21494223000002],[0.08793271000001823,42.21578628999998],[0.08789715000000342,42.2167958],[0.08774349999998776,42.21761939999999],[0.08770292999997764,42.21827786],[0.08870209999997769,42.21789973],[0.09420124000001806,42.21664372999999],[0.0982464200000095,42.21612916999999],[0.09868612000002486,42.21595518999999],[0.09905652999998438,42.21560298000003],[0.09989610000002358,42.21518404],[0.101469829999985,42.21392577],[0.10193037999999888,42.213436039999976],[0.10237726000002567,42.212667520000025],[0.10281801000002133,42.212268370000004],[0.10425791000000117,42.21124781999998],[0.10487366000000975,42.210465699999986],[0.10506121999998186,42.210091420000026],[0.10513568999999734,42.20938701],[0.10505643999999847,42.208758810000006],[0.10549732999999151,42.208116510000025],[0.10578070000002526,42.20722633999998],[0.10631392999999889,42.20649148000001],[0.10644275999999309,42.20615479999998],[0.10646051999998463,42.20577610999999],[0.10619080999998687,42.20521610999998],[0.10576235000002043,42.20487652999998],[0.10525099000000182,42.20457520999997],[0.10498241999999891,42.204285330000005],[0.1046267400000147,42.20370064000002],[0.10384219000002304,42.202767370000004],[0.10289454000002252,42.202459850000025],[0.10239638000001605,42.20193303999997],[0.10209616999998161,42.201490920000026],[0.10228281000001971,42.20060338000002],[0.10171915000000809,42.20022241999999],[0.10153043999997635,42.19983130999998],[0.10166586000002553,42.199134249999986],[0.10076686000002155,42.198582269999974],[0.10043698999999151,42.19827601999998],[0.09962287000001879,42.196983320000015],[0.09949376999998094,42.19607730000001],[0.09838526999999431,42.19495463999999],[0.09787863999997626,42.19350952999997],[0.09994947000001275,42.19177859000001],[0.10219038000002456,42.19006101000002],[0.10376115000002528,42.18999144999998],[0.10769066000000294,42.189623789999985],[0.10813827999999148,42.18936851000001],[0.10859225000001516,42.18899599000002],[0.10894920999999158,42.18837395999998],[0.10989296999997578,42.188852629999985],[0.11345344000000068,42.19034081000001],[0.1148849599999835,42.19088722999999],[0.1155086300000221,42.19125749],[0.11975006000000121,42.19451894000002],[0.12076903000001948,42.194554229999994],[0.12105573000002323,42.194474379999974],[0.12127753999999413,42.19430625000001],[0.12142824000000019,42.19392392999998],[0.12161420000001044,42.19376577999998],[0.1218995699999823,42.193658949999985],[0.12239319000002524,42.19360046999998],[0.12318116000000146,42.19337187999997],[0.12360797000002322,42.193432280000025],[0.12423450000000003,42.19361330999999],[0.12412884000002578,42.194417629999975],[0.12410362000002806,42.19562499],[0.12436631999997871,42.197022609999976],[0.12465444999997999,42.197708130000024],[0.1251114699999789,42.19838004000002],[0.12588961000000154,42.199178270000004],[0.12714890000000878,42.199909330000025],[0.12825644999998076,42.20149098000002],[0.12852810999999065,42.20208689999998],[0.12940286000002743,42.20238718000002],[0.12969206000002487,42.20284753999999],[0.13145510999999033,42.20445627999999],[0.13453163000002633,42.20641626999998],[0.13521158999998306,42.20669483],[0.13494517999998834,42.20767466000001],[0.13488699999999199,42.208945949999986],[0.13470415000000457,42.20916706999998],[0.134695019999981,42.209716619999995],[0.13459817000000385,42.20996241],[0.13441353000001754,42.210147559999996],[0.13415185999997448,42.210244769999974],[0.13346248999999943,42.211245169999984],[0.13309801000002608,42.21195752],[0.1331259699999805,42.21276720999998],[0.133362859999977,42.21314794],[0.13377630000002227,42.213424789999976],[0.13457248999998228,42.21335798000001],[0.13464172999999846,42.214022450000016],[0.1367861699999935,42.21696241000001],[0.13779398999997738,42.21823152000002],[0.14027420999997275,42.221828570000014],[0.14187801999997873,42.22387373999999],[0.14202179000000115,42.22432906],[0.14213590999997905,42.22516338999998],[0.14212178000002496,42.22658655999999],[0.1415371599999844,42.22798935999998],[0.14079076000001578,42.22930653999998],[0.13951790999999503,42.23197988999999],[0.13956824000001689,42.23348234000002],[0.1414747000000034,42.234051410000006],[0.1439427500000079,42.23470408999998],[0.1447879799999896,42.23513114000002],[0.14514243000002125,42.23567971],[0.14585819000001266,42.235696080000025],[0.14790420000002769,42.23565788000002],[0.14821521999999732,42.23606355999999],[0.1480820400000198,42.23703975000001],[0.15023466000002372,42.23987115],[0.15239372999997158,42.23966767000002],[0.15360614000002215,42.23870677999997],[0.15413861000001816,42.238448989999995],[0.15510672999999997,42.23817918999998],[0.15792181000000483,42.237039030000005],[0.15884224000001268,42.23532972999999],[0.16117586000001438,42.23474306000003],[0.16253182000002653,42.233264840000004],[0.1633101799999963,42.232594989999996],[0.1671460599999932,42.23079605999999],[0.1725771299999792,42.22771015000001],[0.172550450000017,42.22693647],[0.1741429900000071,42.225352499999985],[0.175055489999977,42.22446273999998],[0.1762809900000093,42.221844350000026],[0.17828020000001743,42.219195490000004],[0.18719879000002493,42.21635427000001],[0.19436028000001215,42.21975672999997],[0.19687105000002703,42.220776279999995],[0.1996302200000173,42.2219149],[0.2019062900000108,42.22284182999999],[0.20545349999997597,42.22303077999999],[0.20789568999998664,42.22316952],[0.21149540999999772,42.223437839999974],[0.21473267999999734,42.22372524000002],[0.2178243299999849,42.22400762000001],[0.2210709199999883,42.22376329000002],[0.22636054999998123,42.22295704999999],[0.2280132500000036,42.222343179999996],[0.22934557999997196,42.223998540000025],[0.2300311299999862,42.225086799999985],[0.2303848500000072,42.22631949999999],[0.23046368000001394,42.22738885000001],[0.2304074599999808,42.22794873999999],[0.22988023999999996,42.22996268000003],[0.2292940400000134,42.23177118000001],[0.22676799999999275,42.23759647000003],[0.22413935999998102,42.24189375999998],[0.22388312999999016,42.242810469999995],[0.2237929300000019,42.24389359000003],[0.22387214999997695,42.24497194000003],[0.22412924000002477,42.24597324000001],[0.22467359000000897,42.246903420000024],[0.22606684999999516,42.245468440000025],[0.22667322000000922,42.245001109999976],[0.22744285999999647,42.24464625000002],[0.22929185999998936,42.24430597000003],[0.23218632999999045,42.24379209],[0.23385007000001679,42.24338492999999],[0.23472750000001952,42.24324309000002],[0.23596553999999514,42.243280149999975],[0.23907475999999406,42.24222873999997],[0.24042135000001963,42.24201956000002],[0.24330006000002413,42.24191106000001],[0.2441244299999994,42.241680599999995],[0.2470434400000272,42.23858127],[0.2516712899999902,42.238792149999995],[0.25771387999998296,42.23941285000001],[0.2599221500000226,42.23970121000002],[0.25895203999999694,42.240629290000015],[0.2589847899999995,42.24197007999999],[0.25910570000002053,42.24243488000002],[0.2600666399999909,42.243208960000004],[0.26127060999999685,42.24376000000001],[0.2618350700000178,42.24436524999999],[0.2628305900000214,42.247686680000015],[0.2625603000000183,42.249729460000026],[0.26260260999998764,42.25007943999998],[0.26272348999998485,42.251012489999994],[0.2631697900000063,42.251675130000024],[0.26460207000002356,42.25194948000001],[0.26509733000000324,42.25215148000001],[0.2667584000000147,42.25544488000003],[0.2653872500000034,42.25729394000001],[0.2651818499999763,42.2582453],[0.2661434999999983,42.25996479999998],[0.26640921000000617,42.26135296000001],[0.2668639999999982,42.26217743000001],[0.2677298799999903,42.26344941999997],[0.26908314000002065,42.267814120000025],[0.2728108200000179,42.26862612999997],[0.27660937000001695,42.26963410000002],[0.27691204000001335,42.269859559999986],[0.27762641999999005,42.27100973],[0.28411983000000873,42.276505680000014],[0.28537757999998803,42.27644257999998],[0.28654468000002,42.27696738999998],[0.28800095999997666,42.27745685999997],[0.2889015999999742,42.27752105000002],[0.2898324600000137,42.277467290000004],[0.2905264799999827,42.27798763999999],[0.2913522900000203,42.278477169999974],[0.29157311000000163,42.27875898000002],[0.2917191099999741,42.27946615000002],[0.29300683999997545,42.279744300000004],[0.29598620000001574,42.279442459999984],[0.2964090300000066,42.279412279999974],[0.2983909299999823,42.27928317999999],[0.30197301999999127,42.27937803999998],[0.309414170000025,42.284620080000025],[0.30838396000001467,42.285325209999996],[0.3091901299999904,42.28682371000002],[0.30796452999999246,42.28796670000003],[0.30871057000001656,42.290862670000024],[0.3125348899999949,42.29140043000001],[0.31397706000001335,42.291610830000025],[0.3183030700000131,42.294538139999986],[0.32157037000001765,42.29877467],[0.32154769999999644,42.30064829999998],[0.325108680000028,42.304461979999985],[0.3254395499999987,42.30406517],[0.32992568999998184,42.30494332000001],[0.3305735600000048,42.30526665000002],[0.3331289899999774,42.304039699999976],[0.3367144800000119,42.30210733000001],[0.33882227999998804,42.30113641999998],[0.34095416999997497,42.29970552999998],[0.3449650100000099,42.29939933999998],[0.34835087999999814,42.29554545000002],[0.34976263999999446,42.29403640999999],[0.3502279400000248,42.29366261000001],[0.35113752000000886,42.29251942000002],[0.35133223000002545,42.29253173000001],[0.3514491099999759,42.293590859999995],[0.3510833400000024,42.29492524],[0.3512287400000105,42.29606458000001],[0.35173692000000756,42.29855299000002],[0.3531691599999931,42.3040489],[0.35788221000001386,42.30439703000002],[0.36081008999997266,42.304707329999985],[0.3618609399999855,42.30462246000002],[0.3616854699999976,42.30315086000002],[0.3615813200000275,42.30233449000002],[0.36004542000000583,42.30037155000002],[0.3599666700000057,42.30003168000002],[0.3601543600000241,42.29968400000001],[0.3613709100000051,42.298612760000026],[0.3628775899999823,42.29752399],[0.3631854000000203,42.29715477000002],[0.3619383700000185,42.29423787000002],[0.36133604000002606,42.29226554000002],[0.36060773999997764,42.29043195999998],[0.360170949999997,42.2895173],[0.3637800299999867,42.288285770000016],[0.36427324999999655,42.287983129999986],[0.36581129000001056,42.28657823999998],[0.36695185000002084,42.28568027],[0.3685788899999807,42.28617270000001],[0.37257335999998986,42.28762193],[0.37486992999998847,42.28906705000003],[0.37755648000000974,42.290545640000005],[0.37990425999998934,42.29158393],[0.3827558699999827,42.29251725],[0.38423305999998547,42.292923840000014],[0.38774891000002754,42.29357626000001],[0.39222103999998126,42.29374102999998],[0.3931267799999887,42.293894290000026],[0.39463697000002185,42.29468695000003],[0.3954647300000147,42.29519368000001],[0.39590354000000616,42.295684919999985],[0.39558816999999635,42.29636061000002],[0.39437606000001324,42.298404559999994],[0.39343758000001117,42.30035034000002],[0.39232501999998703,42.303345809999996],[0.39131320000001324,42.30573497],[0.3896973500000058,42.31020404999998],[0.3892733100000214,42.310891939999976],[0.3889228699999876,42.31182077],[0.38872748,42.31270000000001],[0.38874721000001955,42.31351883000002],[0.38857517999997526,42.31370400999998],[0.38798955999999407,42.312739840000006],[0.38674469000000045,42.31102077999998],[0.3857100000000173,42.31005188],[0.3853902500000004,42.30997129000002],[0.38356271999998626,42.31005232000001],[0.3826955100000191,42.309942869999986],[0.38247977999998284,42.31044450000002],[0.3822326399999838,42.31058686],[0.3758742499999812,42.31010816999998],[0.3744546799999853,42.31010499000001],[0.3739182200000073,42.311642570000004],[0.3729224499999759,42.31661541],[0.37404531999999335,42.31741976000001],[0.3729483600000094,42.31846058999997],[0.37264878000002,42.318757559999995],[0.3722208400000113,42.318923240000004],[0.3703691700000036,42.31923889000001],[0.36948711999997386,42.31953499000002],[0.36915751999998747,42.31972479000001],[0.371488979999981,42.32043955],[0.37313782000001083,42.320868229999974],[0.3748238300000253,42.32176401999999],[0.378483440000025,42.32325890999999],[0.3791622300000199,42.32369811000001],[0.3794586999999865,42.32402252999998],[0.37982742000002645,42.325920610000026],[0.38171019999998634,42.33341982000002],[0.38173828999998705,42.333491030000005],[0.3824956600000178,42.33629608000001],[0.37994789999999057,42.338802559999976],[0.38348442000000205,42.34092221999998],[0.38393366999997625,42.34137716999999],[0.3860890999999924,42.34534746999998],[0.3869279200000051,42.34740270999998],[0.3904794700000025,42.346856349999996],[0.39186681000001045,42.348048870000014],[0.3931998900000053,42.349585149999996],[0.39455629999997655,42.351552939999976],[0.39920747000002166,42.34955998999999],[0.4007384700000216,42.34981167000001],[0.401434619999975,42.34966492000001],[0.403408230000025,42.34979535000002],[0.40660408000002235,42.35030359000001],[0.40780247999998664,42.350240910000025],[0.4078089999999861,42.34879099],[0.4088330999999812,42.347526879999975],[0.4109377099999847,42.34626659999998],[0.41296572999999626,42.34538673999998],[0.41528119999998125,42.34466035999998],[0.4161958799999752,42.34294922999999],[0.41667676999998093,42.34152117000002],[0.41695449000002327,42.33992810000001],[0.4177268000000254,42.33895057000001],[0.4206945099999757,42.337277140000026],[0.42382846999998947,42.335985859999994],[0.4251379699999802,42.33573959],[0.42639860999997836,42.335710870000014],[0.4282956600000034,42.335780150000005],[0.428595649999977,42.335717139999986],[0.4291630600000076,42.335439020000024],[0.4331233600000246,42.33550945000002],[0.4357404699999847,42.33453952000002],[0.43776881000002277,42.33456868000002],[0.4397776700000122,42.33446334000001],[0.44071389999999155,42.334273129999985],[0.4423047399999973,42.33384712999998],[0.44320902999999134,42.333738900000014],[0.4437991099999863,42.33343301999997],[0.4438460999999734,42.33340458999999],[0.44485484000000497,42.332987059999994],[0.44827849000000697,42.33190252999998],[0.45225727000001825,42.33120636000001],[0.4545123199999921,42.33072414999998],[0.45620129999997516,42.3250094],[0.4577921200000219,42.32082835],[0.458838749999984,42.317789259999984],[0.4599821900000052,42.314747239999974],[0.460564560000023,42.312757669999996],[0.46810605000001715,42.30649656000003],[0.4717326699999944,42.30362231999999],[0.4730417399999851,42.30294330999999],[0.4784304799999859,42.29683684999998],[0.4791985599999862,42.297128670000006],[0.48555757000002586,42.29697133000002],[0.487115469999992,42.298166519999995],[0.487028099999975,42.29592708000001],[0.48712490999997726,42.294825590000016],[0.48810522000002265,42.29412940999998],[0.4923652599999855,42.29199160000002],[0.4966425800000138,42.289952149999976],[0.504392590000009,42.28297096],[0.5059781799999996,42.28160779000001],[0.5069750499999941,42.28034366000003],[0.51317714999999,42.27107708],[0.5095200200000249,42.251730469999984],[0.5136384499999735,42.24645361],[0.515668020000021,42.24415821000002],[0.5147218999999836,42.243052680000005],[0.5111247300000059,42.24047066000003],[0.5107742600000051,42.239833069999975],[0.5109448300000281,42.23854019999999],[0.5101291999999944,42.237817819999975],[0.5095662499999776,42.23771800999998],[0.5078488500000162,42.23799573000002],[0.5059941999999751,42.23689094000002],[0.50452279000001,42.23635968000002],[0.502220120000004,42.234602189999976],[0.5008529899999985,42.23354542999999],[0.49983156000001827,42.232604149999986],[0.4995289799999796,42.23217217000001],[0.4992305299999771,42.23093865999999],[0.49840236000000004,42.229766359999985],[0.4981263099999751,42.22828003000001],[0.4980240799999933,42.224897450000014],[0.49706943000001047,42.22450337999999],[0.49550994999998466,42.22302920999999],[0.49195801000001893,42.21991392000001],[0.4915548299999841,42.21941294999999],[0.49141740999999683,42.21867875999999],[0.49141244999998435,42.21858887000002],[0.49130479000001515,42.21839404999997],[0.491130720000001,42.2180932],[0.4887282899999832,42.21582519999998],[0.4873296999999752,42.214625160000026],[0.486635079999985,42.213889919999986],[0.48552820999998403,42.21226675999998],[0.4847300399999881,42.21184982],[0.4838169000000221,42.211544430000004],[0.4831895300000042,42.21114928999998],[0.4821694500000149,42.210000709999974],[0.4830728399999771,42.20946898],[0.4840909200000283,42.20860059],[0.48505996000000096,42.20838201999999],[0.48721397000002753,42.20812735999999],[0.4898127800000225,42.20737286999997],[0.4934827999999811,42.206936840000026],[0.4946805199999744,42.20669319000001],[0.49500617000001057,42.20644914000002],[0.49498533000002,42.206071580000014],[0.4946249500000022,42.205686379999975],[0.49361301999999796,42.20490683000003],[0.49347771999998713,42.204649819999986],[0.4933423100000027,42.203951589999974],[0.493566450000003,42.20340448000002],[0.49393716999998105,42.20287990999998],[0.4943161900000064,42.20206694000001],[0.49423433999999133,42.20058368000002],[0.4947075000000041,42.19862425000002],[0.49468448999999737,42.19667095],[0.4943064999999933,42.19223420999998],[0.4942718500000183,42.19094761000002],[0.4940392600000223,42.190243339999995],[0.49354737999999543,42.18944792999997],[0.4940251599999783,42.187353289999976],[0.49306688000001486,42.18380767999997],[0.49272129000001996,42.18280970000001],[0.4925437399999737,42.18200469999999],[0.49210821999997734,42.181351629999995],[0.4902023099999724,42.17796095],[0.49047226999999793,42.177367419999996],[0.490310930000021,42.17597661999997],[0.490735930000028,42.17490113000002],[0.49073830999998336,42.174504850000005],[0.4897743899999796,42.17150865999997],[0.48877735000002076,42.16900872999997],[0.4874539200000072,42.166734840000004],[0.48669339999997874,42.16501109000001],[0.486377100000027,42.16366101],[0.4862939600000118,42.16126830000002],[0.4860388199999761,42.15970924999999],[0.4859536100000241,42.15837914999997],[0.4851775100000282,42.154386680000016],[0.4850738700000079,42.153381309999986],[0.4852562600000283,42.152736430000004],[0.48623496999999816,42.15160808000002],[0.4869417099999964,42.15059604999999],[0.48739671999999246,42.149627699999996],[0.48778537999999116,42.14855332000002],[0.48805225000000974,42.14746463],[0.48800727000002553,42.14664657999998],[0.48776041000002124,42.14589769999998],[0.48772851000001083,42.14509724999999],[0.48792809999997644,42.144325779999974],[0.4879346899999746,42.14378529999999],[0.4873895299999731,42.14289242000001],[0.48390986999999086,42.14562766],[0.4792014399999971,42.14471721000001],[0.47687647999998717,42.14446363000002],[0.47607259000000113,42.14414584999997],[0.46945412999997416,42.14149200000003],[0.4672546200000056,42.14087423000001],[0.46489251999997805,42.139937169999996],[0.46279170000002523,42.139352350000024],[0.4612184900000216,42.13934587],[0.4603739500000188,42.13938939000002],[0.4591500500000052,42.139354319999995],[0.45708389999998644,42.139182559999995],[0.4551202499999931,42.13911574000002],[0.4538263300000267,42.13912773999999],[0.4521380599999816,42.13900754000002],[0.4489196700000093,42.13900543],[0.44754439000001867,42.13952406999999],[0.4455902500000093,42.14007812],[0.4450474199999803,42.14055368999999],[0.44459194000000934,42.14085553000001],[0.4416326900000058,42.141394709999986],[0.43759615999999824,42.14147989000003],[0.43679460999999264,42.14164800999998],[0.42650278999997226,42.14823258000001],[0.42308577000000014,42.14590346],[0.4223526000000106,42.145322050000004],[0.42179055000002563,42.144996660000004],[0.4187690699999962,42.142142320000005],[0.41821671999997534,42.14177160000003],[0.4160432400000218,42.14117907999997],[0.41330590000001166,42.140225129999976],[0.40843298999999433,42.138704329999996],[0.4077676499999825,42.13870610999999],[0.40574557000002187,42.138451069999974],[0.4048623799999973,42.137774949999994],[0.4033337899999765,42.136343599999975],[0.4024168400000008,42.13571349],[0.4005140599999777,42.13632826999998],[0.39967486000000463,42.136019999999974],[0.3971806000000129,42.13462621999997],[0.3975317599999926,42.13282386999998],[0.3977077399999871,42.13226936000001],[0.39510205999999926,42.129014849999976],[0.392352150000022,42.12599868000001],[0.39218554000001404,42.12582351999998],[0.39189184999997906,42.12417534000002],[0.39159145999997236,42.12240129000003],[0.39130614999999125,42.118870879999974],[0.3913295599999742,42.118176819999974],[0.3911511200000177,42.117326649999995],[0.3924272400000177,42.11585710999998],[0.39303114000000505,42.115388989999985],[0.394200230000024,42.114633990000016],[0.395306689999984,42.114970400000004],[0.3978164000000106,42.11485997],[0.39902731000000813,42.11240178000003],[0.3998366299999816,42.11080192999998],[0.4005738100000258,42.10988858000002],[0.40131772000000865,42.109101090000024],[0.4030688099999793,42.10679787999999],[0.4047170499999879,42.103480149999996],[0.4049011199999768,42.102853349999975],[0.40530054999999265,42.102409249999994],[0.4073163499999737,42.10076445999999],[0.407645720000005,42.10036745999997],[0.40793019000000186,42.09980969999998],[0.40835814000001847,42.09854530000001],[0.4087068100000124,42.09805767],[0.40932685000001356,42.09767002000001],[0.41001884999997174,42.09682098000002],[0.41044526000001724,42.095979839999984],[0.41023429000000533,42.09542782],[0.409891019999975,42.09488873999999],[0.40991137999998273,42.09369048999997],[0.41012582000001885,42.092729599999984],[0.4110051700000099,42.090416189999985],[0.411646410000003,42.08907338],[0.4129929700000048,42.087808619999976],[0.41409326000001556,42.086911380000004],[0.4142134800000008,42.08667366999998],[0.414228449999996,42.08605189000002],[0.41406913999998096,42.08533625000001],[0.4140271399999733,42.084779200000014],[0.414413369999977,42.08296672],[0.4146465499999863,42.08123082999998],[0.41456931999999824,42.08069283999998],[0.4135956999999735,42.07809243999998],[0.41326361000000134,42.07753502000003],[0.4130367500000034,42.07691144],[0.4133877500000267,42.07466778000003],[0.41363927999998396,42.073273529999994],[0.4135446899999806,42.072637009999994],[0.41301379999998744,42.07130209000002],[0.41252537000002576,42.07075834],[0.40840872000001127,42.06678363999998],[0.40701533999998674,42.06694213999998],[0.40401343000002043,42.06391566999997],[0.40208188000002565,42.06237016],[0.4001482900000042,42.063499130000025],[0.3984618900000214,42.06405343],[0.3941097599999921,42.06515495000002],[0.3920219899999893,42.06498263999998],[0.3895650700000033,42.06468613999999],[0.3887919000000011,42.06469099999998],[0.38759701999998697,42.06449220000002],[0.38511876000001166,42.06152178000002],[0.3832513899999981,42.06094658000001],[0.38194346000000223,42.061120259999996],[0.38043193999999403,42.06201133000002],[0.36947470000001204,42.06024488000003],[0.3662278699999888,42.06077252],[0.3650756800000181,42.06046416999999],[0.36418796999998904,42.06013002999998],[0.36290953999997555,42.060176549999994],[0.34505875000002106,42.05759218999998],[0.34447695000000067,42.05870777000001],[0.345071350000012,42.06013122000002],[0.3452043600000252,42.06289185000003],[0.34506521999998085,42.06346322000002],[0.34478955999998107,42.063966540000024],[0.3438780100000258,42.06639745000001],[0.3432866300000228,42.06779246000002],[0.34089733000001843,42.068321379999986],[0.33838233000000173,42.06898897999997],[0.33466035999998667,42.069457520000014],[0.33219222000002446,42.06963736],[0.33155718000000434,42.069511739999996],[0.3258079600000201,42.06888627000001],[0.3215251199999898,42.067641709999975],[0.3165706799999839,42.06602921000001],[0.31545796000000337,42.06554812000002],[0.3138094700000238,42.06359669],[0.3142018600000256,42.06208151999999],[0.3152831900000024,42.05917767],[0.3155402300000105,42.058080640000014],[0.3166103099999873,42.05519511],[0.32176054000001386,42.04760785000002],[0.3222440800000186,42.04691845999997],[0.3208755200000155,42.04384239000001],[0.31703394999999546,42.03410213000001],[0.3161365199999864,42.034497310000006],[0.313517260000026,42.03523041],[0.3122974099999851,42.03569791000001],[0.31103481000002375,42.036040549999996],[0.3097150799999895,42.036213739999994],[0.30400299000001496,42.03763921000001],[0.3033897199999842,42.037692909999976],[0.299731300000019,42.037726229999976],[0.2986444000000006,42.037964629999976],[0.2979360100000008,42.03804803999998],[0.29793871999999055,42.03763372999998],[0.2977603799999997,42.03652224000001],[0.29718628000000535,42.03499889],[0.2963109699999791,42.03232256000001],[0.29585838999997804,42.03011133000001],[0.29556509000002507,42.02911118999998],[0.2953845399999864,42.02818887000001],[0.2953514899999732,42.02731633000002],[0.29550573000000213,42.02562795],[0.29563624999997273,42.023481000000004],[0.2963622899999905,42.021406979999995],[0.29645958999998356,42.02071978999999],[0.29670950000001994,42.02018131],[0.29570620999999164,42.01922861000003],[0.2963915400000019,42.01823636],[0.2970387899999878,42.016975049999985],[0.29868077999998377,42.01580217999998],[0.29960865999998987,42.015298210000026],[0.3006710199999816,42.014826389999996],[0.3016786100000104,42.01423004999998],[0.30223313999999846,42.01374582],[0.30302915999999414,42.01279536999999],[0.30373435000001336,42.01218971999998],[0.30463056999997207,42.01154253999999],[0.3051664700000174,42.01093276],[0.3051974499999801,42.01059867999999],[0.30500762000002624,42.009964790000026],[0.3044486000000006,42.00896333999998],[0.3033693500000254,42.00607680000002],[0.30342775999997684,42.00603910000001],[0.302910039999972,42.00490137000003],[0.3018420600000127,42.00199648],[0.3016512300000045,42.000642210000024],[0.30173597999998947,42.00018051000001],[0.3018143099999975,42.00006119],[0.3024326199999905,41.999178900000004],[0.30117497999998477,41.99773828999997],[0.30021694999999227,41.996721279999974],[0.29897096000001966,41.99503716999999],[0.2987099299999727,41.99489159000001],[0.296233309999991,41.99438650000002],[0.2949328899999841,41.99421675999997],[0.29306689999998525,41.99408125999997],[0.28618202000001247,41.99329726000002],[0.2831436499999995,41.99289802999999],[0.2805141800000115,41.99270314],[0.2801827299999786,41.992595559999984],[0.27907623999999487,41.991969840000024],[0.2778108100000054,41.99106948999997],[0.2767210800000157,41.99029918999997],[0.2763757999999825,41.98992184000002],[0.2760083100000088,41.98934701000002],[0.27537074000002804,41.98797843],[0.27462616000002527,41.98452372999998],[0.27449433999998973,41.983365839999976],[0.2740141200000039,41.98153350000001],[0.27289825000002566,41.97883681000002],[0.27255450000001247,41.97825227999999],[0.27193227999998726,41.97741454999999],[0.26932288000000426,41.97736292000002],[0.2662433300000089,41.97779287999998],[0.26352756,41.97825743999999],[0.26001132999999754,41.97864563000002],[0.25783869000002824,41.979112610000016],[0.2540781899999729,41.98015593000002],[0.25168306000000484,41.97815270000001],[0.2493250300000227,41.97853472000003],[0.24562802999997757,41.97940485999999],[0.2410803299999884,41.97493186999998],[0.2400985799999944,41.97389700999997],[0.23941675999998324,41.97282665],[0.23844222000002446,41.97098110000002],[0.23816649999997708,41.96982723000002],[0.23536754000002702,41.969600060000005],[0.23394941999998764,41.96804615000002],[0.22582940000000917,41.969733700000006],[0.22272071999998388,41.97054152999999],[0.22211387999999488,41.970711670000014],[0.2166582099999914,41.971882429999994],[0.2105874200000244,41.972583869999994],[0.20861761999998407,41.97300822],[0.20509171999998443,41.97392629000001],[0.2023475400000052,41.97455228000001],[0.19804083000002493,41.975545969999985],[0.1932394199999976,41.97654426999998],[0.19306313999999247,41.97663922999999],[0.19329213999998274,41.97783955],[0.1936950799999977,41.97865680000001],[0.1843322500000113,41.97773749999999],[0.18218967000001385,41.977607869999986],[0.17771704000000454,41.977218600000015],[0.1763632400000006,41.977418209999996],[0.17336550999999645,41.97805052000001],[0.17274601999997685,41.979184299999986],[0.17184171999997488,41.98041602000001],[0.17123113000002377,41.98172964999998],[0.17091111000002002,41.983062270000005],[0.1708268099999941,41.984766579999985],[0.17057102000001123,41.98496275999997],[0.1696826599999781,41.98530249999999],[0.16909918999999718,41.98546270999998],[0.16815232999999807,41.98559693999999],[0.16609162999998262,41.985906],[0.16218579000002364,41.986491049999984],[0.16025180000002592,41.986922590000006],[0.15789144000001443,41.987275780000004],[0.1564927900000157,41.98706213999998],[0.15445562999997264,41.98736134000001],[0.15329623000002357,41.987348199999985],[0.1501666799999839,41.98581328],[0.14824370999997427,41.985001590000024],[0.1464988500000004,41.98437409000002],[0.14619175000001405,41.98426545000001],[0.1463700599999811,41.983720240000025],[0.1466701100000023,41.98221713999999],[0.14675634000002447,41.98200766000002],[0.14713740000001962,41.98116872000003],[0.14729964999997947,41.98054291],[0.14726845000001276,41.980399680000005],[0.14700018000002046,41.980344],[0.14662877000000663,41.98039921999998],[0.14645108000001983,41.98046713999997],[0.1458590799999797,41.980699500000014],[0.14476839000002428,41.98109863000002],[0.1439322200000106,41.98127464999999],[0.14339072000001352,41.981307500000014],[0.1427777900000251,41.98136032000002],[0.14072701999998571,41.98138048999999],[0.1375882599999727,41.98161049999999],[0.13594230000001062,41.981763580000006],[0.13480929999997215,41.981794560000026],[0.13427543000000242,41.98173710999998],[0.13322474000000284,41.981477659999996],[0.13183846999999105,41.98102024000002],[0.13118509999998196,41.98074091000001],[0.13064830000001848,41.98037734000002],[0.13028788999997687,41.97991890999998],[0.12940847999999505,41.97921349000001],[0.12897825999999668,41.97905413000001],[0.1281380899999931,41.97914909000002],[0.127179319999982,41.97904016000001],[0.12716790000001765,41.978067899999985],[0.12630280000001903,41.977407089999986],[0.12548533000000361,41.97697911],[0.12506823000001077,41.976594250000005],[0.12453834000001507,41.975383969999996],[0.12317381999997679,41.97536710999998],[0.12207453000002033,41.97583830000002],[0.12196826000001693,41.97588622000001],[0.12034856999997601,41.976821830000006],[0.11759721999999329,41.97781519],[0.11682107000001452,41.978232520000006],[0.11587991999999758,41.97897852],[0.11449764999997569,41.980330830000014],[0.11230688000000555,41.982182360000024],[0.10922209000000294,41.981293470000026],[0.10861461000001782,41.98121087999999],[0.10620963000002348,41.98139312000001],[0.10549387999998316,41.978837],[0.10424068999998326,41.97589919000001],[0.10434582999999975,41.97433842999999],[0.10437541999999667,41.97420254999997],[0.10469374000001608,41.97280712000003],[0.10452706000000944,41.97210921999999],[0.10406084999999621,41.97145545000001],[0.10310117000000218,41.969338170000015],[0.10420993000002454,41.96881287000002],[0.10808822000001328,41.96767222],[0.10739883000002237,41.96565571000002],[0.1063191200000233,41.96305541999999],[0.10587813000000779,41.96267112999999],[0.1053383199999871,41.96248763],[0.10247341000001597,41.961880759999985],[0.09893011000002616,41.96096797000001],[0.09835113000002593,41.96072246],[0.09627302000001237,41.95941878000002],[0.0950669100000141,41.95892902999998],[0.0937683399999969,41.95852280999998],[0.0914158599999837,41.95802791],[0.09025944000001118,41.95781593999999],[0.0892059500000073,41.95773625999999],[0.08829456000000846,41.95785086000001],[0.0862999799999784,41.95602244000003],[0.08501963999998452,41.954742109999984],[0.08475783000000092,41.95431689999998],[0.08462897999999086,41.953897110000014],[0.08483705999998392,41.95345925999999],[0.08514238999998724,41.95303680000001],[0.08406751000001123,41.95101249999999],[0.08330537000000504,41.949718210000015],[0.08234076000002233,41.94772695],[0.08195104999998648,41.94689992999997],[0.08132775000001402,41.94498053000001],[0.08002085999999053,41.94189079],[0.07911386000000675,41.939087470000004],[0.07878127999998696,41.93769157000003],[0.07816630999997187,41.93569088999999],[0.07759906000001138,41.93342775999997],[0.07906704999999192,41.932857049999996],[0.08208932000002278,41.93150613],[0.08271161999999777,41.93115620999998],[0.08317126999997981,41.93068457999999],[0.08349832999999762,41.92996436999999],[0.08469973000001119,41.92786984999998],[0.08574513000002071,41.92629281000001],[0.08593684999999596,41.9260175],[0.08696278000002167,41.92428788000001],[0.08773543000000927,41.92280821999998],[0.08960534999999936,41.919831139999985],[0.08964991999999938,41.919505749999985],[0.08891405999997914,41.916751929999975],[0.08686277999998993,41.90897251000001],[0.08638208000002123,41.906004680000024],[0.08489363000001049,41.90638691999999],[0.0831098900000029,41.90714630000002],[0.08177158000000873,41.90789368999998],[0.0793167799999992,41.90949052000002],[0.07859660999997686,41.909807030000024],[0.07361739999998917,41.911309370000026],[0.07078030999997509,41.912484010000014],[0.06830180999997992,41.91083032],[0.06822698000001992,41.910778289999996],[0.06174170999997841,41.90752054000001],[0.061092389999998886,41.90705157999997],[0.06076129000001629,41.906682190000026],[0.06027538000000732,41.9055965],[0.05973446000001559,41.90462034000001],[0.05521542000002455,41.89783367000001],[0.054352639999990515,41.89667694000002],[0.053305039999997916,41.89543507000002],[0.050369289999991906,41.89149678000001],[0.049963579999996455,41.890823160000025],[0.04968900000000076,41.890119029999994],[0.04898974000002454,41.88682363999999],[0.048324849999971775,41.88627396999999],[0.04729974000002812,41.88575186999998],[0.04583707000000459,41.88515133999999],[0.04476428999998916,41.884639489999984],[0.04465425000000778,41.88460638999999],[0.043809239999973215,41.884322629999986],[0.032866119999994226,41.88430629999999],[0.027543600000001334,41.871389050000005],[0.027053029999990486,41.870186260000025],[0.026349560000028305,41.86855682999999],[0.025867380000022422,41.86778607999997],[0.025876439999990453,41.867722800000024],[0.02602622000000565,41.867322609999974],[0.026630959999977222,41.86635208000001],[0.026499730000011823,41.86510378999998],[0.0264527300000168,41.864618740000026],[0.02690453999997544,41.86117574999997],[0.027019470000027468,41.86080349000002],[0.027325210000014977,41.860390180000024],[0.03152215000000069,41.85743363],[0.03135651000002326,41.856987730000014],[0.03131495999997469,41.85585414000002],[0.031359919999999875,41.855276609999976],[0.03194108999997525,41.85381137000002],[0.03215470999998615,41.85272507000002],[0.032106530000021394,41.85196087999998],[0.032003180000003795,41.85155837000002],[0.03172406999999566,41.85125956000002],[0.029647090000025855,41.84987355999999],[0.028541930000017146,41.85019091999999],[0.0257773999999813,41.84852581000001],[0.023967519999985143,41.847691],[0.029034770000009757,41.842009959999984],[0.030156159999989995,41.84076461000001],[0.03094103000000814,41.83978930000001],[0.03256112000002531,41.83839567000001],[0.03312367000000904,41.83781345],[0.034529539999994086,41.835966180000014],[0.031887890000007246,41.83434298999998],[0.030896989999973812,41.83350465000001],[0.030748430000016924,41.83341852000001],[0.03036413000000948,41.83318551999997],[0.026324719999990975,41.83077061],[0.016842170000018086,41.830380960000014],[0.015817930000025626,41.83138948999999],[0.014912419999973281,41.832106710000005],[0.01306589000000713,41.833298920000004],[0.010752959999990708,41.83225196000001],[0.010235819999991236,41.831238910000025],[0.007640849999972943,41.832135470000026],[0.006844370000010258,41.83184115],[0.0059544499999901745,41.83135116],[0.005083029999980226,41.83177023000002],[0.0039229399999953785,41.83039574999998],[0.003050610000002507,41.82950903],[0.0024118499999872256,41.82872426],[0.0012161199999809469,41.82658521000002],[2.1810000021105225e-05,41.82524761000002],[-0.003552490000004127,41.82270239000002],[-0.005331339999997908,41.822766849999994],[-0.008667969999976322,41.82298896999998],[-0.01005864000001111,41.81975620999998],[-0.012636390000011488,41.81894982],[-0.014652080000018941,41.81650775000003],[-0.02080362999998897,41.817027859999996],[-0.02190650000000005,41.81712854],[-0.02706732000001466,41.81720833000003],[-0.03075997000001962,41.81727692999999],[-0.03186869000001025,41.817251580000004],[-0.03212410999998383,41.817195149999975],[-0.03676716000001079,41.81623449],[-0.03682512000000315,41.81784798000001],[-0.03702535999997281,41.81820436999999],[-0.03796323000000257,41.819012069999985],[-0.03782224999997652,41.819197540000005],[-0.037323829999991176,41.81956291],[-0.037080829999979414,41.81987183000001],[-0.03714963999999554,41.82020681],[-0.03766084000000092,41.82139073000002],[-0.03686339000000771,41.82249583999999],[-0.037448849999975664,41.82337548999999],[-0.037967939999987266,41.82491083000002],[-0.03796541999997771,41.82548711999999],[-0.03774355000001606,41.825859630000025],[-0.037268299999993815,41.8262436],[-0.03670636999999033,41.82667937000002],[-0.0365562399999817,41.826801569999986],[-0.03523240999999189,41.82835234999999],[-0.03400973999998769,41.82953649000001],[-0.03327813999999307,41.82999487000001],[-0.032578479999983756,41.830282969999985],[-0.03085568000000194,41.83082375999999],[-0.03109183999998777,41.832225730000005],[-0.030598230000009607,41.832744279999986],[-0.03042564999998376,41.83309102999999],[-0.03044756999997844,41.83339778999999],[-0.03045419000000038,41.83351503],[-0.030744369999979426,41.834270000000004],[-0.03104625999998234,41.834511959999986],[-0.03351479000002655,41.83451277],[-0.03380383000001075,41.83477240000002],[-0.03407707000002347,41.83537382999998],[-0.03421635000000833,41.83600781000001],[-0.034446100000025126,41.83624788999998],[-0.035666690000027756,41.836414520000005],[-0.03633402000002661,41.83656683999999],[-0.03705896999997549,41.83703584],[-0.04170049999999037,41.84057772],[-0.04174654000001965,41.84062392999999],[-0.044424419999984366,41.841836650000005],[-0.04505655999997771,41.84197001000001],[-0.045569250000028205,41.84208226999999],[-0.046205559999975776,41.84238683000001],[-0.047389479999992545,41.843615039999975],[-0.04818718000001354,41.844076840000014],[-0.04951878000002807,41.844714469999985],[-0.05198085000000674,41.845912450000014],[-0.052684030000023085,41.846335769999996],[-0.05314497000000529,41.84678888000002],[-0.053268670000022666,41.84724233999998],[-0.053002900000024056,41.84804601000002],[-0.05281939000002467,41.84968029999999],[-0.051921699999979865,41.85270111],[-0.05025681000000759,41.85223504999999],[-0.04985523999999941,41.852323790000014],[-0.04977311999999756,41.85253781],[-0.05050257999999985,41.85370026999999],[-0.05080464000002394,41.85394217999999],[-0.05140789000000723,41.854182820000005],[-0.051997229999983574,41.858655699999986],[-0.05196410000002061,41.85911413000002],[-0.05161813000000848,41.85956451999999],[-0.05152689999999893,41.85997643000002],[-0.05167880999999852,41.86034056],[-0.05194562999997743,41.860563549999995],[-0.053143130000023575,41.86098155000002],[-0.054843590000018594,41.86172764999998],[-0.0565760299999738,41.86046630999999],[-0.05809092999999166,41.85895621999998],[-0.058855030000017905,41.85831840999998],[-0.06148968999997351,41.85708011999998],[-0.06292733999998745,41.85856682000002],[-0.06226043999998865,41.85945029999999],[-0.061892619999980525,41.860116300000016],[-0.06176666999999725,41.86076147],[-0.06169642999998359,41.861768289999986],[-0.061567589999981465,41.862476430000015],[-0.06118653999999424,41.86343025999997],[-0.060272020000013526,41.863406829999974],[-0.05958421000002545,41.86395655000001],[-0.06022546999997758,41.86468442],[-0.06109622000002446,41.86540015999998],[-0.06273019999997587,41.86654967999999],[-0.0646669199999792,41.868193229999974],[-0.06696219999997766,41.86963879000001],[-0.06879677000000584,41.870622260000005],[-0.07133427000002257,41.87230806000002],[-0.0720308799999998,41.87288418999998],[-0.07552414999997836,41.87422507000002],[-0.07682218999997303,41.874825499999986],[-0.07896533000001682,41.875654569999995],[-0.07979772999999568,41.87616206000001],[-0.08068222000002834,41.87631965000003],[-0.08390854999998965,41.87691503000002],[-0.08449011999999811,41.87710992000001],[-0.08505539999998746,41.87713329000002],[-0.08699219999999741,41.87693933999998],[-0.08992633999997679,41.87680669000002],[-0.09121255000002293,41.87687533000002],[-0.09348428999999214,41.87726612],[-0.09734978000000183,41.878651779999984],[-0.09845880000000307,41.87917514999998],[-0.10203132999998843,41.880382139999995],[-0.10344012000001612,41.88094004999999],[-0.10520612999999912,41.881326839999986],[-0.1087712300000021,41.881903050000005],[-0.10956676000000698,41.882166240000004],[-0.11101595999997471,41.88316635000001],[-0.1116400099999737,41.88375841999999],[-0.112712590000001,41.8845599],[-0.11367576999998619,41.88511546000001],[-0.11435288000001265,41.88560079000001],[-0.11520381000002544,41.88597341000002],[-0.11551302999998825,41.886332400000015],[-0.1150483000000122,41.88648281000002],[-0.11467783000000509,41.88668061999999],[-0.11386727000001429,41.887551780000024],[-0.11221628999999211,41.888617909999994],[-0.11174532000001136,41.88917341000001],[-0.11156799000002593,41.889898389999985],[-0.1119071100000042,41.890663399999994],[-0.11185882000000902,41.890932350000014],[-0.11087448000000677,41.89164600999999],[-0.11015009999999847,41.892474289999996],[-0.10987520999998424,41.89322383000001],[-0.10967321999999058,41.89422736],[-0.10975141000000121,41.89436440999998],[-0.11013301999997793,41.89445508],[-0.1106643800000029,41.89443244],[-0.11190308999999843,41.89395932999997],[-0.11225507000000334,41.89390515000002],[-0.11275626999997712,41.89401683],[-0.11340748999998596,41.89427637],[-0.11426678999998785,41.895000419999974],[-0.1146293599999808,41.895513849999986],[-0.11478972999998405,41.89676966000002],[-0.11473102999997309,41.89700232000001],[-0.11283442000001287,41.89843151000002],[-0.11188392000002523,41.899461229999986],[-0.111675450000007,41.8998072],[-0.11173064000001887,41.90018681999999],[-0.11187216000001854,41.90052358999998],[-0.11229465999997501,41.900777370000014],[-0.11472206000001961,41.901748020000014],[-0.11561041999999588,41.90236472999999],[-0.116387589999988,41.90304166999999],[-0.1173789700000043,41.904048190000026],[-0.11797364000000243,41.90449539999997],[-0.11897731999999905,41.90496188999998],[-0.12020526999998538,41.906874879999975],[-0.12318516999999929,41.910849059999975],[-0.1237301599999796,41.91133101999998],[-0.1248816600000282,41.911999279999975],[-0.12523478000002797,41.91245841],[-0.12558088999998063,41.91361078],[-0.12553142000001571,41.91390673000001],[-0.12526395999998385,41.914224219999994],[-0.12409986000000117,41.91517664000003],[-0.12388136999999233,41.91547735],[-0.12332601999997905,41.91710243],[-0.12289094999999861,41.91792902999998],[-0.12270889000001262,41.918491819999986],[-0.12273684000001595,41.91894279000002],[-0.12288805999997976,41.91933382000002],[-0.12411582999999382,41.92045428],[-0.12545211999997719,41.921307290000016],[-0.12610002999997505,41.92164772000001],[-0.1262605800000074,41.92183184999999],[-0.1264634099999853,41.92295361999999],[-0.12634386000001996,41.92400427000001],[-0.12615865999998732,41.924368860000016],[-0.12554151000000502,41.92575826000001],[-0.12533631999997397,41.927103939999995],[-0.12519280999998728,41.92761366000002],[-0.12496183000001793,41.92792306000001],[-0.1245481400000017,41.928272909999976],[-0.12350359999999228,41.92870599999998],[-0.12267281999999113,41.92867616000001],[-0.12217366999999513,41.928780700000004],[-0.12158371999998963,41.92902706000001],[-0.12097473000000036,41.929696190000016],[-0.12088301000000001,41.930126159999986],[-0.12093059000000039,41.930676689999984],[-0.12106259000000819,41.930959169999994],[-0.12133641999997735,41.931038090000015],[-0.12239854000000605,41.93101970999999],[-0.12272774000001618,41.931208079999976],[-0.12316325000000461,41.93171431000002],[-0.12359189000000015,41.93237346000001],[-0.12378161999998838,41.93298159],[-0.12356905000001461,41.933417529999986],[-0.1225539800000206,41.9342656],[-0.12183864000002131,41.93461687000001],[-0.12066146000000799,41.93504660999997],[-0.1198452699999848,41.93549439999998],[-0.11974472999997943,41.935852090000026],[-0.11973091999999497,41.937229590000015],[-0.11959736000000021,41.93778458000003],[-0.11910782000001063,41.938744869999994],[-0.11889386000001423,41.939477950000025],[-0.11895399000002271,41.939749629999994],[-0.11921649999999318,41.940080420000015],[-0.11958826000000045,41.94039593999997],[-0.12023592000002736,41.94074540999998],[-0.12108991999997443,41.94133419999997],[-0.12144925000001194,41.94165841],[-0.12151849999997921,41.94226351999998],[-0.12147677000001522,41.94319003999999],[-0.12251066999999694,41.94835812000002],[-0.12276766000002226,41.94854468],[-0.12370219000001725,41.948955360000014],[-0.12492836000001262,41.94931931000002],[-0.12566250999998374,41.94962588999999],[-0.12624883000000864,41.9500008],[-0.12667688999999882,41.95040777000003],[-0.12744259999999485,41.951354519999995],[-0.12795398999998042,41.95259206999998],[-0.12794460999998591,41.95306913000002],[-0.12819395999997596,41.95342658999999],[-0.13048501999998052,41.95587038999997],[-0.1306431599999769,41.956378659999984],[-0.13057071999998016,41.956917180000005],[-0.13032631999999467,41.95752342999998],[-0.12967252999999346,41.95972241999999],[-0.12963137999997798,41.960369790000016],[-0.12941833000002134,41.96081472999998],[-0.12907238000002508,41.960995190000006],[-0.12715833999999404,41.96143354999998],[-0.12643008999998528,41.96233386],[-0.12461861000002727,41.96344116],[-0.12379436999998461,41.96405987999998],[-0.12064737999997988,41.96695270999999],[-0.11992262000001119,41.967772019999984],[-0.1193296199999736,41.96861265000001],[-0.11828700000000936,41.97032451000001],[-0.11791729999998779,41.97129681000001],[-0.11803973999997197,41.97152503000001],[-0.11910987999999634,41.972146280000004],[-0.12016283000002659,41.97261399000001],[-0.12071042999997417,41.972780839999984],[-0.12114983999998685,41.973206119999986],[-0.12126824000000624,41.97352427999999],[-0.12129635000002281,41.97745136999998],[-0.12174520000002076,41.978471249999984],[-0.12319724999997561,41.98320854000002],[-0.123213039999996,41.98392937],[-0.12312054000000217,41.98410716000001],[-0.12268123000001196,41.98421321000001],[-0.12111881999999241,41.98486740999999],[-0.1209643999999912,41.985079670000005],[-0.12094359000002441,41.98580858999998],[-0.1210853800000109,41.98694683000002],[-0.12131219999997711,41.98753787999999],[-0.12170806000000312,41.98759285],[-0.12749358000002076,41.98751278999998],[-0.1296989100000019,41.98732486],[-0.13089337999997497,41.98733673999999],[-0.13220317000002524,41.987468569999976],[-0.1345398000000273,41.98785118000001],[-0.136740599999996,41.98830239],[-0.1373293999999987,41.98836211999998],[-0.14154794000000948,41.988233209999976],[-0.1430028899999911,41.988089360000004],[-0.14582437000001391,41.98761929],[-0.1472772899999768,41.987250200000005],[-0.1507546000000275,41.986147930000016],[-0.1523758700000144,41.98579195999997],[-0.15935715000000528,41.98460528999999],[-0.16064719000002015,41.98436707000002],[-0.16193236999998817,41.98396661999999],[-0.1632986700000174,41.98337005000002],[-0.1649662899999953,41.98251074000001],[-0.1659118300000273,41.98214687000001],[-0.16763415999997733,41.98168512000001],[-0.16864283000001024,41.981529920000014],[-0.16949362000002566,41.982757660000004],[-0.17029989999997497,41.98417340999998],[-0.17053206000002774,41.984926589999986],[-0.17465015999999878,41.985424369999976],[-0.1758583899999735,41.985670260000006],[-0.17677089000000024,41.98605294999999],[-0.17831183999999212,41.986964409999985],[-0.1809357999999861,41.988226680000025],[-0.18369473000001335,41.98916800000001],[-0.18601535999999896,41.98964823],[-0.186572979999994,41.989869039999974],[-0.18697637999997596,41.990302199999974],[-0.18748339000001124,41.99057578999998],[-0.18804452000000538,41.991264969999975],[-0.18856219000002739,41.99184501000002],[-0.1890260800000192,41.992549800000006],[-0.18942454000000453,41.99337006000002],[-0.18979311999999027,41.99459483999999],[-0.18983461999999918,41.99474894999997],[-0.18992007999997895,41.996372029999975],[-0.19007126000002472,41.997051150000004],[-0.19222354999999425,41.998346630000015],[-0.19311358999999584,41.99897177999998],[-0.19389074999998002,41.99969322999999],[-0.1947673799999734,42.000074900000016],[-0.19533322000000908,42.000385919999985],[-0.19550978000000896,42.00048930000003],[-0.1961570899999856,42.001144520000025],[-0.19792728999999554,42.00344817000001],[-0.20289694000001646,42.010440689999996],[-0.20342832000000044,42.01264198000001],[-0.20411790000002838,42.014540950000026],[-0.20596994999999652,42.01636917000002],[-0.2076778699999977,42.02011203000001],[-0.20798517999998012,42.021092109999984],[-0.2081030100000021,42.021986519999984],[-0.20849519000000782,42.02295965000002],[-0.20872664000000896,42.02539675999998],[-0.21049570999997513,42.02747505000002],[-0.21141282000002093,42.02804669],[-0.22405304000000115,42.03400885000002],[-0.23357985000001236,42.03911106999999],[-0.23572823000000653,42.04027055],[-0.24175695000002406,42.04026264999999],[-0.24938608999997314,42.04012173000001],[-0.25531346999997595,42.03938124000001],[-0.2666553000000249,42.041399249999984],[-0.2693200400000251,42.04208412999998],[-0.27251639000002115,42.04305175000002],[-0.27682736999997815,42.044514049999975],[-0.27754447000000937,42.044414010000025],[-0.2778569700000162,42.044169280000006],[-0.27855654000001095,42.04334836999999],[-0.27918037000000595,42.04288588999998],[-0.2797124100000019,42.04259231999998],[-0.2808789499999875,42.042151709999985],[-0.28356809000001704,42.041702139999984],[-0.28447727999997596,42.041912790000026],[-0.29378735000000233,42.04173666999998],[-0.29513550000001487,42.04213771000002],[-0.29763230999998314,42.042232609999985],[-0.3000371800000039,42.040506170000015],[-0.301656209999976,42.04164295999999],[-0.30246017000001757,42.042913639999995],[-0.3044484000000125,42.04446432999998],[-0.3062070999999946,42.04887334],[-0.30806910000001153,42.04970055000001],[-0.30808095999998386,42.05142088000002],[-0.3082628799999725,42.05226266],[-0.3090293600000109,42.05356843999999],[-0.31085611999998264,42.055520469999976],[-0.31130002999998396,42.058457669999996],[-0.3171239100000207,42.06392536999999],[-0.32007096000000956,42.066551849999996],[-0.32291149999997515,42.06884258000002],[-0.32617109000000255,42.07123306],[-0.32806491999997434,42.07276311999999],[-0.32778237000002264,42.07833993999998],[-0.3272166200000015,42.079146260000016],[-0.327155380000022,42.08060372],[-0.32739043999998785,42.08162682],[-0.32816177000000835,42.083409870000025],[-0.32867840000000115,42.08463764999999],[-0.3281465900000171,42.084922440000014],[-0.3275158899999724,42.085258950000025],[-0.32727807999998504,42.085739709999984],[-0.32693607999999585,42.08639813999997],[-0.32615319000001364,42.087478550000014],[-0.32574249999998983,42.08775714000001],[-0.3245504899999787,42.08821562999998],[-0.32501236000001654,42.08930706000001],[-0.325044059999982,42.08941586999998],[-0.3233704200000034,42.08953889999998],[-0.32365720000001375,42.09019398999999],[-0.32400175999998737,42.09062528999999],[-0.3245538799999963,42.091583749999984],[-0.3244258299999956,42.09232822000001],[-0.32685607000001937,42.10038177000001],[-0.3282343600000104,42.10642954999997],[-0.31942624999999225,42.11082570000002],[-0.3202172900000164,42.11644559000001],[-0.3215743299999758,42.11696360000002],[-0.3231504299999983,42.11745069],[-0.3254757400000017,42.117955240000015],[-0.32744463000000223,42.11830735000001],[-0.3294483000000241,42.118408079999995],[-0.3318869999999947,42.11880708000001],[-0.33345717999998215,42.11914981000001],[-0.3340572600000087,42.12070369999998],[-0.33355160000002115,42.12093507999998],[-0.3334405699999934,42.12156288],[-0.32747724000000744,42.12098272999998],[-0.32740354999998544,42.12158438],[-0.32706285000000435,42.122206819999974],[-0.3266289100000108,42.12245784999999],[-0.32551662999998143,42.123305430000016],[-0.32493377999998074,42.12421939000001],[-0.3166030200000023,42.12985118],[-0.3100213899999744,42.13185821000002],[-0.30999568999999383,42.13189362999998],[-0.3086764500000072,42.133618720000015],[-0.31120319000001473,42.13509187],[-0.3109061499999939,42.140677270000026],[-0.30252926999997953,42.14104775999999],[-0.2979596800000195,42.14151647],[-0.28865164000001187,42.142719510000006],[-0.28411326000002646,42.14358464999998],[-0.2831841999999938,42.147479970000006],[-0.2830458999999905,42.148449270000015],[-0.2830331100000194,42.14931349],[-0.2826423700000191,42.15080812000002],[-0.2825238400000103,42.15159778999998],[-0.2827796000000262,42.154386509999995],[-0.2828179200000136,42.15603540000001],[-0.2826555500000154,42.15728330000002],[-0.2822931599999947,42.15867953999998],[-0.2817290599999751,42.15998094999998],[-0.28117725999999266,42.16099446999999],[-0.2804909500000008,42.16373383000001],[-0.2794920900000193,42.16642073999998],[-0.27283314999999675,42.16673075],[-0.27149782999998706,42.166536870000016],[-0.269321170000012,42.16648502999999],[-0.2674640299999851,42.16660287000002],[-0.2650689399999919,42.166563740000015],[-0.26311681999999337,42.16579672],[-0.2626475999999798,42.166010640000025],[-0.2620318300000122,42.16681541999998],[-0.2612393200000156,42.16750790999998],[-0.2606192399999827,42.16841162999998],[-0.2604551300000253,42.16912814],[-0.26022230000000945,42.169473779999976],[-0.2597815600000217,42.16986847999999],[-0.2596099699999854,42.17019757999998],[-0.2595940300000166,42.17056642],[-0.2597587600000111,42.17123674999999],[-0.26012868999998773,42.17192098999999],[-0.26037148000000343,42.17274628000001],[-0.26053475999998454,42.17401094000002],[-0.2597651599999722,42.174730969999985],[-0.25855587000000924,42.175539549999996],[-0.2568643299999849,42.17630055000001],[-0.25502764999998817,42.17733721000002],[-0.25329505000001973,42.17792607000001],[-0.25252574000001005,42.17947455000001],[-0.25167909999998983,42.17973341999999],[-0.2512417500000197,42.18060544999997],[-0.2500568199999975,42.18112635],[-0.24889998999998397,42.18099953000001],[-0.24648802000001524,42.18050033999998],[-0.24433200999999372,42.18024138999999],[-0.24268674000001056,42.17993166000002],[-0.24211284000000433,42.17976476000001],[-0.24049767000002475,42.179320640000014],[-0.23821971000000985,42.17852733000001],[-0.23735320999998066,42.17840739000002],[-0.23397335999999314,42.17845194],[-0.23235944999998992,42.18075434999997],[-0.23167231000002175,42.18096288999999],[-0.227930850000007,42.18152083000001],[-0.22428175999999667,42.18217994999998],[-0.22202513000002,42.18283667999998],[-0.22100466000000552,42.18319016999999],[-0.21968114999998534,42.18327513000003],[-0.21896947999999838,42.184041330000014],[-0.21512749999999414,42.183848969999985],[-0.21250813000000335,42.18338905000002],[-0.21082531000001836,42.18338412999998],[-0.21061410999999453,42.18295574000001],[-0.21058788999999933,42.18245080999998],[-0.2104993599999716,42.18116090000001],[-0.2085330599999793,42.18099595000001],[-0.20609092000000828,42.18063926000002],[-0.20438100000001214,42.18207443],[-0.20409289000002673,42.18284184999999],[-0.20431891999999152,42.18320757999999],[-0.20481441999999106,42.18377799000001],[-0.2048443599999814,42.18392281000001],[-0.20467442000000347,42.184206829999994],[-0.20414560000000392,42.184392049999985],[-0.20384380000001556,42.18464583999997],[-0.2033450800000196,42.18579534999998],[-0.20294016000002557,42.186190710000005],[-0.20196651999998494,42.186851339999976],[-0.20178783000000067,42.18733326],[-0.20149730999997928,42.18760533],[-0.2008205199999793,42.187849949999986],[-0.2004348099999902,42.188083670000026],[-0.19972366000001784,42.18883175000002],[-0.19927785999999514,42.18905498999999],[-0.197089740000024,42.189793959999975],[-0.19577338999999938,42.18998687999999],[-0.1952436999999918,42.19019005000001],[-0.19438436000001502,42.190727340000024],[-0.19415378000002192,42.19155918000001],[-0.19378784000002724,42.19189241999999],[-0.19356908999998268,42.19300371999998],[-0.19264435000002322,42.19501625999999],[-0.19150906999999506,42.19467326],[-0.1899794899999847,42.19612162999999],[-0.1874858499999732,42.200734179999984],[-0.18718151000001626,42.20104189],[-0.18696797000001197,42.20148691000003],[-0.1865145599999778,42.20215116999998],[-0.18498572999999396,42.20521143000002],[-0.18627044999999498,42.20573826999998],[-0.18748820000001842,42.20613737999997],[-0.1883191800000077,42.20651799000001],[-0.19164200000000164,42.20806732],[-0.192106439999975,42.20851995999999],[-0.19239977000000863,42.20873426999998],[-0.19286900999998124,42.20907896],[-0.19331898000001502,42.20958526999999],[-0.19405726000002232,42.210692989999984],[-0.1941476800000146,42.210839280000016],[-0.194698609999989,42.21152817000001],[-0.19496656000001167,42.21176886000001],[-0.19551296999998158,42.21228652999997],[-0.19682912000001807,42.21375057],[-0.19714429999999084,42.21401943000001],[-0.19763940000001412,42.21432871000002],[-0.19860581000000366,42.21493767999999],[-0.2019871900000112,42.21737066999998],[-0.20296618999998373,42.21797090000001],[-0.20422831000001906,42.21846998000001],[-0.20705636999997523,42.219448469999975],[-0.20892109999999775,42.22029537999998],[-0.21003136000001632,42.22094378000003],[-0.21114937999999484,42.221691410000005],[-0.2146294500000181,42.22437858000001],[-0.21571299999999383,42.226187960000004],[-0.21630654000000504,42.22674268999998],[-0.22099881000002597,42.22998140999999],[-0.2212782600000196,42.23024034000002],[-0.22130320999997366,42.231879900000024],[-0.22165529000000106,42.23214058000002],[-0.2227861599999983,42.230393960000015],[-0.22304298000000244,42.22978783000002],[-0.2231305999999904,42.22944775000002],[-0.2234810799999991,42.228087449999975],[-0.22391270000002805,42.22598167000001],[-0.22414279999998143,42.225708080000004],[-0.22467574000000923,42.22571198000003],[-0.2251801400000204,42.225814249999985],[-0.22710014000000456,42.22623894999998],[-0.22907566999998608,42.22650286999999],[-0.23226749000002656,42.226661060000026],[-0.23453119999999217,42.22698587000002],[-0.23907295999998723,42.228419169999995],[-0.23997881000002508,42.22848601999999],[-0.2408639700000208,42.22847131999998],[-0.24305564000002278,42.22822689999998],[-0.24681657000002133,42.22756088],[-0.2476986199999942,42.22733892999997],[-0.24838462999997546,42.22744546000001],[-0.24884026000000858,42.22783462000001],[-0.24972735000000057,42.22833320000001],[-0.25051997000002757,42.22849630000002],[-0.2515929499999743,42.22834194000001],[-0.2534769100000176,42.22848617],[-0.25708009999999604,42.22894170000001],[-0.25997544000000516,42.22951526999998],[-0.26382442999999967,42.23045373999997],[-0.2638024099999825,42.23180401000002],[-0.26398485999999366,42.23234867999997],[-0.26698671000002605,42.23495079999998],[-0.26605547999997725,42.237432049999995],[-0.2658584499999961,42.238345890000005],[-0.26582324999998264,42.24000202000002],[-0.2660049599999752,42.24056467999998],[-0.26640536999997266,42.24111455000002],[-0.26679252000002407,42.241691119999984],[-0.2667603799999938,42.24299611999999],[-0.2670809100000042,42.24427351000003],[-0.26827980000001617,42.24541875],[-0.2690021899999806,42.24637252000002],[-0.2696418599999788,42.247558449999985],[-0.2708225399999833,42.248847309999974],[-0.27113176000000294,42.24982725000001],[-0.2712900199999808,42.250092170000016],[-0.27282631999997875,42.25297440999998],[-0.2731192200000123,42.254053],[-0.2725474999999733,42.258596049999994],[-0.2724724500000093,42.25977395000001],[-0.2726650700000164,42.261210370000015],[-0.2730799600000182,42.26255302999999],[-0.2740168099999778,42.263881079999976],[-0.27401223999999047,42.264268200000004],[-0.2736525700000243,42.26473692000002],[-0.2728752699999859,42.26533078],[-0.2713142800000128,42.26610407999999],[-0.2704513900000052,42.266713890000005],[-0.26631025000000363,42.27023525999999],[-0.26611967000002323,42.27071699999999],[-0.2645182300000215,42.26905783000001],[-0.2638923000000091,42.26895282999999],[-0.2635476699999799,42.26879151000003],[-0.26270712000001595,42.26776285],[-0.2622749299999896,42.267104140000015],[-0.2619310900000187,42.266924829999994],[-0.26097477000001845,42.26800960999998],[-0.259164759999976,42.26976737000001],[-0.25824700999999095,42.27051985999998],[-0.25744881999997915,42.27159038999997],[-0.2563235700000064,42.27349056999998],[-0.2553971400000137,42.27667423999998],[-0.2549266699999748,42.27773459000002],[-0.2549250999999799,42.27860806000001],[-0.2542045000000144,42.28012167999998],[-0.2533040199999732,42.28409841000001],[-0.2505386600000179,42.28466243999998],[-0.24832133000001022,42.28378072999999],[-0.24776408000002448,42.283488180000006],[-0.24509093000000348,42.281658909999976],[-0.2423965699999826,42.281152829999996],[-0.2409899699999869,42.283649430000025],[-0.23977086999997255,42.28601544999998],[-0.23900281999999606,42.28638417000002],[-0.23879364999999098,42.28673033000001],[-0.23772436000001562,42.286776599999996],[-0.23577783000001773,42.28636043],[-0.23340059999998175,42.28719457],[-0.2324343299999896,42.287657509999974],[-0.2296841900000004,42.28841951999999],[-0.22646675999999388,42.28960239999998],[-0.22538556000000654,42.28991841999999],[-0.22335541000001058,42.289473009999995],[-0.21800758000000542,42.290279810000015],[-0.2166651100000081,42.29019317000001],[-0.21520643000002337,42.28971646999997],[-0.21384987999999794,42.289674479999974],[-0.2120482299999935,42.28900028999999],[-0.21026091999999608,42.28855155000002],[-0.20854236000002402,42.28764518999998],[-0.2073827400000141,42.28671641],[-0.20475811000000022,42.28518455],[-0.20383228999997982,42.28472971000002],[-0.20266650999997182,42.28476429],[-0.20142229999999017,42.284652859999994],[-0.19993097000002535,42.28382396000001],[-0.19772152000001597,42.28414815999997],[-0.1964361899999858,42.28332425000002],[-0.19529865999999174,42.282449919999976],[-0.19339718999998468,42.281574879999994],[-0.19275433000001385,42.28239660999998],[-0.19208137999999053,42.28280336],[-0.1910966600000279,42.28313043000003],[-0.19048656000001074,42.28321452],[-0.18749798999999712,42.281970520000016],[-0.18718232999998463,42.28225093999998],[-0.1864520999999968,42.28176474000003],[-0.1827015000000074,42.27966441000001],[-0.1808277399999838,42.27871779999998],[-0.17838352000001123,42.27778411999998],[-0.17726907000002257,42.27748651000002],[-0.17650796999998875,42.27742273000001],[-0.17548636999998735,42.27694729000001],[-0.17475674999997182,42.27672217999998],[-0.17223002999998016,42.27655177999998],[-0.17123599000001377,42.27654525000003],[-0.17064609999999902,42.27644964000001],[-0.16458213999999316,42.27457973999998],[-0.16296113999999307,42.273684119999984],[-0.16210160999997925,42.27311350999997],[-0.1613962999999785,42.272888920000014],[-0.15952178999998523,42.27304958000002],[-0.15849346999999625,42.27326721999998],[-0.15760645000000295,42.27357841000003],[-0.15681356999999707,42.2731445],[-0.15609881000000314,42.27447753000001],[-0.15426976999998487,42.27524258],[-0.15318510999998125,42.276440330000014],[-0.15212266999998292,42.27741350000002],[-0.1540137299999742,42.278234940000004],[-0.15399387000002207,42.27867570000001],[-0.15407780999998977,42.278965949999986],[-0.15433253999998442,42.27923342999998],[-0.15680620000000545,42.281122890000006],[-0.15882252000000108,42.28293793],[-0.15954647000000932,42.28355922999998],[-0.1603802500000029,42.28443539],[-0.1637451000000283,42.28728332999998],[-0.1635451999999873,42.28768360999999],[-0.1634939099999997,42.288015529999996],[-0.16355851999998094,42.288467389999994],[-0.1638048400000116,42.28919389999999],[-0.16350883000001204,42.28957380000003],[-0.1634506699999747,42.28978848000003],[-0.16379190999998627,42.29029221000002],[-0.16328506999997217,42.29104510000002],[-0.16373131000000285,42.29164149000002],[-0.1627959799999985,42.292212670000026],[-0.16147009999997408,42.29283720000001],[-0.1612709300000006,42.29402994999998],[-0.15798748999998224,42.297991860000025],[-0.1575835300000108,42.29861219999998],[-0.14905284999997548,42.30217338],[-0.14160388999999896,42.305400710000015],[-0.13982865000002676,42.306292929999984],[-0.13680943999997908,42.3075953],[-0.1348290299999917,42.309797059999994],[-0.13321041000000378,42.312043870000025],[-0.13254518999997345,42.313332969999976],[-0.1318772299999864,42.31441487000001],[-0.1310997599999837,42.31550303],[-0.130397070000015,42.315746579999995],[-0.1302366499999721,42.315805599999976],[-0.12694269000002123,42.316731600000026],[-0.12186501000002181,42.31872034000003],[-0.11963408999997682,42.31974487999997],[-0.11836453000000802,42.320442360000015],[-0.11756970999999794,42.32110675000001],[-0.11711056000001463,42.321329330000026],[-0.11022547999999688,42.32540626000002],[-0.1093364199999769,42.32600517999998],[-0.10367962999998781,42.33000463000002],[-0.10004135000002634,42.332587090000004],[-0.09956964999997808,42.33307943],[-0.09919602999997323,42.33328609],[-0.09881318999998712,42.333429490000015],[-0.0986401600000022,42.33349714000002],[-0.09331572999997206,42.335523379999984],[-0.0900468799999885,42.33350429000001],[-0.08996533999999201,42.33343017999999],[-0.08778946000001042,42.331663909999975],[-0.08608200999998417,42.33210675999999],[-0.08344455000002426,42.332976169999995],[-0.083144510000011,42.33342778999997],[-0.08308015000000069,42.33350718999998],[-0.07915251999997963,42.339692660000026],[-0.08360876000000417,42.34621783],[-0.081829990000017,42.34766737000001],[-0.07866317999997818,42.35077445000002],[-0.07611485000001039,42.353104770000016],[-0.0735654499999896,42.354408439999986],[-0.07214791000001242,42.355128630000024],[-0.07125137999997833,42.355348849999984],[-0.0666368299999931,42.35719387],[-0.06585395000001881,42.35784018999999],[-0.06436890999998468,42.35870263999999],[-0.06336678999997503,42.35988363000001],[-0.06272899999999026,42.36028150999999],[-0.06203517000000147,42.36057889],[-0.06008370000000696,42.35920506999997],[-0.05587436000001844,42.35522477000001],[-0.055455040000026656,42.354844790000016],[-0.05485628999997516,42.35466730000002],[-0.053438760000005914,42.354603829999974],[-0.0527944500000217,42.35436213000003],[-0.05194274000001542,42.35414208999998],[-0.05159192000002122,42.35411505000002]]]}}]}