{"type":"FeatureCollection","features":[{"type":"Feature","properties":{"OBJECTID":1776,"ZON_CO_ID":58,"ZON_DS_NOM":"Terra Alta","CAL_DS_NOM":"D.O.Terra Alta","TPR_DS_DES":"Denominación de Origen","TPR_DS_GRU":"CALIDAD DIFERENCIADA","FAM_DS_NOM":"Vinos","classification":"DO","normalizedName":"Terra Alta"},"geometry":{"type":"Polygon","coordinates":[[[0.379670429999976,41.23630680000002],[0.38090699000002815,41.23622542999999],[0.38113750000002256,41.236299710000026],[0.38131124000000227,41.236429680000015],[0.3815909400000237,41.236070240000004],[0.3819730399999912,41.23538358000002],[0.3817903300000012,41.23484861999998],[0.3814909800000237,41.23459624999998],[0.3806348599999865,41.23418914000001],[0.3782761499999765,41.23402428999998],[0.37733588999998346,41.233835769999985],[0.37686344000002236,41.23369653999998],[0.37648815000000013,41.23359048999998],[0.37457490000002736,41.2328091],[0.37339743000001135,41.231952079999985],[0.3729137700000251,41.231362880000006],[0.3719045999999935,41.22983448999997],[0.3713454300000194,41.228473010000016],[0.3714469600000143,41.22812782],[0.37202003999999533,41.22721044999997],[0.3733464700000013,41.22586574000002],[0.37350821000001133,41.22506850000002],[0.3731491300000016,41.224349570000015],[0.37306782000001704,41.22392868999998],[0.37324040999999397,41.22287897000001],[0.37320813999997426,41.22248366000002],[0.373002299999996,41.22219251000001],[0.3726517000000058,41.221869579999975],[0.372051220000003,41.22109468999997],[0.3720255499999894,41.22105942000002],[0.37174201999999923,41.22018516000003],[0.37166567000002715,41.21870144000002],[0.3712939200000278,41.21727141000002],[0.3708322499999781,41.21641137],[0.370415209999976,41.21595529000001],[0.3697430099999792,41.21540762000001],[0.3690949900000078,41.214634079999996],[0.3683819999999969,41.213988529999995],[0.36812627000000475,41.213653799999975],[0.36753203000000667,41.213229909999995],[0.3674094099999934,41.212468],[0.36725717000001623,41.21205818999999],[0.36712622999999667,41.21113442000001],[0.3663073899999745,41.209123069999976],[0.366337279999982,41.20831167],[0.3665285199999744,41.207855789999996],[0.3666047500000218,41.20725017000001],[0.3671703900000125,41.20735069],[0.36895771000001787,41.208018830000015],[0.36983629999997447,41.208407369999975],[0.3724004700000023,41.210034329999985],[0.3727870600000074,41.21013106999999],[0.37316902999998547,41.21013787999999],[0.37395956000000297,41.21020476000001],[0.37418177000000696,41.21035133999999],[0.3742766999999958,41.2105737],[0.37453878999997414,41.21080016000002],[0.3753010199999949,41.21101195],[0.376634039999999,41.211423120000006],[0.37695708000001105,41.21167480999998],[0.3777176099999906,41.21208475999998],[0.3784441299999912,41.212297569999976],[0.3792145900000037,41.212437050000005],[0.37982327999998233,41.21244618999998],[0.3804149700000039,41.212356750000026],[0.38110795000000053,41.212381419999986],[0.3818133099999841,41.21241472000003],[0.38218431000001374,41.212439829999994],[0.3843147599999952,41.212818459999994],[0.38490058000002136,41.212846249999984],[0.38777197000001706,41.2130229],[0.3879038800000103,41.21303702],[0.3884750700000268,41.21370464],[0.4018635300000142,41.21637145],[0.40293551000002026,41.21841107],[0.4131933799999956,41.22002537999998],[0.4169135700000197,41.222976870000025],[0.41794134999997823,41.22324351999998],[0.41886851999998953,41.22363923],[0.4199856100000261,41.22424541999999],[0.4206526699999813,41.224684879999984],[0.42130266999998867,41.22502577],[0.4218640999999934,41.22595466000001],[0.4221248499999888,41.22637917999998],[0.42318718000001354,41.22639258999999],[0.42346251999998685,41.22641141999998],[0.42451624000000265,41.22648812],[0.42576318999999785,41.22683823],[0.42698788000001286,41.22699087000001],[0.42793223000001035,41.227485049999984],[0.4290792099999976,41.227748039999994],[0.4304307400000198,41.22850022],[0.43357449000001225,41.226803399999994],[0.4343349499999931,41.22651953000002],[0.4348780899999838,41.22641325000001],[0.4357708399999751,41.22637758000002],[0.43842898000002606,41.22361446000002],[0.43979192000000467,41.22344762],[0.44139502000001585,41.22308447],[0.4426552099999981,41.22255144000002],[0.44321115000002465,41.22246274999998],[0.44446412999997165,41.22201998000003],[0.4457446000000118,41.22187355],[0.4468444099999829,41.220786929999974],[0.44740058000002136,41.22002278999997],[0.44762085000002116,41.219448829999976],[0.4476777200000015,41.21894279999998],[0.44808077999999796,41.218669550000016],[0.44872200999998313,41.218389160000015],[0.4507836700000212,41.217904050000016],[0.451245780000022,41.21762001000002],[0.4522061299999791,41.21569999000002],[0.4524886599999718,41.215403330000015],[0.45296313000000055,41.215127919999986],[0.45503939999997556,41.21469631999997],[0.4569404100000156,41.21410786000001],[0.45708113000000594,41.21315802999999],[0.4578000199999792,41.21231690000002],[0.4570025200000032,41.21121517],[0.45664253000001054,41.210946809999996],[0.45620789999998124,41.21016737000002],[0.4564275899999757,41.20958440999999],[0.4561712000000284,41.20834031999999],[0.45665994000000865,41.20788434999997],[0.45762495999997554,41.20718892000002],[0.45836279999997487,41.206482300000005],[0.4581957999999986,41.20580288999997],[0.4579539399999817,41.20551297999998],[0.45781123000000434,41.20484183999997],[0.45868659000001344,41.20448231],[0.4597042500000157,41.20455977],[0.4603000000000179,41.204550849999976],[0.46100673000000825,41.2043855],[0.46228352999997924,41.20395080999998],[0.46282689999998183,41.203853400000014],[0.46501454999997804,41.204408909999984],[0.46571700999999166,41.20393746000002],[0.46657377999997607,41.20322721000002],[0.471350120000011,41.202903030000016],[0.4727087200000142,41.202889029999994],[0.4748177999999825,41.20263620999998],[0.476039730000025,41.20274337000001],[0.47743452999998226,41.20296237000002],[0.4791022200000157,41.20338022999999],[0.47917983000002096,41.203269809999995],[0.4793293399999925,41.20316623000002],[0.48066647000001694,41.20274753000001],[0.48179363999997804,41.20286650999998],[0.4832515699999931,41.201579579999986],[0.4834729500000208,41.201257680000026],[0.484531469999979,41.20098245999998],[0.4850303499999882,41.200048760000016],[0.48544249999997646,41.198829520000004],[0.486697520000007,41.19798996999998],[0.4888683600000263,41.19800519],[0.490426350000007,41.19793089000001],[0.49085009999998874,41.19782798],[0.4933496599999785,41.19685150999999],[0.49383724000000484,41.19682769999997],[0.4947581299999797,41.19688077000001],[0.4952080799999976,41.196822069999996],[0.4956679000000008,41.19493490999997],[0.49618191000001843,41.194288889999996],[0.49637260999998034,41.19361667999999],[0.49582265999998754,41.19067954000002],[0.49646278000000166,41.189939630000026],[0.49659787000001643,41.189566290000016],[0.4968666199999916,41.187450790000014],[0.49729294999997364,41.18538453999997],[0.4981227100000183,41.18395442000002],[0.49822015000000874,41.18354620000002],[0.4982088900000008,41.18266398999998],[0.49836440000001403,41.182226979999996],[0.49904818999999634,41.18141367999999],[0.49933882999999923,41.18082848],[0.49959608000000344,41.18006417999999],[0.5002075500000274,41.179460199999994],[0.5003990499999986,41.17858081999998],[0.5002784399999882,41.17810718999999],[0.5003491499999768,41.17630391],[0.5005115700000147,41.17532634999998],[0.5008036099999913,41.17476812000001],[0.5012175300000195,41.17426019999999],[0.5023491499999864,41.17357734000001],[0.5016792800000189,41.17196770999999],[0.5006304500000169,41.171297200000026],[0.5003962200000274,41.17115123000002],[0.4987624600000231,41.17046247000002],[0.4985553899999786,41.170378719999974],[0.49848064000002523,41.170317950000026],[0.4980673700000011,41.169943279999984],[0.49775977000001603,41.16953837],[0.49712493999999197,41.16835992],[0.4971676700000103,41.168043420000004],[0.4974935000000187,41.167448139999976],[0.49751515000002655,41.16673602999998],[0.49756588000002466,41.16612211],[0.4977642399999809,41.165818890000025],[0.49833375999998,41.16532425999998],[0.5000381199999993,41.164209719999974],[0.500357269999995,41.16371369000001],[0.5008869700000105,41.16247277999997],[0.4993092999999931,41.15970196000001],[0.49981695000002446,41.15804745999998],[0.49776982999998154,41.15831686000001],[0.4985483500000214,41.155483360000005],[0.4975107700000194,41.15479445],[0.49543468000001667,41.15496562999999],[0.49452301999997417,41.15350737],[0.49445241000000806,41.15285209000001],[0.4945617500000026,41.152443500000004],[0.49322429000000056,41.151043189999996],[0.49414484999999786,41.14863768999999],[0.4920388400000206,41.148242340000024],[0.4916957400000115,41.148063630000024],[0.4912607800000046,41.14772561000001],[0.4901790200000278,41.14642557000002],[0.4875276299999882,41.14473184000002],[0.4888621200000216,41.141593349999994],[0.49054082999998627,41.14045270999998],[0.49332445999999663,41.136567739999975],[0.4964537800000244,41.13672481999998],[0.49737807999997585,41.13663367999999],[0.4993678000000159,41.13596977999998],[0.5011573699999872,41.13579824999999],[0.5019812300000126,41.135611059999974],[0.5042310599999951,41.13491213999998],[0.5053214299999809,41.13503201999998],[0.5063254799999868,41.13465019],[0.5077678100000185,41.13466926000001],[0.5086531300000274,41.13474131999999],[0.5118742899999802,41.13416570999999],[0.5120628899999815,41.133682650000026],[0.5140399800000068,41.13300987000002],[0.5145947999999976,41.13247058000002],[0.516578260000017,41.13303136000002],[0.5188014199999884,41.13117122],[0.52012129000002,41.130239259999996],[0.5214732800000093,41.129018110000004],[0.5236456900000235,41.12843824999999],[0.5246816499999909,41.128433529999995],[0.5252717100000268,41.12810925000002],[0.5265069000000153,41.12671151000001],[0.5283916700000191,41.12521278000003],[0.5301716700000156,41.12486998999998],[0.5318300399999885,41.12470201000002],[0.5325728500000082,41.12456212000001],[0.5367462799999885,41.123326169999984],[0.5380387800000221,41.12255694999999],[0.5382469900000046,41.12244248000002],[0.5398485700000037,41.121663739999974],[0.5417349800000011,41.12086720999997],[0.5425435099999731,41.12040102999998],[0.5432294299999967,41.120533009999974],[0.5448951299999862,41.120724859999996],[0.5459906599999726,41.12050197999997],[0.5466928700000153,41.120273199999986],[0.5477624200000264,41.120231219999994],[0.5486126199999717,41.12009692999999],[0.5497144299999945,41.11954960999998],[0.5511129700000197,41.11942540000001],[0.5522268899999858,41.119102829999974],[0.5538570800000002,41.11819693000001],[0.5541821599999821,41.117601519999994],[0.553200419999996,41.116181900000015],[0.5529354500000068,41.11568576000002],[0.5524698500000227,41.11522282999999],[0.5513224900000182,41.11448374999998],[0.5510024800000224,41.11407035000002],[0.550769559999992,41.113285029999986],[0.5511113800000089,41.112337869999976],[0.5505007400000181,41.11139309999999],[0.5485203800000136,41.11066168000002],[0.5483471900000154,41.10965836999998],[0.5463150300000166,41.10840617000002],[0.5454778600000054,41.10811676999998],[0.5432577199999855,41.10757275999998],[0.5424723200000017,41.10669636],[0.5426334699999984,41.106151049999994],[0.5429481699999883,41.105583000000024],[0.5418841499999871,41.10417482999998],[0.5417818000000238,41.10404289000002],[0.5409144399999946,41.103412160000005],[0.540710230000002,41.10315727],[0.5398291500000028,41.102049650000026],[0.5395532300000241,41.10134667],[0.5387842800000158,41.100109499999974],[0.5379431000000068,41.09996425999998],[0.5377834600000142,41.09898752999999],[0.5367893200000253,41.098432720000005],[0.536388699999975,41.09806679000002],[0.5358765999999946,41.09629036000001],[0.536422449999975,41.09581429000002],[0.5360716100000218,41.095266709999976],[0.5364377299999887,41.09476913999998],[0.5359956899999929,41.09429641000003],[0.5360882699999934,41.09358209999999],[0.534139180000011,41.09186783000001],[0.5332784600000195,41.09091262999999],[0.5316499099999987,41.089179469999976],[0.5314740300000267,41.08856347],[0.529680849999977,41.08775393000002],[0.5290513300000157,41.086890659999995],[0.5270310099999733,41.08539459000002],[0.525697770000022,41.08339111999999],[0.5256325799999786,41.08328504999997],[0.5255674200000158,41.08251253999998],[0.52381527,41.081575569999984],[0.5220976599999858,41.079502760000025],[0.5219153099999971,41.078985999999986],[0.5213822599999958,41.07858805000001],[0.5212732400000277,41.07588061000001],[0.5171088199999758,41.072108420000006],[0.5158226899999931,41.071868540000025],[0.5124002599999926,41.07039701999997],[0.5123107399999753,41.06894079],[0.5105203400000278,41.06950877000003],[0.504822230000002,41.067755190000014],[0.5027321900000175,41.06604465999999],[0.49990298000000166,41.06296064999998],[0.5030044399999838,41.05952507000001],[0.5058586100000184,41.060617939999986],[0.5086761000000024,41.06124354000002],[0.5106487900000047,41.06075109],[0.5124238500000047,41.061462430000006],[0.5137609099999736,41.06132253999999],[0.5166157099999964,41.061307390000024],[0.517480350000028,41.061902369999984],[0.5185686600000281,41.06222933999999],[0.5199901899999873,41.06188866999997],[0.5206767700000228,41.061822629999995],[0.5231459600000221,41.06216133999999],[0.5266279200000099,41.06274814],[0.5276397499999916,41.06231186000002],[0.5284608700000035,41.06164725999997],[0.5277704999999742,41.060308539999994],[0.527893210000002,41.05837752000002],[0.5274874500000237,41.05768748999998],[0.5274606599999743,41.057409129999996],[0.5283657200000107,41.05520195999998],[0.5306496100000118,41.055194949999986],[0.5320439299999862,41.05368420999997],[0.5351797000000147,41.053146649999974],[0.5368138300000282,41.051673530000016],[0.5390141299999982,41.05188507999998],[0.5398455100000206,41.051859519999994],[0.5405938499999934,41.05139522000002],[0.5450992699999802,41.05111247999997],[0.5454353299999752,41.0502826],[0.5460572399999819,41.04879550999999],[0.5461959500000262,41.048277910000024],[0.546092299999998,41.047677710000016],[0.5462419199999999,41.047141769999996],[0.5487068799999975,41.04608417999998],[0.5475969199999895,41.04181363999999],[0.5489016799999717,41.03975613],[0.548375969999995,41.03838545000002],[0.550131150000027,41.036079900000004],[0.5521703800000068,41.03485525999997],[0.5534917599999858,41.03443623999999],[0.5547503500000062,41.03439738999998],[0.555884390000017,41.034695580000005],[0.556736619999981,41.03484036999998],[0.5577778499999795,41.034520009999994],[0.558179100000018,41.03358001999999],[0.5571834300000091,41.032980380000026],[0.5573215399999754,41.03157121999999],[0.5572737900000106,41.030464989999984],[0.5580156999999986,41.02922627999999],[0.5586361800000077,41.02772116],[0.5603062600000044,41.02715619999998],[0.5622358499999791,41.027213589999974],[0.5637492100000259,41.027490969999974],[0.5644240999999965,41.02633535000001],[0.5649703700000259,41.02566101999997],[0.5661683199999743,41.02472334999999],[0.5674291400000016,41.024729320000006],[0.5676955199999725,41.02393756999999],[0.5677037099999893,41.023649130000024],[0.5672753800000123,41.02210441],[0.5679402999999752,41.02142638999999],[0.568265810000014,41.02084894000001],[0.5682971800000018,41.02010948999998],[0.5696723600000269,41.01937342999997],[0.5707266100000083,41.019079569999974],[0.5712025999999923,41.018866679999974],[0.5705192899999929,41.01810437],[0.5662134500000207,41.01609444000002],[0.5652488000000062,41.01584513],[0.5639128199999845,41.01598555999999],[0.562618499999985,41.0160166],[0.5594588299999828,41.01452929999999],[0.5579283499999974,41.013486899999975],[0.5567750700000147,41.01260394000002],[0.5552144000000112,41.011220219999984],[0.554406369999981,41.01034457999998],[0.5541513399999758,41.0098031],[0.5532442300000184,41.00951588999999],[0.5524347200000079,41.00949584],[0.5515309499999717,41.00971284000002],[0.5507872900000166,41.01003295999999],[0.5491226999999981,41.01003023999999],[0.5483444399999939,41.00992815000001],[0.5476761799999963,41.00966054999998],[0.5468202299999803,41.00921862000001],[0.5457574100000215,41.008909130000006],[0.537979689999986,41.00397901000002],[0.5376979900000265,41.00249269],[0.5374302999999827,41.00193354999999],[0.5342676600000118,41.00125618999999],[0.5335788500000263,41.001268330000016],[0.5323915899999747,41.00129577000001],[0.5295308600000226,41.000482929999976],[0.5290686999999821,41.00006481999998],[0.5282080599999972,40.99930769000002],[0.5278606699999955,40.99948044000001],[0.5272231800000213,40.99956301999998],[0.526861399999973,40.99946603000001],[0.5259667500000091,40.99896209000002],[0.523536799999988,40.997307379999995],[0.5223531999999977,40.996956350000005],[0.5206582100000219,40.997269370000026],[0.5193225799999936,40.99763440999999],[0.5177337900000225,40.997709989999976],[0.5173483799999872,40.997838839999986],[0.5170750500000167,40.99806332999998],[0.5165687699999921,40.998601140000005],[0.5158324999999877,40.99861462000001],[0.5155898799999932,40.99852297000001],[0.5153228799999852,40.99797275999998],[0.5149278200000253,40.997696640000015],[0.5142554999999902,40.99734791999998],[0.5131170299999894,40.996950389999995],[0.5124750800000015,40.996501679999994],[0.5113830600000142,40.99585954999998],[0.5108707900000127,40.99561401],[0.5094564899999909,40.99494566999999],[0.5091189600000234,40.9948569],[0.5086314600000037,40.994853739999996],[0.5070697900000027,40.994991389999996],[0.5066155000000094,40.99494218000001],[0.5060324699999796,40.99448262999999],[0.5056169000000068,40.99359470000002],[0.5052527400000031,40.99322754999997],[0.5048449299999902,40.99293376000003],[0.504481769999984,40.992809729999976],[0.5049856300000215,40.991776730000026],[0.5052342999999837,40.99153501000001],[0.5055679299999838,40.99132672000002],[0.506155050000018,40.99119177],[0.5040410099999804,40.98942794999999],[0.5033882899999753,40.98899752],[0.5030840100000091,40.98886268000001],[0.5013072899999997,40.98807919000001],[0.5001378000000045,40.98821380999999],[0.49923827999998593,40.98761074999999],[0.4976520399999913,40.98750584999999],[0.4977225100000169,40.985468389999994],[0.4969996300000048,40.98505805999997],[0.4965832699999737,40.98392697000003],[0.49469856000001755,40.983344769999974],[0.49317696999997906,40.983111769999994],[0.49288460999997596,40.98297653999998],[0.4923781900000108,40.98261366000003],[0.49045131000002584,40.981906589999994],[0.4887859699999808,40.98120058000001],[0.48866686000002346,40.98074488999998],[0.48831570999999485,40.97926955999998],[0.4880594499999802,40.978917079999974],[0.48719718000000967,40.97833981000002],[0.4868929900000012,40.978204930000004],[0.486476859999982,40.97707378000001],[0.48619309999997995,40.97665009000002],[0.48540532999999186,40.97658388000002],[0.4847513700000263,40.976801809999984],[0.48391330999999127,40.97668306999998],[0.48330918999999994,40.976719360000004],[0.48198571000000356,40.97618302000001],[0.47916149999997515,40.97693485000002],[0.477265559999978,40.977262310000015],[0.47252859000002445,40.978477],[0.47168804000000364,40.97876352999998],[0.47103246000000354,40.979404699999975],[0.47033520999997336,40.97970491000001],[0.46859903000000713,40.98013548],[0.46815641000000596,40.97962647999998],[0.4677105800000163,40.97882937000003],[0.4669334999999819,40.97806026000001],[0.4659748299999933,40.978134160000025],[0.46393855999997413,40.97782620999999],[0.46308855000000904,40.977932829999986],[0.4620222600000261,40.97776677000002],[0.461305579999987,40.97792341000002],[0.45951388999998244,40.97729282],[0.4575622599999747,40.977693680000016],[0.4564743600000156,40.97802354999999],[0.4555412899999851,40.97813260999999],[0.4548344500000212,40.97847804000003],[0.4544013700000278,40.97723920999999],[0.45400833999997303,40.976539539999976],[0.45451029999998127,40.97591206999999],[0.4532319499999744,40.97486971000001],[0.4509157300000197,40.972381470000016],[0.45006230000001324,40.97196575999999],[0.449791179999977,40.969956550000006],[0.4497241299999928,40.96867070000002],[0.4489177300000051,40.96824456000002],[0.44830926999998155,40.96774044],[0.44760250000001633,40.96808583000001],[0.44706818999998177,40.96740836999999],[0.44665968999998995,40.96663708],[0.44572019999998247,40.96593571],[0.4457570399999895,40.965502319999985],[0.44580901000000495,40.96513152],[0.44522993999999017,40.96473458000003],[0.4447869800000035,40.96444163000001],[0.4442450799999733,40.96384544],[0.4426245000000222,40.96352466000002],[0.4412266400000249,40.96360247000001],[0.43984461000002284,40.962842239999986],[0.43905318999998144,40.96224446999997],[0.4386158799999862,40.96205939999999],[0.43730200999999624,40.96215267000002],[0.4356779600000209,40.961534700000016],[0.43120056999998724,40.96087569000002],[0.42970017999999754,40.96103747000001],[0.42763853999997536,40.961143900000025],[0.42675471000001153,40.96105312999998],[0.42497608999997283,40.96043058999999],[0.42404365999999527,40.96054837999998],[0.42321587999998656,40.96039287000002],[0.42242880999998533,40.96033520999998],[0.42176713999998583,40.95925613999998],[0.42058888999997635,40.95898493999999],[0.41851430999997774,40.9583801],[0.4153073599999857,40.95770074000001],[0.41350155999998606,40.958159550000005],[0.41294536999998854,40.958662360000005],[0.41222606000002315,40.958305429999996],[0.41131716000001006,40.958188259999986],[0.40989673000001403,40.958518519999984],[0.40721267999998645,40.95784146],[0.4062079700000254,40.95770907000002],[0.4048571100000231,40.95708257000001],[0.4030897299999765,40.95644134999998],[0.402359400000023,40.95656199000001],[0.40158472000001666,40.95512588999998],[0.4012053199999741,40.954677790000005],[0.4008333200000038,40.95437356000002],[0.40035827000002655,40.95414441999998],[0.3998194399999875,40.95406127000001],[0.39910823999997547,40.95409126999999],[0.395587149999983,40.95469048000001],[0.39383885000000873,40.955345420000015],[0.3917801499999882,40.95388403999999],[0.39205029999999397,40.95312858],[0.39161939000001666,40.95260089999999],[0.39074421999998776,40.95221239],[0.39083289000001287,40.95162438],[0.391100750000021,40.95082395999998],[0.3923615300000165,40.95062472000001],[0.3921510199999716,40.94837037999997],[0.388867590000018,40.94641365000001],[0.38866575999998076,40.94595127000002],[0.3874530200000095,40.94523042999998],[0.38417335999997704,40.94403897000001],[0.3829562600000145,40.94369647000002],[0.38155892999998287,40.94447601000002],[0.38055016999999225,40.94519008999998],[0.379923969999993,40.945487660000026],[0.3792598300000236,40.945507150000026],[0.3773426999999856,40.94401432000001],[0.37660499999998365,40.943522599999994],[0.37563240999998015,40.943082790000005],[0.3730012500000157,40.942259260000014],[0.3721546599999783,40.94219399000002],[0.3707171600000265,40.94335282999998],[0.370098970000015,40.940308809999976],[0.3694551199999978,40.938859639999976],[0.3718037500000264,40.93716981],[0.3713849499999924,40.93664168999999],[0.36907414000000927,40.93534034999999],[0.36838853000000427,40.93470294999997],[0.3664937500000178,40.933173239999974],[0.36683909999999287,40.93038924000001],[0.36709488000002466,40.92981437999998],[0.36735979000002317,40.929419370000005],[0.3678914800000257,40.928899479999984],[0.3693374499999891,40.927911549999976],[0.36875451999998177,40.92719009000001],[0.3693727599999761,40.92627139000001],[0.3691601799999944,40.92582729999998],[0.3687918499999796,40.92372160999997],[0.3685240199999953,40.92265771000001],[0.36865190999998276,40.920969809999974],[0.36852591000001667,40.919892749999974],[0.36818062999998347,40.919173339999986],[0.3677824900000246,40.91858156000001],[0.3670082099999945,40.91829797999998],[0.36608067999998184,40.917568570000014],[0.3644117700000038,40.916734710000014],[0.36530994999998256,40.91595195000002],[0.3654467100000147,40.915605719999974],[0.36561713999998346,40.91451999999998],[0.36601094999997486,40.91315756],[0.3654878799999892,40.91197502],[0.36470587999997406,40.91083606000001],[0.36472861999999395,40.910114899999996],[0.3640406000000098,40.9094235],[0.36340549999999894,40.90907278999998],[0.3631109500000207,40.90841492999999],[0.3632280900000069,40.90791617000002],[0.3640166999999792,40.90614593999999],[0.36458152000000155,40.905580069999985],[0.3655210800000077,40.905381499999976],[0.3660193399999798,40.905141790000016],[0.36647198999997954,40.90470527000002],[0.3671639300000038,40.90383846999998],[0.36733163999997487,40.90340127000002],[0.3676935699999717,40.90304844999997],[0.3683012100000269,40.902859569999976],[0.3679104600000187,40.90217751],[0.36735927000000856,40.901608220000014],[0.36665491999997357,40.90106142000002],[0.36474621000002116,40.900405690000014],[0.3646281200000203,40.89994982000002],[0.36476342999998224,40.89863996999998],[0.3650455000000079,40.89718173],[0.36646881000001486,40.89435722000002],[0.3677589999999782,40.89241919],[0.3681623300000183,40.89194808000002],[0.369831750000003,40.890935590000026],[0.36686982999998463,40.88799611000002],[0.36679909999998017,40.88683639999999],[0.3666244899999924,40.886202079999975],[0.36424769000001334,40.884497339999996],[0.36336901999999327,40.88448698000002],[0.3606847300000027,40.883502609999994],[0.36026319000001195,40.882911509999985],[0.3603497999999945,40.88227856999998],[0.36141392000001815,40.881500029999984],[0.3620318700000098,40.880815559999974],[0.36162582999997994,40.88029605000003],[0.359524609999994,40.87863721000002],[0.35867065000002185,40.87817579],[0.3574799400000188,40.87785925999998],[0.3567526799999996,40.87755623999999],[0.3563243699999816,40.87706437999998],[0.35234566999997696,40.87158751999999],[0.34757203999998865,40.866565890000004],[0.34197254999997995,40.860676420000004],[0.3396563800000081,40.85943771000001],[0.3394454099999962,40.85830907000002],[0.3392259600000216,40.857955189999984],[0.33699629000000186,40.856074490000026],[0.3348390699999868,40.854452820000006],[0.33407548999997516,40.85365537000001],[0.33353009000001066,40.852950669999984],[0.3330345499999794,40.85182123999999],[0.3331536300000266,40.849467230000016],[0.33086115999998356,40.84750716000002],[0.329338880000023,40.84671359999999],[0.32820428999997375,40.84584576999998],[0.3261047600000211,40.84465455999998],[0.32448353000000907,40.84425104000002],[0.3237247100000218,40.844254920000026],[0.3216383399999927,40.84474738],[0.3206936500000097,40.844117159999996],[0.3189242199999853,40.84335759999999],[0.31700447999998005,40.842674380000005],[0.31557191000001694,40.8422473],[0.3135991199999921,40.84192580000001],[0.3124990599999933,40.841507139999976],[0.31188257000002295,40.84127268999998],[0.31046806000000515,40.840016479999974],[0.3075554100000204,40.837488380000025],[0.3058622400000104,40.836348180000016],[0.3044990600000119,40.83349633],[0.30450643000000355,40.833406060000016],[0.30445728000000827,40.833371450000016],[0.3033518400000048,40.83260160999998],[0.2968631599999867,40.82226838999998],[0.2953426600000171,40.82029453000001],[0.2950434399999722,40.81951956],[0.2946735799999942,40.81923293],[0.29383109000002605,40.818977829999994],[0.2925906300000065,40.818346840000004],[0.2922708199999988,40.81811281],[0.291907110000011,40.817231600000014],[0.2917662899999982,40.81654215999998],[0.29160082999999304,40.816312719999985],[0.29060787999998183,40.81589078000002],[0.2901868800000216,40.81576770999999],[0.28955030999998144,40.81583991999997],[0.28940664999998944,40.81605116999998],[0.28934808000002477,40.81630501000001],[0.2893734300000119,40.81681763],[0.2891793100000086,40.81696727000002],[0.28639742000001434,40.81776714],[0.2845321899999931,40.81840571999999],[0.28243622000002233,40.81893377],[0.28173908000002257,40.81898064000001],[0.28038507000002255,40.81892914000002],[0.2785153500000206,40.81875719999999],[0.27779622999997855,40.81787704999999],[0.27676274999998896,40.81951853999999],[0.27507977999999866,40.81928720000002],[0.2740115400000036,40.819020360000025],[0.2734772499999849,40.81852219000001],[0.2732856200000242,40.81848260999999],[0.27279117000000497,40.81879385000002],[0.27192297999999937,40.81873746000002],[0.27202576000001955,40.819139810000024],[0.2723034699999971,40.819483160000004],[0.2729249500000037,40.819825760000015],[0.27339019999999437,40.819884590000015],[0.27519929999999704,40.81978815000002],[0.27586668999998665,40.81985924000003],[0.27641879999998764,40.81999664],[0.27715559000000667,40.82027289000001],[0.2781942400000048,40.820900789999996],[0.2782245700000203,40.82103502000001],[0.27724511999997503,40.82208958000001],[0.27573389000002635,40.82342041999999],[0.2749229799999853,40.82404688999998],[0.2737579899999787,40.82518773999999],[0.2720814099999984,40.82581176000002],[0.2716434499999991,40.826067360000025],[0.271999419999986,40.82679575999998],[0.2719999799999755,40.827047909999976],[0.271765500000015,40.82734276999997],[0.2711460500000271,40.82776562999999],[0.26981717000001026,40.82846979999999],[0.26884480000001076,40.82919086999999],[0.26861791999999696,40.829881769999986],[0.2668325899999786,40.830950099999995],[0.26661733999998205,40.831154330000004],[0.2664095999999745,40.83151146],[0.26635146000000987,40.83201745000002],[0.2665754799999718,40.832956749999994],[0.2665300599999796,40.83348038999998],[0.26631799000000456,40.83399075],[0.2656892499999799,40.834467889999985],[0.2642680899999732,40.835228659999984],[0.2640069400000016,40.83594754000001],[0.26374385000002576,40.83614412999998],[0.2624273700000117,40.83662271999998],[0.2618998600000282,40.836988889999986],[0.26166397999998026,40.837256749999995],[0.2615978499999869,40.83760086000001],[0.2616839099999879,40.837904630000025],[0.26188397999999324,40.83811510999999],[0.2622015800000099,40.83830425999997],[0.2624025299999744,40.83853273],[0.262438139999972,40.83877488000002],[0.2623149400000102,40.83892247],[0.2619768100000215,40.83904011999999],[0.26142330999999785,40.83911883000002],[0.2603982599999881,40.83901276],[0.25996582999999873,40.83914206999998],[0.2598615200000154,40.83943321999999],[0.25981825999997454,40.84000184000001],[0.25992430000002287,40.84119664999997],[0.260053819999996,40.841661310000006],[0.2604531599999973,40.84230745999997],[0.260278679999999,40.84261860999999],[0.25994625999999244,40.84285317000001],[0.2590379399999847,40.84319409],[0.2590425700000196,40.84570667999998],[0.258893530000023,40.84605312999997],[0.2586786400000278,40.84626635000001],[0.25832907000000205,40.846393320000004],[0.25760263000000805,40.84633280999998],[0.25659189999998944,40.84603716999999],[0.25581985999997414,40.84601397],[0.25554090000002816,40.84612993000002],[0.25540759000000435,40.84631381999998],[0.25538969000001543,40.846674570000005],[0.2554625600000122,40.84695169999998],[0.25584122999998726,40.84741832999998],[0.2564822400000253,40.84791354999999],[0.25761459000000286,40.848511970000004],[0.257586109999977,40.84865687000001],[0.2573334799999998,40.84882613000002],[0.25620178999997734,40.84920936999998],[0.255796499999974,40.849409949999995],[0.25562065999997685,40.84969410999997],[0.255122579999977,40.85090601000002],[0.25526179000002003,40.85156853000001],[0.2556427499999927,40.852323290000015],[0.25576356999999916,40.853094399999975],[0.25562980000000834,40.85326930000002],[0.25542100000001255,40.85336526999998],[0.25418036999997184,40.853463369999986],[0.2537052900000276,40.85369293999997],[0.2536114600000019,40.853956770000025],[0.25364195999998174,40.85506366999999],[0.25328008999997564,40.855425130000015],[0.25283964999999853,40.85563569999999],[0.2509738399999719,40.856048629999975],[0.2508058500000061,40.85625150999999],[0.25087916000001087,40.85653764],[0.251958639999998,40.85775001000002],[0.25283193000001347,40.858869130000016],[0.25338276999997333,40.85994332000001],[0.252587989999995,40.861154580000004],[0.25183214999998427,40.86195046],[0.2516343300000017,40.86227126],[0.2516304499999933,40.86267664000002],[0.2518011899999806,40.86301406000001],[0.2521180100000038,40.86318523],[0.25293338000000176,40.86384666999999],[0.2531629200000225,40.864173419999986],[0.2532573600000205,40.864648079999995],[0.2532592200000181,40.865170379999995],[0.25338699000002407,40.86559906999997],[0.25426471999998057,40.86632178000002],[0.25421958999999106,40.866611250000005],[0.2540270499999906,40.867039980000015],[0.2537394999999947,40.868435050000016],[0.25331941000001734,40.869788830000005],[0.2534827399999813,40.870216519999985],[0.25463244000002305,40.872129359999974],[0.2554027400000223,40.874530230000005],[0.25446177999998554,40.874214600000016],[0.2538001300000019,40.87475565],[0.2535228599999755,40.87515074999999],[0.25306927999997697,40.876064180000014],[0.25288675000001604,40.87621343000001],[0.25215916000001926,40.876378079999995],[0.25172911999999315,40.87656134000002],[0.25135003999997707,40.877058379999994],[0.2511328699999922,40.87746978000001],[0.2510891399999764,40.87827256999998],[0.25091677000000345,40.87887183999999],[0.25041172999999617,40.87946248999998],[0.24985792000001084,40.87978433000001],[0.24909648999999945,40.87998593999998],[0.24714480000000094,40.880113040000026],[0.24527739000001247,40.880507910000006],[0.2432190700000092,40.88136745000003],[0.24015518999999586,40.88302077999998],[0.2390315999999757,40.88431324999999],[0.23890827000002446,40.88470397999998],[0.2389899099999866,40.884917830000006],[0.23997179999997797,40.88607001999998],[0.24036683999997877,40.886383120000005],[0.24126446000002488,40.88678114999999],[0.24164765000000443,40.88685142000003],[0.24354118000002245,40.88674406000001],[0.24572707999999466,40.88703370000002],[0.24600801000002548,40.88719689999999],[0.2461840799999777,40.88764223999999],[0.246153559999982,40.88944436000003],[0.24589489999999614,40.892162540000015],[0.24599677999998448,40.89254692999998],[0.24620927000000847,40.89276610000002],[0.2475280699999871,40.89376463000002],[0.24901677000002564,40.89459624],[0.24975439000002098,40.89535897000002],[0.25002183999998806,40.89597285000002],[0.24994685000001482,40.89638024999999],[0.2493755300000089,40.89780135000001],[0.24936416000002737,40.89805385],[0.24990309999998317,40.89960573000002],[0.24994312000001173,40.89993783],[0.24988874000001715,40.90028160000003],[0.249574999999993,40.90114605000002],[0.2495838599999729,40.90156910000002],[0.24985306000002083,40.901975789999995],[0.2525268100000062,40.90421488999999],[0.2531302099999948,40.904900329999975],[0.2533867099999725,40.90528935999998],[0.2534694899999863,40.90625068999998],[0.25325749000000997,40.90652686999999],[0.2528298999999947,40.906764099999975],[0.25226838999998336,40.90693306999998],[0.25110972999999603,40.90702884000001],[0.249839570000006,40.90727184000002],[0.24928949999997485,40.90767463999998],[0.24875968999998577,40.908491140000024],[0.24858326999998326,40.90900948000001],[0.24854386999999178,40.90965904000001],[0.24876047999998718,40.91044548000002],[0.24917064999999639,40.91082117000002],[0.2502500699999928,40.91152921999998],[0.25147915999997394,40.91189979000001],[0.25189586999999847,40.91192404999998],[0.2537338399999953,40.91163796000001],[0.2540838200000053,40.91175414999998],[0.2542371200000275,40.911974980000025],[0.25428505000002133,40.91222579999999],[0.25400360999998384,40.91398996999999],[0.2540990300000203,40.91448260999999],[0.25439334999998664,40.91491559999997],[0.2545348699999863,40.91537992000002],[0.2545187900000201,40.916019819999974],[0.2542791500000021,40.91645889],[0.2540543900000216,40.91671742],[0.25353902000000517,40.91734441],[0.2532857400000239,40.917747840000004],[0.2532735699999762,40.91822552000002],[0.25384217999999237,40.91965044],[0.25607972000000245,40.92290147],[0.2581459900000027,40.92556288999998],[0.25948006999999507,40.92757855000002],[0.26053359000002274,40.92847635999999],[0.2610093499999948,40.92873307000002],[0.2618847499999788,40.928906410000025],[0.26396927000001824,40.92903646000002],[0.26429376999999477,40.92887416000002],[0.2648276200000055,40.92838168999998],[0.2655887700000221,40.928405139999995],[0.26637938999999733,40.92854482000001],[0.2668516200000113,40.92872956000002],[0.267315979999978,40.92899557999999],[0.2680228699999816,40.93032643999999],[0.2682764599999814,40.93065247999999],[0.2690629200000103,40.931188529999986],[0.27010199000000057,40.931789460000005],[0.270570379999981,40.93213639999999],[0.2709210799999937,40.93250469999998],[0.2724099999999794,40.93475897000002],[0.2731532500000071,40.93562044999999],[0.2738945899999976,40.936202779999974],[0.27427172000000155,40.936624359999996],[0.27381759999997257,40.93824938],[0.2740298499999767,40.940620980000006],[0.2732019900000182,40.94093271000003],[0.27255558000001656,40.94131134000003],[0.27184733000001415,40.94188084000001],[0.2714057900000171,40.94255985000001],[0.27120912999998836,40.94362817000001],[0.27136935999999423,40.944227049999995],[0.27166837999999416,40.94474991999999],[0.271996769999987,40.945145879999984],[0.2729008599999929,40.94589473000002],[0.27457951999997476,40.946693589999995],[0.27547208999999384,40.947208579999995],[0.2759016300000212,40.94772773],[0.2760270699999978,40.948102430000006],[0.27597815000001447,40.94855414],[0.27520669000000453,40.94928758999998],[0.2749314999999797,40.94972772],[0.27494795000001204,40.95006049],[0.2751054199999885,40.950362229999996],[0.2755037000000016,40.95072915999998],[0.2760042799999951,40.951003119999996],[0.276604959999986,40.95113914000001],[0.277969110000015,40.95110030000001],[0.2796028000000206,40.950747560000025],[0.28039594000000534,40.95093211],[0.28091805000002523,40.95116039999999],[0.2811827500000277,40.951468079999984],[0.2813645900000097,40.952021290000005],[0.281644330000006,40.95430993000002],[0.28188755999997284,40.95466325000001],[0.28308034999997744,40.955719009999996],[0.28317204000001084,40.95613069000001],[0.2829487000000199,40.957136760000026],[0.2830000800000221,40.957693689999985],[0.283240649999982,40.95799304000002],[0.28495945999998185,40.95959217000001],[0.2853568799999948,40.960418419999996],[0.285453949999976,40.960938020000015],[0.2853686000000266,40.96137276000002],[0.28466108999998596,40.962437679999994],[0.2841250000000173,40.963605789999974],[0.28405328999997437,40.96407615999999],[0.28424840000002405,40.96465601],[0.2846054199999912,40.96490700999999],[0.285633990000008,40.96528294000001],[0.2858455200000094,40.96547504],[0.2862859800000024,40.96620998999998],[0.2869964700000196,40.96664003000001],[0.2879115499999898,40.967361419999975],[0.28853632999999945,40.96773984999999],[0.29036281999998437,40.96839016000001],[0.291988769999989,40.96883000999998],[0.29279335000001083,40.96923930999998],[0.29318310000002157,40.969669469999985],[0.2934036099999844,40.97004142999998],[0.29350075999997216,40.97056100999998],[0.29335971000000427,40.971069399999976],[0.2924816299999975,40.97252652999998],[0.29180904999998347,40.97333831999998],[0.2909934099999987,40.973902020000025],[0.29025479000000587,40.974103249999985],[0.28933639000001676,40.974273600000004],[0.2884556100000282,40.97424473000001],[0.2879395599999839,40.97414237999999],[0.2833791599999813,40.97275947999998],[0.28292175000001407,40.972880599999996],[0.282344060000014,40.9732123],[0.281541720000007,40.97404574000001],[0.2810852700000055,40.97490534000002],[0.28097480999997515,40.97531378000002],[0.28098469999997633,40.97623213999998],[0.2817326800000046,40.980290679999996],[0.28178094999998393,40.980784649999975],[0.28197342999999364,40.98131053999998],[0.28225727000000234,40.98176176999999],[0.2823248299999932,40.98216513],[0.2810872100000097,40.98716288999998],[0.280410790000019,40.98790266999998],[0.27831489999999803,40.98925928],[0.2773195799999826,40.989800979999984],[0.275975619999997,40.99098304],[0.2728093499999886,40.99281131999999],[0.2725031100000024,40.99310822000001],[0.27226067999998804,40.99349338000002],[0.27216334000002007,40.99392845],[0.27219791999999643,40.99510729000002],[0.2721023600000194,40.99557834000001],[0.27184670999997707,40.99593685000002],[0.27030073999998194,40.99712457999999],[0.2689425799999867,40.99778458999998],[0.2686797900000215,40.99799919999998],[0.26846891999997524,40.99830238999999],[0.26836324999999306,40.99880975000002],[0.2686431999999854,41.00014374],[0.2688455599999884,41.00111068000001],[0.2693714299999783,41.00188831000003],[0.27006959999999935,41.00254395000002],[0.2714999600000283,41.00334090000001],[0.27455324999999675,41.004740140000024],[0.27493524999999863,41.00525163999998],[0.2749510099999952,41.00580959000001],[0.2747618399999965,41.00631032000001],[0.2742439599999784,41.007135619999985],[0.2734837300000095,41.00786873999999],[0.27219456000000264,41.00872497],[0.27056492000002663,41.009428739999976],[0.2692503100000181,41.00977230000001],[0.2680930199999807,41.00993125000002],[0.26632265000000643,41.009954479999976],[0.2644477599999959,41.01026883999998],[0.2622314500000016,41.011133229999984],[0.2605907600000137,41.01209835999998],[0.2599050000000034,41.01265816],[0.259341059999997,41.013277560000006],[0.2589090600000077,41.01392023],[0.25863494999998693,41.01463049],[0.25867177999998603,41.01537696999998],[0.2590350899999976,41.01647445999998],[0.2594308100000262,41.01726481999998],[0.2602901899999779,41.01829422999998],[0.2609972199999788,41.01888663],[0.26193287000000964,41.01929243000001],[0.2629884899999979,41.019478660000004],[0.26467345999998315,41.019647039999995],[0.26627918999997746,41.01965553000002],[0.27127550000000156,41.019216459999996],[0.27222900999998956,41.01926141000001],[0.27280237999997325,41.01907398999998],[0.27356915000001436,41.01870994000001],[0.27534725999998955,41.018118990000005],[0.27636933000002273,41.01810791999998],[0.27809231999998474,41.018563219999976],[0.2790782299999819,41.01902147999999],[0.27959793999997373,41.019429979999984],[0.27988936000002695,41.01979093],[0.2796583100000021,41.02016677],[0.27863337000002275,41.02107859],[0.27618724000001293,41.02306657999998],[0.2747639699999809,41.02434094],[0.2725497299999802,41.02549368000001],[0.2709081099999935,41.02596362999998],[0.2700579699999821,41.02608685000001],[0.26871290999997655,41.026062009999976],[0.266636769999991,41.02592279999999],[0.2642824100000212,41.02616970999998],[0.2624876599999766,41.0266709],[0.26187378999998145,41.027003519999994],[0.26117823999999246,41.02760863999998],[0.25884544000001597,41.02901664000001],[0.25783217999997987,41.029450610000026],[0.257125579999979,41.03007402999998],[0.2539526400000227,41.03205508999997],[0.2529157299999838,41.03297601999998],[0.25253628000001527,41.03348209000001],[0.2517313700000159,41.03500888999997],[0.25063176999998404,41.03683219999999],[0.24984160000002475,41.03793526999999],[0.2480758400000127,41.03975935],[0.2470356300000276,41.04061727999999],[0.2461145500000157,41.04123766999999],[0.24517221999997219,41.041426349999995],[0.24440358999999034,41.041276900000014],[0.24393319000000702,41.040902889999984],[0.24349439999997458,41.04020374999999],[0.24333190999999488,41.03955988000001],[0.2433400200000051,41.03657856000001],[0.24303009999999858,41.03559660000002],[0.24232917000000498,41.034886830000005],[0.24163315999999213,41.03451916],[0.24111579999998867,41.034398640000006],[0.24044889999998986,41.03438139000002],[0.23422642999997834,41.034583399999974],[0.23321378000002824,41.03479198000002],[0.23197898000000805,41.03532200000001],[0.23105825999999752,41.03595127],[0.2304058899999859,41.03696027000001],[0.23002582999998822,41.03818679],[0.229957230000025,41.03897225999998],[0.2300430399999982,41.039753399999995],[0.23048564999999144,41.04053354000001],[0.23131016000002091,41.04133897999998],[0.23348587999998927,41.04301609999999],[0.23415690000001632,41.04384384000002],[0.23488786000001483,41.04540840999999],[0.23474669000000858,41.04592573999997],[0.23431819000001042,41.04640610000001],[0.23310387999998738,41.04711569],[0.23150101999999606,41.04766504999998],[0.23047538999998096,41.04761278000001],[0.22869779000001245,41.04726636999999],[0.22698050000002468,41.04669309000002],[0.22590252999998484,41.046056840000006],[0.22500102999998717,41.04537961],[0.22375594999999748,41.04400048999997],[0.223315150000019,41.043256310000004],[0.22263192000002618,41.04266301000001],[0.22176039999999375,41.04211099999998],[0.22074280999999019,41.04173419],[0.22013435000002346,41.04169718000003],[0.21948759000002838,41.04185036000001],[0.21884825000000774,41.04239961000002],[0.217743750000011,41.043655349999995],[0.2175100300000281,41.044229280000025],[0.2174144400000273,41.04495245999999],[0.21748516999997491,41.04567098000001],[0.21776970000001938,41.04662669999999],[0.21814007000000402,41.047390889999974],[0.21998874000001933,41.04919448999999],[0.22083789999999226,41.04977416000003],[0.22220937999998114,41.05033019000001],[0.22364907999997286,41.05082125000001],[0.22630019000001766,41.05151252000002],[0.22811573000001317,41.052146100000016],[0.22900636000002805,41.052598450000005],[0.229750039999999,41.05320803000001],[0.23017557999997962,41.05388056999999],[0.23042600000002267,41.05462105999999],[0.23044716999999082,41.05529593],[0.23021400999999742,41.056365210000024],[0.22957468999999264,41.05788718000002],[0.22877161000002388,41.05873828],[0.22799708999997392,41.058958140000016],[0.22227392000002055,41.05919954000001],[0.22141838999999663,41.05946664999999],[0.22060112000002619,41.06002989000001],[0.21942912999998043,41.06063906999998],[0.21880060000000867,41.06141316999998],[0.21816933999997445,41.06286281000001],[0.21786995999997316,41.06379881999999],[0.2179265199999918,41.06568854],[0.21821509000000106,41.066968359999976],[0.2189362099999812,41.06955098999998],[0.2196962500000268,41.07073656],[0.22034894000000804,41.071429790000025],[0.22073356999999305,41.07248176000002],[0.22063141000000996,41.07307001999999],[0.22021231999997326,41.07374821000002],[0.21941422999998395,41.074464009999986],[0.218214660000001,41.075245069999994],[0.21739143999997168,41.07593453999999],[0.21671608999997716,41.07672795000002],[0.21653907000001027,41.07724624999997],[0.21678816000002143,41.07771661999999],[0.21722698999997192,41.078172670000015],[0.21802282999999534,41.07862776000002],[0.2197294700000043,41.07921046000001],[0.22046672999999828,41.080657840000015],[0.22074004000000969,41.081866030000015],[0.22007698999999548,41.08291129000003],[0.21889270000002625,41.08352080999998],[0.21683980000000247,41.084136590000014],[0.21561897999998791,41.08424274999999],[0.2132298000000219,41.084066310000026],[0.20898216000000502,41.08287890999998],[0.20797800000002553,41.082789830000024],[0.20564554999998563,41.08304393999998],[0.20316501999997172,41.083680389999984],[0.20170015999997304,41.084153449999974],[0.20120205000000624,41.084680660000004],[0.2010403799999949,41.100211839999986],[0.20090921000002027,41.10265616999999],[0.20102357000001803,41.10304925999998],[0.20311967999998615,41.10624216999997],[0.20451588999998194,41.107284040000025],[0.20548143000002028,41.10828385999997],[0.20638880000001336,41.109555469999975],[0.20533377999998947,41.11038639999998],[0.20682698000001665,41.11341589],[0.2078078999999775,41.115216799999985],[0.20897431999998162,41.11691345000003],[0.20843988000001445,41.11767586000002],[0.20682739000000083,41.119287869999994],[0.20526295000001937,41.12042120000001],[0.20376900000002252,41.12129135999999],[0.203265330000022,41.12195381999999],[0.2012820499999748,41.12378322000001],[0.20092630999999983,41.12454962999999],[0.20085865999999442,41.125362059999986],[0.20094125000002805,41.12608024999997],[0.20122517999999445,41.12677482999999],[0.20182459000000108,41.12734354999998],[0.20245398999998088,41.12779434999999],[0.20392261000000644,41.12835688000001],[0.2053503700000192,41.12856928999997],[0.20745305999997754,41.128699830000016],[0.2092587899999785,41.12909078000001],[0.21327203999999256,41.130293670000015],[0.2153567199999884,41.13054165],[0.21725989999998774,41.130974779999974],[0.2185198799999739,41.131407860000024],[0.2198323000000073,41.13242485000001],[0.2200679900000182,41.13310272000001],[0.22005037000002403,41.13347246000001],[0.21972081000001253,41.13404006000002],[0.21936921999997594,41.13440114000002],[0.21866956000002347,41.13470890000002],[0.21784522000001516,41.134903080000015],[0.2162736500000051,41.13492000000002],[0.21555109000001949,41.135003229999995],[0.2136269499999912,41.13584952000002],[0.21310656999997946,41.13617025999997],[0.21290563000002294,41.136446060000026],[0.21310384999998178,41.1368458],[0.2135259099999871,41.13719424999999],[0.21394800000001624,41.137299540000015],[0.2146547400000145,41.13713569999999],[0.2181381699999747,41.13602064000003],[0.23695837000002484,41.13043133000002],[0.23960374000000684,41.12996962],[0.24214564999999766,41.12982598000002],[0.24683219999997164,41.129936999999984],[0.2478785800000196,41.130141630000026],[0.24884047000000464,41.13056476999998],[0.249452749999989,41.131385050000006],[0.2496682799999803,41.132612789999996],[0.24995654000002787,41.13290183999999],[0.25133314999999357,41.13352039],[0.25174659999998994,41.13393199000001],[0.2520120899999938,41.13448285999999],[0.252016000000026,41.135284290000016],[0.25191883999997344,41.135728330000006],[0.25053774000002704,41.13791078999998],[0.25052295000000413,41.13833448999998],[0.2508275800000206,41.13871313999999],[0.2531498299999839,41.140142509999976],[0.25284712000001264,41.14100664],[0.2548090999999886,41.14165362],[0.25614971999999625,41.14370508000002],[0.2550948400000266,41.14453646999999],[0.25489138000000366,41.14475836999998],[0.25480778999997256,41.14499489000002],[0.25488375999998425,41.14532595999998],[0.2559813400000053,41.14679890999997],[0.25339300000001685,41.14866432000002],[0.25308645000001206,41.14897019],[0.252900660000023,41.14930866999998],[0.2529900999999768,41.15015269999998],[0.25438396999999213,41.15014931000002],[0.25714670999997224,41.15035932000001],[0.2577389400000243,41.150288509999996],[0.25835839000001215,41.15004582],[0.25925224000002345,41.14957020000003],[0.26047088000001395,41.149157419999995],[0.2615331800000149,41.14895618999998],[0.26217521000000943,41.148928969999986],[0.2634272999999894,41.14919064999998],[0.26530381999998554,41.14883119000001],[0.26632807999999386,41.14906328000001],[0.2697689699999728,41.14877639000002],[0.2718990700000177,41.148724819999984],[0.27301135999999815,41.14881025],[0.2740181099999859,41.149168850000024],[0.29198765000001004,41.15635598],[0.29335529000002225,41.15725343999998],[0.29940742000002274,41.16150184999998],[0.30331778999999415,41.16437954000003],[0.30165271999999277,41.16515684000001],[0.30112144999998236,41.16573045000001],[0.3005981499999848,41.166700100000014],[0.3005445300000247,41.16681871999998],[0.300501440000005,41.16691000999998],[0.30079217999997354,41.16747805],[0.301512109999976,41.16828592000002],[0.3025384499999859,41.16878780000002],[0.30310035999997353,41.16905985],[0.30456806000000824,41.170989969999994],[0.30492049999998017,41.17183541000003],[0.3049660300000028,41.172266379999996],[0.3049206200000185,41.17325834000002],[0.30504991999998765,41.17369590999999],[0.3050512099999878,41.174668510000004],[0.30482423000000836,41.17536848999998],[0.3046304299999747,41.17649079],[0.3046462699999779,41.176805539999975],[0.30540996000001996,41.178242539999985],[0.3058884700000135,41.179696750000005],[0.30591041000002406,41.18060571000001],[0.30631210000001374,41.18195405],[0.30598149000002195,41.182963210000025],[0.30588222000000087,41.18454209999999],[0.30593929999997727,41.18567519999999],[0.30716322000000673,41.18630644000001],[0.3077738200000226,41.18659508000002],[0.3082428299999833,41.18714896],[0.308249069999988,41.187509009999985],[0.3079717499999788,41.188156409999976],[0.3078398800000173,41.18908780999999],[0.30828306000000794,41.190074709999976],[0.3091998400000193,41.19170541],[0.3094011000000023,41.19214991000001],[0.3093642700000032,41.19354688999999],[0.30947993000000906,41.19394882],[0.3097357299999999,41.19429269],[0.31194850000002816,41.195850029999974],[0.3125243200000227,41.19639181000002],[0.31261118999998416,41.196695509999984],[0.3125226600000133,41.197067300000015],[0.312396949999993,41.19764730000003],[0.31251809000002595,41.19815713999998],[0.3125459899999896,41.198237389999974],[0.312525810000011,41.19831002000001],[0.31218684999998914,41.199625630000014],[0.31226092000002836,41.19991169000002],[0.31252594000000045,41.20020125000002],[0.31299281999997675,41.20071014000001],[0.3131895000000213,41.20129886000001],[0.31337044999997943,41.20228429000002],[0.3139547000000107,41.20369939],[0.314027689999989,41.204435760000024],[0.31398669999998674,41.20504033999998],[0.3140547799999922,41.20544364],[0.3147919699999875,41.20705244999999],[0.3152963800000066,41.20783041999999],[0.3158823499999812,41.208570029999976],[0.31758003999999573,41.21030424999998],[0.31771952000002557,41.21093963999999],[0.31727079000000913,41.21197024000003],[0.3169940000000224,41.21239249000001],[0.3168491199999721,41.21282895000002],[0.31689894999999524,41.21310669000002],[0.31744562000000087,41.213775380000016],[0.31818848000000344,41.21549209],[0.3180269900000212,41.216307270000016],[0.3180112200000167,41.21693813000002],[0.31861857000001237,41.218568689999984],[0.3188728100000162,41.220056320000026],[0.31880439999997634,41.220589640000014],[0.31883035999999265,41.221102229999985],[0.3211279199999808,41.22376467999999],[0.3224037800000019,41.22524081],[0.32392580999999154,41.22444036000002],[0.32553531999997176,41.22348426999997],[0.3262472700000103,41.223175509999976],[0.32697476999999253,41.22293832999998],[0.32874809999998433,41.22262587],[0.33063270000002376,41.22262537],[0.3312817999999993,41.22272364999998],[0.3321548999999777,41.22300455999999],[0.3329020200000059,41.22338817999997],[0.3339198599999804,41.224169210000014],[0.3357288400000016,41.225962949999996],[0.33611501000001454,41.22651911000003],[0.33690476999998964,41.22844144999999],[0.33778346999997666,41.22976682000001],[0.33834882000002153,41.230326779999984],[0.3389860999999996,41.23065951000001],[0.33956978999998455,41.230876720000026],[0.3403069600000208,41.231062450000024],[0.3412493700000141,41.231062099999974],[0.34198469000000387,41.23097769999998],[0.3435056899999722,41.23039317000001],[0.34492032999997946,41.229361419999975],[0.34658689999997705,41.22835834],[0.3490097900000251,41.227450309999995],[0.3502425199999948,41.227063199999975],[0.35130392999997184,41.226825150000025],[0.35337413000002016,41.22671980000001],[0.3541556499999956,41.226606960000026],[0.35505575000001954,41.2262475],[0.3575852399999917,41.22556132],[0.3599760500000002,41.22542849000001],[0.3608634299999949,41.225519640000016],[0.3617339099999981,41.225746370000024],[0.3628839699999844,41.22630713000001],[0.3633893900000089,41.22662557000001],[0.363800910000009,41.22697376000002],[0.36403285000000096,41.22730919999998],[0.3641827999999805,41.22767405000002],[0.36471939000000475,41.230224969999995],[0.3646402900000112,41.23170421999998],[0.36458369000001767,41.23222820000001],[0.3636727800000017,41.234236090000024],[0.3634052599999791,41.23553171999998],[0.36337572000002183,41.23611796],[0.3637450200000103,41.237268889999996],[0.36413112999997566,41.23805010000001],[0.3646047099999805,41.238675650000005],[0.3677533100000119,41.23842142000001],[0.3707001799999716,41.237956870000005],[0.3737582399999724,41.23733589],[0.379670429999976,41.23630680000002]]]}}]}