{"type":"FeatureCollection","features":[{"type":"Feature","properties":{"OBJECTID":1779,"ZON_CO_ID":60,"ZON_DS_NOM":"Tierra del Vino de Zamora","CAL_DS_NOM":"D.O.Tierra del Vino de Zamora","TPR_DS_DES":"Denominación de Origen","TPR_DS_GRU":"CALIDAD DIFERENCIADA","FAM_DS_NOM":"Vinos","classification":"DO","normalizedName":"Tierra del Vino de Zamora"},"geometry":{"type":"Polygon","coordinates":[[[-5.6955527000000075,41.67060228999998],[-5.6897511399999985,41.67031505],[-5.689280900000028,41.67027202999998],[-5.6876905500000134,41.670156159999976],[-5.687606560000006,41.670158119999996],[-5.6856412000000205,41.67026714999997],[-5.68136942000001,41.66689964],[-5.681268199999977,41.66677592000002],[-5.680627479999998,41.66609741000002],[-5.6800894400000175,41.66586681000001],[-5.678221989999997,41.664568470000006],[-5.67752089999999,41.664170539999986],[-5.677117920000001,41.66372061999999],[-5.673011719999977,41.66259144999998],[-5.672380350000026,41.66242602],[-5.6712424500000225,41.662209329999996],[-5.670649679999997,41.66210603000002],[-5.667892960000017,41.66136856999998],[-5.666805679999982,41.66121370000002],[-5.665312809999989,41.66083407999997],[-5.661284210000019,41.661287749999985],[-5.654028320000009,41.661824920000015],[-5.652993990000027,41.66032679],[-5.6526768400000265,41.65962263],[-5.6513501900000165,41.65743775999999],[-5.648563490000015,41.65449401000001],[-5.645879239999999,41.65228633999999],[-5.643807729999992,41.650082510000004],[-5.644537860000014,41.648264470000015],[-5.644351879999988,41.64782745000002],[-5.643969389999995,41.64698967999999],[-5.641381260000003,41.648003879999976],[-5.640235290000021,41.64846253000002],[-5.637514839999994,41.64888528],[-5.633263510000006,41.65034277000001],[-5.632538780000004,41.65082769999998],[-5.630543100000011,41.65253956999999],[-5.629241470000011,41.65212808000001],[-5.6292501799999854,41.65204682000001],[-5.620556710000017,41.649687770000014],[-5.619903060000013,41.64955858000002],[-5.61894731000001,41.64938224000002],[-5.618342750000011,41.649278949999996],[-5.61771637999999,41.64923018000002],[-5.617298319999975,41.649284739999985],[-5.61600747,41.650025640000024],[-5.614655500000026,41.650443689999975],[-5.613910970000006,41.650442629999986],[-5.613548139999978,41.64978443000001],[-5.613375459999986,41.64967128000001],[-5.611619220000023,41.649594149999984],[-5.6111898799999835,41.64966694999998],[-5.610926319999976,41.65027636000002],[-5.610686740000006,41.65058801999999],[-5.610446799999977,41.65059346999999],[-5.610262130000024,41.65048058999997],[-5.609537970000019,41.65009176000001],[-5.609191169999974,41.64953224999999],[-5.609121749999986,41.64900247000003],[-5.6089948900000195,41.64883422999998],[-5.609130900000025,41.64744418999999],[-5.608493689999989,41.64653102],[-5.607095689999994,41.64521184],[-5.606458159999988,41.64428966000003],[-5.605458199999987,41.64390707000001],[-5.604233920000013,41.643916820000015],[-5.603614129999983,41.644029939999996],[-5.601565810000011,41.64385119999997],[-5.600204560000009,41.64344073000001],[-5.599091499999986,41.643528960000026],[-5.598128169999995,41.643757900000026],[-5.596276209999985,41.643385490000014],[-5.594854499999997,41.64356171999998],[-5.594546100000002,41.642758130000004],[-5.59297042999998,41.641190610000024],[-5.592611110000007,41.64061330999999],[-5.58949247999999,41.63828801],[-5.588954010000009,41.637732760000006],[-5.587555650000013,41.63698972999998],[-5.587047680000012,41.636595890000024],[-5.586032349999982,41.63612341999999],[-5.585721100000001,41.635545019999995],[-5.584781249999992,41.634557470000004],[-5.584178829999985,41.63330115000002],[-5.584091899999976,41.63262763],[-5.584268599999973,41.63164197999998],[-5.584228429999996,41.63123760000002],[-5.584961239999984,41.630950919999975],[-5.588575429999992,41.62647448000001],[-5.588468410000019,41.62499987000001],[-5.588178889999995,41.62376353000002],[-5.58811135000002,41.622675300000026],[-5.58793086999998,41.62236414],[-5.588077499999997,41.620928849999984],[-5.586493899999994,41.6209465],[-5.585654760000011,41.61947034999997],[-5.5863334800000075,41.618734570000015],[-5.586975600000017,41.61768439999997],[-5.587197549999985,41.61693187999998],[-5.586861699999986,41.615435390000016],[-5.5866289699999925,41.61501734000001],[-5.586583770000004,41.61448698999999],[-5.5863123199999905,41.613700549999976],[-5.5864407400000005,41.61331038999998],[-5.5868306599999755,41.61315751000001],[-5.588898350000022,41.61324602000002],[-5.590217759999973,41.61382871000001],[-5.592009599999983,41.61422059],[-5.592381660000001,41.614221199999974],[-5.5927180300000146,41.61333100000002],[-5.594187130000023,41.61285651999998],[-5.598691229999986,41.613250059999984],[-5.600157319999994,41.61300074000002],[-5.601293880000014,41.612614759999985],[-5.602008930000011,41.61249049000003],[-5.603159640000001,41.61215820000001],[-5.603408530000024,41.61208051],[-5.6140967100000125,41.609000830000014],[-5.616391309999983,41.60847125999999],[-5.62026431999999,41.607212170000025],[-5.620667190000006,41.607085900000015],[-5.6213010899999745,41.60673821],[-5.623803319999979,41.60600562000002],[-5.628444139999999,41.60386412999998],[-5.6284597200000235,41.60365662999999],[-5.626728700000001,41.60180491],[-5.62645243999998,41.599136380000004],[-5.625664519999987,41.598938239999995],[-5.624643330000026,41.59624170000001],[-5.623374179999985,41.593640859999994],[-5.6214897300000075,41.59302642],[-5.619833449999987,41.59271295999997],[-5.615996559999985,41.595142020000026],[-5.6120493700000225,41.595438969999975],[-5.607731619999981,41.59606843],[-5.607207420000009,41.59288311],[-5.606348109999999,41.592398249999974],[-5.603417509999986,41.591419970000004],[-5.602728580000019,41.59099428000002],[-5.601721629999986,41.589819250000005],[-5.600136109999994,41.58887346],[-5.5982506299999955,41.587925429999984],[-5.596190490000026,41.58710739999998],[-5.595823559999985,41.58752998],[-5.595088579999981,41.58715030000002],[-5.594542390000015,41.586991520000026],[-5.594190500000025,41.586891390000005],[-5.593972249999979,41.58683327],[-5.594225199999983,41.58626017],[-5.590894040000023,41.58545271999998],[-5.589817419999974,41.58492761000002],[-5.590036600000019,41.58440931000001],[-5.587023760000022,41.58436010999998],[-5.586521839999989,41.58440743],[-5.585777020000023,41.58347853999999],[-5.580093560000023,41.582633629999975],[-5.579553540000006,41.58262774000002],[-5.575136980000025,41.58347434000001],[-5.57344981,41.583881399999996],[-5.5728820699999915,41.58347981999998],[-5.570859040000016,41.582678509999994],[-5.570723890000011,41.58169084000002],[-5.568052509999973,41.58117417],[-5.56753070000002,41.58011407999999],[-5.567044060000001,41.57963861000002],[-5.565040080000017,41.57840447000001],[-5.564873470000009,41.57783178],[-5.559929860000011,41.57596063],[-5.558914570000013,41.576370510000004],[-5.557421420000026,41.57591740999999],[-5.556313620000026,41.575806969999974],[-5.555882489999988,41.57551934999998],[-5.553082410000002,41.57172688000003],[-5.553053700000021,41.570997999999975],[-5.553188480000017,41.57015741999999],[-5.553851969999982,41.56964733000001],[-5.552867939999999,41.569326950000004],[-5.550157809999973,41.57116137999998],[-5.549544330000003,41.57172437999998],[-5.548414009999988,41.571344160000024],[-5.547722560000011,41.57144956000002],[-5.5466096200000266,41.57181646999999],[-5.546057710000014,41.57181069000001],[-5.544450569999981,41.57150403999998],[-5.54364382,41.57111662],[-5.543163079999999,41.57078501000001],[-5.54268798999999,41.57059738999999],[-5.541266240000027,41.569512050000014],[-5.540420779999977,41.56919750999998],[-5.539172829999984,41.56872973999998],[-5.538021829999991,41.568124720000014],[-5.53779381999999,41.56781453000002],[-5.537708889999976,41.56748317],[-5.538025000000005,41.566674620000015],[-5.5387428500000055,41.56540688000001],[-5.53992015,41.562399760000005],[-5.540835940000022,41.56067731000002],[-5.541578990000005,41.55822015000001],[-5.5417582700000025,41.556676100000004],[-5.541957210000021,41.55614032],[-5.541996779999977,41.55603137000003],[-5.543237659999988,41.55465296],[-5.5437654500000235,41.55435308],[-5.543957050000017,41.554299300000025],[-5.544180489999974,41.55423581000002],[-5.544388040000001,41.554006060000006],[-5.544571200000007,41.553803860000016],[-5.544942849999984,41.55319221000002],[-5.545208460000026,41.55230370999999],[-5.545780030000003,41.55039070999999],[-5.546620599999983,41.54706676000001],[-5.547881010000026,41.54375150999999],[-5.548667850000015,41.54272536000002],[-5.549043700000027,41.542527889999974],[-5.5493441500000245,41.54224203000001],[-5.549945789999981,41.54199452],[-5.550268280000012,41.53891620000002],[-5.551590850000025,41.534446720000005],[-5.552438870000003,41.53193313000003],[-5.553194749999989,41.530097049999995],[-5.553587540000024,41.52914265999999],[-5.553598169999987,41.52890825999998],[-5.553647790000014,41.527799379999976],[-5.553699750000021,41.526645410000015],[-5.553702509999994,41.52658229999997],[-5.553052809999997,41.52529981999999],[-5.552839489999997,41.52506589000001],[-5.552364150000017,41.52454956999998],[-5.552244640000026,41.52394880000003],[-5.5523291100000165,41.523658720000014],[-5.553164670000001,41.52296468999998],[-5.5533695799999805,41.52268994000002],[-5.553299960000004,41.52152967000001],[-5.5534368500000255,41.52104929000001],[-5.553986010000017,41.520082419999994],[-5.55610704999998,41.51734235999999],[-5.556797249999988,41.51600308000002],[-5.556983489999993,41.514837109999974],[-5.556999050000002,41.51473770000001],[-5.5569854199999895,41.513783320000016],[-5.556861369999979,41.51337179000001],[-5.557307830000013,41.51192985],[-5.557831280000016,41.50879299000002],[-5.557622750000007,41.508185190000006],[-5.557235800000001,41.50705900000003],[-5.556309929999998,41.506061869999996],[-5.555199589999972,41.50409615000001],[-5.555163820000018,41.504033900000024],[-5.553800980000005,41.502280919999976],[-5.553794779999976,41.50120929000002],[-5.553938200000005,41.500134349999996],[-5.554712610000024,41.49569501000002],[-5.554971350000017,41.49421222000001],[-5.555604739999978,41.49057757999998],[-5.559566580000023,41.488679160000004],[-5.5639712999999915,41.48465424],[-5.561114599999996,41.480547960000024],[-5.559842609999976,41.478964150000024],[-5.556378979999977,41.476159180000025],[-5.5578672099999835,41.47319900999997],[-5.557124919999978,41.47259408000002],[-5.556256689999998,41.47213605000002],[-5.555954040000017,41.472052710000014],[-5.555974719999995,41.471664980000014],[-5.5561182199999735,41.471355570000014],[-5.556151569999997,41.47098556999998],[-5.555947769999989,41.47067487999999],[-5.555593030000011,41.47048461999998],[-5.555182360000003,41.47039468000003],[-5.553622850000011,41.47062747000001],[-5.553059469999994,41.47061295999998],[-5.552404579999973,41.47040234000002],[-5.552243400000009,41.47026182000002],[-5.551717020000012,41.47057971999999],[-5.551053000000024,41.47044134999999],[-5.549723850000021,41.46983138000002],[-5.549048519999985,41.46909882],[-5.548853440000016,41.46778821999999],[-5.548352290000025,41.46691670000001],[-5.54714955999998,41.46616879999999],[-5.546294520000004,41.46604364000001],[-5.544523609999999,41.466380060000006],[-5.5416369100000225,41.46666005999998],[-5.541451479999978,41.46651105000001],[-5.5412474299999985,41.46496646000003],[-5.541373749999991,41.46452234999998],[-5.540363950000028,41.46380614999998],[-5.5401637499999765,41.46358541000001],[-5.540017429999978,41.462291719999996],[-5.5406856100000255,41.461313270000005],[-5.541400549999992,41.46091919999998],[-5.541825920000008,41.460468479999975],[-5.542446910000024,41.46012151000002],[-5.543906639999989,41.459485789999974],[-5.544899139999984,41.45914861],[-5.54820589000002,41.45859803000002],[-5.549022480000019,41.45866097999999],[-5.551114009999992,41.458263339999974],[-5.552391800000009,41.45818093999998],[-5.5530454099999815,41.457752140000025],[-5.554945029999999,41.45673725],[-5.555630670000028,41.45651486000003],[-5.556011249999983,41.456146149999995],[-5.560969730000011,41.45528827999999],[-5.565964310000027,41.45443839000001],[-5.571940540000014,41.452683709999974],[-5.57935187999999,41.44999588000002],[-5.5782215400000155,41.446544759999995],[-5.584222969999985,41.44123135000001],[-5.597863259999997,41.42912559000001],[-5.609827569999993,41.41682209999999],[-5.611447740000017,41.41515515999998],[-5.610272909999992,41.413902930000006],[-5.608838419999984,41.41094536999998],[-5.608648800000026,41.410094060000006],[-5.608343629999979,41.40934444999999],[-5.608263039999997,41.408526689999974],[-5.608600840000008,41.40740224000001],[-5.607743529999993,41.407502739999984],[-5.607521200000008,41.40732765000001],[-5.607262639999988,41.40714437999998],[-5.607233049999991,41.40670374000001],[-5.606827109999983,41.40642473999998],[-5.605970259999992,41.40623701999999],[-5.605265459999998,41.40626199000002],[-5.603388110000026,41.404485220000026],[-5.600562290000028,41.400820520000025],[-5.599226229999999,41.39911248999999],[-5.5983258599999886,41.398430340000004],[-5.596820579999985,41.398176139999975],[-5.5960962699999754,41.39830957999999],[-5.595575230000009,41.398141210000006],[-5.5949887099999955,41.39783022],[-5.593765609999991,41.39745253000001],[-5.5931395399999815,41.39734957000002],[-5.591954240000007,41.39671881999999],[-5.590395639999997,41.39602443000001],[-5.59013539,41.39579612],[-5.590249830000005,41.39506402000001],[-5.591167540000015,41.39407965999999],[-5.591969889999973,41.39350317999998],[-5.593058289999988,41.392902230000004],[-5.59784891999999,41.390965789999996],[-5.600561980000009,41.389121190000026],[-5.6036070999999765,41.38661153999999],[-5.604352740000024,41.386117309999975],[-5.6060646799999745,41.38436730000001],[-5.610226790000013,41.38109363000001],[-5.611488619999989,41.38035346999999],[-5.612150190000023,41.37955489000001],[-5.612474659999975,41.378998120000006],[-5.61514741000002,41.37676682],[-5.616177059999984,41.3759058],[-5.623369369999978,41.37338225000002],[-5.623713640000005,41.372131509999974],[-5.624245389999999,41.37108362999999],[-5.6241064000000165,41.36881718000001],[-5.624700749999988,41.36843434999997],[-5.625861530000009,41.367273039999986],[-5.626026939999974,41.36692701999999],[-5.625923049999983,41.36672224],[-5.626102209999999,41.36642094000001],[-5.628644409999993,41.36423732999998],[-5.630406709999988,41.35575798999997],[-5.628616850000014,41.356726579999986],[-5.626748780000014,41.35812924999999],[-5.625309500000014,41.35949506999998],[-5.6232795600000145,41.35865876999998],[-5.620893959999989,41.35729915000002],[-5.619397610000021,41.356054330000006],[-5.618982899999992,41.35584763000003],[-5.616821029999983,41.35529341],[-5.615811780000001,41.35486605],[-5.613362849999987,41.35311144000002],[-5.612177949999989,41.351877460000026],[-5.610717000000022,41.350613710000005],[-5.610241280000025,41.35007510999998],[-5.608695039999986,41.347273169999994],[-5.608546079999996,41.34683523000001],[-5.6091670100000215,41.346821139999975],[-5.608648949999974,41.34641859999999],[-5.608433380000008,41.346108259999994],[-5.607673449999993,41.34503570999999],[-5.606989580000004,41.34377230000001],[-5.606311049999988,41.342941069999995],[-5.605696799999976,41.34252268],[-5.605514470000003,41.342445759999976],[-5.604701560000024,41.34213993999998],[-5.6042417300000125,41.34199725000002],[-5.601411910000024,41.341160650000006],[-5.599831180000024,41.34017867],[-5.598647830000004,41.339872179999986],[-5.598838629999989,41.33956165000001],[-5.598789570000008,41.33922952],[-5.599044479999975,41.33872839999998],[-5.599047470000016,41.338503170000024],[-5.599370439999973,41.33791044999998],[-5.599397660000022,41.33769367999997],[-5.6003394300000195,41.33673571000003],[-5.600507769999979,41.33646170999998],[-5.600434580000012,41.33582389999998],[-5.6004967800000145,41.33498488999999],[-5.60108581999998,41.33387277999998],[-5.6014791900000205,41.33354865000001],[-5.6015125000000126,41.33348486],[-5.602034899999978,41.332500330000016],[-5.602543449999985,41.33176830999997],[-5.603366059999985,41.32692221999997],[-5.605376569999976,41.32370639999999],[-5.608036560000016,41.32150256],[-5.6107924500000195,41.31841385000001],[-5.612272829999995,41.316894160000004],[-5.612573510000004,41.31634694000002],[-5.612661870000011,41.315867579999974],[-5.613054429999977,41.31522820999999],[-5.613683519999995,41.314529419999985],[-5.613990059999992,41.31353173999997],[-5.617484909999973,41.31041705000001],[-5.618244549999986,41.30910282000002],[-5.618449629999986,41.30885497000003],[-5.619086219999986,41.30804790000002],[-5.620911190000015,41.306196020000016],[-5.621132950000003,41.30547044000002],[-5.622743029999981,41.30332621000002],[-5.62461116999998,41.30136520000002],[-5.62670627,41.29970519],[-5.625236120000011,41.299081290000004],[-5.620184160000008,41.29639549000001],[-5.618142780000028,41.29641497],[-5.616851230000009,41.296669529999974],[-5.615179060000003,41.296365330000015],[-5.613975400000015,41.296428719999994],[-5.608813370000007,41.29875255000002],[-5.605474459999982,41.29498246999998],[-5.604087400000026,41.29343775000001],[-5.603539749999982,41.293179950000024],[-5.60315079999998,41.293008629999974],[-5.602099899999985,41.29270817999998],[-5.600807900000007,41.29235012999999],[-5.599991579999994,41.292242499999986],[-5.599692500000003,41.29162781000002],[-5.599524889999998,41.291316370000004],[-5.599146780000012,41.28961368],[-5.599173329999985,41.28847825999998],[-5.599075089999985,41.28750776999999],[-5.598889480000025,41.28704363000003],[-5.598426990000007,41.28652269999998],[-5.5985004199999935,41.28566541999999],[-5.598412769999982,41.28526210000001],[-5.594381279999993,41.280552650000004],[-5.594782660000021,41.27893143],[-5.594454779999978,41.27698441000001],[-5.594128220000016,41.275974029999986],[-5.5939184700000055,41.27489797999999],[-5.5938933200000065,41.27335842999997],[-5.562190690000023,41.28539939000001],[-5.55147728999998,41.29053713000002],[-5.549402629999975,41.29153782999998],[-5.549788970000009,41.292258790000005],[-5.551065619999974,41.29468025],[-5.548180049999985,41.29724802999999],[-5.546763870000007,41.29829712999998],[-5.544868240000028,41.29930279000001],[-5.5439634100000035,41.299683070000015],[-5.541653960000019,41.300184460000025],[-5.53810365999999,41.30133463999999],[-5.534381310000015,41.30359629999998],[-5.533288029999994,41.30466514],[-5.531815779999988,41.30643580999998],[-5.529670739999972,41.308725630000026],[-5.527635980000014,41.31140026000003],[-5.526897510000026,41.31207396000002],[-5.525730169999974,41.312468860000024],[-5.52450773999999,41.3136035],[-5.523921480000013,41.31450801],[-5.523233800000014,41.31526163000001],[-5.521020029999988,41.316093739999985],[-5.517681260000018,41.31718460000002],[-5.514209359999995,41.31885467000001],[-5.511965750000002,41.32047081000002],[-5.510099560000015,41.32134013000001],[-5.507647010000028,41.322186190000025],[-5.508242600000017,41.323073850000014],[-5.508636490000015,41.323686710000004],[-5.517193200000008,41.31940186999998],[-5.518897139999979,41.320526400000006],[-5.514960579999979,41.32223369000002],[-5.517767260000028,41.32282977],[-5.514850079999974,41.32464083000002],[-5.504182430000014,41.32967396999999],[-5.49999016999999,41.33346682000001],[-5.499337060000016,41.33388630000002],[-5.497762490000014,41.33520843000002],[-5.497125760000017,41.341058480000015],[-5.491841249999993,41.33911957999999],[-5.491969200000028,41.33777484000001],[-5.492331820000004,41.33349788999999],[-5.492890559999978,41.32778467999998],[-5.494522440000026,41.310745069999996],[-5.486502710000025,41.30685674],[-5.479698159999998,41.304751969999984],[-5.476607520000016,41.30356662999998],[-5.473458619999974,41.30336417000001],[-5.465500200000008,41.30009448999999],[-5.462067859999991,41.299654610000005],[-5.464731299999983,41.303461389999995],[-5.46419757000001,41.30546327000002],[-5.460886430000016,41.30856933000001],[-5.458659699999998,41.30843678999997],[-5.446617740000022,41.30775676000002],[-5.440459410000017,41.31333648999998],[-5.429191500000002,41.30714422],[-5.427363130000003,41.30615605000003],[-5.407781600000021,41.29759684999999],[-5.406810679999978,41.29717584000002],[-5.397135939999998,41.29649506999999],[-5.395006009999975,41.29703476999998],[-5.393669020000004,41.29737781],[-5.390971030000003,41.30198223000002],[-5.390779650000013,41.30230143],[-5.384827630000018,41.304811659999984],[-5.381844179999973,41.30717913000001],[-5.380055019999986,41.310530570000026],[-5.379458779999993,41.31220010999999],[-5.379896340000016,41.31470390999999],[-5.379697190000002,41.31514034000003],[-5.378290859999993,41.318186620000006],[-5.373024299999997,41.319556250000005],[-5.372292490000007,41.319472270000006],[-5.371816609999996,41.319527110000024],[-5.3694971200000055,41.320466539999984],[-5.366485099999977,41.32042944],[-5.359229889999995,41.321992420000015],[-5.354354829999977,41.32065118999998],[-5.353172560000019,41.32033311999999],[-5.350577419999979,41.32026006000001],[-5.349931190000007,41.31757126999997],[-5.349905050000018,41.31750875],[-5.340659159999973,41.314526839999985],[-5.326127600000007,41.322774349999975],[-5.322594949999996,41.325907959999995],[-5.322120139999981,41.326331849999974],[-5.321364119999998,41.32523028000003],[-5.319967469999995,41.32358320999998],[-5.317997199999979,41.32192966000002],[-5.3159253100000115,41.32044023999998],[-5.312975660000006,41.319463799999994],[-5.309758830000021,41.31869979999999],[-5.305848749999996,41.318940329999975],[-5.305488449999984,41.318209000000024],[-5.3035103400000025,41.31597893000003],[-5.306473719999985,41.311596380000026],[-5.303242420000004,41.30837365999997],[-5.303675810000016,41.300331029999995],[-5.2972683300000085,41.29234408000002],[-5.294953949999979,41.28253692999999],[-5.296569060000024,41.27071493],[-5.291740460000028,41.26918998000002],[-5.296956589999979,41.26644701999999],[-5.299389539999993,41.26400266000002],[-5.301520359999984,41.26281621999999],[-5.302123520000009,41.25970584999999],[-5.302207490000001,41.259271850000005],[-5.299202579999985,41.25459437000001],[-5.299686450000024,41.25273833],[-5.298758360000022,41.25111764000002],[-5.298569229999998,41.25014869],[-5.297277199999996,41.24359055999997],[-5.29604046999998,41.241669779999995],[-5.2949652300000025,41.24061040999999],[-5.2964395199999785,41.23909488999999],[-5.295896579999976,41.23858332999998],[-5.29679821000002,41.23741247999999],[-5.295981670000003,41.23692439000001],[-5.295229950000021,41.23760589],[-5.294842679999988,41.23710922999999],[-5.294694769999978,41.23629256999999],[-5.296330809999972,41.23633199],[-5.296903709999981,41.23599632000003],[-5.296603310000023,41.235254750000024],[-5.297254930000008,41.23478239999997],[-5.2968764299999975,41.234195510000006],[-5.298509109999998,41.231758119999995],[-5.297484970000028,41.231472329999974],[-5.2979131100000245,41.23075225000002],[-5.297203319999994,41.230244029999994],[-5.297772699999996,41.22980934999998],[-5.297200999999973,41.22949650999999],[-5.296164079999983,41.22952621000002],[-5.295453109999983,41.229324229999975],[-5.296369850000019,41.22722537999999],[-5.297884490000001,41.22687091],[-5.298010780000027,41.22604876999998],[-5.293694870000024,41.226468109999985],[-5.293651549999993,41.226252810000005],[-5.302714009999988,41.224090390000015],[-5.304709000000003,41.22654533999997],[-5.307617950000008,41.22479378999998],[-5.308902530000012,41.22265143999999],[-5.308381899999972,41.222094459999994],[-5.3098836699999765,41.22137981999998],[-5.310952980000025,41.22193478999998],[-5.311530629999993,41.221400800000026],[-5.310076649999985,41.219745709999984],[-5.310937449999983,41.21980049000001],[-5.3115611700000045,41.21752724999999],[-5.311215119999986,41.21650742000003],[-5.312848669999994,41.21547485000002],[-5.315382899999975,41.211911240000006],[-5.31829190000002,41.21086193999997],[-5.3228624100000275,41.207896619999985],[-5.3275063500000215,41.20566819999999],[-5.329849729999978,41.20415267999999],[-5.3311606099999835,41.20311736999997],[-5.330764240000008,41.202702079999995],[-5.334560570000008,41.20013024999997],[-5.33602602000002,41.19841623999997],[-5.337802169999975,41.19672292000001],[-5.339043689999983,41.19475222],[-5.340296529999989,41.19410528999998],[-5.337013189999993,41.191641059999995],[-5.336167569999986,41.18999194999998],[-5.338578499999983,41.18838481],[-5.337453929999981,41.18727279000001],[-5.336638820000019,41.18782074000001],[-5.334608730000014,41.18706032],[-5.32963620999999,41.18435090999998],[-5.327809849999994,41.18159572000002],[-5.33186274000002,41.17889269],[-5.332508130000008,41.17826715000001],[-5.331349629999977,41.17854281000001],[-5.3302677899999935,41.177618989999985],[-5.329814689999978,41.17795240999999],[-5.326977680000027,41.177622489999976],[-5.325584730000003,41.17801092000002],[-5.30844184,41.18445360999999],[-5.30738679000001,41.183267839999985],[-5.301740049999978,41.185434439999995],[-5.301147420000007,41.18519409999999],[-5.300288099999989,41.18380619999999],[-5.299475799999982,41.184101639999994],[-5.297985089999997,41.18272632999998],[-5.298127910000005,41.181696699999975],[-5.29697692000002,41.18117024999998],[-5.292723790000025,41.181255039999996],[-5.288743720000014,41.18199176000002],[-5.288537120000001,41.18085199000001],[-5.289509310000028,41.18001303],[-5.28926100000001,41.17801844000002],[-5.2879612400000156,41.17732373000001],[-5.289487629999996,41.175627099999986],[-5.2898528299999725,41.174475959999995],[-5.291005199999972,41.17470522000002],[-5.292274399999997,41.17281551999997],[-5.291414180000004,41.17139155000001],[-5.292213500000003,41.17106940000002],[-5.291698110000027,41.16962053999998],[-5.293594040000016,41.16690772999999],[-5.293686509999986,41.16682481999999],[-5.294436210000015,41.166107339999996],[-5.295256139999992,41.16569469000001],[-5.2958547499999895,41.16508829000003],[-5.296301630000016,41.16423271999997],[-5.296599679999986,41.16389351999999],[-5.29690493999999,41.16376133],[-5.297193619999973,41.16383662999999],[-5.2976092700000095,41.16413456999999],[-5.298415990000024,41.16368613999998],[-5.298622109999997,41.16276331],[-5.298611049999977,41.16210602000001],[-5.2975395400000025,41.16009183],[-5.295910900000024,41.158503069999995],[-5.295656090000023,41.158373040000015],[-5.295075940000004,41.157799160000025],[-5.294286390000025,41.15634676000002],[-5.293575879999992,41.155451219999975],[-5.292516579999983,41.154463539999995],[-5.291508060000012,41.15151130999999],[-5.29226232000002,41.15058657999998],[-5.293070779999994,41.14984992000001],[-5.2919213499999955,41.14900813999998],[-5.292050739999979,41.14793372999998],[-5.290594580000004,41.14683683999999],[-5.292190459999972,41.14612955000001],[-5.291951050000023,41.14541376],[-5.292412599999977,41.14532350000002],[-5.2929439100000195,41.141421890000004],[-5.293485599999997,41.139870900000005],[-5.295113870000023,41.13394785999998],[-5.29632534000001,41.12940218],[-5.297858140000017,41.12587688000002],[-5.308727900000008,41.12197557000002],[-5.311418559999993,41.12092181000003],[-5.312750909999977,41.120534770000006],[-5.316047389999994,41.11909945000002],[-5.3174902700000075,41.118809209999995],[-5.328949899999998,41.117172900000014],[-5.329648550000002,41.118068470000026],[-5.331848799999989,41.117978900000026],[-5.328794280000011,41.121193170000026],[-5.329806459999986,41.12253276000001],[-5.330284039999981,41.12290138999998],[-5.331112969999992,41.12310077000001],[-5.331436139999994,41.12348152999999],[-5.331950720000009,41.12388542999997],[-5.332546929999978,41.124575900000025],[-5.336730250000016,41.12363542000003],[-5.340773360000014,41.12344521],[-5.340793770000005,41.12435449999998],[-5.343169380000006,41.12717941],[-5.345679259999997,41.130758119999996],[-5.346480540000016,41.13218290999998],[-5.347705270000006,41.13345494999999],[-5.348389929999996,41.13361212000001],[-5.349032770000008,41.133599000000004],[-5.349624140000003,41.13347885000002],[-5.350740610000003,41.133050749999995],[-5.351667550000002,41.13298679000002],[-5.3521237699999915,41.133085549999976],[-5.3526829599999814,41.13339838000002],[-5.353453860000002,41.13563436999999],[-5.354912720000016,41.13678444999999],[-5.355163100000027,41.13878789],[-5.356050919999973,41.139958639999975],[-5.356987329999981,41.14082216000003],[-5.357781180000018,41.141031080000005],[-5.359567640000023,41.140345980000006],[-5.35964223000002,41.13976801000001],[-5.362005870000019,41.13889991000002],[-5.363400469999988,41.13924959000002],[-5.364009590000023,41.139291119999996],[-5.368153520000021,41.13856647],[-5.370753330000014,41.13830581000002],[-5.37115055999999,41.13775721000002],[-5.373074229999986,41.13724922],[-5.375672339999994,41.13694344999999],[-5.381563130000018,41.13478617999999],[-5.383774290000019,41.13432610000001],[-5.385436169999991,41.136462359999996],[-5.3869629100000225,41.13585427999999],[-5.388765169999999,41.13791551999998],[-5.389904769999987,41.14009857999997],[-5.39050794000002,41.14095973000002],[-5.391085859999976,41.142109619999985],[-5.392809660000012,41.142659260000016],[-5.396616040000026,41.14510203999998],[-5.400190769999995,41.145432889999995],[-5.39972548999998,41.146397320000005],[-5.400713549999978,41.14702521999999],[-5.40215876000002,41.14613942],[-5.402613330000008,41.14553547999998],[-5.405863070000009,41.14381935],[-5.409905009999989,41.14259093999999],[-5.410873789999982,41.14171499999998],[-5.411458130000028,41.142054040000005],[-5.412160610000001,41.141715069999975],[-5.412128610000025,41.14084207000002],[-5.414006089999987,41.14037939999997],[-5.413984959999993,41.139803400000005],[-5.4145174000000225,41.13970216000001],[-5.414645350000001,41.14026691999999],[-5.415143750000027,41.13988718000002],[-5.416286979999995,41.14019645000002],[-5.4163729900000135,41.13961819999997],[-5.418131340000002,41.13883370999997],[-5.41791440999998,41.13811771000002],[-5.417564869999978,41.13833220999999],[-5.4171793099999945,41.13691720999998],[-5.418079780000028,41.13678120999998],[-5.418069179999975,41.13779020999999],[-5.419918750000022,41.13754419999998],[-5.419646269999987,41.13823445000003],[-5.421042479999983,41.13861942],[-5.421446549999985,41.13762015999998],[-5.422951889999979,41.13805685],[-5.423090709999997,41.13697309999998],[-5.424340630000017,41.13597404000001],[-5.425255960000015,41.13591874000002],[-5.425580000000025,41.13565971999998],[-5.42600852999999,41.13532643999997],[-5.430173589999981,41.13422982999998],[-5.4309665800000175,41.13441124000002],[-5.431147129999999,41.13446147000002],[-5.4343306600000005,41.13356556999997],[-5.434771599999976,41.13421376000002],[-5.43533991999999,41.13379642000001],[-5.434838220000017,41.132149760000004],[-5.435441990000015,41.13204691999999],[-5.43613302,41.13559004000001],[-5.43685419000002,41.13543967999999],[-5.436343710000017,41.13452276999999],[-5.439457300000015,41.13334899],[-5.439297570000008,41.132253520000006],[-5.440868640000019,41.133499219999976],[-5.4427733800000055,41.13281933000002],[-5.443183449999992,41.13295474],[-5.443809339999973,41.13280635000001],[-5.444140310000023,41.13273628000002],[-5.444008789999998,41.132081570000025],[-5.445212270000013,41.131767790000026],[-5.444511910000017,41.13087295999998],[-5.445179040000028,41.13055256000001],[-5.445921469999973,41.131617619999986],[-5.447445039999991,41.130621510000026],[-5.447971040000027,41.12970962999998],[-5.44995320999999,41.128874859999996],[-5.449318319999975,41.12589806],[-5.451576279999983,41.12543568000001],[-5.453052870000022,41.13053819999999],[-5.453999290000013,41.13131965000002],[-5.454452310000022,41.13196749999997],[-5.4548589099999845,41.13296760999998],[-5.4577476499999875,41.134716379999986],[-5.458079110000028,41.13657374000002],[-5.464225129999988,41.14130610000001],[-5.4686349199999995,41.142931920000024],[-5.468405519999976,41.14221629000002],[-5.470828219999987,41.14137169000003],[-5.471152019999977,41.14142779000002],[-5.4820142099999885,41.138482959999976],[-5.483261459999994,41.13806876000001],[-5.485053549999975,41.13788597000001],[-5.486683400000004,41.138138990000016],[-5.487576550000028,41.13749820999999],[-5.489376440000001,41.137522339999975],[-5.489617889999977,41.13666146000003],[-5.491894919999993,41.13638701000002],[-5.491718960000014,41.134571429999994],[-5.493628880000017,41.13372844999998],[-5.493823650000024,41.13258035000001],[-5.495861349999984,41.13165350999998],[-5.495165719999989,41.130272520000005],[-5.4973492299999975,41.12942355000001],[-5.497208950000015,41.128237679999984],[-5.499120670000025,41.12744860999999],[-5.501995710000017,41.12818777000001],[-5.502551429999983,41.128391850000014],[-5.504143960000022,41.12704221000001],[-5.50662705000002,41.128123019999975],[-5.508101440000019,41.129928310000025],[-5.5091902300000015,41.1284905],[-5.510610729999996,41.12763088999998],[-5.511303680000026,41.12830930000001],[-5.5136450699999955,41.12754665],[-5.51359721,41.12691720999999],[-5.516259999999988,41.126462720000006],[-5.517594400000007,41.12802776000001],[-5.519245679999983,41.12791056999998],[-5.519679470000028,41.12835142],[-5.520436490000009,41.12914546000002],[-5.5210217599999964,41.12918668999998],[-5.521880090000025,41.12920391],[-5.522168860000022,41.12865717],[-5.522893510000017,41.12860525999997],[-5.52504381,41.12938673999997],[-5.5245009800000275,41.13045245000001],[-5.52567775,41.130075369999986],[-5.526015659999985,41.12987880999998],[-5.527883159999988,41.12794637000002],[-5.5306375399999865,41.126778],[-5.530982409999979,41.12738288000003],[-5.531927199999984,41.12655147999999],[-5.532716359999995,41.12941632000002],[-5.537701009999978,41.12986495000001],[-5.53840636000001,41.129930460000026],[-5.538448899999992,41.130415889999995],[-5.539965080000002,41.13019329999997],[-5.546168720000026,41.13074074999997],[-5.54906158,41.131000959999994],[-5.548052789999986,41.13232928999997],[-5.549296570000024,41.132454870000004],[-5.549030949999974,41.13390184000002],[-5.5499300299999845,41.13558422],[-5.550826889999996,41.13597865999998],[-5.551006299999983,41.13722662999999],[-5.551942429999997,41.13740403000003],[-5.55191327,41.13818827],[-5.549432469999999,41.13811715000003],[-5.549424639999984,41.138837869999975],[-5.550512050000009,41.13892185999998],[-5.550547970000025,41.139848770000015],[-5.551749859999973,41.14011935000002],[-5.5519930599999725,41.14116775999997],[-5.552107830000011,41.1416696],[-5.555551130000026,41.14320541000001],[-5.552938439999991,41.146803069999976],[-5.554361710000023,41.14755508000002],[-5.552586589999976,41.14940483999999],[-5.550562259999992,41.15220579999999],[-5.552031240000019,41.15229033000003],[-5.552370119999978,41.153039379999996],[-5.55467711,41.15291614],[-5.555566199999987,41.15310355999998],[-5.5572537400000215,41.152372549999995],[-5.560682639999982,41.15107138000002],[-5.5635111999999936,41.14935114999997],[-5.5653175799999985,41.148311149999984],[-5.565129319999983,41.149900539999976],[-5.56524115000002,41.15154629],[-5.566468680000014,41.15338333],[-5.566527220000012,41.15396745999999],[-5.568223040000021,41.15589311000002],[-5.568540279999979,41.15821878999998],[-5.569007409999983,41.160415020000016],[-5.568989970000018,41.16088375999999],[-5.568375059999994,41.16405887000002],[-5.568894049999983,41.16605578999997],[-5.5688643799999795,41.16682202999999],[-5.568853880000006,41.16685828999999],[-5.569022130000008,41.167809250000005],[-5.570777480000004,41.169112050000024],[-5.573323019999975,41.171721149999996],[-5.573945190000018,41.17208550999999],[-5.575628429999995,41.17275938],[-5.5764590800000065,41.173272180000026],[-5.576991369999973,41.174079870000014],[-5.5779845399999886,41.176912749999985],[-5.578452739999989,41.177604789999975],[-5.580253710000022,41.17884336999998],[-5.5840455900000165,41.18190161000001],[-5.584666609999999,41.182536140000025],[-5.585592389999988,41.183037730000024],[-5.587076459999992,41.18318449999998],[-5.587292279999986,41.18321567999999],[-5.588593500000002,41.18416814],[-5.589826270000003,41.185500409999975],[-5.591041710000013,41.18639172000002],[-5.5920809899999995,41.18735004000001],[-5.592530599999975,41.18756508000001],[-5.594131070000003,41.18763708],[-5.594319789999986,41.18547122000001],[-5.594235550000008,41.184545430000014],[-5.594517919999987,41.18324209999997],[-5.593022980000001,41.18040266999998],[-5.592482630000006,41.17939709000001],[-5.592179789999989,41.178368139999975],[-5.590608019999991,41.17629597000001],[-5.589254980000021,41.174326940000014],[-5.589046569999994,41.17357507000003],[-5.589129459999981,41.171744839999974],[-5.588720379999984,41.17104251000001],[-5.588346899999976,41.170033149999995],[-5.588165389999972,41.16905550000001],[-5.587447839999982,41.16687400000001],[-5.5864288299999885,41.16308706000001],[-5.591858899999977,41.15843448999999],[-5.594354169999974,41.15794592999998],[-5.595764089999989,41.15864368000001],[-5.597015189999979,41.15773279000001],[-5.599464379999972,41.15758742999998],[-5.599606530000017,41.15696274999999],[-5.600367779999999,41.15572063000002],[-5.604044610000017,41.15347587000002],[-5.6054847699999755,41.15283082000002],[-5.6061542699999904,41.14476363],[-5.60661454000001,41.14405068000002],[-5.611121019999985,41.1423183],[-5.616431149999983,41.146421850000024],[-5.617286110000009,41.14634837],[-5.617005459999973,41.14408506000001],[-5.619067350000023,41.14529909999999],[-5.619160980000004,41.14585538],[-5.622170709999978,41.145138359999976],[-5.622831959999985,41.14498818999999],[-5.622923940000021,41.14340992000001],[-5.623029710000026,41.14307425999999],[-5.623838929999977,41.14245235999999],[-5.622531540000011,41.141635529999974],[-5.623017699999991,41.140381520000005],[-5.623700059999976,41.140762259999974],[-5.624216559999979,41.14086757000001],[-5.6258523299999865,41.14095636000002],[-5.630976180000005,41.140082759999984],[-5.633232679999992,41.14020227999998],[-5.6496159600000055,41.13728630999998],[-5.652459739999983,41.13660834000001],[-5.651173319999998,41.13335955000002],[-5.651244969999993,41.13277246000001],[-5.65135693000002,41.13170709000002],[-5.651281970000014,41.12629578999997],[-5.650368189999995,41.12223678999999],[-5.64573587000001,41.117218560000026],[-5.6453449699999965,41.116678139999976],[-5.647709449999979,41.11594825999998],[-5.647288230000015,41.115246420000005],[-5.645230959999992,41.11591519000001],[-5.644771549999973,41.11515116999999],[-5.6454190900000185,41.11496514999999],[-5.644950670000014,41.1142734],[-5.644154500000013,41.11312981999998],[-5.644808809999972,41.11222312000001],[-5.646668980000015,41.11020788000002],[-5.650763849999976,41.11016768000002],[-5.651457400000027,41.10964732000002],[-5.652494880000006,41.10909201999999],[-5.655961639999987,41.107652040000005],[-5.657371479999995,41.10983515999999],[-5.660486979999973,41.10825003999997],[-5.663078289999987,41.11108128000001],[-5.66450377000001,41.11187690000003],[-5.666934620000006,41.11132522999998],[-5.671842319999996,41.11018462999999],[-5.674227690000009,41.109102459999974],[-5.676499439999986,41.11255326000003],[-5.677325610000025,41.11412822],[-5.678196710000009,41.114171],[-5.678560230000016,41.11432466000002],[-5.679616020000026,41.11510168000001],[-5.678770149999991,41.11626522],[-5.679081139999994,41.11717666999999],[-5.680337420000001,41.117318539999985],[-5.6808322100000055,41.11747814],[-5.681089789999987,41.11883215],[-5.681554969999979,41.1200192],[-5.679920990000028,41.12084084999998],[-5.6807295899999986,41.122272090000024],[-5.680390380000006,41.12300952999999],[-5.680424070000015,41.12325192999998],[-5.6815818399999785,41.124774100000025],[-5.680835279999997,41.12516076999998],[-5.681241360000001,41.125772770000026],[-5.680141999999989,41.12656394999999],[-5.680653529999972,41.12742567999999],[-5.679937699999982,41.12798275],[-5.678667840000003,41.12897604],[-5.681045779999977,41.13062292000001],[-5.68225252000002,41.13071187999998],[-5.685218689999999,41.13012932999999],[-5.685525900000016,41.130068119999976],[-5.68572733000002,41.13033361999999],[-5.686182550000012,41.130980480000005],[-5.686953389999985,41.131187650000015],[-5.687439700000027,41.13142848000001],[-5.687688379999997,41.13168387000002],[-5.690292240000019,41.13447814],[-5.690753550000011,41.134980729999995],[-5.691355729999998,41.13572320999998],[-5.692836450000016,41.13813837999999],[-5.697044070000004,41.14255216999999],[-5.697194280000019,41.14272878000003],[-5.697020160000022,41.142840939999985],[-5.696288719999984,41.14330841999998],[-5.696887240000024,41.14424909000002],[-5.697130000000016,41.144648700000005],[-5.697908949999999,41.14563018000001],[-5.698083250000025,41.14610343999999],[-5.698363289999975,41.147411850000026],[-5.698812490000023,41.14790568000001],[-5.699079729999994,41.148610940000026],[-5.699745710000002,41.149450950000016],[-5.700421109999979,41.14993946999999],[-5.701541710000015,41.15082282999998],[-5.705420559999993,41.15618970999998],[-5.706828369999982,41.157966929999986],[-5.707837170000005,41.15902398999998],[-5.708240020000005,41.15954590000001],[-5.708537200000023,41.16010632000001],[-5.708925459999989,41.16114193999999],[-5.710223020000001,41.16255244000001],[-5.711845519999997,41.16345990999997],[-5.712658470000008,41.16381001000002],[-5.713341200000002,41.16418119999997],[-5.713588249999987,41.16439152999999],[-5.713868020000007,41.16481725],[-5.7145488300000125,41.16629627999998],[-5.7147966200000155,41.16681282000002],[-5.714836429999991,41.16691094999999],[-5.717746550000015,41.16955323000002],[-5.718582309999988,41.170452160000025],[-5.7194185000000175,41.17308933999999],[-5.7200012800000195,41.173922189999985],[-5.72168787999999,41.17550348999998],[-5.721561759999986,41.17619997999998],[-5.7217169799999965,41.176781730000016],[-5.722078360000012,41.17716045999998],[-5.722911280000005,41.177699159999975],[-5.723536190000004,41.17839588999999],[-5.723937850000027,41.179458160000024],[-5.724570589999985,41.18005563000003],[-5.72540115999999,41.179099269999995],[-5.726292960000023,41.17703365],[-5.7269262500000195,41.176208050000014],[-5.72771062999999,41.175577009999984],[-5.728441019999991,41.17479414000002],[-5.728520220000007,41.17440498000002],[-5.728351040000007,41.172913900000026],[-5.729233889999989,41.169488469999976],[-5.729341359999978,41.166910040000005],[-5.729349529999979,41.166819780000026],[-5.729406680000011,41.165899749999994],[-5.727937610000026,41.16266521],[-5.7267437799999925,41.16060398000002],[-5.726457229999994,41.16001633000002],[-5.726334049999991,41.15618245000002],[-5.726288140000008,41.154787510000006],[-5.726284720000024,41.15413010999998],[-5.7260104900000215,41.15355118000002],[-5.725077370000008,41.152312359999996],[-5.724325309999983,41.14911482000002],[-5.722630059999972,41.14702037000001],[-5.722786219999989,41.14532344000003],[-5.721049440000002,41.14222121],[-5.720487419999984,41.14159503000002],[-5.719249219999995,41.139886020000006],[-5.718415760000028,41.13816744000002],[-5.718097779999994,41.13739136999999],[-5.716258449999998,41.13410234999998],[-5.715451869999981,41.13303158999997],[-5.714124760000004,41.13089229000002],[-5.712516999999991,41.12858848000002],[-5.712319589999993,41.12813378999999],[-5.711997789999998,41.12639409000002],[-5.712003019999997,41.12623184],[-5.712043359999996,41.124897910000016],[-5.710589079999977,41.12226620000001],[-5.712036479999995,41.120971180000026],[-5.711002580000013,41.11986969999998],[-5.711243280000019,41.11906243999999],[-5.712678649999987,41.1180559],[-5.711951960000022,41.11660494],[-5.713158539999995,41.11611715999999],[-5.71157482000001,41.11496561000001],[-5.712073780000026,41.11493583999999],[-5.712799949999976,41.114639520000026],[-5.712765269999977,41.11264086],[-5.714368429999979,41.11253101],[-5.716037939999978,41.11460819000001],[-5.716752999999983,41.11346548],[-5.7177758500000095,41.112567679999984],[-5.718800890000011,41.11201208],[-5.721410059999982,41.11088762999998],[-5.72491967000002,41.111957440000026],[-5.727359270000022,41.11162946000002],[-5.726291979999985,41.10742161000002],[-5.729389420000018,41.10716807],[-5.726218430000017,41.10247867999999],[-5.724501750000002,41.101276410000025],[-5.724747340000022,41.098001160000024],[-5.72664930000002,41.09735267999997],[-5.725547129999995,41.095460349999996],[-5.727164630000004,41.094269180000026],[-5.726976060000027,41.09230117999999],[-5.7269589499999825,41.092175499999996],[-5.728683040000021,41.09126099000002],[-5.728954330000022,41.090912300000014],[-5.732803980000028,41.08584927999999],[-5.733884680000017,41.08349088],[-5.734037360000002,41.08315400999999],[-5.734761479999975,41.08224514],[-5.735491560000014,41.08148024000002],[-5.733739759999992,41.07884686],[-5.735972310000022,41.07700148999999],[-5.738273789999994,41.07653246000001],[-5.737100209999994,41.074065510000025],[-5.738346100000001,41.07254076999999],[-5.736641480000003,41.07104115999999],[-5.737097129999995,41.06796803999998],[-5.73852598000002,41.06769988999997],[-5.7394992299999785,41.070216630000004],[-5.74592911000002,41.06772171],[-5.748473550000028,41.07023692000001],[-5.7492178499999795,41.06953463999997],[-5.750260089999983,41.069698889999984],[-5.752507270000024,41.069933409999976],[-5.753076080000028,41.06987477000001],[-5.754138220000016,41.06966023000001],[-5.757304260000012,41.06995373000001],[-5.75771954999999,41.07049318999998],[-5.761392699999988,41.07124277999998],[-5.763250359999972,41.07297252000001],[-5.764750180000021,41.07212592000002],[-5.766431119999993,41.07332846000003],[-5.7696063999999865,41.07270270999999],[-5.771411929999999,41.072902450000015],[-5.7740786599999865,41.07348671],[-5.775285419999989,41.07388093999998],[-5.776592760000028,41.074119619999976],[-5.778660160000015,41.07460113000002],[-5.778623320000008,41.075421629999994],[-5.780519130000016,41.07550194999999],[-5.78114247000002,41.07532477000001],[-5.783789739999975,41.07516171999998],[-5.783516799999973,41.07574475000001],[-5.783451150000019,41.07588143999999],[-5.7823044400000185,41.07832293000001],[-5.7820498099999895,41.07905863000002],[-5.782471810000004,41.079750950000005],[-5.782805769999982,41.0800491],[-5.78359906999998,41.080795490000014],[-5.783735569999976,41.08092728999998],[-5.784962549999989,41.08207748000001],[-5.785812519999979,41.08219201999998],[-5.78799429999998,41.082274299999995],[-5.788658199999986,41.08249239999998],[-5.7902802599999745,41.08284938999998],[-5.792356939999991,41.08297916999999],[-5.793559479999999,41.08298602000002],[-5.797291019999989,41.08284136999998],[-5.797913839999978,41.08349272999999],[-5.798512500000015,41.084135660000015],[-5.800477209999997,41.084430139999995],[-5.802266490000022,41.08591772],[-5.805380899999989,41.08665246999999],[-5.807324999999992,41.087019380000015],[-5.807553240000004,41.08706785999999],[-5.80861391000002,41.08737523000002],[-5.8086571800000115,41.090346350000004],[-5.810653189999982,41.09109022000001],[-5.814898140000025,41.092085310000016],[-5.815958099999989,41.09181620999999],[-5.816895289999991,41.091460040000015],[-5.817546689999972,41.091381049999995],[-5.81653768000001,41.09479221999999],[-5.816401550000023,41.09550707],[-5.8159036999999785,41.0969513],[-5.81586034999998,41.09705143000002],[-5.814767990000007,41.101302239999995],[-5.814255500000002,41.10296297000002],[-5.814422209999975,41.105471739999984],[-5.814670239999998,41.10737506999999],[-5.814672550000012,41.10742905000001],[-5.814632700000004,41.108168560000024],[-5.814756339999974,41.109111229999996],[-5.814717309999992,41.11042714000001],[-5.814539389999993,41.11211572000002],[-5.81435608999999,41.11367833999998],[-5.8150960599999735,41.11455188999997],[-5.816308989999982,41.11645863000001],[-5.817946210000002,41.11937270999999],[-5.819423470000004,41.12188538999999],[-5.822332410000001,41.127506229999995],[-5.822305200000017,41.12770504000002],[-5.82258164000001,41.128040510000005],[-5.823389369999973,41.128543079999986],[-5.824091490000001,41.12880505999999],[-5.825699269999973,41.129630229999975],[-5.826708170000018,41.130100819999996],[-5.827785010000014,41.13048866999998],[-5.8291999799999985,41.13070607999998],[-5.830682389999993,41.130552550000004],[-5.831273969999984,41.12852054000001],[-5.831617970000025,41.127656460000026],[-5.832096719999981,41.12687913000002],[-5.83275433,41.126106400000026],[-5.833840329999987,41.124494519999985],[-5.834248419999994,41.12373693000001],[-5.834943169999974,41.12382789999998],[-5.835959290000005,41.124190150000004],[-5.837117030000002,41.124521879999975],[-5.837897409999982,41.12466475999997],[-5.838486250000017,41.12478534000002],[-5.838716330000011,41.12514893000002],[-5.840824709999993,41.12597956000002],[-5.842930949999982,41.12703535999998],[-5.844391770000016,41.12831421999999],[-5.845992780000017,41.128977150000026],[-5.847184019999986,41.12925390999999],[-5.849661760000004,41.13228183000001],[-5.85097589999998,41.13429375999999],[-5.851714819999984,41.13595067],[-5.852149039999972,41.137723189999974],[-5.85265763000001,41.13928672999998],[-5.852776049999989,41.140094369999986],[-5.85381104999999,41.140609110000014],[-5.854361040000015,41.14037932000002],[-5.856129969999984,41.139686970000014],[-5.857184570000015,41.14120091000001],[-5.856734329999995,41.142355899999984],[-5.857734549999975,41.14398827000002],[-5.8576110999999855,41.14471185000002],[-5.858503310000003,41.14659906999998],[-5.859363729999984,41.146109360000025],[-5.8614275499999735,41.14671555000001],[-5.863052270000026,41.14654005],[-5.863894340000002,41.146176860000025],[-5.865751409999973,41.14695922999999],[-5.865432899999973,41.14757959999997],[-5.866276749999997,41.148351160000004],[-5.866348669999979,41.148907769999994],[-5.867211279999992,41.14874218],[-5.867845110000019,41.149068639999996],[-5.869983330000025,41.14700690000001],[-5.8706231799999955,41.14719809000002],[-5.872143970000025,41.146007329999975],[-5.873245180000026,41.14530436000001],[-5.874089130000016,41.144986080000024],[-5.874865100000022,41.14502074000001],[-5.875953859999981,41.144579239999985],[-5.87675569999999,41.14438808],[-5.87855165000002,41.14431616000002],[-5.880513350000001,41.144492249999985],[-5.882036819999996,41.14418391999999],[-5.882771439999999,41.14599384000002],[-5.88499569999999,41.14672166999998],[-5.886014810000006,41.147137439999995],[-5.885351599999979,41.14831588999999],[-5.884790290000012,41.14801474000001],[-5.884016910000014,41.14858350999998],[-5.885943859999998,41.15230890999999],[-5.886351999999988,41.152920119999976],[-5.888171530000022,41.15310864999998],[-5.88806390000002,41.15364273],[-5.88884551000001,41.15380324],[-5.888118480000003,41.15461405999997],[-5.888974370000028,41.15673611],[-5.891112749999991,41.15604295999998],[-5.892912070000023,41.156853360000014],[-5.893518789999973,41.15655891],[-5.893864370000017,41.15682942000001],[-5.894717010000022,41.15751949000003],[-5.894779299999982,41.15758096000002],[-5.895083250000027,41.15744723],[-5.896688610000012,41.15872178000001],[-5.897507179999991,41.159178510000004],[-5.897747260000017,41.158947309999974],[-5.898261900000023,41.15926759000001],[-5.898457529999973,41.15883936],[-5.897959160000028,41.15861774000001],[-5.898869810000008,41.15845970999999],[-5.900464530000022,41.158410530000026],[-5.90076928000002,41.159105350000004],[-5.9026854300000196,41.15931823],[-5.903898860000027,41.159539800000005],[-5.90490398999998,41.159901709999986],[-5.905214639999997,41.1593805],[-5.906019759999992,41.159531300000026],[-5.9079812300000185,41.15376269000001],[-5.908055690000026,41.15275208999998],[-5.908225420000008,41.15200927000001],[-5.909944479999979,41.14884961000001],[-5.9097042199999805,41.14718949000002],[-5.912611169999991,41.14798960000002],[-5.913862849999987,41.14800294999998],[-5.914652199999978,41.14914479999999],[-5.914224979999972,41.14945282999997],[-5.915113159999976,41.15067321999999],[-5.915421750000007,41.15037719999998],[-5.916112080000005,41.15035971999998],[-5.9162229300000035,41.15097835],[-5.916479330000016,41.15138615000001],[-5.916752750000001,41.15164041000003],[-5.918440970000006,41.151822779999975],[-5.919514670000012,41.15211978999997],[-5.921238080000023,41.153093790000014],[-5.921515979999981,41.15237523000002],[-5.922268630000019,41.15241916999997],[-5.927750530000026,41.15323454999998],[-5.9281707200000255,41.15330491999998],[-5.928779640000016,41.153064270000016],[-5.9306298600000105,41.154206020000004],[-5.932734379999999,41.155971720000025],[-5.933156999999994,41.156096049999974],[-5.935131850000005,41.15628887999998],[-5.936676739999996,41.15672681000001],[-5.9371307299999785,41.157552829999986],[-5.937186139999994,41.15799272999999],[-5.937121699999977,41.158417670000006],[-5.93697659999998,41.15863753000002],[-5.936694129999978,41.15871678000002],[-5.931643290000011,41.15769270999999],[-5.931076060000009,41.15886898000002],[-5.930606179999984,41.15955643000001],[-5.932261890000007,41.16408050000001],[-5.932565280000006,41.16607219000002],[-5.9318719899999905,41.16682837000002],[-5.931814869999982,41.166883859999984],[-5.927703039999983,41.17009571],[-5.926780749999978,41.171064839999985],[-5.926754879999976,41.17182202999999],[-5.925733750000006,41.173784350000005],[-5.925040700000011,41.174549490000004],[-5.922093879999977,41.17583119],[-5.920593839999981,41.17533788999998],[-5.917171979999978,41.17451503000001],[-5.915590329999986,41.17432994000001],[-5.914824259999989,41.177213370000004],[-5.913133700000003,41.17833693],[-5.913929349999989,41.179343519999975],[-5.91390518999998,41.18121745000002],[-5.914199489999987,41.181939520000014],[-5.915071169999976,41.181971480000016],[-5.915259040000024,41.18244406000002],[-5.914559259999976,41.18252482999998],[-5.9139363799999956,41.18380149000001],[-5.914789859999985,41.18396000000001],[-5.915203840000004,41.18684056000001],[-5.916055110000002,41.187485460000005],[-5.916566460000013,41.18906663000001],[-5.916290779999997,41.18983915000001],[-5.917072010000027,41.19239517],[-5.917240989999982,41.201027959999976],[-5.917620010000007,41.201774880000016],[-5.917514260000019,41.202615149999986],[-5.91782864999999,41.20485875999998],[-5.918654679999975,41.205198069999994],[-5.918544010000005,41.206731950000005],[-5.918979630000024,41.20794575999997],[-5.919160690000012,41.20906695999997],[-5.920400509999979,41.211467200000016],[-5.920604439999977,41.213101180000024],[-5.920777339999972,41.213502070000004],[-5.920506330000023,41.21411237000001],[-5.92047599,41.21477060000001],[-5.921330329999989,41.21815329999998],[-5.9203463399999805,41.21962829],[-5.919536429999994,41.22045940999999],[-5.917687759999978,41.2220734],[-5.916897129999995,41.22494843999999],[-5.915760980000016,41.22568873],[-5.913262429999975,41.227985579999995],[-5.913822879999998,41.22932234000001],[-5.913826640000025,41.22994368000002],[-5.913505509999993,41.23077138000002],[-5.9114880999999855,41.23128177000001],[-5.908402969999997,41.23219738],[-5.906797240000003,41.233922140000004],[-5.902343830000007,41.23546657000003],[-5.901386979999984,41.23703078],[-5.897673750000024,41.23859239000001],[-5.89925543999999,41.240092619999984],[-5.899694920000002,41.24112628],[-5.9001928000000134,41.24186125],[-5.900705389999985,41.24265889999998],[-5.901721029999976,41.243768079999995],[-5.90257342000001,41.24496242999999],[-5.903666980000025,41.24594352999998],[-5.905142160000025,41.250148249999995],[-5.905484450000017,41.251139309999985],[-5.907239269999991,41.255454009999994],[-5.908157510000024,41.25678174000001],[-5.90930603999999,41.25872507999998],[-5.908764280000014,41.259963630000016],[-5.908483120000028,41.26088937999998],[-5.9096811,41.26313766999999],[-5.910349380000014,41.263940330000025],[-5.912018980000028,41.26524900999999],[-5.912650180000014,41.264143279999985],[-5.914197349999995,41.26404105],[-5.916437040000005,41.26447962999998],[-5.918248629999994,41.264685859999986],[-5.923893200000009,41.26679408000001],[-5.925114860000008,41.26742046999999],[-5.925922039999989,41.26812044000002],[-5.9312296499999775,41.270155810000006],[-5.933123039999998,41.27058486999999],[-5.933949419999976,41.27064485],[-5.935669150000024,41.26986247000002],[-5.936944740000001,41.26769543],[-5.938335499999994,41.264372649999984],[-5.939137790000018,41.26363164999998],[-5.940565479999975,41.262730569999974],[-5.9412715299999945,41.262505369999985],[-5.941390560000002,41.26223213999998],[-5.942690679999998,41.260883990000025],[-5.944198659999984,41.25911621],[-5.945903859999987,41.25908156000003],[-5.948839239999984,41.259330569999975],[-5.952681649999988,41.25931306000001],[-5.953642839999986,41.25918932000002],[-5.953995620000001,41.25907218999998],[-5.955042020000008,41.258721089999995],[-5.956642600000009,41.25901319000002],[-5.961716669999987,41.25878359000001],[-5.962378049999984,41.25889265000001],[-5.96539660000002,41.25886889999998],[-5.966672389999985,41.25831364999999],[-5.96843733999998,41.25775476000001],[-5.972274869999978,41.257106290000024],[-5.974281749999989,41.25688330000003],[-5.976201010000011,41.256833659999984],[-5.976447469999982,41.25752976000001],[-5.978573729999994,41.26019457000001],[-5.9777881900000125,41.26181801000001],[-5.977875260000019,41.263995239999986],[-5.977410050000003,41.26505199000002],[-5.977998630000002,41.26565818],[-5.976975340000024,41.26572970000001],[-5.976384810000013,41.266393429999994],[-5.975439929999993,41.26687719],[-5.974845430000016,41.26692859000002],[-5.975127680000014,41.26762377],[-5.974583580000001,41.26825925999998],[-5.9752198599999815,41.26886423000002],[-5.973355470000001,41.26986708999999],[-5.972873429999993,41.27186991000002],[-5.974040020000018,41.27284844000002],[-5.974469880000015,41.27363887000001],[-5.9745818800000166,41.27610364999998],[-5.974563390000014,41.279112199999986],[-5.974199259999978,41.28292221999999],[-5.973780209999973,41.28447311999997],[-5.973513319999995,41.28595703000002],[-5.973595409999973,41.28802632999998],[-5.973752549999972,41.28938219999998],[-5.973591829999975,41.29057517000001],[-5.973603190000006,41.29266431000002],[-5.970152079999991,41.29266344000001],[-5.969326000000024,41.292090359999975],[-5.966377070000021,41.291049699999974],[-5.965494970000009,41.29082027999999],[-5.961138399999982,41.290599310000005],[-5.957259480000005,41.289321169999994],[-5.956995860000006,41.290886020000016],[-5.956620540000017,41.29209349000001],[-5.955809170000009,41.293429249999974],[-5.950537890000021,41.297554349999984],[-5.947551929999975,41.29966631999997],[-5.944777839999972,41.30144856999999],[-5.9429035800000065,41.30279343000001],[-5.941185729999972,41.30390010999997],[-5.939108099999999,41.305241120000005],[-5.935749509999994,41.307848639999975],[-5.933925830000021,41.30926412000002],[-5.934909629999993,41.31202194000002],[-5.935623210000017,41.31328259999998],[-5.937026179999975,41.31632689999998],[-5.93914202000002,41.31981227],[-5.932974150000007,41.32026695000002],[-5.911645270000008,41.33223786000002],[-5.909107779999999,41.33348189999998],[-5.909025840000027,41.33352000000002],[-5.904828629999997,41.33586865000001],[-5.897912819999988,41.33862793999998],[-5.897046670000009,41.339037029999986],[-5.893991330000006,41.339933529999996],[-5.891517249999993,41.34100446999997],[-5.891305960000011,41.34109083999999],[-5.887016879999976,41.343549240000016],[-5.886029399999984,41.35067994000002],[-5.883327259999987,41.35011730000002],[-5.882238070000028,41.34981137],[-5.880907700000023,41.34972763000002],[-5.879821300000003,41.34948465999997],[-5.8795200499999964,41.34942916],[-5.876772889999984,41.34974109000001],[-5.873364149999986,41.348871659999986],[-5.872201280000013,41.34906282999998],[-5.871255739999981,41.3490324],[-5.869427680000001,41.34986157999998],[-5.868319340000028,41.349934270000006],[-5.867492470000002,41.34961264999998],[-5.865623509999978,41.351145280000026],[-5.864184190000003,41.351847599999985],[-5.862568220000014,41.35233814999998],[-5.854356440000004,41.35752274999999],[-5.85242095000001,41.35891271999998],[-5.85067306000002,41.359946750000006],[-5.850479399999983,41.35961831999998],[-5.84978596000002,41.35906812000002],[-5.84926858,41.357621919999985],[-5.8480813400000216,41.352328639999996],[-5.848089230000028,41.351139620000026],[-5.847974029999989,41.35014276999999],[-5.846139259999973,41.34972887999999],[-5.844980949999979,41.34947835000003],[-5.844439550000004,41.34912249000001],[-5.843337589999976,41.347969920000025],[-5.843127949999996,41.34727262000001],[-5.843199949999985,41.34673046],[-5.842645090000019,41.34633889999998],[-5.837000120000027,41.34239846000003],[-5.835418240000024,41.342572570000016],[-5.8335945599999945,41.34350914999999],[-5.83001569999999,41.345587669999986],[-5.8289581299999895,41.34628015999999],[-5.8288041000000135,41.34631096999999],[-5.828011989999993,41.34651057999997],[-5.826733260000026,41.347064390000014],[-5.819193799999994,41.34877153999997],[-5.818880190000016,41.34953575999998],[-5.81826749999999,41.34973990999998],[-5.81757054000002,41.35020730999997],[-5.81725068999998,41.35082756999998],[-5.816895310000007,41.35117852000002],[-5.816203289999976,41.35148366999999],[-5.815930700000024,41.35181456999999],[-5.815846350000015,41.35179863000002],[-5.815726559999973,41.35179255000003],[-5.814756550000027,41.35119486999997],[-5.813852680000025,41.350190269999985],[-5.813544879999995,41.34998165000002],[-5.813206700000023,41.349899859999994],[-5.812852000000021,41.349989600000015],[-5.811861690000001,41.35113961000002],[-5.811549850000006,41.35166959999998],[-5.810705380000002,41.35398685000001],[-5.810422379999977,41.35602017999997],[-5.809798499999999,41.35652176999997],[-5.8087300199999845,41.356691969999986],[-5.806170380000026,41.35637621000001],[-5.804779010000004,41.35598685999997],[-5.804627740000001,41.35663899999997],[-5.803728460000002,41.35768765],[-5.800535799999977,41.36017013999998],[-5.800114029999975,41.36064873999999],[-5.7996599300000184,41.36148837000002],[-5.798617219999983,41.36254048000001],[-5.798108049999996,41.36432710999998],[-5.7982664099999965,41.36467449999998],[-5.798756860000026,41.36523897000001],[-5.800097579999999,41.36611596],[-5.800487889999999,41.36657478000001],[-5.801868000000013,41.36781105],[-5.801440570000011,41.369550670000024],[-5.800869850000026,41.37185217000001],[-5.801085290000003,41.37241432000002],[-5.801658309999993,41.37322893999999],[-5.801764789999993,41.37431609999999],[-5.801574099999982,41.37460894999998],[-5.800856350000004,41.37515781000002],[-5.799790250000001,41.37539091999997],[-5.800050080000005,41.376708510000014],[-5.79998384999999,41.37711540999999],[-5.799356240000009,41.37781517000002],[-5.799307320000025,41.37806853000001],[-5.799534300000005,41.37834220000002],[-5.8000456400000076,41.37855490999999],[-5.801151530000027,41.37869008000001],[-5.803483490000019,41.37869628999999],[-5.804173979999973,41.378625409999984],[-5.806507539999984,41.37894674],[-5.806853939999996,41.37893828],[-5.807156379999981,41.378741769999976],[-5.807835300000022,41.37868015999999],[-5.8093368599999735,41.37856241999998],[-5.8090400400000135,41.378056319999985],[-5.811048229999983,41.377764060000004],[-5.811652680000009,41.37874898000001],[-5.81153175999998,41.380382069999996],[-5.812326729999995,41.38051574000002],[-5.811777959999972,41.381654939999976],[-5.811540149999985,41.382795550000026],[-5.811537910000027,41.38440772000001],[-5.812357159999976,41.38565756999998],[-5.812555750000001,41.38610302000001],[-5.8124339099999816,41.38715973000001],[-5.813863679999997,41.38731388000002],[-5.814907380000022,41.38766658999998],[-5.8152562500000045,41.387991279999994],[-5.815405139999996,41.38839292],[-5.815015080000023,41.38933012000001],[-5.8143036100000245,41.39030220000001],[-5.813234379999983,41.391021850000016],[-5.814826349999976,41.391883510000014],[-5.815110259999983,41.39264208999998],[-5.816168730000015,41.393057469999974],[-5.817527939999991,41.39378970000001],[-5.8180121699999745,41.39420113],[-5.818724589999988,41.39463396999997],[-5.819507250000015,41.39530825999998],[-5.820100480000008,41.39547384000002],[-5.820542550000027,41.39546299],[-5.82116603999998,41.39522254000002],[-5.821683959999973,41.39502970000001],[-5.822207579999997,41.39469262],[-5.822988329999987,41.39449332999999],[-5.823437010000021,41.394635419999986],[-5.827098589999991,41.39495072],[-5.831460800000002,41.39514957],[-5.830334339999979,41.39730278000002],[-5.8286593500000095,41.3994965],[-5.828309100000013,41.39969424999998],[-5.827166340000019,41.399821429999974],[-5.826293420000013,41.40148202],[-5.8257701499999826,41.401828120000005],[-5.82401471999998,41.40244765],[-5.823511049999979,41.40269418999998],[-5.82264889999999,41.40377809],[-5.821170139999992,41.406092969999975],[-5.820800609999992,41.406399239999985],[-5.820065950000014,41.40656137000002],[-5.819133319999992,41.40712461999999],[-5.818736870000009,41.40763869],[-5.817683100000011,41.40899744000001],[-5.818066079999994,41.41038401999998],[-5.817377729999976,41.41078815999998],[-5.817151560000013,41.411090909999984],[-5.81710197000001,41.41243405],[-5.817974690000028,41.414078819999986],[-5.819098429999997,41.41571741000001],[-5.818646450000017,41.41633191],[-5.818547570000021,41.416811670000016],[-5.818426460000012,41.41760719000001],[-5.817866900000013,41.41822431999998],[-5.817025810000018,41.418695249999985],[-5.816525660000025,41.41847333999999],[-5.816177709999977,41.419004229999985],[-5.815681559999973,41.419151469999974],[-5.815148969999996,41.419839980000006],[-5.8130076499999745,41.421234330000004],[-5.812820970000018,41.42217555000002],[-5.812955649999992,41.42252349],[-5.813021049999975,41.42320637],[-5.813195670000027,41.42530955000001],[-5.813480900000002,41.426095110000006],[-5.813957130000006,41.428253960000006],[-5.816077679999978,41.42941786],[-5.816787410000018,41.42895016],[-5.817580150000026,41.42874160000002],[-5.818198909999978,41.42838419999998],[-5.818919909999977,41.42817738999997],[-5.81984645,41.428848140000014],[-5.821599499999991,41.42815667999997],[-5.822373770000013,41.428074630000026],[-5.823025009999981,41.42874311000003],[-5.823549459999981,41.429522770000005],[-5.824179160000028,41.430245809999974],[-5.824869369999988,41.43015680000002],[-5.826393709999991,41.43081281000002],[-5.8269271199999935,41.43097081000002],[-5.8270652599999835,41.43112051999998],[-5.827394659999982,41.43126552000001],[-5.827596480000011,41.43150372000002],[-5.827903939999999,41.431694289999996],[-5.829051769999978,41.43332319000001],[-5.829238130000022,41.433480710000026],[-5.829474660000017,41.433691039999985],[-5.830877620000024,41.434304940000004],[-5.837693220000006,41.43499247],[-5.839174860000014,41.435487249999994],[-5.839624650000019,41.435647259999996],[-5.839116890000014,41.43635327999999],[-5.839191009999979,41.436954860000014],[-5.838823170000012,41.43757636999999],[-5.836998370000003,41.439917990000026],[-5.836869990000025,41.43999321000001],[-5.8356591300000105,41.44077060000001],[-5.835532119999982,41.44115199999999],[-5.835319659999982,41.44176965999998],[-5.834705380000003,41.44250529999999],[-5.834401179999986,41.44266591000002],[-5.833600499999989,41.44269465999997],[-5.8333617600000025,41.44270955000002],[-5.83282078000002,41.442930030000014],[-5.830121599999984,41.44526608000001],[-5.8299379000000044,41.44572090999998],[-5.830203649999987,41.44632679],[-5.831077300000004,41.44632328],[-5.831552649999992,41.44596933999998],[-5.831796310000016,41.44579221999999],[-5.832557240000028,41.44567439999997],[-5.833041390000005,41.44579756000002],[-5.8334924000000115,41.44653396000001],[-5.833496120000007,41.44689411000002],[-5.833252259999995,41.447341429999994],[-5.832918619999987,41.44792604000003],[-5.832859799999994,41.448224700000026],[-5.833274560000007,41.44895298],[-5.833762850000028,41.44944529000003],[-5.834042179999983,41.45008684999999],[-5.834112740000023,41.45060747000002],[-5.833761460000005,41.45078724000001],[-5.831644849999975,41.45248753999999],[-5.831489369999986,41.453040750000014],[-5.829469640000013,41.452568129999975],[-5.8275299700000005,41.451733260000026],[-5.826952849999998,41.4516754],[-5.825624650000009,41.45223943000002],[-5.824096020000013,41.453150600000015],[-5.823254060000011,41.45416196000002],[-5.822894570000017,41.454981350000025],[-5.822489440000027,41.455576699999995],[-5.821971980000001,41.456066729999975],[-5.821244610000008,41.45723737999998],[-5.8196634199999835,41.45832089999999],[-5.818087769999977,41.45898097000003],[-5.817578190000006,41.459101540000006],[-5.814972979999993,41.461146729999996],[-5.813412570000025,41.461608230000024],[-5.812630389999981,41.461240110000006],[-5.811894610000024,41.46111401000002],[-5.811798539999984,41.46110736000003],[-5.811589389999995,41.460977379999974],[-5.811288839999975,41.460948710000025],[-5.810449269999992,41.46534624999998],[-5.811423830000024,41.466286070000024],[-5.811879420000025,41.467130510000004],[-5.812761949999981,41.468432819999975],[-5.813075640000022,41.470424519999995],[-5.8127808099999925,41.471359370000016],[-5.813005789999977,41.47240757999998],[-5.813989460000016,41.47355429999999],[-5.815710539999998,41.47458388000001],[-5.817329210000025,41.47601221999997],[-5.820342530000005,41.47728923],[-5.821528360000002,41.47646759000003],[-5.822125319999998,41.47642590999999],[-5.822781070000019,41.47663496000001],[-5.823093659999984,41.47666330999999],[-5.82451924999998,41.477501870000026],[-5.8259310299999925,41.477746360000026],[-5.82738501,41.477584509999986],[-5.828140619999999,41.477610949999985],[-5.8297606900000005,41.477688150000006],[-5.831178620000003,41.47614920000001],[-5.833135959999993,41.47352520999999],[-5.834363919999987,41.472576300000014],[-5.837132250000025,41.47015739],[-5.837911659999975,41.4696338],[-5.8429201700000135,41.468888600000014],[-5.843948580000017,41.46858395999999],[-5.845284559999982,41.467920460000016],[-5.847403620000023,41.46709344999999],[-5.84877277999999,41.46691542999997],[-5.850969190000001,41.46676188999999],[-5.852157739999996,41.466561290000016],[-5.854353909999986,41.46694807],[-5.856719310000017,41.467915989999995],[-5.859581820000017,41.46929478999999],[-5.860294160000024,41.46970034999998],[-5.861614700000018,41.470865290000006],[-5.863028840000027,41.47252322000003],[-5.863798459999998,41.473683849999986],[-5.864247299999988,41.475717050000014],[-5.863897510000015,41.48082323],[-5.863260980000007,41.48431545],[-5.862885459999973,41.48530647000001],[-5.862871760000019,41.48581115000002],[-5.863112209999997,41.48746227999999],[-5.8633537399999796,41.48805067000001],[-5.864090499999975,41.489004969999996],[-5.86448519999999,41.48953549999999],[-5.865405599999974,41.49166501000002],[-5.865878640000005,41.49342740999998],[-5.865655160000017,41.494063410000024],[-5.864875910000023,41.49540674000002],[-5.864819650000015,41.49548919],[-5.864297799999974,41.496150639999996],[-5.8597292700000025,41.50012803999999],[-5.858971559999986,41.50087638000002],[-5.858144799999991,41.50168948999999],[-5.856383240000014,41.50412891000002],[-5.856333689999985,41.50436430000002],[-5.855739299999982,41.50664861000001],[-5.855733900000018,41.509521689999985],[-5.855866359999993,41.51062614],[-5.856437920000019,41.512178989999995],[-5.8566044199999965,41.51296738999997],[-5.85730897000002,41.51427376999999],[-5.858825159999981,41.51659565],[-5.859633480000014,41.51807954999998],[-5.861944590000007,41.51912974999999],[-5.863226520000012,41.51939500999998],[-5.864213629999995,41.5194965],[-5.864477650000026,41.52004828999998],[-5.865062330000001,41.52134860000001],[-5.865779069999974,41.5229248],[-5.868090450000011,41.52397487000002],[-5.870641690000014,41.52529808999998],[-5.873051340000018,41.527210190000005],[-5.873778780000009,41.52766931000002],[-5.875662229999989,41.529873699999996],[-5.876661469999988,41.53132568000001],[-5.878815710000026,41.533144979999975],[-5.880681489999972,41.53440409000001],[-5.883292530000006,41.53220415999999],[-5.884298059999992,41.53082802],[-5.884678210000004,41.52940453000002],[-5.884757610000008,41.52930347],[-5.885064440000008,41.52892652000003],[-5.887364509999998,41.52836439999999],[-5.887903230000006,41.52835085999999],[-5.8887348700000075,41.52845603999998],[-5.889528250000012,41.528778320000015],[-5.890286119999985,41.529110489999994],[-5.890737539999975,41.52955844000002],[-5.892572690000009,41.529052939999985],[-5.893263030000014,41.52894550000002],[-5.893691999999987,41.52888967000001],[-5.893986540000014,41.52904436],[-5.894085130000008,41.52910492000001],[-5.89432985000002,41.52948601000003],[-5.895513330000028,41.53049188],[-5.896301470000026,41.530426990000024],[-5.89933474999998,41.530449550000014],[-5.902681900000005,41.52998678],[-5.903552030000014,41.53041510000003],[-5.903813790000015,41.530372460000024],[-5.904575550000004,41.53025414000001],[-5.9053723000000105,41.529846729999974],[-5.906227679999972,41.52941082000001],[-5.907488440000009,41.529730159999986],[-5.908382940000024,41.530166829999985],[-5.908861530000024,41.53041588000002],[-5.910046720000025,41.530385869999975],[-5.911053690000017,41.53065756000001],[-5.911644340000009,41.530732650000004],[-5.915065410000011,41.53058285999998],[-5.915253810000024,41.52997468000001],[-5.91540993000001,41.52944837000001],[-5.916010599999993,41.52894680000003],[-5.916962880000028,41.528535369999986],[-5.9172333700000195,41.52842042999998],[-5.918868330000009,41.52853200999999],[-5.9203783199999975,41.528529660000004],[-5.921780130000002,41.529052390000004],[-5.92275871999999,41.529225629999985],[-5.923882999999989,41.52944019],[-5.925023309999972,41.52974439000002],[-5.9259223799999745,41.53027986000001],[-5.927682989999994,41.530253019999975],[-5.928636069999982,41.53092220000002],[-5.929201410000019,41.531763350000006],[-5.930291720000014,41.53281627000001],[-5.930537879999974,41.53322426],[-5.931735030000027,41.532662370000025],[-5.93288025999999,41.53254307999998],[-5.933971550000024,41.532821420000005],[-5.934362790000023,41.53299154000001],[-5.935035900000003,41.53329857],[-5.935444410000002,41.533585329999994],[-5.9356423099999915,41.53398554],[-5.935892340000009,41.534213309999984],[-5.935961410000004,41.534679849999975],[-5.935890470000004,41.53523102999998],[-5.935360430000003,41.536496399999976],[-5.935629530000028,41.53661561000001],[-5.936045560000025,41.536803109999994],[-5.93668181999999,41.53735422],[-5.936794870000028,41.537468409999974],[-5.939123610000024,41.539129],[-5.940943749999974,41.54014511999998],[-5.941941600000007,41.541002160000005],[-5.944242970000005,41.542582289999984],[-5.946246340000016,41.54419703000002],[-5.946920159999991,41.54609800999998],[-5.947279159999994,41.54661114999999],[-5.948500309999986,41.54710216000001],[-5.952076750000003,41.54745159999999],[-5.953709769999989,41.54750868999997],[-5.954242379999982,41.54762108],[-5.955386669999996,41.547213399999976],[-5.956152529999997,41.54744585999998],[-5.956404329999998,41.54770955999999],[-5.957258949999982,41.548047800000006],[-5.959184960000016,41.54716966000001],[-5.964794380000001,41.55133885999999],[-5.965753979999988,41.55161128999998],[-5.965803110000024,41.55163704],[-5.966912630000024,41.55177950000001],[-5.968353309999998,41.552084509999986],[-5.96958257,41.552485020000006],[-5.970119769999997,41.55269628000002],[-5.970853540000007,41.553010529999995],[-5.971226399999978,41.55329807999999],[-5.971807399999989,41.55341814000002],[-5.972131139999988,41.55341877000001],[-5.974301949999983,41.55343463000003],[-5.975690250000014,41.55364184000001],[-5.976579720000018,41.55369084],[-5.977529469999979,41.553486109999994],[-5.976323340000022,41.55593995999999],[-5.971624850000012,41.563032169999985],[-5.968603420000022,41.56696483000002],[-5.968571129999987,41.56783023000003],[-5.968837469999983,41.568669899999975],[-5.968854749999991,41.569570039999974],[-5.969437070000026,41.57050061000001],[-5.966710850000027,41.57146263999999],[-5.960439520000023,41.573056380000025],[-5.959687659999986,41.573399970000025],[-5.95947615,41.57349548000002],[-5.959053180000012,41.57342532000001],[-5.958172139999988,41.57330392],[-5.956638339999984,41.57359557000001],[-5.955621339999993,41.573648760000026],[-5.954661209999983,41.57415978],[-5.953509230000009,41.57388321000002],[-5.952145330000008,41.57369311999997],[-5.9508032400000275,41.57371860000001],[-5.948876939999991,41.574083280000025],[-5.9470656099999815,41.574075730000004],[-5.945197469999982,41.573610299999984],[-5.944194200000027,41.57343788999998],[-5.943626259999974,41.57334437999998],[-5.942624500000022,41.57346911000002],[-5.942433649999998,41.573492009999995],[-5.939807060000021,41.57322604000001],[-5.938320139999973,41.572966889999975],[-5.936767219999979,41.57257432],[-5.935173739999982,41.572344869999995],[-5.933864749999998,41.572306260000005],[-5.929505500000005,41.571913189999975],[-5.92361784000002,41.57166692999999],[-5.922105839999972,41.57138119000001],[-5.920634650000011,41.571202459999995],[-5.917702480000003,41.57053848999999],[-5.914461990000007,41.569684129999985],[-5.913545929999998,41.56958128000002],[-5.912278130000004,41.56885692999998],[-5.909737220000011,41.56702106],[-5.909050669999999,41.566687220000006],[-5.908354840000015,41.56614646999998],[-5.906780710000021,41.565808059999995],[-5.904076729999986,41.56567832000002],[-5.901905740000018,41.56539995999998],[-5.90170814999999,41.56554003999997],[-5.901627120000001,41.565605129999994],[-5.898735910000028,41.567722479999986],[-5.898027650000017,41.56797449999999],[-5.897396889999982,41.56835065000001],[-5.896597799999995,41.56925338999997],[-5.893392049999989,41.57158568],[-5.892462480000006,41.57171715999999],[-5.889398009999979,41.57130796000001],[-5.8874790400000165,41.569960279999975],[-5.885525359999974,41.56837028000001],[-5.88469508999998,41.56749953999997],[-5.884319670000025,41.56687855000001],[-5.881713330000025,41.56516978000002],[-5.880806930000006,41.56474221000002],[-5.879343559999995,41.564463690000025],[-5.878321389999996,41.56412906000003],[-5.876923130000023,41.56396596000002],[-5.873600759999988,41.56422022999999],[-5.872265210000023,41.56357817999998],[-5.870569929999988,41.56320627000002],[-5.870848519999981,41.56462226000002],[-5.8702403199999935,41.56578122000002],[-5.869755549999979,41.56620760999999],[-5.868812390000016,41.56657339999998],[-5.868079630000011,41.56708702999998],[-5.866802600000028,41.56776733999999],[-5.860940379999988,41.569984869999985],[-5.859907700000008,41.570226719999994],[-5.859119430000021,41.57030037999999],[-5.857388490000005,41.56993818000001],[-5.8543553700000075,41.56968936999999],[-5.85435947000002,41.570598870000026],[-5.853824750000001,41.57071122999997],[-5.852776779999999,41.57115153000001],[-5.852146010000013,41.57180662000002],[-5.850614950000022,41.57298838999998],[-5.850006730000018,41.57306652],[-5.848528810000005,41.57300412000001],[-5.845438590000015,41.57336888999998],[-5.844976889999998,41.57350640999999],[-5.842203770000026,41.573719159999996],[-5.84017627999998,41.57452581000001],[-5.839547620000019,41.574685450000004],[-5.838651439999978,41.57476163000001],[-5.837954200000013,41.57472481999997],[-5.836846700000024,41.574905279999996],[-5.834758969999996,41.57543414000003],[-5.834149360000026,41.575755379999976],[-5.832380199999989,41.57698782],[-5.83179216000002,41.57725448000002],[-5.831583009999974,41.57768291999997],[-5.831539410000005,41.57778306],[-5.830958580000015,41.58095850000001],[-5.830287590000012,41.58097502999999],[-5.829645679999999,41.58110792000002],[-5.8289625300000125,41.58139492999999],[-5.8295616699999755,41.58302828000001],[-5.828705049999996,41.58346365],[-5.826716939999983,41.585457899999994],[-5.825762820000023,41.586408989999995],[-5.825427690000026,41.58642623999998],[-5.825063680000028,41.58660630999998],[-5.824823299999991,41.590169609999975],[-5.825140139999974,41.59110744999998],[-5.8256752699999765,41.59182377000002],[-5.824601990000019,41.59856866000001],[-5.820790690000024,41.60306627],[-5.819360300000028,41.60603735000001],[-5.816190020000022,41.606808590000014],[-5.813131629999987,41.60877479999999],[-5.814127489999976,41.6090476],[-5.814209269999992,41.61313432999998],[-5.815077009999982,41.61377049999999],[-5.814495070000021,41.613910850000025],[-5.813550959999986,41.612898289999976],[-5.813081169999975,41.61147784000002],[-5.811927060000016,41.60949776000001],[-5.803521190000026,41.61407115999998],[-5.8027942900000085,41.614467149999996],[-5.799072659999979,41.61249552999999],[-5.790470540000001,41.611993359999985],[-5.790249710000012,41.61188164999999],[-5.787821029999975,41.61066176000003],[-5.787516359999984,41.61111046000002],[-5.785183529999983,41.613508620000005],[-5.768328429999997,41.62066162999997],[-5.764616240000009,41.617490859999975],[-5.764990459999979,41.61810326],[-5.76598765,41.62093417],[-5.766050500000006,41.62184227],[-5.766280370000004,41.62300751999999],[-5.767406689999973,41.62492569],[-5.768170600000019,41.62706874000003],[-5.7686156099999835,41.63045328999999],[-5.768703259999995,41.63137879999999],[-5.768870820000018,41.63332907],[-5.76678136999999,41.63387475000002],[-5.767347949999987,41.636734030000014],[-5.7665466299999935,41.63736574000001],[-5.7658462399999735,41.6381121],[-5.7635748999999805,41.63974282999999],[-5.762295540000025,41.64098942999999],[-5.761740680000003,41.641209909999986],[-5.76043820000001,41.64191668000001],[-5.760142879999989,41.64231102999997],[-5.76107632999998,41.64280194000003],[-5.7627635000000055,41.64322967999999],[-5.763743099999999,41.64339524000002],[-5.763782479999975,41.643754530000024],[-5.762679709999986,41.644078260000015],[-5.762121820000004,41.643947579999974],[-5.761119839999992,41.64494432999999],[-5.761630690000004,41.64594072],[-5.760702719999983,41.646422340000015],[-5.759186989999989,41.64691807000003],[-5.7576223899999945,41.64767613999999],[-5.756786780000027,41.64835363999998],[-5.755346470000006,41.64977513000002],[-5.753697579999994,41.65109353999998],[-5.752192680000007,41.65212928],[-5.751106800000002,41.65229039000002],[-5.750317489999986,41.65208415000001],[-5.749701619999996,41.65172064000001],[-5.74812111,41.651263140000026],[-5.746703599999989,41.65068464000001],[-5.746050620000005,41.65029499000002],[-5.745624420000013,41.64987288999998],[-5.7443799499999955,41.649974680000014],[-5.743904330000021,41.65008511000002],[-5.740712519999988,41.64985512999999],[-5.736282739999979,41.64987970999999],[-5.734436749999986,41.64967151000002],[-5.7334792099999845,41.64946014999998],[-5.7323699099999885,41.64935144999998],[-5.732032140000001,41.64931446000003],[-5.7313813399999844,41.64925789],[-5.730131519999986,41.649233579999986],[-5.729126559999997,41.64932049999999],[-5.728894410000009,41.64979434000003],[-5.7288487100000225,41.649849459999984],[-5.728493560000004,41.650254159999974],[-5.727883299999974,41.650304689999984],[-5.727165459999981,41.650366770000005],[-5.727067970000007,41.65033305999998],[-5.726278760000014,41.650126639999996],[-5.725837420000005,41.649911970000005],[-5.725557349999974,41.64981955000002],[-5.724803370000018,41.649594279999974],[-5.723940819999996,41.64964176000001],[-5.721269959999972,41.64980415000002],[-5.7203254500000185,41.650186770000005],[-5.719254270000022,41.65155404000001],[-5.71824595999999,41.65184808999999],[-5.717727850000017,41.65180631999999],[-5.715442199999984,41.65285105999999],[-5.713829910000015,41.65649159999998],[-5.713313949999986,41.65735935999999],[-5.712812139999983,41.657992639999975],[-5.7119178099999885,41.65871622999998],[-5.71386283999999,41.66070565000001],[-5.714402670000027,41.661548470000014],[-5.715176799999995,41.662250649999976],[-5.716820310000003,41.66449031000002],[-5.71427731,41.665424040000005],[-5.71311098000001,41.66596493999998],[-5.711530630000027,41.666371519999984],[-5.710899680000011,41.666791690000025],[-5.710747850000018,41.66689434],[-5.705285020000019,41.66923865000001],[-5.703043519999994,41.67021005999999],[-5.699522750000028,41.67046399999998],[-5.697636910000028,41.67046327999998],[-5.6955527000000075,41.67060228999998]]]}}]}