{"type":"FeatureCollection","features":[{"type":"Feature","properties":{"OBJECTID":1777,"ZON_CO_ID":59,"ZON_DS_NOM":"Tierra de León","CAL_DS_NOM":"D.O.Tierra de León","TPR_DS_DES":"Denominación de Origen","TPR_DS_GRU":"CALIDAD DIFERENCIADA","FAM_DS_NOM":"Vinos","classification":"DO","normalizedName":"Tierra de León"},"geometry":{"type":"Polygon","coordinates":[[[-5.564577320000012,42.6191278],[-5.560024800000008,42.617415170000015],[-5.554511320000017,42.618844060000015],[-5.553782599999977,42.61601471],[-5.553380989999994,42.61445678000001],[-5.553554829999996,42.612147590000006],[-5.553730970000004,42.6116844],[-5.553691669999978,42.611617739999986],[-5.5503605499999935,42.60587020000003],[-5.551000729999998,42.602776199999994],[-5.551124159999972,42.60217911000001],[-5.548782889999984,42.60110112000001],[-5.544751790000021,42.59925019000002],[-5.543092820000027,42.597720159999994],[-5.539085810000017,42.59929493999999],[-5.534382950000008,42.597841259999996],[-5.534640050000007,42.597268240000005],[-5.534999710000022,42.59441466999999],[-5.534164159999989,42.59093918000002],[-5.533654080000019,42.589779799999974],[-5.534262590000026,42.587352959999976],[-5.534184649999986,42.58603092999999],[-5.534543050000025,42.58344753],[-5.535064069999976,42.58096859],[-5.535379060000025,42.58032226],[-5.536123019999991,42.57823459999997],[-5.536315750000028,42.577879129999985],[-5.537767029999998,42.576108980000015],[-5.538074759999972,42.57567891999997],[-5.538262750000001,42.57541359999999],[-5.5384844600000065,42.57367069999998],[-5.538406080000016,42.57324018999998],[-5.537668450000012,42.57217592000001],[-5.536897619999991,42.571193429999994],[-5.536468860000014,42.56993320999999],[-5.536942300000021,42.568689010000014],[-5.537046139999973,42.568245460000014],[-5.5352382300000045,42.56722289999999],[-5.534082039999987,42.564844119999975],[-5.5343480799999725,42.56389268999999],[-5.534859200000028,42.56177416999998],[-5.533727129999988,42.561493050000024],[-5.53257216999998,42.558537899999976],[-5.529724750000014,42.558006499999976],[-5.526331159999984,42.558126449999975],[-5.523390790000008,42.55770501000001],[-5.520966380000004,42.55829872999999],[-5.519110160000025,42.55848365999998],[-5.514893029999996,42.55902662],[-5.513967849999972,42.559344099999976],[-5.511877379999987,42.560371540000006],[-5.509778279999978,42.560273489999986],[-5.509705740000015,42.558159760000024],[-5.508360719999985,42.55620720000002],[-5.504906849999998,42.553905439999994],[-5.502960610000002,42.55275031000002],[-5.502410639999994,42.55361782],[-5.500391069999978,42.554895639999984],[-5.498991900000021,42.55462901999999],[-5.492449019999981,42.557635259999984],[-5.491147889999979,42.558302949999984],[-5.489111849999972,42.55886951999997],[-5.486999550000007,42.55905050000001],[-5.485739449999983,42.56014047000002],[-5.48324912999999,42.560005390000015],[-5.482107359999986,42.55916565000001],[-5.478148959999999,42.557945630000006],[-5.474630549999972,42.55706716999998],[-5.468477529999973,42.55393108999999],[-5.467101300000024,42.55300620000003],[-5.463725420000003,42.55047638000002],[-5.458413169999972,42.5467003],[-5.4584952600000065,42.545781799999986],[-5.458088959999998,42.54517277000002],[-5.4576642399999855,42.54508733],[-5.458054559999994,42.544730449999975],[-5.457785820000026,42.54461644999998],[-5.457530799999972,42.544541779999975],[-5.457438519999982,42.54451763999998],[-5.457460190000006,42.54441811999999],[-5.457496900000024,42.54429845999999],[-5.457542559999979,42.544313690000024],[-5.4575947399999905,42.54424683000002],[-5.4571123499999885,42.54393299999998],[-5.456671930000027,42.544099140000014],[-5.456364399999984,42.54398956],[-5.454201599999976,42.542777899999976],[-5.451121499999999,42.54174253000002],[-5.452522209999984,42.53913614999999],[-5.453530660000013,42.533666400000016],[-5.452433849999977,42.53270831999998],[-5.452502700000025,42.531356070000015],[-5.453288020000002,42.530888989999994],[-5.453435469999988,42.52967912999998],[-5.4539501799999925,42.52820925999998],[-5.453838609999991,42.52753625999998],[-5.454023950000021,42.52636160999998],[-5.45242638000002,42.52598158000001],[-5.452850650000016,42.52437858000002],[-5.4549124900000265,42.520759329999976],[-5.4565145500000085,42.51939220999998],[-5.457356090000019,42.51912200999999],[-5.459156259999986,42.520326090000026],[-5.463781760000018,42.518146479999984],[-5.464732579999975,42.51818005000001],[-5.464944150000008,42.51705885000001],[-5.464599420000013,42.51603067000002],[-5.464848959999983,42.51556603],[-5.465955010000016,42.515524210000024],[-5.467414759999997,42.51395287999998],[-5.467034809999973,42.51326766],[-5.469804979999992,42.508471199999974],[-5.47058370000002,42.507878070000004],[-5.472127790000002,42.50567448999999],[-5.472717349999982,42.50426685000002],[-5.473105529999998,42.502690659999985],[-5.4733768400000145,42.50092877999998],[-5.473310210000022,42.500164770000026],[-5.4732314299999985,42.49940101999999],[-5.472268680000013,42.497512700000016],[-5.471970709999994,42.496744680000006],[-5.471842250000009,42.49595499999998],[-5.471828300000027,42.494982730000004],[-5.472099700000001,42.49198713999999],[-5.471068909999985,42.492693780000025],[-5.4697073500000215,42.493344509999986],[-5.468014320000009,42.49392132000003],[-5.467834270000026,42.49181797],[-5.467489170000022,42.49108697999998],[-5.46637161000001,42.49144424000002],[-5.466519699999992,42.492116450000026],[-5.463228290000018,42.49413241000002],[-5.46114356999999,42.493411779999974],[-5.458106359999988,42.49260349000002],[-5.4569894200000135,42.49235728999997],[-5.454924179999978,42.49213141000001],[-5.453634050000005,42.492123030000016],[-5.452591279999979,42.49221741000002],[-5.450360909999972,42.49243624000002],[-5.449581389999992,42.492416890000015],[-5.448290900000018,42.49239944999999],[-5.448010210000007,42.492378429999974],[-5.447071590000007,42.492335449999985],[-5.4461365999999884,42.49269762],[-5.445381859999998,42.493001900000024],[-5.444390049999981,42.49284297000003],[-5.443141070000024,42.492329299999994],[-5.4425946599999975,42.49235895999999],[-5.442821709999976,42.49193988000002],[-5.443059170000026,42.49147555000002],[-5.443017339999983,42.49102617],[-5.44001037999999,42.489109110000015],[-5.439832490000015,42.488914780000016],[-5.4397692499999835,42.48885309000002],[-5.439031849999992,42.486158209999985],[-5.438862669999992,42.48462190999999],[-5.438667940000016,42.48368051],[-5.437704520000011,42.480801310000004],[-5.437460499999986,42.479842940000026],[-5.436461269999995,42.47791905999998],[-5.435490309999977,42.47640881000001],[-5.435205929999995,42.47472185999999],[-5.434429620000003,42.47164055000002],[-5.433366620000015,42.46649409999998],[-5.433002209999984,42.46525009999999],[-5.43255800999998,42.46445806000003],[-5.432466669999997,42.46429791000003],[-5.430667780000022,42.461184230000015],[-5.430454199999986,42.460693470000024],[-5.430429150000009,42.46004562000002],[-5.430376690000003,42.45963248999999],[-5.43015158999998,42.45821443],[-5.429220120000025,42.45865743000002],[-5.42877605000001,42.45849575],[-5.428280640000025,42.45889347999997],[-5.428019590000019,42.459691480000004],[-5.427791169999978,42.46038972000002],[-5.42725372000001,42.46064425999998],[-5.427443639999979,42.46083835000002],[-5.427458249999972,42.461531449999995],[-5.42598855,42.46221095999999],[-5.4191895999999815,42.46504732],[-5.4186065800000165,42.46538382],[-5.416697320000026,42.46697302000001],[-5.416473329999974,42.467157859999986],[-5.416395480000006,42.46766379000002],[-5.4162624499999765,42.46799979999997],[-5.414389860000028,42.46959719],[-5.411038930000018,42.47102756999999],[-5.403885230000014,42.473537280000016],[-5.400976780000008,42.47446277],[-5.400256529999979,42.475351380000006],[-5.399257929999976,42.476597019999986],[-5.398649209999974,42.47722212000002],[-5.396213020000005,42.47777739999998],[-5.390984740000022,42.480408109999985],[-5.389668099999994,42.480975890000025],[-5.385951739999996,42.482746340000006],[-5.385257109999998,42.48495809999997],[-5.3857832499999745,42.48567658000002],[-5.3844936500000244,42.48663997],[-5.383775870000022,42.48632171000003],[-5.379555229999994,42.488282560000016],[-5.37845102,42.488683709999975],[-5.378722019999998,42.48909232],[-5.377752209999983,42.49047225999999],[-5.3728651600000035,42.49155516000002],[-5.372404500000016,42.49160072000001],[-5.371277759999998,42.49140791999997],[-5.369882800000028,42.49249040000001],[-5.369299239999975,42.49282665999999],[-5.3682340199999885,42.49297475999998],[-5.368051019999996,42.49328472000002],[-5.367949119999992,42.493809139999996],[-5.365678290000005,42.49522485],[-5.365527390000011,42.495741269999996],[-5.363772149999988,42.496632999999974],[-5.362855439999976,42.496525840000004],[-5.361786839999979,42.497556470000006],[-5.36177471000002,42.49788090999999],[-5.355711310000004,42.49974377000001],[-5.354403419999983,42.49926635999998],[-5.354292629999975,42.49923260999998],[-5.353261050000015,42.498983650000014],[-5.352771940000025,42.49892165],[-5.352482800000018,42.498999630000014],[-5.3487515200000075,42.50010279999998],[-5.34834244000001,42.50022825999997],[-5.34206174000002,42.50248210000001],[-5.3359007500000075,42.505021320000026],[-5.326270720000025,42.50395655],[-5.322458040000015,42.50353862999998],[-5.318810289999988,42.50363054000002],[-5.316088869999987,42.50310024999999],[-5.311984189999976,42.50301207000001],[-5.307667820000006,42.50279293],[-5.303818490000026,42.502366110000025],[-5.297464649999995,42.50200744],[-5.293861939999999,42.50199859999998],[-5.284837690000018,42.5008282],[-5.282259290000013,42.50020422],[-5.2822201899999754,42.50013295000002],[-5.281028380000009,42.49848171000002],[-5.278861389999975,42.495778229999985],[-5.277518769999972,42.49466125999999],[-5.276674259999993,42.49419175999998],[-5.276510630000018,42.49404191999997],[-5.276259600000003,42.493830790000004],[-5.275694789999989,42.49335572000001],[-5.270873499999993,42.48891272999998],[-5.269390520000002,42.48693393999997],[-5.267958599999986,42.48569255000001],[-5.266923140000017,42.48498361999998],[-5.265010159999974,42.48322039999999],[-5.263644069999998,42.48211272999998],[-5.262465089999978,42.480794230000015],[-5.261870839999972,42.47983339000001],[-5.261360739999986,42.47884386999999],[-5.260243349999996,42.476191340000014],[-5.259627529999989,42.47395215],[-5.259284600000001,42.473211470000024],[-5.258730500000013,42.47234888000003],[-5.255972450000002,42.469053239999994],[-5.254654990000006,42.46657569000001],[-5.254241390000004,42.465557219999994],[-5.253994309999996,42.465111820000004],[-5.253123809999977,42.463562009999976],[-5.251283870000009,42.46414751999998],[-5.248214529999984,42.466747329999976],[-5.248002190000022,42.46693160000001],[-5.2487495999999965,42.46776344],[-5.247408989999997,42.46905049999998],[-5.247007689999975,42.46973378000001],[-5.246972190000008,42.469761489999996],[-5.2448973900000055,42.47127004999999],[-5.242282709999984,42.47196966000001],[-5.239758479999978,42.47247833],[-5.239075839999998,42.472779849999995],[-5.236608260000025,42.474881289999985],[-5.2357845299999894,42.475662829999976],[-5.235111459999985,42.47657650999997],[-5.234796700000004,42.47764527999999],[-5.234774340000001,42.478726359999996],[-5.2348559399999885,42.47931011999998],[-5.234823640000002,42.47977001999999],[-5.233129599999984,42.48242363000003],[-5.232754940000007,42.48317838000003],[-5.232032790000005,42.48545280000002],[-5.231221010000013,42.486918479999986],[-5.23189837000001,42.48851724000002],[-5.232043639999972,42.48952301000003],[-5.232455459999983,42.491180970000016],[-5.232865059999995,42.49209152999998],[-5.233753429999979,42.49414544000001],[-5.2330235200000175,42.49654608999998],[-5.230152889999999,42.497952829999974],[-5.227031210000007,42.499490460000004],[-5.2258610900000235,42.500125579999974],[-5.22580124000001,42.50015374999998],[-5.2248039099999914,42.50085754000003],[-5.225080289999994,42.50213092000001],[-5.224108399999977,42.50389683999998],[-5.223475459999975,42.50526893],[-5.218957020000005,42.50862551],[-5.218064819999995,42.509210129999985],[-5.215766140000028,42.510983650000014],[-5.214031490000025,42.511152289999984],[-5.2104755299999965,42.51110391999998],[-5.209854539999981,42.51109789999998],[-5.208002910000005,42.51243939],[-5.187622470000008,42.52838276],[-5.185392579999984,42.52937989999998],[-5.184881109999992,42.53042527000002],[-5.18302177999999,42.53367564000001],[-5.181617979999999,42.53567456000002],[-5.176198759999977,42.542324570000005],[-5.175711340000021,42.542667040000026],[-5.1748157399999855,42.54317935],[-5.1664444900000035,42.54797583999999],[-5.164201649999995,42.54933304999997],[-5.157419360000006,42.55645820000001],[-5.156148850000022,42.55458205000002],[-5.151867289999984,42.556175499999995],[-5.150386679999997,42.55668960999998],[-5.145884770000009,42.558259969999995],[-5.137291530000027,42.561671639999986],[-5.1362934100000075,42.558124220000025],[-5.128249960000005,42.55622088000001],[-5.126216259999978,42.55731223999999],[-5.125642009999979,42.557620069999984],[-5.122945679999987,42.558930799999985],[-5.122672949999981,42.558431559999974],[-5.1211993499999835,42.55232625999997],[-5.1211165700000265,42.552039620000016],[-5.119258430000002,42.54751728000002],[-5.118137789999992,42.544269050000025],[-5.117005090000021,42.54138124000002],[-5.1160209399999985,42.53892294000002],[-5.113797820000002,42.535469869999986],[-5.112835050000001,42.53436196000001],[-5.111780720000013,42.53342681999999],[-5.106018360000007,42.52971458000002],[-5.103264589999981,42.52783800999998],[-5.101150340000004,42.52614775000001],[-5.09828318000001,42.526695589999974],[-5.094261529999983,42.5273095],[-5.090252270000008,42.527932039999996],[-5.088239149999993,42.52780665],[-5.084322369999995,42.52718454000001],[-5.0812034200000085,42.52675493999999],[-5.080035839999994,42.52642493000002],[-5.079364460000022,42.52600486],[-5.076700249999988,42.523126400000024],[-5.079309179999996,42.520296410000014],[-5.080136670000002,42.51955194999999],[-5.085778689999984,42.51532488999999],[-5.087344459999997,42.515188309999985],[-5.089644039999996,42.515155400000026],[-5.094734159999973,42.51484633000001],[-5.097175839999977,42.51214506000002],[-5.098091599999975,42.511137700000006],[-5.0976455499999815,42.51090271999999],[-5.094686539999998,42.50940790999999],[-5.094338129999983,42.50918014000001],[-5.093049790000009,42.50814102999999],[-5.091302139999982,42.50683113000002],[-5.087905030000002,42.503498019999995],[-5.08700484000002,42.50204652000002],[-5.085930019999978,42.50083233999999],[-5.0853131200000234,42.50021319000001],[-5.085249620000013,42.500133300000016],[-5.084266570000011,42.49911555],[-5.085681109999996,42.49846844000001],[-5.087185439999985,42.497594530000015],[-5.090761530000009,42.49352190000002],[-5.092570089999981,42.49046305000002],[-5.092951459999995,42.48949249999998],[-5.093864740000015,42.48805295],[-5.0813775199999895,42.48097696999997],[-5.079505779999977,42.47993029000003],[-5.0710527200000115,42.47372546999998],[-5.071395740000014,42.46752347],[-5.072087759999988,42.467114719999984],[-5.072846439999978,42.46540795999999],[-5.073135040000011,42.459774289999984],[-5.076696840000011,42.457881680000014],[-5.080856799999992,42.45900396000002],[-5.0820505699999785,42.45869411000001],[-5.0828826800000115,42.45848087000002],[-5.081243729999983,42.45746600000001],[-5.0779613799999765,42.45676909000002],[-5.078125849999992,42.45622578000001],[-5.079304449999995,42.45582617000002],[-5.078123269999992,42.454307640000025],[-5.078744770000014,42.45324271999999],[-5.082525429999976,42.45503824000002],[-5.088564799999972,42.457458900000006],[-5.091282019999994,42.45834592],[-5.095862269999998,42.459297890000016],[-5.100687370000003,42.45992998999998],[-5.102054899999985,42.460454260000006],[-5.104734969999981,42.45949551000001],[-5.105641839999976,42.458974539999986],[-5.10235234999999,42.455892010000014],[-5.096737109999992,42.45124895999999],[-5.094434850000027,42.44638304],[-5.075863389999995,42.44294758000001],[-5.069479730000012,42.44072159000001],[-5.068179419999979,42.43186567999999],[-5.072226339999986,42.429613270000004],[-5.0723893100000055,42.42939418999998],[-5.073063999999988,42.42847244000001],[-5.070597060000011,42.42073629999999],[-5.060331270000006,42.41679678999998],[-5.058546760000013,42.41611741999998],[-5.056932449999977,42.416182419999984],[-5.042063989999974,42.41679049999999],[-5.03973357000001,42.41688601999999],[-5.039349340000001,42.41740616999999],[-5.03892983999998,42.41796297000002],[-5.038393340000027,42.41678379000001],[-5.038222899999994,42.416399590000026],[-5.038091819999977,42.41610473999998],[-5.035216190000028,42.409861019999994],[-5.032221989999982,42.403313149999974],[-5.0328281000000175,42.401762459999986],[-5.032564890000003,42.40113674999998],[-5.03402920000002,42.398319070000014],[-5.033767679999983,42.39736914000002],[-5.033138740000027,42.396704880000016],[-5.032524330000001,42.396490640000025],[-5.031625759999997,42.39650657999999],[-5.032074659999978,42.39573315000001],[-5.031666640000026,42.39513701999999],[-5.03179836999999,42.39432419000002],[-5.031674819999978,42.39350688000002],[-5.03153051999999,42.39317624],[-5.031689630000017,42.391705530000024],[-5.031432329999973,42.391638039999975],[-5.030722340000011,42.39184875000001],[-5.030473990000019,42.39168203999998],[-5.030377279999982,42.390188850000015],[-5.0278743499999905,42.39017912999998],[-5.0277763500000106,42.39015384999999],[-5.021061159999988,42.389110759999994],[-5.020954200000006,42.38918468999998],[-5.0125375200000235,42.39533948000002],[-5.0096706200000085,42.40068502999998],[-5.008741760000021,42.40127767000001],[-5.008204369999987,42.40195348999998],[-5.00586543999998,42.40825326999999],[-5.005775019999987,42.40999291000003],[-5.006094990000008,42.411644309999986],[-5.006095990000006,42.414345930000025],[-5.005966919999992,42.416779659999975],[-5.005942810000022,42.417167319999976],[-5.005719650000003,42.417792599999984],[-5.0043547600000124,42.41996879999999],[-5.003468069999997,42.42342439999999],[-5.002155749999986,42.42611296000001],[-5.00176620000002,42.42762367],[-5.001038160000007,42.42919433999998],[-4.999687730000005,42.43107305000001],[-4.998646119999989,42.432342989999995],[-4.997508279999977,42.43326338000003],[-4.996353399999975,42.43403096999998],[-4.99321187999999,42.435409489999984],[-4.989070980000008,42.43671524000001],[-4.986595210000019,42.438009969999996],[-4.983843649999983,42.44020096999998],[-4.981774200000018,42.44050695999999],[-4.979682480000008,42.44203805000001],[-4.979076599999985,42.442489790000025],[-4.9783096300000125,42.443232480000006],[-4.976325959999997,42.44588735999997],[-4.975366459999975,42.44437297000002],[-4.975190110000028,42.44417788999999],[-4.973983939999982,42.44293791000001],[-4.972950430000026,42.442550470000015],[-4.9716399600000045,42.44263608],[-4.970256529999972,42.44311017000001],[-4.966704129999982,42.44265791999999],[-4.958597559999987,42.441986369999995],[-4.953926630000012,42.44427252999998],[-4.953167710000002,42.44528509000003],[-4.952594540000007,42.44679880000001],[-4.947605109999984,42.44706388999998],[-4.947689570000023,42.44468497999998],[-4.946025459999987,42.44474029000003],[-4.944604410000011,42.444791450000025],[-4.942466739999986,42.44565625000001],[-4.940157039999974,42.44528115000003],[-4.938360199999977,42.44418588000002],[-4.933547369999985,42.443862000000024],[-4.927932839999983,42.442371700000024],[-4.925796660000003,42.440111230000014],[-4.925457810000012,42.43976571000002],[-4.92093349999999,42.43732914999998],[-4.922994370000026,42.43673620999999],[-4.9239853400000015,42.43614321000001],[-4.92035666999999,42.435159469999974],[-4.909924190000027,42.43391107000002],[-4.909601029999976,42.43087257000002],[-4.90924308000001,42.429491670000004],[-4.908698669999978,42.42837505],[-4.90732251999998,42.42668691],[-4.906507710000028,42.425871959999995],[-4.904984860000013,42.42455546000002],[-4.904941029999975,42.42310629000002],[-4.9053030100000115,42.42181247000002],[-4.906060439999976,42.42033194999999],[-4.906433670000013,42.41981242000003],[-4.908389849999992,42.41898735000001],[-4.910972879999974,42.41759344000002],[-4.91194551000001,42.41680272999997],[-4.914827349999996,42.414449149999996],[-4.9125978100000225,42.40466128000003],[-4.914315160000001,42.40119243999999],[-4.912856260000012,42.399965029999976],[-4.911212809999995,42.39946113000002],[-4.910067710000021,42.398561659999984],[-4.90837836999998,42.39694178000002],[-4.911252230000002,42.39234601999999],[-4.905867430000001,42.38904059999999],[-4.903900790000023,42.387479299999995],[-4.903240289999985,42.38652667000002],[-4.903396040000018,42.38565053999997],[-4.904414499999973,42.38518333000002],[-4.907777660000022,42.383920620000026],[-4.9108435200000145,42.38247365000001],[-4.911423259999992,42.38156342000002],[-4.915583710000021,42.38256560000002],[-4.92086402000001,42.38363892000001],[-4.9265821600000095,42.38432640000002],[-4.931607260000021,42.38459301],[-4.933302079999976,42.38479856999999],[-4.936195909999981,42.38212005999998],[-4.941578769999978,42.38256931000001],[-4.944252909999989,42.38183952999998],[-4.946306259999972,42.381462450000015],[-4.943299939999974,42.37929810999998],[-4.945644019999975,42.37771836000002],[-4.944828169999994,42.37647142999998],[-4.961262859999977,42.37611923999998],[-4.9644971999999825,42.37973812000001],[-4.968769399999985,42.37729632000003],[-4.968493430000024,42.37623839999998],[-4.970002819999991,42.37478958000003],[-4.97255290999999,42.37438548],[-4.9723333000000025,42.373965999999996],[-4.9717403700000204,42.36782538],[-4.9730473999999845,42.36612783999999],[-4.973179000000016,42.364900809999995],[-4.976295779999987,42.358570180000015],[-4.977704379999977,42.35547495999998],[-4.97789683000002,42.35425587999998],[-4.977469830000018,42.35031879000002],[-4.977150660000007,42.34904548999998],[-4.983487179999997,42.34245192999998],[-4.984205079999981,42.33787364],[-4.983046600000023,42.33770457999998],[-4.982111019999991,42.33767573],[-4.9807493100000215,42.335285769999984],[-4.980937970000014,42.33356242999997],[-4.980946990000007,42.33346320999999],[-4.981286469999986,42.32997215],[-4.984239399999979,42.32584148000001],[-4.986238409999999,42.31608971999998],[-4.986331979999989,42.31559278999998],[-4.987796650000007,42.31393736000001],[-4.988028849999978,42.30898020000001],[-4.986110059999987,42.30429448000001],[-4.985183389999975,42.30105947999999],[-4.984971949999988,42.29857757000002],[-4.9872022900000275,42.29427921000001],[-4.986679519999996,42.293856000000005],[-4.987378719999981,42.29371779000002],[-4.98992800000002,42.291854390000026],[-4.994783770000026,42.29312983],[-5.002141180000024,42.289129049999985],[-5.00488064000001,42.28295725999999],[-5.005500499999982,42.28223495999998],[-5.005926260000024,42.281128799999976],[-5.006472830000007,42.27848054999998],[-5.0064864099999795,42.27661612999998],[-5.006202009999981,42.27529727000001],[-5.007308229999978,42.27385500999998],[-5.009914079999987,42.26656876999999],[-5.008660459999987,42.26145752000002],[-5.016546459999972,42.25896854000001],[-5.0188080099999866,42.253858519999994],[-5.016563850000011,42.25011563999999],[-5.015504940000028,42.24835114000001],[-5.011561210000025,42.24554761000002],[-5.008971799999983,42.24225192],[-5.01036105999998,42.23600461000001],[-5.009160839999993,42.23102748000002],[-5.01034076000002,42.22811595000002],[-5.014207069999998,42.22623792000002],[-5.015896279999993,42.22563186000002],[-5.017526400000008,42.224693590000015],[-5.0200651499999935,42.22261358999998],[-5.020956990000002,42.222084540000026],[-5.024667220000026,42.2198937],[-5.024899160000018,42.21729592999998],[-5.028033540000024,42.21643],[-5.031929839999975,42.216658180000024],[-5.033690429999979,42.21640181999999],[-5.039038430000005,42.21731545],[-5.041258140000025,42.219275229999994],[-5.044651600000009,42.21855732],[-5.046444650000012,42.218930580000006],[-5.04748687,42.21893899000003],[-5.047962890000008,42.21904755999998],[-5.049822619999986,42.21698801000002],[-5.053808199999992,42.21174733999999],[-5.061147819999974,42.20834647999999],[-5.062512360000028,42.20933058999998],[-5.064901229999975,42.206432740000025],[-5.065974349999976,42.20590907000002],[-5.064491729999986,42.20353124000002],[-5.0643334299999765,42.20239034999997],[-5.070725820000007,42.2008161],[-5.070693080000012,42.20055552000002],[-5.070614620000015,42.200007589999984],[-5.072222609999983,42.19880776999997],[-5.069975020000015,42.19637177999999],[-5.072319119999975,42.19620334000001],[-5.0737746400000105,42.19145796999999],[-5.07445137000002,42.18956351000003],[-5.076138930000013,42.190802770000005],[-5.077500939999993,42.19245317999997],[-5.080660580000028,42.19462931999999],[-5.081923539999991,42.19510171000002],[-5.083567410000001,42.19647673999998],[-5.086048510000012,42.19679185000001],[-5.087761469999975,42.19731903000002],[-5.08808252,42.19824077999999],[-5.091651630000001,42.19995885999998],[-5.094429059999982,42.20043948],[-5.102118870000027,42.20039778],[-5.103899609999985,42.20149984],[-5.1043198400000165,42.20175330000001],[-5.105569070000001,42.20253187999998],[-5.109032500000012,42.20469264000002],[-5.118384760000026,42.20834765000001],[-5.124958800000002,42.21040535999998],[-5.12674770000001,42.21281276000002],[-5.139694010000028,42.21735388000002],[-5.140388470000005,42.217827220000004],[-5.143111799999986,42.21774930999999],[-5.144770040000026,42.218060519999995],[-5.145875209999986,42.21813888999998],[-5.152670590000014,42.21774128999999],[-5.155897379999999,42.216437840000026],[-5.156076840000026,42.21637142999998],[-5.15921142000002,42.21627639000002],[-5.162248579999982,42.21687656],[-5.169612910000012,42.21046036000001],[-5.169380989999979,42.20934804000001],[-5.171790900000019,42.20826672999999],[-5.17203717000001,42.20767669000003],[-5.175645610000004,42.20516767999999],[-5.17737870000002,42.20343267999999],[-5.179839290000018,42.200666160000026],[-5.178358039999978,42.19950555999998],[-5.1767540600000075,42.197590779999985],[-5.1746272500000146,42.19561384999997],[-5.172568360000014,42.19455419000002],[-5.171319980000021,42.19275866999999],[-5.1692999200000145,42.19212148999998],[-5.168539199999998,42.19254114],[-5.167243999999982,42.191142720000016],[-5.163312889999986,42.190217340000004],[-5.16046922999999,42.188505840000005],[-5.150095210000018,42.18434208999997],[-5.14664018000002,42.18279481000002],[-5.14456801,42.18203208],[-5.1424169399999755,42.17964974],[-5.140516390000016,42.176434140000026],[-5.137967870000011,42.17374393],[-5.137566429999993,42.173328140000024],[-5.1381304799999725,42.17246205999999],[-5.138452710000024,42.1705288],[-5.138141749999988,42.170282439999994],[-5.133631530000002,42.166845190000004],[-5.133581919999983,42.16681009000001],[-5.129922609999994,42.16454563000002],[-5.123916169999973,42.161586080000006],[-5.120254629999977,42.16177094],[-5.119324629999994,42.16038322000003],[-5.116221069999995,42.15951295000002],[-5.123233060000018,42.15672654999997],[-5.123542240000006,42.15583824999999],[-5.1239929999999845,42.15447902],[-5.123969799999998,42.15378599000002],[-5.118834079999999,42.15185471000001],[-5.118573799999979,42.14877050000001],[-5.119195520000005,42.14709291999998],[-5.1193625199999815,42.14665753999998],[-5.119495330000007,42.14628585000003],[-5.120674559999998,42.146083920000024],[-5.122027549999984,42.14456389999998],[-5.123950439999987,42.142718109999976],[-5.12153668000002,42.14037624000002],[-5.116970890000005,42.134453699999995],[-5.107779530000016,42.13494727],[-5.104257070000017,42.13563339000001],[-5.103274129999988,42.13591259999998],[-5.099856460000012,42.13720906999998],[-5.098207279999997,42.137833650000005],[-5.0960214400000154,42.1379637],[-5.092666059999999,42.137853889999974],[-5.088432609999984,42.14011052000001],[-5.0865457500000275,42.140135869999995],[-5.084557969999992,42.13966770000002],[-5.083079610000027,42.138866029999974],[-5.082343680000008,42.13819495000001],[-5.080253649999975,42.13718820999998],[-5.077087500000005,42.13509319999997],[-5.076142249999975,42.134678029999975],[-5.0728096700000265,42.13081175000002],[-5.072039720000021,42.13020425000002],[-5.070780790000015,42.12795749999998],[-5.071537190000015,42.12629575],[-5.072252999999989,42.12561636999999],[-5.073559620000026,42.12376453000002],[-5.073479420000012,42.12130736],[-5.0735248500000125,42.12121647999999],[-5.0750119499999755,42.117857360000016],[-5.077741319999973,42.115502409999976],[-5.079155179999987,42.11398178000002],[-5.079765839999993,42.11268285],[-5.079943370000024,42.111454820000006],[-5.080362040000011,42.11094288999999],[-5.081500960000028,42.11063403000003],[-5.08589963999998,42.10867184],[-5.087300570000025,42.10824107000002],[-5.088601820000008,42.10772204],[-5.092071630000021,42.10694731000001],[-5.094490979999989,42.106227690000026],[-5.096255499999984,42.10545695000002],[-5.099412319999999,42.10473274999998],[-5.1061123100000145,42.10436671000002],[-5.107436749999977,42.104189270000006],[-5.110908209999991,42.10347697999998],[-5.104057409999996,42.10293646000002],[-5.101296579999996,42.102464750000024],[-5.100721290000024,42.1018899],[-5.098975859999996,42.10067004000001],[-5.098247560000004,42.09985482000002],[-5.0955778800000076,42.09737295999997],[-5.0945244100000195,42.095861189999994],[-5.093670990000021,42.095282380000015],[-5.092977889999986,42.094430450000004],[-5.089783150000017,42.092147160000025],[-5.088558410000019,42.090935660000014],[-5.087888729999975,42.09042549999998],[-5.086791660000017,42.08904954000002],[-5.085367220000023,42.08801275000002],[-5.084589429999994,42.08715331000002],[-5.083660759999987,42.085377989999984],[-5.08357264,42.08453301999998],[-5.083707909999987,42.08386411999999],[-5.084024119999981,42.08355217000002],[-5.084010560000024,42.083507380000015],[-5.083997300000021,42.083471599999996],[-5.083379019999995,42.08194280999999],[-5.085356880000006,42.07810631000001],[-5.087623090000022,42.07606573999999],[-5.0842417999999725,42.075803029999975],[-5.082696290000001,42.07585812000002],[-5.077407960000016,42.07568386999998],[-5.075318289999984,42.074992210000005],[-5.073901330000012,42.07454052999998],[-5.070046660000003,42.074213910000026],[-5.066696019999995,42.07451751000002],[-5.0559575400000085,42.07625959000001],[-5.0483760999999845,42.076575400000024],[-5.046717440000009,42.07649694000003],[-5.041403189999983,42.07626744999999],[-5.03963632,42.07545232000001],[-5.0338164799999845,42.07074643999999],[-5.021982030000004,42.063111400000025],[-5.020957930000009,42.062832249999985],[-5.017289559999995,42.061870139999996],[-5.0080085600000075,42.05844861999998],[-5.0071896599999945,42.05815675000002],[-5.005803700000001,42.055208970000024],[-5.005062360000011,42.05277226999999],[-5.003475719999983,42.049197549999974],[-5.003269009999997,42.04800334999999],[-5.002268819999983,42.04501276000002],[-5.001883840000005,42.04391172999999],[-5.002131410000004,42.043331009999974],[-4.999647890000006,42.039267540000026],[-4.998080239999979,42.03435049000001],[-4.999521720000018,42.03370394000001],[-5.003501780000022,42.03195933000001],[-5.004542270000002,42.03162593000002],[-5.008416920000002,42.03037833000002],[-5.0094157500000165,42.029874500000005],[-5.01147727,42.029361040000026],[-5.012121250000007,42.029097569999976],[-5.015775410000003,42.02699799999999],[-5.0209540199999765,42.02536681999999],[-5.023931989999994,42.02443170999999],[-5.026747510000007,42.02332827999999],[-5.028738630000021,42.022131290000004],[-5.029981829999997,42.020965509999996],[-5.032134610000014,42.02371029],[-5.039403259999972,42.02438283999999],[-5.040834050000001,42.024177269999996],[-5.046834460000014,42.02334086000002],[-5.0538088900000275,42.02087460000001],[-5.057440629999974,42.019260470000006],[-5.061870720000002,42.01955917999999],[-5.068274229999986,42.02000228000003],[-5.076400700000022,42.02031477999998],[-5.083705940000016,42.01803885999999],[-5.08732612,42.01720753000001],[-5.0890194400000155,42.01654628],[-5.094964100000027,42.01699624999998],[-5.096593250000012,42.016957479999974],[-5.102855659999989,42.017518310000014],[-5.101921469999979,42.019588820000024],[-5.105853410000009,42.02601007999999],[-5.106285360000015,42.02884805999997],[-5.106288619999987,42.030775300000016],[-5.106479700000023,42.032536979999975],[-5.106372060000012,42.034763450000014],[-5.106310559999997,42.035827289999986],[-5.10635671,42.03649288999998],[-5.107035610000025,42.039488440000014],[-5.109231360000024,42.04268124999999],[-5.110819110000023,42.04502063000001],[-5.11284526999998,42.047459979999985],[-5.11595951999999,42.052094710000006],[-5.115977820000012,42.055192439999985],[-5.119314789999976,42.055968389999975],[-5.120601749999992,42.05542224999999],[-5.122339339999996,42.05534506999999],[-5.1245530499999745,42.05541216],[-5.125724460000015,42.055750690000025],[-5.130491489999997,42.056643889999975],[-5.133688919999997,42.056854629999975],[-5.135213959999987,42.05728555000002],[-5.137093800000002,42.057484690000024],[-5.137583839999991,42.05768269999999],[-5.1378906099999995,42.05782108],[-5.13901924999999,42.05796213999997],[-5.139759900000001,42.058065399999975],[-5.140312460000018,42.05832527000001],[-5.141106900000011,42.05894986999999],[-5.141894089999994,42.05935844999999],[-5.142275190000021,42.05990969999999],[-5.160679739999978,42.065922650000005],[-5.165407440000024,42.06206897999999],[-5.175797579999994,42.05913450000003],[-5.176204830000017,42.05902771000001],[-5.17956485000002,42.058684719999974],[-5.183097599999996,42.06091404],[-5.182918949999987,42.063105889999974],[-5.1876450999999975,42.064177589999986],[-5.1917225799999756,42.06500933000001],[-5.192124260000014,42.06509170999999],[-5.207479120000016,42.068381509999995],[-5.209784710000008,42.067598610000005],[-5.219909640000026,42.07338297000001],[-5.22116896,42.07517777999999],[-5.221769259999974,42.07644498000002],[-5.222123389999979,42.077239650000024],[-5.223175289999972,42.07897541],[-5.225128649999988,42.07952289999997],[-5.227839159999974,42.079596349999974],[-5.2285735699999805,42.079510029999994],[-5.229031060000011,42.079456110000024],[-5.231948690000024,42.07888601000002],[-5.241158129999974,42.07950790000001],[-5.243711200000007,42.080601709999996],[-5.250328420000017,42.08346196999997],[-5.250868910000008,42.08370351999997],[-5.251549590000025,42.08346501],[-5.252923010000018,42.08298773000001],[-5.255977920000021,42.080153859999996],[-5.257163269999978,42.07914889],[-5.269166289999987,42.068942479999976],[-5.275055510000016,42.063611390000005],[-5.278961630000026,42.06030071999999],[-5.278752940000004,42.05987259],[-5.27555762999998,42.05364995000002],[-5.273996039999986,42.053572859999974],[-5.274128700000006,42.05153490999999],[-5.274382240000023,42.04983678000002],[-5.274256030000004,42.04968618999999],[-5.272130010000012,42.04733277999998],[-5.2720407900000055,42.04483091999998],[-5.273162950000028,42.043773009999995],[-5.277867969999988,42.04256292000002],[-5.279931359999978,42.03945092999999],[-5.281751849999978,42.03698314000002],[-5.2826700900000105,42.035974220000014],[-5.28446581999998,42.034506539999995],[-5.286725680000018,42.033182669999974],[-5.290022369999974,42.031468819999986],[-5.293358979999994,42.029862149999985],[-5.297654239999986,42.028047060000006],[-5.299651820000008,42.027502690000006],[-5.3018584399999895,42.02706217000002],[-5.304290499999979,42.026175790000025],[-5.306586139999979,42.02519303999998],[-5.307429759999991,42.02447360999997],[-5.307593849999989,42.02433523000002],[-5.310848720000024,42.02282875999998],[-5.313433789999976,42.02184003999997],[-5.320172329999991,42.02015491999998],[-5.321301650000009,42.02065441000002],[-5.323313859999985,42.018866539999976],[-5.32429049000001,42.01915294999998],[-5.325046680000014,42.01968698000002],[-5.325519480000025,42.02039786],[-5.327476489999981,42.020078979999994],[-5.33030186000002,42.020057640000005],[-5.332044999999994,42.02016630000003],[-5.333100800000011,42.020964359999994],[-5.335020709999981,42.020952299999976],[-5.337258700000007,42.02105081000002],[-5.341089580000016,42.022098400000004],[-5.343502860000001,42.02236432000001],[-5.346740640000007,42.02238818000001],[-5.348946119999994,42.02258618000002],[-5.350532540000017,42.02335519000002],[-5.351789900000028,42.02469829],[-5.35291841999998,42.02549467],[-5.354920629999981,42.02639918],[-5.356849560000001,42.02695394],[-5.358718090000025,42.027834110000015],[-5.361908760000006,42.029839760000016],[-5.363877349999996,42.030807849999974],[-5.365658209999992,42.031923860000006],[-5.366728640000019,42.033099530000015],[-5.368295450000005,42.03332834999998],[-5.369516850000025,42.034338779999985],[-5.371456169999988,42.03548744],[-5.374492690000011,42.03787416],[-5.37639501000001,42.039644899999985],[-5.376626079999994,42.04065774999998],[-5.376293789999977,42.04146614000001],[-5.378415480000001,42.041665309999985],[-5.380751050000015,42.04112153],[-5.382235270000024,42.041396899999995],[-5.384412380000015,42.042108129999974],[-5.386047729999973,42.041578800000025],[-5.387749480000025,42.04121017],[-5.389659989999984,42.040287809999995],[-5.3910794799999735,42.039159530000006],[-5.392123529999992,42.038651449999975],[-5.39342105999998,42.03813808000001],[-5.395715999999993,42.03619896999999],[-5.397794999999974,42.03462456],[-5.409606940000003,42.031044880000024],[-5.41207326,42.03046167999997],[-5.414338789999988,42.029999739999994],[-5.4167962299999886,42.029821879999986],[-5.4202766199999814,42.02922613999999],[-5.421587910000028,42.03067536999998],[-5.424275739999985,42.02924970999999],[-5.433208390000004,42.023395960000016],[-5.447437040000011,42.01365525],[-5.447348019999993,42.01227928999998],[-5.447807829999988,42.010729519999984],[-5.443096939999975,42.01195568999998],[-5.441261899999972,42.01102216999999],[-5.436379559999978,42.00902769999999],[-5.434378279999976,42.00753025],[-5.433532150000019,42.00655759],[-5.432276860000002,42.00562062],[-5.431454630000019,42.00432323000001],[-5.431166159999975,42.002456180000024],[-5.431828429999996,42.00019071999998],[-5.4318501500000025,42.000127220000024],[-5.43346557000001,41.993410719999986],[-5.433693570000003,41.98863284999999],[-5.433874909999986,41.984828590000006],[-5.43351825000002,41.98307103000002],[-5.43621447999999,41.97369286000003],[-5.437821079999992,41.971200150000016],[-5.438279130000012,41.967389990000015],[-5.444955219999997,41.97187683999999],[-5.447033429999976,41.97288619],[-5.449024529999974,41.973510120000014],[-5.450079519999974,41.97364068000002],[-5.454892630000018,41.97546498999998],[-5.456158200000004,41.97573509],[-5.457435789999977,41.97568970999998],[-5.4600825100000066,41.97515566999999],[-5.46080182999998,41.974716969999974],[-5.4631235599999854,41.97545964],[-5.462405869999998,41.97687994],[-5.462785769999982,41.97765528000002],[-5.466067790000011,41.97794499999998],[-5.466981289999978,41.97815951000001],[-5.4695301500000255,41.97946452999997],[-5.470152849999977,41.97964925000002],[-5.470979759999977,41.979496359999985],[-5.474025859999983,41.98054741999999],[-5.475538180000001,41.98126227],[-5.476902119999977,41.98219642999999],[-5.477809589999993,41.982564079999975],[-5.479015790000005,41.98285321999998],[-5.481224409999982,41.983156699999995],[-5.484803800000009,41.98456515999999],[-5.485272099999975,41.98512238000001],[-5.485649519999981,41.98582564999998],[-5.486470390000022,41.99078797999999],[-5.487464339999974,41.992441489999976],[-5.488405890000024,41.99553701999997],[-5.484098819999986,41.99623373999998],[-5.483148480000011,41.996632550000015],[-5.479881470000009,41.998621430000014],[-5.479085269999985,41.99926002000001],[-5.478514940000025,42.000118869999994],[-5.47831137999998,42.00171726000002],[-5.478452749999974,42.004424889999996],[-5.474543540000013,42.006058240000016],[-5.471726989999979,42.006290060000026],[-5.471415589999992,42.01009713000002],[-5.472836480000012,42.01217381999999],[-5.4728064199999835,42.01357933000003],[-5.477824090000013,42.01839711000002],[-5.483891379999989,42.02316493000001],[-5.4876681399999825,42.025856799999985],[-5.48826342000001,42.02996843],[-5.49270580000001,42.03329409000003],[-5.486506229999975,42.038804949999985],[-5.4893134299999815,42.04139169000001],[-5.4925033800000165,42.04356480000001],[-5.495844149999982,42.04557244],[-5.496215570000004,42.04919358000001],[-5.498404160000007,42.05108211999999],[-5.500848899999994,42.05302806999998],[-5.503503389999992,42.05446508],[-5.505429300000003,42.05611606999997],[-5.507743839999989,42.05750638000001],[-5.50547542999999,42.05943811999998],[-5.502866480000023,42.06254796000002],[-5.501584400000013,42.06652036999998],[-5.503427750000014,42.06913678000001],[-5.506012139999996,42.07245741999998],[-5.507639489999974,42.07541169000001],[-5.509044679999988,42.07701995999997],[-5.510714950000022,42.07860439000001],[-5.513245709999978,42.07962961999999],[-5.51426994000002,42.08107505999999],[-5.516955259999975,42.08343413],[-5.518390570000008,42.084694909999996],[-5.518860729999972,42.085882319999996],[-5.518643080000004,42.08710284],[-5.518009450000022,42.08911597000002],[-5.517948139999987,42.09062123000001],[-5.518745599999988,42.091828480000004],[-5.519594659999996,42.09342182],[-5.520890759999986,42.097139630000015],[-5.521001990000002,42.09720023],[-5.522215630000005,42.09792100999999],[-5.522672059999991,42.09875749999998],[-5.524163410000028,42.10007552000002],[-5.525363410000011,42.10288584],[-5.526087889999985,42.103770440000005],[-5.527003850000028,42.10429961],[-5.543363290000002,42.099381419999986],[-5.541836760000024,42.098100439999996],[-5.544355719999999,42.09245222999999],[-5.544227030000002,42.09165359999997],[-5.544021699999973,42.086218840000015],[-5.545960460000003,42.08421265999999],[-5.546116690000019,42.08344371999999],[-5.546263399999987,42.08272003000002],[-5.546889360000023,42.082048740000005],[-5.547087320000003,42.08155805000001],[-5.546961339999996,42.08052522000003],[-5.5471156599999745,42.080152569999996],[-5.548247249999974,42.07912784000001],[-5.548439069999972,42.07848418999998],[-5.548246740000025,42.07700255999998],[-5.548416229999987,42.074594330000025],[-5.549454149999974,42.070329689999994],[-5.55226743999998,42.06663794999997],[-5.5524310600000035,42.06589586000001],[-5.552417300000002,42.06434722],[-5.552767089999975,42.06372707000003],[-5.553489039999988,42.06304460000001],[-5.557000479999999,42.06110229000001],[-5.557442330000015,42.06066917999999],[-5.560697520000019,42.05596778],[-5.561080950000019,42.056787729999996],[-5.561262759999977,42.05770223000002],[-5.561462450000022,42.057859870000016],[-5.563963460000025,42.05904678000002],[-5.564840769999989,42.05922529999998],[-5.565539619999981,42.05917366],[-5.568422720000001,42.05814558999998],[-5.569764819999989,42.05786339000002],[-5.569848709999974,42.05874404999997],[-5.5735098499999935,42.062615419999986],[-5.574665670000002,42.06459769999998],[-5.575159229999997,42.06484777999998],[-5.576727059999996,42.06536190000003],[-5.577721600000018,42.065447619999986],[-5.579443739999988,42.06440028999998],[-5.5801693799999725,42.05844936],[-5.583768710000015,42.05542353999999],[-5.585063569999988,42.05398050000002],[-5.586606510000024,42.05091085999999],[-5.587557279999999,42.051411729999984],[-5.588458300000013,42.052174879999995],[-5.588897289999977,42.052867400000025],[-5.58889326000002,42.05365998000002],[-5.58757688999998,42.05576094999998],[-5.58779235999998,42.05719697000001],[-5.587259529999983,42.058442739999975],[-5.5845140999999785,42.06485350000003],[-5.583508489999986,42.06598382999999],[-5.584138499999995,42.06750957000003],[-5.585544760000005,42.06731578],[-5.5865000900000155,42.07119361000002],[-5.588879480000003,42.07204046999999],[-5.589393649999977,42.072497150000004],[-5.58957737999998,42.073150399999975],[-5.589473109999972,42.07415236000003],[-5.588748520000024,42.07565462000002],[-5.589819009999985,42.07611674999998],[-5.588502249999976,42.07732619000001],[-5.5888283400000205,42.077616009999986],[-5.591385160000016,42.07865693999997],[-5.592828450000013,42.07669714999997],[-5.593865929999993,42.076052319999974],[-5.594551760000002,42.07597377000002],[-5.59733030000001,42.07652324999998],[-5.597815780000019,42.077755009999976],[-5.596863550000023,42.07811878000001],[-5.596609639999997,42.07870988000002],[-5.596820509999986,42.07913737000001],[-5.597340630000019,42.07944078999998],[-5.603153510000027,42.08028159000003],[-5.603440949999992,42.07932949999997],[-5.603781700000013,42.079384800000014],[-5.604205960000002,42.07970836999999],[-5.604374919999998,42.08058706999998],[-5.605307859999982,42.080637920000015],[-5.606240449999973,42.07950005999999],[-5.6151819699999805,42.08204319999999],[-5.61624347999998,42.082280149999974],[-5.617361329999994,42.082416739999985],[-5.619663419999995,42.08224711999998],[-5.6210603299999775,42.082701499999985],[-5.624486709999985,42.083465149999995],[-5.624867300000005,42.083551],[-5.625105150000024,42.083455500000014],[-5.628784499999995,42.08209246000001],[-5.634195990000023,42.08140094999999],[-5.635042610000028,42.08199387000002],[-5.63604620000001,42.08345671000001],[-5.636304540000026,42.083856019999985],[-5.637050390000013,42.08376683],[-5.638374189999979,42.08507818999999],[-5.63662703,42.08580279],[-5.635853950000012,42.08669408999998],[-5.633152999999993,42.08862026000003],[-5.628100319999987,42.09157286999999],[-5.626573819999976,42.09208511999998],[-5.625540150000006,42.09282022000002],[-5.624300189999985,42.09265948000001],[-5.6236769999999865,42.09367334000001],[-5.621602820000021,42.097620129999996],[-5.621272949999991,42.09959085000003],[-5.619564299999979,42.10302494000001],[-5.619487330000027,42.104971869999986],[-5.620137390000025,42.10665904000001],[-5.621601300000009,42.10872386],[-5.6223424099999875,42.109391329999994],[-5.626073510000026,42.111584359999995],[-5.626958230000014,42.1122125],[-5.630322420000027,42.11605279999998],[-5.630959580000024,42.11654249999998],[-5.634121259999972,42.11840611000002],[-5.6350080000000276,42.11907917000002],[-5.635637999999972,42.11968607],[-5.636276829999986,42.12079707999999],[-5.638183379999987,42.12214008000001],[-5.640792669999996,42.12583532999997],[-5.642912780000017,42.13055940999999],[-5.643392679999977,42.13104365999999],[-5.64522986999998,42.13216299999999],[-5.649261899999999,42.133979090000025],[-5.654300780000028,42.13382654999998],[-5.658714669999995,42.13550738999999],[-5.660363490000009,42.13529804000001],[-5.6659104799999795,42.13687126000002],[-5.665340089999972,42.14115312000001],[-5.665863290000004,42.14151018000001],[-5.666873070000008,42.14192796999998],[-5.667556460000014,42.14206517000002],[-5.6686621900000205,42.14188634999999],[-5.671410340000023,42.14076871999998],[-5.672475220000024,42.14048274999999],[-5.674125290000006,42.14058836999999],[-5.675051580000002,42.14074686999999],[-5.679627649999986,42.14022577999998],[-5.680463770000017,42.140827609999974],[-5.680950549999977,42.141752800000006],[-5.6815590799999995,42.14154946000002],[-5.685910620000016,42.139439400000015],[-5.6870102299999985,42.13826094000001],[-5.687177459999987,42.137923820000026],[-5.686944939999989,42.137289880000026],[-5.685606109999981,42.13567324000002],[-5.684706539999979,42.13500088000001],[-5.683578099999977,42.13435188],[-5.679728730000022,42.13258676999999],[-5.679776319999974,42.13084759999998],[-5.679140019999977,42.127809609999986],[-5.677445830000011,42.12406686999998],[-5.677120950000017,42.12353411999999],[-5.676390599999991,42.12141687000002],[-5.67645662000001,42.12097405999998],[-5.676768449999997,42.12033638999998],[-5.685297460000015,42.12036212999999],[-5.687664649999988,42.12027517000001],[-5.691782909999972,42.120120050000025],[-5.696842389999972,42.12076665000001],[-5.6977982000000225,42.12077119000003],[-5.704075419999981,42.1190474],[-5.705015870000011,42.11869201000002],[-5.706997279999996,42.11750157],[-5.708627030000002,42.11685971999998],[-5.710812589999989,42.116204719999985],[-5.7131074399999875,42.115844270000025],[-5.717510419999996,42.115001570000004],[-5.722987219999993,42.114664549999986],[-5.729869310000026,42.11466303999998],[-5.734531720000007,42.11451593999999],[-5.736211690000005,42.11420571000002],[-5.737315609999996,42.113720090000015],[-5.739531370000009,42.11377525],[-5.741291600000011,42.11336397000002],[-5.742947679999986,42.113342380000006],[-5.743229460000009,42.11342569999999],[-5.747392970000021,42.116009650000024],[-5.747859100000028,42.116439749999984],[-5.75207555999998,42.121354680000024],[-5.750992580000002,42.12428040999998],[-5.752788080000016,42.12802861],[-5.752864100000011,42.128666169999974],[-5.755131269999993,42.134357179999995],[-5.755224890000022,42.135399559999996],[-5.755193350000013,42.13662505000002],[-5.7594870300000025,42.13436051999997],[-5.764170390000004,42.13494114000002],[-5.769973300000004,42.13594481000001],[-5.77337442999999,42.135142169999995],[-5.776706620000027,42.13580898999999],[-5.780106980000028,42.13526732999998],[-5.782047350000028,42.13509419000002],[-5.7833952199999885,42.13437707999998],[-5.785211240000024,42.13357653000003],[-5.787939489999985,42.13343818999999],[-5.788963379999984,42.13085576999998],[-5.79034009999998,42.12776945000002],[-5.791226300000005,42.127288599999986],[-5.793045710000001,42.12739740000001],[-5.793607759999986,42.12724863],[-5.795077719999995,42.12711374999998],[-5.796357880000016,42.12761386],[-5.798135510000009,42.12759750999999],[-5.799237179999977,42.12651699000003],[-5.8015781700000275,42.12610860000001],[-5.802195810000001,42.12530103],[-5.8026817400000255,42.12507303000001],[-5.805333650000023,42.12458492000002],[-5.806368519999978,42.127747510000006],[-5.804635089999977,42.12986116000002],[-5.806492509999998,42.130554159999974],[-5.8110002399999985,42.12743594],[-5.812146289999987,42.126543319999996],[-5.821451850000017,42.12333393],[-5.825295559999972,42.12217664999997],[-5.826554709999982,42.121929490000014],[-5.830659309999987,42.12038737],[-5.832077649999974,42.11937075999998],[-5.836000549999994,42.11891358999998],[-5.838074740000025,42.118772209999975],[-5.838559710000027,42.11825590000001],[-5.839724620000027,42.11644398999999],[-5.840811089999988,42.11260779999998],[-5.844850710000003,42.110715570000025],[-5.8465194899999915,42.11125049999998],[-5.849373109999988,42.11258447],[-5.850242190000017,42.113085179999985],[-5.854326669999978,42.114352380000014],[-5.856275929999981,42.11493421],[-5.858174829999996,42.11584776000001],[-5.864835140000025,42.11940342999998],[-5.86680118999999,42.120083720000025],[-5.869266429999982,42.12217433000001],[-5.873181260000024,42.126623989999985],[-5.8739888000000064,42.1273602],[-5.873758510000016,42.12761812000002],[-5.874919069999976,42.12866967000002],[-5.87617702,42.13026808000001],[-5.8767076400000064,42.130497909999974],[-5.8770726199999785,42.13134425999999],[-5.878534899999977,42.13291050999999],[-5.881662759999983,42.135452480000026],[-5.883143039999993,42.13714428999998],[-5.8848237899999845,42.13845280999999],[-5.8829591499999765,42.14082309999998],[-5.882046049999985,42.142566079999995],[-5.880997309999998,42.145321060000015],[-5.882281079999984,42.1461443],[-5.890529169999979,42.15002504],[-5.894341469999972,42.152684480000005],[-5.897174899999982,42.155368529999976],[-5.896782529999996,42.155522529999985],[-5.897426160000009,42.15610062000002],[-5.901143859999991,42.15058539],[-5.902861889999997,42.150046599999996],[-5.906067319999977,42.143931810000026],[-5.90906382999998,42.14251401000001],[-5.911601189999999,42.14058548999998],[-5.914482710000016,42.14035917000001],[-5.92052099,42.140367579999975],[-5.926635429999976,42.14071593],[-5.931608719999986,42.13940914],[-5.933150599999976,42.13978393999997],[-5.935756340000012,42.14118510999998],[-5.9451261699999804,42.142322560000025],[-5.948120529999983,42.1419214],[-5.95020267000001,42.13881501999998],[-5.952251999999987,42.13500701999999],[-5.953119109999989,42.13205794999999],[-5.953302959999974,42.13002700999999],[-5.9537189299999795,42.128305280000006],[-5.953735310000013,42.12657582999998],[-5.953467779999983,42.12368299000002],[-5.956595110000023,42.12407966000001],[-5.957853520000015,42.124866680000025],[-5.96090104000001,42.127183419999994],[-5.962885389999997,42.12796965000001],[-5.9646741899999824,42.12819357000001],[-5.9652732999999785,42.12807000999999],[-5.967627590000006,42.12848638000003],[-5.97196839999998,42.129472599999986],[-5.974301260000004,42.13020458],[-5.981778829999996,42.13563869000001],[-5.98315599,42.13816938000002],[-5.985081890000004,42.139758229999984],[-5.989862010000024,42.14337087000001],[-5.992576369999995,42.14499304999998],[-5.9956701899999985,42.146191009999995],[-6.004408940000019,42.149042150000014],[-6.006035189999977,42.14939575],[-6.007268249999981,42.150390010000024],[-6.009372610000014,42.15112726000001],[-6.011861249999981,42.15180034000002],[-6.0135857199999805,42.151926119999985],[-6.016668830000015,42.15262849999999],[-6.020228859999975,42.15368744],[-6.020998490000011,42.153838259999986],[-6.023791490000008,42.15505238999998],[-6.028778110000019,42.157595319999984],[-6.034242119999988,42.15821627999998],[-6.046459959999993,42.15934211000001],[-6.049304989999996,42.159860820000006],[-6.052660730000014,42.159672450000016],[-6.0572925999999825,42.15959405000001],[-6.06750156999999,42.16021284999999],[-6.075606520000008,42.16186878000002],[-6.070002209999984,42.16511679000001],[-6.070217440000022,42.166813020000006],[-6.072512119999999,42.187445579999974],[-6.072865159999992,42.19073202999999],[-6.066408389999992,42.19218368000003],[-6.060000670000022,42.19415597],[-6.0496548400000165,42.19734940000001],[-6.049641489999999,42.197827029999985],[-6.0495829299999855,42.19988178],[-6.052291729999979,42.20457345],[-6.053214649999973,42.20537734999999],[-6.054226009999979,42.21027626],[-6.052187179999976,42.21371654000001],[-6.046243849999996,42.221871290000024],[-6.046426870000005,42.22517134999998],[-6.046529000000021,42.22704171999999],[-6.049043999999981,42.22844269000001],[-6.057677379999973,42.22857288],[-6.058547859999976,42.22878379000002],[-6.071819749999975,42.22487178],[-6.081972010000015,42.22360865000002],[-6.0946040800000105,42.22475412],[-6.094842570000026,42.22467562999998],[-6.098514309999985,42.22345078000001],[-6.098754960000008,42.22193140000002],[-6.104726879999987,42.21919430999998],[-6.106952060000026,42.21985441999999],[-6.107026420000011,42.21988842000002],[-6.110373059999972,42.22142758000001],[-6.1157790999999975,42.224927820000005],[-6.115829270000006,42.22496247999999],[-6.118022320000023,42.226685859999975],[-6.118716310000025,42.22700015999999],[-6.119056890000024,42.227026920000014],[-6.119483489999993,42.22707833999999],[-6.1213577899999905,42.228477139999995],[-6.123595019999982,42.228389170000014],[-6.124005430000011,42.228603109999995],[-6.126020970000013,42.23016007000001],[-6.127000150000015,42.23134004000002],[-6.127271389999976,42.23217011999998],[-6.127392980000025,42.232914230000006],[-6.127431510000008,42.232958199999985],[-6.1278937100000235,42.233729030000006],[-6.129211730000009,42.23514288000001],[-6.1337493400000085,42.23917024999997],[-6.134620400000017,42.24011897999998],[-6.136629379999988,42.24177498],[-6.139550260000021,42.24324388000002],[-6.143168209999999,42.24532393999999],[-6.145336299999997,42.24675930000001],[-6.148302000000001,42.24790254999999],[-6.150325969999983,42.24863037],[-6.151209080000001,42.249083359999986],[-6.152933659999974,42.25012554],[-6.160061999999982,42.253792369999985],[-6.160819810000021,42.25488810000002],[-6.16603409999999,42.255896800000016],[-6.172211919999995,42.253636770000014],[-6.175944159999972,42.254821119999974],[-6.185093779999988,42.256944499999975],[-6.186082039999974,42.258033650000016],[-6.187676020000026,42.25983535],[-6.191336519999993,42.26510947000003],[-6.189972339999997,42.268587379999985],[-6.189778909999973,42.26907903],[-6.1876680400000055,42.271217939999985],[-6.185457320000012,42.27306241000002],[-6.17904421999998,42.28392947999998],[-6.178194410000003,42.28535784000002],[-6.178124009999976,42.28540482],[-6.177829389999999,42.28557508],[-6.171885519999989,42.28772089],[-6.1689748800000075,42.287963520000005],[-6.167682590000027,42.288071290000005],[-6.164478589999987,42.28851101999999],[-6.153340039999989,42.296670500000005],[-6.152252110000006,42.29625919],[-6.151673370000026,42.29584287],[-6.150971270000014,42.295628050000005],[-6.1501179900000125,42.295543459999976],[-6.149235110000006,42.29510847],[-6.147664550000002,42.29401698999999],[-6.14688043000001,42.29312901999998],[-6.1453058800000235,42.292442849999986],[-6.144543699999986,42.29248178],[-6.143752399999983,42.292179309999995],[-6.142954369999984,42.29198508000002],[-6.141544609999983,42.29070901],[-6.14089912999998,42.29041152999997],[-6.139979120000021,42.29020262],[-6.139479440000002,42.28991014000002],[-6.138640740000028,42.289140669999995],[-6.138367580000022,42.28901308000002],[-6.138023690000011,42.28819403],[-6.137543400000027,42.287558820000015],[-6.137359109999977,42.287266699999975],[-6.136048130000006,42.28651014000002],[-6.135376650000012,42.28642045999999],[-6.13422079999998,42.28610087999999],[-6.133301959999983,42.28518048000001],[-6.132888470000012,42.28491263000001],[-6.131762299999991,42.28445713999997],[-6.130302710000024,42.283146269999975],[-6.130017039999984,42.28300998999998],[-6.128839630000016,42.28298812000003],[-6.126672460000009,42.28257000999997],[-6.126537999999982,42.28230352999998],[-6.125882890000014,42.281808109999986],[-6.125468020000028,42.28175639],[-6.124728290000007,42.28200170000002],[-6.12414388000002,42.281954600000006],[-6.123018150000007,42.28175114999999],[-6.121711440000013,42.28205692],[-6.11918811999999,42.28179245000001],[-6.118859040000018,42.28151323999998],[-6.118505299999981,42.28122569999999],[-6.118207550000022,42.28108973000002],[-6.117309159999991,42.28106915000001],[-6.11661810999999,42.2808268],[-6.115539230000024,42.28034285000001],[-6.114816739999981,42.28020040000001],[-6.1138008099999865,42.28025502999998],[-6.1128576799999905,42.280064530000004],[-6.1121325500000125,42.279868109999995],[-6.111558049999985,42.279775649999976],[-6.111259879999977,42.27963066000001],[-6.110537850000014,42.27949718000002],[-6.108990389999974,42.27959320999997],[-6.107902239999987,42.27965875000001],[-6.107472630000018,42.27955333],[-6.10672169999998,42.27907842000002],[-6.106334699999991,42.27835950000002],[-6.105916939999986,42.27800160999999],[-6.104137069999979,42.27706828999999],[-6.1038096600000245,42.27706814999999],[-6.103455639999993,42.27726684999999],[-6.103307040000004,42.277450980000026],[-6.101736979999998,42.277826679999976],[-6.101208110000016,42.27792204000002],[-6.1005640700000185,42.27789444000001],[-6.100134490000016,42.277788999999984],[-6.098719379999977,42.27786329999998],[-6.096996460000014,42.278089980000004],[-6.094174370000019,42.27766193999997],[-6.0926430200000254,42.27684778999998],[-6.09142079999998,42.27689879000002],[-6.091372799999988,42.276909090000004],[-6.09088423999998,42.27658908000001],[-6.090625530000011,42.27650600999999],[-6.089625249999983,42.27663203999998],[-6.089102770000011,42.27661010000003],[-6.087888949999979,42.27633665000002],[-6.086193379999997,42.276130179999996],[-6.0839235700000245,42.27608323999999],[-6.084275830000024,42.277586610000014],[-6.084741210000004,42.27817743000003],[-6.085310689999972,42.27916166],[-6.085202059999972,42.279668879999974],[-6.08127343000001,42.29061674000002],[-6.072899619999987,42.31718153000003],[-6.071669149999991,42.317079449999994],[-6.070544810000001,42.317163619999974],[-6.064581579999981,42.316548850000004],[-6.061120130000006,42.31647929000002],[-6.058770050000021,42.316307929999994],[-6.056769210000027,42.316082170000016],[-6.050024300000018,42.32037725999999],[-6.047728469999981,42.32183414999997],[-6.050155270000005,42.323588589999986],[-6.048068590000014,42.326111519999984],[-6.042664820000027,42.32603904000001],[-6.039088730000003,42.329645949999986],[-6.035014450000006,42.32971794000002],[-6.034599749999984,42.32992703000002],[-6.03419150000002,42.33102745999997],[-6.034082839999996,42.33129149000001],[-6.033866820000014,42.33159438000001],[-6.033445589999985,42.33192071000002],[-6.033105309999996,42.332415990000015],[-6.032732140000007,42.332732050000004],[-6.032572360000017,42.333447680000006],[-6.032078819999981,42.33378492000003],[-6.031702569999993,42.33454230000001],[-6.03164559999999,42.33840699000001],[-6.031616149999991,42.33855184999999],[-6.031409150000002,42.33929575000002],[-6.0314807199999905,42.343814399999985],[-6.0316715800000225,42.34525917000002],[-6.0323396,42.34703350000001],[-6.032898009999997,42.35157528000002],[-6.032817420000015,42.352928169999984],[-6.031415680000009,42.35256005000002],[-6.030941089999999,42.352284440000005],[-6.029811750000022,42.35202614999997],[-6.029171710000014,42.35209710999999],[-6.028537289999974,42.35228497999998],[-6.028233709999995,42.352536139999984],[-6.026651990000005,42.35448702000002],[-6.026240550000011,42.35476804000001],[-6.024851630000001,42.35542607000002],[-6.023644100000013,42.356322439999985],[-6.022998270000016,42.35703287000001],[-6.020995840000012,42.358571530000006],[-6.019996180000021,42.358994110000026],[-6.0069771799999785,42.35587863000001],[-6.006927140000016,42.35839235999998],[-6.006292289999976,42.36213712],[-6.009029080000005,42.36223636],[-6.002720169999975,42.3766119],[-6.001285859999996,42.37990030999998],[-6.0008794500000135,42.380802459999984],[-6.003210899999999,42.385883250000006],[-5.99831518000002,42.39403499000002],[-6.000340730000005,42.396260229999996],[-5.999804470000015,42.39749896000001],[-5.999498150000022,42.398209380000026],[-5.999092440000027,42.39836408000002],[-5.997160090000023,42.39911704999997],[-5.994576269999982,42.39996807],[-5.992799160000004,42.400410729999976],[-5.986267069999997,42.40485861000002],[-5.98204118000001,42.40721996000002],[-5.981412859999978,42.407038209999996],[-5.975074919999997,42.40123265],[-5.971723069999996,42.39766359999999],[-5.9682836299999735,42.39325925999998],[-5.964055789999975,42.395061680000026],[-5.962901369999997,42.39582997000002],[-5.961636440000007,42.39657407999999],[-5.959881580000001,42.39749291999999],[-5.957908239999995,42.39841739000002],[-5.957444699999996,42.398636469999985],[-5.955904229999987,42.39920753000001],[-5.956571639999993,42.40100032999999],[-5.954247350000003,42.400664070000005],[-5.952742899999976,42.40045071999998],[-5.95229052000002,42.40039032999999],[-5.951581190000013,42.40029155000002],[-5.951520130000006,42.39924853000002],[-5.946168699999987,42.395496089999995],[-5.944536620000008,42.39307065999998],[-5.943699120000019,42.39204760000001],[-5.944328709999979,42.38992423000002],[-5.942014610000001,42.39005572000002],[-5.939937330000021,42.390316170000006],[-5.939797469999974,42.38966239000001],[-5.93934084,42.38872857000001],[-5.938980959999981,42.38830555999999],[-5.937881730000015,42.387397220000025],[-5.941362169999991,42.38103136000001],[-5.9420674799999915,42.381049270000005],[-5.946214450000014,42.38115880999999],[-5.948445750000019,42.37952551000001],[-5.949639069999989,42.37907156],[-5.9502531200000135,42.378956689999995],[-5.952466790000017,42.378764579999995],[-5.953704889999983,42.378489530000024],[-5.954944990000001,42.377998289999994],[-5.954123680000009,42.37654263000002],[-5.953903860000025,42.37599899000003],[-5.953777290000005,42.375371900000005],[-5.953841010000019,42.37465885],[-5.954094170000019,42.37384186000003],[-5.954176340000004,42.37326342],[-5.954000829999984,42.372628580000026],[-5.953582729999994,42.372000000000014],[-5.952987749999977,42.371484039999984],[-5.943696409999973,42.36626604999998],[-5.942645490000018,42.36066484000003],[-5.939775440000005,42.35275997000002],[-5.939791870000022,42.350769420000006],[-5.9397888500000136,42.350184160000026],[-5.944883500000003,42.34723471000001],[-5.946845810000013,42.346103640000024],[-5.9469168699999955,42.34606579000001],[-5.955744030000005,42.34351508999998],[-5.958889950000014,42.34226322000001],[-5.958663430000001,42.34054007999998],[-5.95697825000002,42.340583589999994],[-5.955625559999987,42.34098770000003],[-5.954434149999997,42.34120754000003],[-5.952765279999994,42.341340609999975],[-5.948028969999996,42.34129146999999],[-5.944440709999981,42.34139275000001],[-5.942806070000017,42.34147976999998],[-5.940578609999989,42.341609000000005],[-5.940433540000015,42.341621729999986],[-5.93878509000001,42.34167302999998],[-5.937379089999979,42.34145694],[-5.932044879999978,42.33977453],[-5.930454150000003,42.34028348999999],[-5.9299219600000015,42.34032411999999],[-5.929109659999995,42.34008374000001],[-5.926101959999983,42.336738620000006],[-5.925728660000004,42.336541039999986],[-5.924610770000015,42.337037839999994],[-5.9243114999999875,42.33660422999998],[-5.923053419999974,42.334862310000005],[-5.9222606100000235,42.333468719999985],[-5.922179540000002,42.33329069000001],[-5.923871420000012,42.33208586000001],[-5.923550009999985,42.331697829999996],[-5.920137580000016,42.32824581],[-5.921350669999981,42.32771059999999],[-5.9198879900000065,42.32626202],[-5.919481379999979,42.32586715000002],[-5.921557319999977,42.324049220000006],[-5.920655140000008,42.32291055000002],[-5.920154599999989,42.32205879999998],[-5.919156559999976,42.319895970000005],[-5.917718130000026,42.31949135000002],[-5.913308710000024,42.317550359999984],[-5.91301334000002,42.31719765999998],[-5.9113045099999795,42.31461156],[-5.90908804999998,42.31101173000002],[-5.908498780000002,42.31007213999999],[-5.906631119999986,42.30956120000002],[-5.9053533200000174,42.30947653999999],[-5.904479449999997,42.30973282999997],[-5.903591679999977,42.310214599999995],[-5.902414420000014,42.31046954999999],[-5.9009905199999935,42.310901839999985],[-5.900664559999996,42.31093711],[-5.900222919999976,42.31083122000001],[-5.8987955499999885,42.309867759999975],[-5.898267859999976,42.30973702],[-5.896923689999994,42.30952787000001],[-5.894803869999976,42.308806989999994],[-5.89346334999999,42.30814744000003],[-5.893012259999978,42.30783464000001],[-5.892950439999993,42.30780919],[-5.891941850000023,42.30697915000002],[-5.889962400000002,42.305876420000004],[-5.889161759999979,42.305347289999986],[-5.885775319999993,42.30345146000002],[-5.884372170000006,42.302478199999996],[-5.883643500000005,42.302991829999996],[-5.88320994999998,42.30279561999998],[-5.882324789999984,42.30253871999997],[-5.881492190000017,42.30290186000002],[-5.880556479999996,42.30313251000001],[-5.87963781000002,42.30347078],[-5.879329729999995,42.303631610000025],[-5.878619500000013,42.304018670000005],[-5.87748246000001,42.30462355999998],[-5.877046230000019,42.30463451999998],[-5.875991829999975,42.30439082999999],[-5.875702230000002,42.30442511000001],[-5.875258389999999,42.304535310000006],[-5.872865880000006,42.307143800000006],[-5.873005649999982,42.30648291],[-5.8733501899999965,42.30578987000001],[-5.875476880000008,42.30320604999997],[-5.876538630000027,42.301747569999975],[-5.876789229999986,42.301390070000025],[-5.877491930000019,42.300039649999974],[-5.878206309999996,42.29867992999999],[-5.8791252600000234,42.29648657000001],[-5.879499920000001,42.29512636999999],[-5.879520870000022,42.295053800000005],[-5.879561360000025,42.29461153],[-5.879465700000026,42.29410962999998],[-5.878982389999976,42.29308616999998],[-5.878247190000025,42.29159175000001],[-5.87750428999999,42.28939510999999],[-5.877071679999972,42.28921687000002],[-5.872045119999996,42.28616409],[-5.8723953400000255,42.284264199999996],[-5.872405819999983,42.28422791999998],[-5.872578480000016,42.28322400000002],[-5.872113259999992,42.2831276],[-5.870989669999972,42.28268747999999],[-5.86638757999998,42.28068643],[-5.866190500000016,42.28061932000003],[-5.863524869999992,42.27986648000001],[-5.859112910000022,42.27884196000002],[-5.858592369999997,42.27859379],[-5.857599839999978,42.27836639999998],[-5.854326879999974,42.27812376999998],[-5.852995360000023,42.2784451],[-5.852795539999988,42.278585150000026],[-5.852090690000011,42.27908897999998],[-5.850163909999992,42.279118900000014],[-5.8499943300000155,42.27912312000001],[-5.849943040000028,42.279061360000014],[-5.849254470000005,42.27831302999999],[-5.847391700000003,42.277071569999976],[-5.8465174899999965,42.27650793999999],[-5.841056900000012,42.272915239999975],[-5.840869559999987,42.272793809999996],[-5.834072390000017,42.27209757999998],[-5.828319490000013,42.27359951],[-5.827417910000008,42.273774849999995],[-5.826252280000006,42.27401071999998],[-5.825689350000005,42.27470900999998],[-5.823636679999993,42.27680380999999],[-5.818557059999989,42.27655963000001],[-5.815858699999978,42.276688999999976],[-5.811449209999978,42.27678824999998],[-5.805268370000022,42.2809651],[-5.803711910000004,42.28223692],[-5.802107079999985,42.28323974],[-5.798864830000014,42.28478683999998],[-5.796457719999978,42.28410717000003],[-5.794231179999997,42.28339602],[-5.790716599999996,42.282076829999994],[-5.789247209999985,42.28258088000001],[-5.786207789999992,42.28460897000002],[-5.785038569999983,42.28532180000002],[-5.783972759999983,42.28645534999998],[-5.783302020000008,42.28692190999999],[-5.780095280000012,42.28818845000001],[-5.779976900000008,42.288254359999996],[-5.778488729999992,42.289163970000004],[-5.777393360000019,42.29018110999999],[-5.773589070000014,42.293037889999994],[-5.772859470000014,42.29244318000002],[-5.771982630000025,42.292086170000005],[-5.769875409999997,42.292713460000016],[-5.767538619999982,42.293085099999985],[-5.766505559999985,42.293038000000024],[-5.7628566000000205,42.29336017000003],[-5.762028740000005,42.29329007000001],[-5.760149350000006,42.29275001000002],[-5.759287509999979,42.292734740000014],[-5.758322510000028,42.29285702999999],[-5.757792680000023,42.29183416000001],[-5.756730709999999,42.29167961000002],[-5.75613936000002,42.29174785999999],[-5.7548007199999915,42.291924129999984],[-5.754969309999979,42.292730559999995],[-5.752589300000011,42.295174169999996],[-5.750441969999997,42.29655852000002],[-5.750062860000014,42.29704491000001],[-5.749681090000024,42.29858497999999],[-5.748843539999996,42.300523209999994],[-5.748119270000018,42.301720279999984],[-5.746194409999987,42.30181145],[-5.745329700000013,42.30173310999999],[-5.743583080000008,42.30229724999998],[-5.742310640000028,42.302327709999986],[-5.741581979999978,42.30202995000002],[-5.740879889999974,42.30206476000001],[-5.740614059999984,42.30208913000001],[-5.73975089999999,42.30232589000002],[-5.737854939999977,42.30252429000001],[-5.731989689999978,42.30406909999999],[-5.728067839999994,42.30427058999999],[-5.725294630000008,42.30410243],[-5.722869479999986,42.303565719999995],[-5.720560309999996,42.30346746999999],[-5.711473880000028,42.30289934000001],[-5.708226579999973,42.302705960000026],[-5.706738270000017,42.30279516000002],[-5.704196990000014,42.30322437000001],[-5.702455100000009,42.302490990000024],[-5.699947459999976,42.302856280000015],[-5.701071060000004,42.30388343999999],[-5.701772059999996,42.30438922000002],[-5.704584269999998,42.30716859],[-5.706801310000003,42.30992593000002],[-5.707583849999992,42.31091605],[-5.7091341099999795,42.312266239999985],[-5.710648069999991,42.31361726],[-5.708588290000023,42.31368398000001],[-5.708478430000014,42.313668559999996],[-5.707112779999989,42.31351172000001],[-5.7067224300000134,42.31374606999998],[-5.705836110000007,42.31429831999998],[-5.700640980000003,42.31651911],[-5.701154350000024,42.318308090000016],[-5.703403449999996,42.31840814999998],[-5.7054103300000065,42.31880204999999],[-5.706293309999978,42.31873617000002],[-5.707132580000007,42.318500219999976],[-5.708210959999974,42.31931223999999],[-5.708865790000004,42.320998780000025],[-5.709184530000016,42.32163962999999],[-5.710156690000019,42.32308452000001],[-5.710839099999987,42.32456325999999],[-5.711321279999993,42.32533532000002],[-5.711609249999981,42.32582380000002],[-5.714083440000024,42.32861092000002],[-5.714511389999984,42.329249170000026],[-5.715937650000001,42.33024197999998],[-5.717084220000004,42.33150257],[-5.7188434400000006,42.33346002000002],[-5.718932960000018,42.33356595999999],[-5.718700339999998,42.33436395000001],[-5.718660220000004,42.33596784000002],[-5.7188408299999764,42.33931353000003],[-5.7187615700000265,42.34310664999998],[-5.718619330000024,42.34374939999998],[-5.718834370000025,42.34507708000001],[-5.719693150000012,42.344723499999986],[-5.719755529999986,42.34532538000002],[-5.7196912,42.345804180000016],[-5.719737179999981,42.34630738999999],[-5.720023190000006,42.347309189999976],[-5.720109920000027,42.34763133000001],[-5.719916070000011,42.34820325999999],[-5.714215630000012,42.348608590000026],[-5.711056890000009,42.34883645999997],[-5.711479269999984,42.349907099999996],[-5.712257739999984,42.35417518999998],[-5.704948479999985,42.35756285999997],[-5.703869399999974,42.35816467000001],[-5.69936223000002,42.36009001000002],[-5.704043560000002,42.361375450000025],[-5.710884430000021,42.36148395999999],[-5.714509780000014,42.361362110000016],[-5.715607030000001,42.36118302],[-5.718722889999981,42.36107311000001],[-5.718307729999992,42.36214559000001],[-5.717320949999987,42.36404209],[-5.716657489999989,42.36555270000002],[-5.720586120000007,42.36485613000002],[-5.722092739999994,42.364595210000004],[-5.723007800000005,42.36666269],[-5.723038589999987,42.367094210000005],[-5.722251040000003,42.36910309000001],[-5.721473629999991,42.37106669999997],[-5.720451229999981,42.37410774],[-5.720844049999982,42.37448563999999],[-5.722430200000019,42.37605989999997],[-5.723352460000001,42.37688448],[-5.725799349999988,42.37869938],[-5.726127280000014,42.378979749999985],[-5.726923230000011,42.379690229999994],[-5.726509850000014,42.379961219999984],[-5.726037739999981,42.38027863999997],[-5.725872159999994,42.38038162999999],[-5.722578800000008,42.38202684999999],[-5.721778570000026,42.382622200000014],[-5.721300199999973,42.38279566],[-5.720707570000002,42.38285475999999],[-5.720647289999988,42.382865200000026],[-5.719705780000027,42.38328378],[-5.716951759999972,42.38420461999999],[-5.7127395699999965,42.38511490000002],[-5.709555360000024,42.38564050999997],[-5.707321490000027,42.38623364],[-5.704955629999972,42.38686584999999],[-5.704739899999993,42.38693397999998],[-5.703362509999977,42.38738974],[-5.699319409999987,42.38885385999998],[-5.694031510000002,42.39047319000002],[-5.689137130000006,42.391641789999994],[-5.6876422199999865,42.39191099999999],[-5.687172359999977,42.39200306999999],[-5.686243820000016,42.393303590000016],[-5.685268049999991,42.393497560000014],[-5.685358800000017,42.39448600999998],[-5.680637520000005,42.397163069999976],[-5.679587739999988,42.39933087999998],[-5.678063189999989,42.40205008999999],[-5.6771389099999965,42.4034585],[-5.676566999999977,42.404867679999995],[-5.676155520000009,42.405192469999974],[-5.67527407,42.40560928999997],[-5.677417419999983,42.40572130999999],[-5.6778730699999755,42.40586374999998],[-5.678928359999986,42.40667657],[-5.680669990000013,42.40762640000003],[-5.682928430000004,42.40872619999999],[-5.684150579999994,42.40917485],[-5.687378710000019,42.410783149999986],[-5.687637489999986,42.410867129999986],[-5.6887857199999985,42.411290450000024],[-5.691356789999986,42.41258986999998],[-5.694293909999999,42.41420481],[-5.69779484999998,42.4156443],[-5.699418690000016,42.41666866000003],[-5.699581539999997,42.41678188999998],[-5.701252679999982,42.41805726000001],[-5.701925300000028,42.41843763000003],[-5.702483089999987,42.418973789999995],[-5.704033320000008,42.42026098000002],[-5.704311259999997,42.42050655999998],[-5.707066039999972,42.42238662],[-5.707583609999972,42.42283365999998],[-5.709301960000005,42.42519742000002],[-5.710015670000018,42.42681047999997],[-5.712364600000001,42.43082522999998],[-5.7127669399999945,42.43169820999998],[-5.713172120000024,42.43235499999997],[-5.71363298,42.43289340000001],[-5.715235469999982,42.43425122999997],[-5.715502440000023,42.43480323],[-5.716246450000028,42.435704120000025],[-5.716551530000004,42.436012059999996],[-5.71675381,42.436754699999995],[-5.717044729999998,42.43842275999998],[-5.717875989999982,42.43993391999999],[-5.719679690000021,42.44284479999999],[-5.720504450000021,42.444203010000024],[-5.722835770000017,42.44385045000001],[-5.725936549999972,42.443578590000016],[-5.7274026800000115,42.443462650000015],[-5.7285521599999925,42.443894539999974],[-5.729429760000016,42.444224829999996],[-5.730191789999992,42.44441379],[-5.733204329999978,42.44518843999998],[-5.733731309999996,42.445283930000016],[-5.7344914099999755,42.44542788000001],[-5.735346330000027,42.445794690000014],[-5.7370299500000215,42.44620472999998],[-5.738832300000013,42.446548870000015],[-5.742102079999995,42.44736216000001],[-5.74368075000001,42.447594519999996],[-5.745194379999987,42.447729349999975],[-5.746969390000004,42.448001980000015],[-5.749332670000001,42.44893585],[-5.749815220000016,42.45190496999999],[-5.750513459999979,42.455355180000026],[-5.751299130000007,42.45857816],[-5.751870540000027,42.46190533999999],[-5.753805010000008,42.47440297000003],[-5.753959749999979,42.47543483999999],[-5.755246569999997,42.47509772000001],[-5.757189069999981,42.47445664999998],[-5.758127409999986,42.47421793000001],[-5.760005929999977,42.473506310000005],[-5.762089899999978,42.47304184000001],[-5.762839989999975,42.47267255000003],[-5.763683449999974,42.472490110000024],[-5.7665843699999755,42.471519580000006],[-5.766919599999994,42.472502039999995],[-5.76859300000001,42.474865969999996],[-5.7692698700000165,42.476146340000014],[-5.769956779999973,42.47710228],[-5.769025250000027,42.478322479999974],[-5.764359290000016,42.48120875000001],[-5.756939590000002,42.485394840000026],[-5.755982300000028,42.485760070000026],[-5.754433419999998,42.48622956999998],[-5.753001310000002,42.48658818000001],[-5.74892294,42.48791983000001],[-5.748201950000009,42.488126239999986],[-5.747778519999997,42.48818141999999],[-5.742115269999999,42.490838559999986],[-5.742591409999989,42.49198882000002],[-5.742903290000015,42.49327807999998],[-5.743306500000017,42.49415092999999],[-5.743383800000004,42.49452729000001],[-5.743203149999999,42.49540510999998],[-5.742381280000018,42.49553285000002],[-5.7414068799999995,42.49579031000002],[-5.739134159999992,42.49641200000002],[-5.737860560000001,42.49706379999998],[-5.73691709000002,42.49719441000002],[-5.735606189999999,42.497549909999975],[-5.735398350000025,42.49752785999999],[-5.733284739999988,42.49733517999999],[-5.73333451000002,42.498477639999976],[-5.732224340000016,42.498972390000006],[-5.731311779999999,42.49953446000001],[-5.730923910000001,42.50012903999999],[-5.730739190000008,42.50035857],[-5.71434819000001,42.504044050000005],[-5.711748720000003,42.5086622],[-5.716369079999993,42.50827356000002],[-5.718624050000017,42.509192610000014],[-5.721782130000008,42.51745632000001],[-5.7261886,42.519413680000014],[-5.727246830000013,42.52079328000002],[-5.73460326999998,42.517249979999974],[-5.734471480000025,42.51813562000001],[-5.734100409999996,42.51911703000002],[-5.732519910000008,42.521117849999996],[-5.733936459999995,42.521777439999994],[-5.736115149999989,42.51981633999998],[-5.7392408399999795,42.520029790000024],[-5.739010800000017,42.52674406],[-5.739182669999991,42.52705513000001],[-5.742096839999988,42.53244246000003],[-5.743681770000023,42.53360218],[-5.74213524999999,42.53471080999998],[-5.734013319999974,42.540560159999984],[-5.733112360000007,42.541121970000006],[-5.731685570000025,42.53912086999998],[-5.730650079999975,42.53743459999998],[-5.73008544999999,42.53677268000001],[-5.729402730000004,42.53619462],[-5.728613689999975,42.535691129999975],[-5.727756370000009,42.535297319999984],[-5.726979480000011,42.535072679999985],[-5.726363470000024,42.534907239999995],[-5.726117069999987,42.53484107000003],[-5.724190560000011,42.53449969000002],[-5.72305609,42.53529209999999],[-5.719418819999987,42.53873741000001],[-5.718107789999976,42.53883157000001],[-5.715761419999978,42.536671979999994],[-5.7097100400000045,42.53555460000001],[-5.707200609999973,42.534965580000005],[-5.70713902,42.53494903000001],[-5.705643370000018,42.53471422000001],[-5.700326130000008,42.534236369999974],[-5.695691350000004,42.53631766000001],[-5.689689750000014,42.53805265],[-5.688569649999977,42.537205459999996],[-5.687639779999984,42.53596657999998],[-5.685980770000015,42.53333999],[-5.6853230199999985,42.53248192000001],[-5.684499630000005,42.53173579000003],[-5.6836196799999925,42.53109003999998],[-5.682869470000014,42.530630340000016],[-5.68094468999999,42.530036059999986],[-5.678217570000015,42.52633573000003],[-5.674989779999976,42.526870429999974],[-5.6736755499999845,42.52802675999999],[-5.672292060000018,42.52813108999999],[-5.672106659999997,42.52835153000001],[-5.671892200000002,42.528804089999994],[-5.671436330000006,42.52976296000003],[-5.670971380000026,42.53056624999999],[-5.670480839999982,42.531054960000006],[-5.669093270000019,42.53278026999999],[-5.66808739999999,42.53374924000002],[-5.666781879999974,42.535688719999996],[-5.665660500000001,42.53709261],[-5.664583209999989,42.53867556],[-5.664463169999976,42.539002530000005],[-5.664169759999993,42.53926150000001],[-5.663525849999985,42.53958265],[-5.662543669999991,42.54025386000001],[-5.6621442,42.54059633000003],[-5.659573819999991,42.54229497],[-5.658939789999977,42.54284999999999],[-5.658607159999974,42.54304682999998],[-5.657607030000008,42.54387150000002],[-5.65652209000001,42.54470712],[-5.655388420000008,42.54525570999999],[-5.652907490000018,42.547924679999994],[-5.654110049999986,42.55072440999999],[-5.654185380000001,42.55106486],[-5.6542808799999875,42.551593939999975],[-5.652757450000024,42.55358333999999],[-5.652398129999995,42.55372674],[-5.650662329999989,42.55444231000001],[-5.648272060000011,42.55494786000003],[-5.645598849999999,42.55423521],[-5.643751210000005,42.553746579999995],[-5.643409360000021,42.55372745],[-5.642781179999986,42.55385001000002],[-5.640933870000026,42.55423481999998],[-5.638274410000008,42.5599153],[-5.636928880000028,42.560360530000025],[-5.636713999999984,42.56046452999999],[-5.635591280000028,42.560994660000006],[-5.633301979999999,42.562461129999974],[-5.6329242699999895,42.56274896999997],[-5.631697180000003,42.56369569999998],[-5.630480270000021,42.56488531999997],[-5.629934789999993,42.56524003999999],[-5.6280486499999824,42.56703033000002],[-5.6252457100000015,42.569039739999994],[-5.624343249999981,42.569888900000024],[-5.623939609999979,42.57014128999998],[-5.623602210000001,42.57023005999997],[-5.6233883699999865,42.571522689999995],[-5.623594609999998,42.572373449999986],[-5.6252642499999865,42.57528886],[-5.625471749999974,42.57587844],[-5.625816980000025,42.57887821999998],[-5.6262844099999825,42.58043438999999],[-5.626789780000024,42.58115221000003],[-5.627102050000019,42.581334149999975],[-5.627509060000023,42.58145087999998],[-5.627996759999974,42.58145769999999],[-5.6289409999999975,42.58130994999999],[-5.629944630000011,42.58257463000001],[-5.630615890000001,42.58346872999999],[-5.631239979999975,42.58439992000001],[-5.626848189999976,42.585734460000026],[-5.624182560000008,42.58638991999999],[-5.620717230000025,42.58686552],[-5.619303349999996,42.587150010000016],[-5.618046590000006,42.58740388000001],[-5.6166414699999905,42.587607100000014],[-5.611501260000011,42.58795859000003],[-5.609759380000014,42.58851609999999],[-5.609528969999985,42.58858888999998],[-5.608151969999994,42.59005208000002],[-5.607366399999989,42.59050222000002],[-5.604574459999981,42.59075937],[-5.603445700000009,42.590861589999975],[-5.602109369999994,42.59098202000001],[-5.6010248200000206,42.59122278000001],[-5.600443919999975,42.59134854000001],[-5.598028020000015,42.59187616000003],[-5.593872719999979,42.592789830000015],[-5.58930368,42.59370371],[-5.587567420000028,42.594157199999984],[-5.586719739999978,42.59427090999998],[-5.586355360000027,42.59431966],[-5.58785081000002,42.59761774999998],[-5.587951449999991,42.59784060999999],[-5.588538669999991,42.59840816000002],[-5.5894393799999875,42.59927929000003],[-5.589838989999976,42.599666479999996],[-5.591074909999975,42.60085871000001],[-5.592121609999992,42.601996670000005],[-5.5921193799999855,42.603311459999986],[-5.592114250000009,42.60628324999999],[-5.592113680000011,42.60650838999999],[-5.59359876000002,42.60880707000001],[-5.5936717700000145,42.60888646000001],[-5.597675040000013,42.613316259999976],[-5.600828610000008,42.61761211999999],[-5.60163467000001,42.621285890000024],[-5.602476130000014,42.62512093999999],[-5.60312485999998,42.62807786000002],[-5.603854150000018,42.63140215999999],[-5.603407749999974,42.63414984999997],[-5.604077959999984,42.63647592000001],[-5.604240720000007,42.63745376999998],[-5.604214119999995,42.63798566999998],[-5.602694589999999,42.63839844],[-5.601896220000015,42.638520140000026],[-5.594781179999984,42.63962264999998],[-5.5934692199999745,42.640336769999976],[-5.592814060000023,42.638658659999976],[-5.588152530000002,42.629948179999985],[-5.587446689999979,42.62863138],[-5.580082919999995,42.623655670000005],[-5.570788069999992,42.621019149999995],[-5.568691849999993,42.620422340000005],[-5.565968940000005,42.61965042999998],[-5.565579700000001,42.61950607],[-5.564689559999977,42.619170310000015],[-5.564641619999975,42.61915338],[-5.564577320000012,42.6191278]],[[-5.275248920000024,42.13087206],[-5.275999959999979,42.13055996000003],[-5.276258999999982,42.130023470000026],[-5.278358159999982,42.13053112],[-5.279972600000008,42.130679129999976],[-5.281003619999979,42.130415459999995],[-5.281943399999989,42.130306700000006],[-5.28212855999999,42.129735649999986],[-5.281053550000024,42.12809998],[-5.281926520000013,42.12747920999999],[-5.283522609999977,42.12846508000001],[-5.284434200000021,42.12757334999998],[-5.286227419999989,42.12630380000002],[-5.286293590000014,42.12578915],[-5.287318540000001,42.12468801],[-5.288789300000019,42.12521700999997],[-5.290422770000021,42.12455397000002],[-5.2918445500000075,42.12506589999998],[-5.292616039999984,42.124654220000025],[-5.292431280000017,42.123892420000004],[-5.293037739999988,42.12360110999998],[-5.292308820000017,42.12217476000001],[-5.2930354900000225,42.121863029999986],[-5.293450000000007,42.12228701999999],[-5.293183010000007,42.12259855999997],[-5.294572990000006,42.12357039],[-5.295946809999975,42.12175072000002],[-5.29687899999999,42.121101640000006],[-5.299184239999988,42.12095634999997],[-5.30079594,42.12003242999998],[-5.302199169999994,42.119031629999995],[-5.3058244800000125,42.11826531000003],[-5.307536970000001,42.117789560000006],[-5.309362780000015,42.11710436999999],[-5.309700850000013,42.11608890000002],[-5.311652670000001,42.11521202],[-5.313026890000003,42.11441880000001],[-5.314192339999977,42.113539720000006],[-5.318598570000006,42.11297337000002],[-5.319509779999976,42.112090369999976],[-5.320418350000011,42.11279244999997],[-5.321487960000013,42.11194225000003],[-5.3218027899999925,42.110296819999974],[-5.321979750000025,42.108519100000024],[-5.32115871000002,42.10756311],[-5.320542020000005,42.10590953000002],[-5.31727871999999,42.103643060000024],[-5.3121558600000185,42.099450769999976],[-5.308045390000018,42.09814671999999],[-5.304904430000022,42.09556221999998],[-5.3053257600000165,42.09417586000001],[-5.302547849999996,42.09225943000001],[-5.299966310000002,42.09075324999998],[-5.299855289999982,42.09069244],[-5.298407730000008,42.088442999999984],[-5.292814220000025,42.086888939999994],[-5.292254570000011,42.08679205999999],[-5.29031230999999,42.085903280000025],[-5.284808890000022,42.085499760000005],[-5.283439489999978,42.08540995999999],[-5.276348489999975,42.08456032999999],[-5.273985879999998,42.08441809999999],[-5.273414979999984,42.084681579999994],[-5.271250539999983,42.08568810999998],[-5.268067859999974,42.08730012000001],[-5.265086279999991,42.087773330000005],[-5.257362209999997,42.08918649999998],[-5.253967740000007,42.092684510000026],[-5.2537936100000024,42.09391273],[-5.25607444000002,42.09583113999997],[-5.256391860000008,42.09625717],[-5.257385499999998,42.097678540000004],[-5.2583369199999765,42.09927184999998],[-5.258403639999983,42.10251262999998],[-5.258586320000006,42.104931599999986],[-5.26129997999999,42.10710253000002],[-5.261261549999972,42.11146210999999],[-5.263659179999991,42.11391841],[-5.258270610000011,42.11749194999999],[-5.256138000000021,42.119091949999984],[-5.256853089999993,42.12083401000001],[-5.258601899999974,42.12306904000002],[-5.264760019999983,42.12783768999998],[-5.267450380000014,42.12898228],[-5.269982229999982,42.12975168999998],[-5.275248920000024,42.13087206]],[[-6.008794939999973,42.32197172000002],[-6.008670629999983,42.32216409],[-6.010086049999984,42.32207288000001],[-6.011120930000004,42.32214475000001],[-6.01279599999998,42.322154739999974],[-6.013314569999977,42.32208707000001],[-6.015246209999987,42.322387460000016],[-6.015489030000026,42.32239006999998],[-6.015787209999985,42.32253530999998],[-6.0171722000000045,42.322823029999995],[-6.019213390000004,42.32312946000002],[-6.020488100000023,42.32314088999999],[-6.020364239999992,42.320046390000016],[-6.020610939999983,42.318355929999996],[-6.020725500000026,42.31720025999999],[-6.020783269999981,42.31637927000003],[-6.020031510000024,42.31639008000002],[-6.01820687999998,42.31629407999998],[-6.015540999999985,42.31585998999998],[-6.011500220000016,42.31534491000002],[-6.010902559999977,42.31527956999997],[-6.010477139999978,42.31526373000003],[-6.010392309999986,42.31526595999998],[-6.009438240000009,42.31535463],[-6.009801190000019,42.31610096000003],[-6.009891919999973,42.316476790000024],[-6.009906720000004,42.31729587000001],[-6.010152310000024,42.318883330000006],[-6.0099705299999755,42.31990567999998],[-6.010064370000009,42.320092320000015],[-6.010205620000022,42.320764],[-6.0101318399999855,42.32125221000001],[-6.009348690000024,42.32162398000003],[-6.008794939999973,42.32197172000002]]]}}]}