{"type": "FeatureCollection", "features": [{"type": "Feature", "properties": {"OBJECTID": 1780, "ZON_CO_ID": 61, "ZON_DS_NOM": "Toro", "CAL_DS_NOM": "D.O.Toro", "TPR_DS_DES": "Denominación de Origen", "TPR_DS_GRU": "CALIDAD DIFERENCIADA", "FAM_DS_NOM": "Vinos"}, "geometry": {"type": "Polygon", "coordinates": [[[-5.18068138000001, 41.579522999999995], [-5.179580709999982, 41.57889540999997], [-5.179015419999985, 41.57956361999999], [-5.179072259999998, 41.580183999999974], [-5.177638769999987, 41.58000401999999], [-5.177284380000003, 41.58052411], [-5.177770850000002, 41.58072205000002], [-5.177873209999973, 41.58126951000003], [-5.175085860000024, 41.58185370000001], [-5.173859160000006, 41.57925599999999], [-5.173301680000009, 41.57765436], [-5.172232249999979, 41.572585860000004], [-5.171368420000022, 41.571503380000024], [-5.1715547000000015, 41.57097748000001], [-5.170290500000021, 41.569398190000015], [-5.171382329999972, 41.56905332000002], [-5.170681779999995, 41.56747238999998], [-5.171350249999989, 41.567378700000006], [-5.16881828999999, 41.563031290000026], [-5.168302799999992, 41.56196023000001], [-5.168036289999975, 41.560803410000005], [-5.1676963599999794, 41.557090089999974], [-5.167552810000018, 41.55674154000002], [-5.1671890200000234, 41.55590178], [-5.167824730000007, 41.5559078], [-5.167203659999984, 41.553109440000014], [-5.167570130000001, 41.55151734999998], [-5.169022470000016, 41.551922260000026], [-5.169108040000026, 41.55125414999998], [-5.172444960000007, 41.548858370000005], [-5.173129210000013, 41.547809659999984], [-5.174787729999991, 41.547571129999994], [-5.17496318000002, 41.54851351000002], [-5.175743420000003, 41.54818349999999], [-5.176321869999981, 41.54827161999998], [-5.1762010799999985, 41.54681483000002], [-5.177987420000022, 41.546456739999996], [-5.178270039999973, 41.54594700000001], [-5.17950067999999, 41.545464330000016], [-5.181395829999985, 41.543708089999996], [-5.181817029999991, 41.54304259999998], [-5.182814640000004, 41.542762460000006], [-5.1819461499999875, 41.540464240000006], [-5.182999250000023, 41.53969668000002], [-5.18346348, 41.53888626000003], [-5.183729939999978, 41.538611], [-5.185670720000019, 41.537151040000026], [-5.185020539999982, 41.535641269999985], [-5.184580859999983, 41.533974390000026], [-5.186303720000012, 41.53387858000002], [-5.187242179999998, 41.53433808], [-5.187664629999972, 41.534068839999975], [-5.188928180000005, 41.53350438000001], [-5.189532260000021, 41.53293445999998], [-5.187855070000012, 41.53189459999999], [-5.187671749999993, 41.53179001000001], [-5.185163120000027, 41.53026156999999], [-5.185517090000019, 41.52795813], [-5.186336929999982, 41.52632132999997], [-5.187112599999978, 41.525153709999984], [-5.187667659999988, 41.52419744000002], [-5.188875670000016, 41.52305761000002], [-5.190923069999997, 41.521577519999994], [-5.19243203000002, 41.520125689999986], [-5.187677119999989, 41.51451505], [-5.186650139999983, 41.513552860000004], [-5.185783839999999, 41.51309198000001], [-5.184860140000012, 41.511992710000015], [-5.184203379999985, 41.511347709999995], [-5.183857190000026, 41.51103003999998], [-5.180315489999998, 41.50653989], [-5.178990909999982, 41.504556509999986], [-5.179496620000009, 41.50391645000002], [-5.180071250000026, 41.503545280000026], [-5.180461739999998, 41.50304249999999], [-5.181070550000015, 41.50190509999999], [-5.182013480000023, 41.50108560000001], [-5.182556149999982, 41.500120589999995], [-5.182892659999993, 41.49943868999998], [-5.1862049900000216, 41.49569195999999], [-5.1830865300000255, 41.49379677000002], [-5.183467989999997, 41.493384219999996], [-5.187672329999998, 41.49016991000002], [-5.188157699999977, 41.489287020000006], [-5.189200819999996, 41.48682631999998], [-5.189979460000018, 41.483983360000025], [-5.190587129999983, 41.48104458], [-5.190743300000008, 41.47963654], [-5.190675559999988, 41.478692120000005], [-5.191799279999998, 41.47898593999997], [-5.192271989999995, 41.47950832999999], [-5.1948041800000055, 41.480369689999975], [-5.195157670000015, 41.48055209], [-5.19564269, 41.481083230000024], [-5.196414080000011, 41.48158188000002], [-5.197955270000023, 41.48288543000001], [-5.198716040000022, 41.483069030000024], [-5.20105946000001, 41.481177790000004], [-5.201695830000006, 41.48051712], [-5.201921190000007, 41.48009848999999], [-5.20290258, 41.479016890000025], [-5.2038142600000015, 41.479413729999976], [-5.205432739999992, 41.47981500999998], [-5.206473420000009, 41.47977702999998], [-5.208955820000028, 41.480224729999975], [-5.20950363999998, 41.48013314000002], [-5.210292100000004, 41.47972169000002], [-5.210711660000015, 41.47938037], [-5.212340050000023, 41.479015790000005], [-5.215860669999984, 41.479353290000006], [-5.216994629999988, 41.47994388000001], [-5.220061699999974, 41.4796235], [-5.221401909999997, 41.47993986], [-5.223037970000007, 41.48015142000003], [-5.224390760000006, 41.48013426], [-5.225270290000026, 41.47993709999997], [-5.229728210000019, 41.48001283999997], [-5.23199206999999, 41.479671689999975], [-5.234082080000007, 41.478802470000005], [-5.236442239999974, 41.47847737000001], [-5.238355210000009, 41.47803483000001], [-5.240372330000014, 41.4771399], [-5.241591219999975, 41.47706210000001], [-5.246579080000004, 41.47272258999999], [-5.249353040000017, 41.47017348999998], [-5.254115399999989, 41.466612639999994], [-5.2583146399999805, 41.46271138999998], [-5.259075199999984, 41.46220108], [-5.259842349999985, 41.46050174999999], [-5.261512040000014, 41.45928003], [-5.266863919999992, 41.45343737000002], [-5.268864580000013, 41.451416429999995], [-5.2693731599999865, 41.45020850999998], [-5.270592249999993, 41.44877939000003], [-5.271120520000011, 41.44848073999998], [-5.271094210000001, 41.447040189999996], [-5.271528020000005, 41.44677942999999], [-5.272222510000006, 41.44609921], [-5.27413181999998, 41.44421509], [-5.274320090000003, 41.44343679000002], [-5.2753576499999895, 41.441614930000014], [-5.276422529999991, 41.44057609999999], [-5.277217940000014, 41.44004697999998], [-5.277069050000023, 41.439554559999976], [-5.2771940100000165, 41.43902069000001], [-5.277977430000021, 41.43814953999998], [-5.278485419999981, 41.43693258000002], [-5.278543019999972, 41.43686838999997], [-5.279521530000011, 41.43575920000001], [-5.281971320000025, 41.43360304999999], [-5.284049610000011, 41.43177846999998], [-5.286100710000028, 41.42986432999999], [-5.286741080000013, 41.429356229999996], [-5.286950649999994, 41.429189940000015], [-5.2875614000000155, 41.42852031000001], [-5.2883118999999965, 41.42808206000001], [-5.293505949999997, 41.42503341999998], [-5.298430199999984, 41.42215205999997], [-5.30387017999999, 41.417287699999974], [-5.304463409999983, 41.41680746999998], [-5.3055215100000055, 41.415939649999984], [-5.307536560000017, 41.41405286999998], [-5.308586119999973, 41.41260876000001], [-5.310261459999992, 41.41126916000002], [-5.3103739800000085, 41.41039325000003], [-5.310741210000003, 41.40927805000001], [-5.311126290000004, 41.40866686999999], [-5.312156430000016, 41.407691460000024], [-5.315990769999985, 41.40550676999999], [-5.317790979999984, 41.40365116999999], [-5.318714849999992, 41.403056119999974], [-5.3204880200000275, 41.40145321], [-5.320224069999995, 41.400422760000026], [-5.320483079999974, 41.39963396000002], [-5.321136109999998, 41.39916144], [-5.321351460000017, 41.39849061000001], [-5.321462689999976, 41.39590344999999], [-5.32229854000002, 41.39418432000002], [-5.322752900000012, 41.39350865], [-5.325238010000021, 41.39041419], [-5.331846639999981, 41.38391274999998], [-5.333041270000024, 41.38153779999999], [-5.333314359999974, 41.379812000000015], [-5.334077069999978, 41.37773401999999], [-5.334004040000025, 41.37502451], [-5.334136399999977, 41.37237388], [-5.33462449000001, 41.370643710000024], [-5.333480000000009, 41.36605553999999], [-5.333494359999975, 41.36478531], [-5.333477669999979, 41.36130909000002], [-5.333127760000025, 41.35820890000002], [-5.332641029999991, 41.357300090000024], [-5.332163419999972, 41.35597679], [-5.32794690999998, 41.34667725000003], [-5.324425360000021, 41.340416749999974], [-5.323929249999992, 41.33822914000001], [-5.323214080000014, 41.335928869999975], [-5.323130230000004, 41.333570810000026], [-5.323138649999976, 41.33347156999997], [-5.323174129999984, 41.33245310000001], [-5.3235884100000135, 41.33167015999999], [-5.32180532000001, 41.32890508999998], [-5.321872600000006, 41.327435649999984], [-5.322120139999981, 41.326331849999974], [-5.322594949999996, 41.325907959999995], [-5.326127600000007, 41.322774349999975], [-5.340659159999973, 41.314526839999985], [-5.349905050000018, 41.31750875], [-5.349931190000007, 41.31757126999997], [-5.350577419999979, 41.32026006000001], [-5.353172560000019, 41.32033311999999], [-5.354354829999977, 41.32065118999998], [-5.359229889999995, 41.321992420000015], [-5.366485099999977, 41.32042944], [-5.3694971200000055, 41.320466539999984], [-5.371816609999996, 41.319527110000024], [-5.372292490000007, 41.319472270000006], [-5.373024299999997, 41.319556250000005], [-5.378290859999993, 41.318186620000006], [-5.379697190000002, 41.31514034000003], [-5.379896340000016, 41.31470390999999], [-5.379458779999993, 41.31220010999999], [-5.380055019999986, 41.310530570000026], [-5.381844179999973, 41.30717913000001], [-5.384827630000018, 41.304811659999984], [-5.390779650000013, 41.30230143], [-5.390971030000003, 41.30198223000002], [-5.393669020000004, 41.29737781], [-5.395006009999975, 41.29703476999998], [-5.397135939999998, 41.29649506999999], [-5.406810679999978, 41.29717584000002], [-5.407781600000021, 41.29759684999999], [-5.427363130000003, 41.30615605000003], [-5.429191500000002, 41.30714422], [-5.440459410000017, 41.31333648999998], [-5.446617740000022, 41.30775676000002], [-5.458659699999998, 41.30843678999997], [-5.460886430000016, 41.30856933000001], [-5.46419757000001, 41.30546327000002], [-5.464731299999983, 41.303461389999995], [-5.462067859999991, 41.299654610000005], [-5.465500200000008, 41.30009448999999], [-5.473458619999974, 41.30336417000001], [-5.476607520000016, 41.30356662999998], [-5.479698159999998, 41.304751969999984], [-5.486502710000025, 41.30685674], [-5.494522440000026, 41.310745069999996], [-5.492890559999978, 41.32778467999998], [-5.492331820000004, 41.33349788999999], [-5.491969200000028, 41.33777484000001], [-5.491841249999993, 41.33911957999999], [-5.497125760000017, 41.341058480000015], [-5.497762490000014, 41.33520843000002], [-5.499337060000016, 41.33388630000002], [-5.49999016999999, 41.33346682000001], [-5.504182430000014, 41.32967396999999], [-5.514850079999974, 41.32464083000002], [-5.517767260000028, 41.32282977], [-5.514960579999979, 41.32223369000002], [-5.518897139999979, 41.320526400000006], [-5.517193200000008, 41.31940186999998], [-5.508636490000015, 41.323686710000004], [-5.508242600000017, 41.323073850000014], [-5.507647010000028, 41.322186190000025], [-5.510099560000015, 41.32134013000001], [-5.511965750000002, 41.32047081000002], [-5.514209359999995, 41.31885467000001], [-5.517681260000018, 41.31718460000002], [-5.521020029999988, 41.316093739999985], [-5.523233800000014, 41.31526163000001], [-5.523921480000013, 41.31450801], [-5.52450773999999, 41.3136035], [-5.525730169999974, 41.312468860000024], [-5.526897510000026, 41.31207396000002], [-5.527635980000014, 41.31140026000003], [-5.529670739999972, 41.308725630000026], [-5.531815779999988, 41.30643580999998], [-5.533288029999994, 41.30466514], [-5.534381310000015, 41.30359629999998], [-5.53810365999999, 41.30133463999999], [-5.541653960000019, 41.300184460000025], [-5.5439634100000035, 41.299683070000015], [-5.544868240000028, 41.29930279000001], [-5.546763870000007, 41.29829712999998], [-5.548180049999985, 41.29724802999999], [-5.551065619999974, 41.29468025], [-5.549788970000009, 41.292258790000005], [-5.549402629999975, 41.29153782999998], [-5.55147728999998, 41.29053713000002], [-5.562190690000023, 41.28539939000001], [-5.5938933200000065, 41.27335842999997], [-5.5939184700000055, 41.27489797999999], [-5.594128220000016, 41.275974029999986], [-5.594454779999978, 41.27698441000001], [-5.594782660000021, 41.27893143], [-5.594381279999993, 41.280552650000004], [-5.598412769999982, 41.28526210000001], [-5.5985004199999935, 41.28566541999999], [-5.598426990000007, 41.28652269999998], [-5.598889480000025, 41.28704363000003], [-5.599075089999985, 41.28750776999999], [-5.599173329999985, 41.28847825999998], [-5.599146780000012, 41.28961368], [-5.599524889999998, 41.291316370000004], [-5.599692500000003, 41.29162781000002], [-5.599991579999994, 41.292242499999986], [-5.600807900000007, 41.29235012999999], [-5.602099899999985, 41.29270817999998], [-5.60315079999998, 41.293008629999974], [-5.603539749999982, 41.293179950000024], [-5.604087400000026, 41.29343775000001], [-5.605474459999982, 41.29498246999998], [-5.608813370000007, 41.29875255000002], [-5.613975400000015, 41.296428719999994], [-5.615179060000003, 41.296365330000015], [-5.616851230000009, 41.296669529999974], [-5.618142780000028, 41.29641497], [-5.620184160000008, 41.29639549000001], [-5.625236120000011, 41.299081290000004], [-5.62670627, 41.29970519], [-5.62461116999998, 41.30136520000002], [-5.622743029999981, 41.30332621000002], [-5.621132950000003, 41.30547044000002], [-5.620911190000015, 41.306196020000016], [-5.619086219999986, 41.30804790000002], [-5.618449629999986, 41.30885497000003], [-5.618244549999986, 41.30910282000002], [-5.617484909999973, 41.31041705000001], [-5.613990059999992, 41.31353173999997], [-5.613683519999995, 41.314529419999985], [-5.613054429999977, 41.31522820999999], [-5.612661870000011, 41.315867579999974], [-5.612573510000004, 41.31634694000002], [-5.612272829999995, 41.316894160000004], [-5.6107924500000195, 41.31841385000001], [-5.608036560000016, 41.32150256], [-5.605376569999976, 41.32370639999999], [-5.603366059999985, 41.32692221999997], [-5.602543449999985, 41.33176830999997], [-5.602034899999978, 41.332500330000016], [-5.6015125000000126, 41.33348486], [-5.6014791900000205, 41.33354865000001], [-5.60108581999998, 41.33387277999998], [-5.6004967800000145, 41.33498488999999], [-5.600434580000012, 41.33582389999998], [-5.600507769999979, 41.33646170999998], [-5.6003394300000195, 41.33673571000003], [-5.599397660000022, 41.33769367999997], [-5.599370439999973, 41.33791044999998], [-5.599047470000016, 41.338503170000024], [-5.599044479999975, 41.33872839999998], [-5.598789570000008, 41.33922952], [-5.598838629999989, 41.33956165000001], [-5.598647830000004, 41.339872179999986], [-5.599831180000024, 41.34017867], [-5.601411910000024, 41.341160650000006], [-5.6042417300000125, 41.34199725000002], [-5.604701560000024, 41.34213993999998], [-5.605514470000003, 41.342445759999976], [-5.605696799999976, 41.34252268], [-5.606311049999988, 41.342941069999995], [-5.606989580000004, 41.34377230000001], [-5.607673449999993, 41.34503570999999], [-5.608433380000008, 41.346108259999994], [-5.608648949999974, 41.34641859999999], [-5.6091670100000215, 41.346821139999975], [-5.608546079999996, 41.34683523000001], [-5.608695039999986, 41.347273169999994], [-5.610241280000025, 41.35007510999998], [-5.610717000000022, 41.350613710000005], [-5.612177949999989, 41.351877460000026], [-5.613362849999987, 41.35311144000002], [-5.615811780000001, 41.35486605], [-5.616821029999983, 41.35529341], [-5.618982899999992, 41.35584763000003], [-5.619397610000021, 41.356054330000006], [-5.620893959999989, 41.35729915000002], [-5.6232795600000145, 41.35865876999998], [-5.625309500000014, 41.35949506999998], [-5.626748780000014, 41.35812924999999], [-5.628616850000014, 41.356726579999986], [-5.630406709999988, 41.35575798999997], [-5.628644409999993, 41.36423732999998], [-5.626102209999999, 41.36642094000001], [-5.625923049999983, 41.36672224], [-5.626026939999974, 41.36692701999999], [-5.625861530000009, 41.367273039999986], [-5.624700749999988, 41.36843434999997], [-5.6241064000000165, 41.36881718000001], [-5.624245389999999, 41.37108362999999], [-5.623713640000005, 41.372131509999974], [-5.623369369999978, 41.37338225000002], [-5.616177059999984, 41.3759058], [-5.61514741000002, 41.37676682], [-5.612474659999975, 41.378998120000006], [-5.612150190000023, 41.37955489000001], [-5.611488619999989, 41.38035346999999], [-5.610226790000013, 41.38109363000001], [-5.6060646799999745, 41.38436730000001], [-5.604352740000024, 41.386117309999975], [-5.6036070999999765, 41.38661153999999], [-5.600561980000009, 41.389121190000026], [-5.59784891999999, 41.390965789999996], [-5.593058289999988, 41.392902230000004], [-5.591969889999973, 41.39350317999998], [-5.591167540000015, 41.39407965999999], [-5.590249830000005, 41.39506402000001], [-5.59013539, 41.39579612], [-5.590395639999997, 41.39602443000001], [-5.591954240000007, 41.39671881999999], [-5.5931395399999815, 41.39734957000002], [-5.593765609999991, 41.39745253000001], [-5.5949887099999955, 41.39783022], [-5.595575230000009, 41.398141210000006], [-5.5960962699999754, 41.39830957999999], [-5.596820579999985, 41.398176139999975], [-5.5983258599999886, 41.398430340000004], [-5.599226229999999, 41.39911248999999], [-5.600562290000028, 41.400820520000025], [-5.603388110000026, 41.404485220000026], [-5.605265459999998, 41.40626199000002], [-5.605970259999992, 41.40623701999999], [-5.606827109999983, 41.40642473999998], [-5.607233049999991, 41.40670374000001], [-5.607262639999988, 41.40714437999998], [-5.607521200000008, 41.40732765000001], [-5.607743529999993, 41.407502739999984], [-5.608600840000008, 41.40740224000001], [-5.608263039999997, 41.408526689999974], [-5.608343629999979, 41.40934444999999], [-5.608648800000026, 41.410094060000006], [-5.608838419999984, 41.41094536999998], [-5.610272909999992, 41.413902930000006], [-5.611447740000017, 41.41515515999998], [-5.609827569999993, 41.41682209999999], [-5.597863259999997, 41.42912559000001], [-5.584222969999985, 41.44123135000001], [-5.5782215400000155, 41.446544759999995], [-5.57935187999999, 41.44999588000002], [-5.571940540000014, 41.452683709999974], [-5.565964310000027, 41.45443839000001], [-5.560969730000011, 41.45528827999999], [-5.556011249999983, 41.456146149999995], [-5.555630670000028, 41.45651486000003], [-5.554945029999999, 41.45673725], [-5.5530454099999815, 41.457752140000025], [-5.552391800000009, 41.45818093999998], [-5.551114009999992, 41.458263339999974], [-5.549022480000019, 41.45866097999999], [-5.54820589000002, 41.45859803000002], [-5.544899139999984, 41.45914861], [-5.543906639999989, 41.459485789999974], [-5.542446910000024, 41.46012151000002], [-5.541825920000008, 41.460468479999975], [-5.541400549999992, 41.46091919999998], [-5.5406856100000255, 41.461313270000005], [-5.540017429999978, 41.462291719999996], [-5.5401637499999765, 41.46358541000001], [-5.540363950000028, 41.46380614999998], [-5.541373749999991, 41.46452234999998], [-5.5412474299999985, 41.46496646000003], [-5.541451479999978, 41.46651105000001], [-5.5416369100000225, 41.46666005999998], [-5.544523609999999, 41.466380060000006], [-5.546294520000004, 41.46604364000001], [-5.54714955999998, 41.46616879999999], [-5.548352290000025, 41.46691670000001], [-5.548853440000016, 41.46778821999999], [-5.549048519999985, 41.46909882], [-5.549723850000021, 41.46983138000002], [-5.551053000000024, 41.47044134999999], [-5.551717020000012, 41.47057971999999], [-5.552243400000009, 41.47026182000002], [-5.552404579999973, 41.47040234000002], [-5.553059469999994, 41.47061295999998], [-5.553622850000011, 41.47062747000001], [-5.555182360000003, 41.47039468000003], [-5.555593030000011, 41.47048461999998], [-5.555947769999989, 41.47067487999999], [-5.556151569999997, 41.47098556999998], [-5.5561182199999735, 41.471355570000014], [-5.555974719999995, 41.471664980000014], [-5.555954040000017, 41.472052710000014], [-5.556256689999998, 41.47213605000002], [-5.557124919999978, 41.47259408000002], [-5.5578672099999835, 41.47319900999997], [-5.556378979999977, 41.476159180000025], [-5.559842609999976, 41.478964150000024], [-5.561114599999996, 41.480547960000024], [-5.5639712999999915, 41.48465424], [-5.559566580000023, 41.488679160000004], [-5.555604739999978, 41.49057757999998], [-5.554971350000017, 41.49421222000001], [-5.554712610000024, 41.49569501000002], [-5.553938200000005, 41.500134349999996], [-5.553794779999976, 41.50120929000002], [-5.553800980000005, 41.502280919999976], [-5.555163820000018, 41.504033900000024], [-5.555199589999972, 41.50409615000001], [-5.556309929999998, 41.506061869999996], [-5.557235800000001, 41.50705900000003], [-5.557622750000007, 41.508185190000006], [-5.557831280000016, 41.50879299000002], [-5.557307830000013, 41.51192985], [-5.556861369999979, 41.51337179000001], [-5.5569854199999895, 41.513783320000016], [-5.556999050000002, 41.51473770000001], [-5.556983489999993, 41.514837109999974], [-5.556797249999988, 41.51600308000002], [-5.55610704999998, 41.51734235999999], [-5.553986010000017, 41.520082419999994], [-5.5534368500000255, 41.52104929000001], [-5.553299960000004, 41.52152967000001], [-5.5533695799999805, 41.52268994000002], [-5.553164670000001, 41.52296468999998], [-5.5523291100000165, 41.523658720000014], [-5.552244640000026, 41.52394880000003], [-5.552364150000017, 41.52454956999998], [-5.552839489999997, 41.52506589000001], [-5.553052809999997, 41.52529981999999], [-5.553702509999994, 41.52658229999997], [-5.553699750000021, 41.526645410000015], [-5.553647790000014, 41.527799379999976], [-5.553598169999987, 41.52890825999998], [-5.553587540000024, 41.52914265999999], [-5.553194749999989, 41.530097049999995], [-5.552438870000003, 41.53193313000003], [-5.551590850000025, 41.534446720000005], [-5.550268280000012, 41.53891620000002], [-5.549945789999981, 41.54199452], [-5.5493441500000245, 41.54224203000001], [-5.549043700000027, 41.542527889999974], [-5.548667850000015, 41.54272536000002], [-5.547881010000026, 41.54375150999999], [-5.546620599999983, 41.54706676000001], [-5.545780030000003, 41.55039070999999], [-5.545208460000026, 41.55230370999999], [-5.544942849999984, 41.55319221000002], [-5.544571200000007, 41.553803860000016], [-5.544388040000001, 41.554006060000006], [-5.544180489999974, 41.55423581000002], [-5.543957050000017, 41.554299300000025], [-5.5437654500000235, 41.55435308], [-5.543237659999988, 41.55465296], [-5.541996779999977, 41.55603137000003], [-5.541957210000021, 41.55614032], [-5.5417582700000025, 41.556676100000004], [-5.541578990000005, 41.55822015000001], [-5.540835940000022, 41.56067731000002], [-5.53992015, 41.562399760000005], [-5.5387428500000055, 41.56540688000001], [-5.538025000000005, 41.566674620000015], [-5.537708889999976, 41.56748317], [-5.53779381999999, 41.56781453000002], [-5.538021829999991, 41.568124720000014], [-5.539172829999984, 41.56872973999998], [-5.540420779999977, 41.56919750999998], [-5.541266240000027, 41.569512050000014], [-5.540597699999978, 41.569896089999986], [-5.539830129999984, 41.570201259999976], [-5.537784639999984, 41.57125516999997], [-5.5369172800000115, 41.57207588], [-5.5360414400000195, 41.573293060000026], [-5.535598760000028, 41.57362705999998], [-5.534784940000009, 41.57397824999998], [-5.534523400000012, 41.57434426999998], [-5.5338561899999945, 41.57476427], [-5.53320358000002, 41.575442959999975], [-5.531574180000007, 41.57713820999999], [-5.530442250000021, 41.578559129999974], [-5.53012708, 41.57908844000002], [-5.529902820000018, 41.57979587], [-5.529774369999984, 41.57972215000001], [-5.529277209999975, 41.579440379999994], [-5.527594659999977, 41.575973929999975], [-5.527173679999976, 41.57471328999998], [-5.524867280000024, 41.57092727000003], [-5.5235907300000235, 41.571099419999996], [-5.522332880000022, 41.57113604], [-5.521021850000011, 41.57103871999999], [-5.5196856000000025, 41.570919419999996], [-5.519421130000012, 41.5708937], [-5.51813937999998, 41.57185844999998], [-5.515543770000022, 41.57358147999997], [-5.514553879999994, 41.57318434000001], [-5.51320456000002, 41.57264194999999], [-5.509686110000018, 41.57098060999999], [-5.506832610000004, 41.56914253000002], [-5.505981640000016, 41.56884587000002], [-5.5047182199999725, 41.56811686999998], [-5.503895759999978, 41.56793664999998], [-5.502346540000019, 41.56788032999998], [-5.5002329299999815, 41.56811546], [-5.499232479999989, 41.567984120000006], [-5.496953179999991, 41.56827683], [-5.496137669999996, 41.56827652999999], [-5.493628380000018, 41.56882636], [-5.491057179999984, 41.56963865], [-5.488249929999995, 41.571176519999995], [-5.487534310000001, 41.57003018], [-5.486999939999976, 41.570158830000025], [-5.486476799999991, 41.57028723000002], [-5.485676699999999, 41.57037659000002], [-5.481132259999981, 41.57008751000001], [-5.478905059999988, 41.56986538000001], [-5.480969210000012, 41.56833477999999], [-5.4834831699999995, 41.56696554000001], [-5.481660560000023, 41.56603222000001], [-5.478162600000019, 41.56362192], [-5.477075490000004, 41.56296536999997], [-5.474541690000024, 41.56143931999998], [-5.473677570000007, 41.56079144], [-5.47338886, 41.56048242999998], [-5.471827449999978, 41.558813799999996], [-5.468864909999979, 41.55627461], [-5.4617569200000275, 41.55096916999997], [-5.459584230000019, 41.549637700000005], [-5.45812823, 41.54918249999997], [-5.4565377100000205, 41.548973330000024], [-5.455979490000004, 41.54879612000002], [-5.454671430000019, 41.54813057000001], [-5.451141800000016, 41.545783159999985], [-5.450237570000013, 41.54619422000002], [-5.449291329999994, 41.54662417999998], [-5.446937489999982, 41.548106329999996], [-5.444500800000014, 41.549301990000004], [-5.444434870000009, 41.54936193999998], [-5.444152599999995, 41.54960661000001], [-5.442877539999984, 41.54981385000002], [-5.442062899999996, 41.54983116], [-5.441147650000005, 41.54973351000001], [-5.440991600000018, 41.54971881], [-5.440719450000017, 41.549625520000006], [-5.440311240000028, 41.54948108000002], [-5.439397149999991, 41.54942392999999], [-5.4386537500000145, 41.54908395000001], [-5.438062339999988, 41.548979410000015], [-5.435911719999979, 41.54917812000002], [-5.434625970000013, 41.54878205], [-5.432464200000027, 41.548683719999985], [-5.428140040000017, 41.54782947000001], [-5.426848979999988, 41.547289320000004], [-5.425427239999976, 41.547742640000024], [-5.422679089999974, 41.54831395999997], [-5.421213420000015, 41.54887622000001], [-5.420345039999972, 41.549380859999985], [-5.415689209999982, 41.55345964999998], [-5.41336462999999, 41.554728850000004], [-5.412346090000028, 41.554484539999976], [-5.411850519999973, 41.55437785999999], [-5.411487070000021, 41.55427739999999], [-5.411086669999975, 41.55415070999999], [-5.410383079999974, 41.55393128999998], [-5.410116549999998, 41.55418006000002], [-5.40986165999999, 41.55441956999999], [-5.409289300000012, 41.55482784999998], [-5.408842370000002, 41.55506237999998], [-5.407863299999974, 41.55549719999999], [-5.406757760000005, 41.55607874999998], [-5.4061810300000275, 41.55637002999998], [-5.405864199999996, 41.55655679], [-5.405372999999997, 41.556891310000026], [-5.4041422999999895, 41.557655590000024], [-5.402671619999978, 41.558740109999974], [-5.400991540000007, 41.560000109999976], [-5.399530410000011, 41.561345570000015], [-5.398475969999993, 41.56234028], [-5.397759010000016, 41.563057749999984], [-5.397202470000025, 41.563249489999976], [-5.396446550000007, 41.56356247000002], [-5.395832629999973, 41.56381393999999], [-5.395501560000014, 41.56395143999998], [-5.3948831000000155, 41.564090420000014], [-5.394068930000003, 41.564125390000015], [-5.3927258400000255, 41.56412634999998], [-5.391041649999977, 41.56412537], [-5.387521240000012, 41.564126509999994], [-5.382755040000006, 41.56398224999998], [-5.379607210000017, 41.56741591000002], [-5.375437750000003, 41.567853420000006], [-5.3752088400000275, 41.567876160000026], [-5.374266630000022, 41.56796767999998], [-5.373844889999987, 41.567913350000026], [-5.373690959999976, 41.56784448000002], [-5.372906320000027, 41.56750041999999], [-5.372156539999992, 41.567002530000025], [-5.371417710000003, 41.566824129999986], [-5.370012610000003, 41.56689365], [-5.36975923, 41.56694391000002], [-5.366950200000019, 41.567290000000014], [-5.3649264499999845, 41.567547820000016], [-5.363655470000026, 41.56770906999998], [-5.361035510000022, 41.56393515000002], [-5.359805279999989, 41.56275354000002], [-5.358696039999984, 41.56192970000001], [-5.358556529999987, 41.56186501000002], [-5.354343649999976, 41.55996544999999], [-5.349700530000007, 41.5585744], [-5.346908139999982, 41.55762271999998], [-5.346431069999994, 41.55736227], [-5.345358299999987, 41.556213309999976], [-5.343888760000027, 41.55636038], [-5.343190890000017, 41.55629355000002], [-5.338879570000017, 41.55511145000003], [-5.338902019999978, 41.552409039999986], [-5.339278110000009, 41.55020379000001], [-5.338056440000003, 41.55090414], [-5.3372278400000255, 41.551533440000014], [-5.332326819999992, 41.55661362000001], [-5.331878280000012, 41.55747835], [-5.331542109999987, 41.558133639999994], [-5.3298087900000155, 41.55961884999999], [-5.327595429999974, 41.561095739999985], [-5.325248460000012, 41.563196749999975], [-5.323289760000023, 41.564758470000015], [-5.322695629999998, 41.56558107000001], [-5.322177889999978, 41.56652821], [-5.3214448300000186, 41.56883069000003], [-5.321115010000028, 41.569332710000026], [-5.32027789, 41.570070139999984], [-5.319755009999994, 41.57054003000002], [-5.319348670000011, 41.57125073999998], [-5.319087869999976, 41.57301228], [-5.3184680300000196, 41.573790350000024], [-5.317409300000008, 41.57437011000002], [-5.316553419999991, 41.57458551000002], [-5.315463060000013, 41.57461648999998], [-5.314917279999975, 41.574447350000014], [-5.313432350000028, 41.573504549999996], [-5.3123743200000035, 41.573769019999986], [-5.31184546999998, 41.573401390000015], [-5.310068520000016, 41.574022549999995], [-5.3099661800000035, 41.574853210000015], [-5.308246670000017, 41.575067890000014], [-5.307432679999977, 41.57410252], [-5.303065819999972, 41.575424020000014], [-5.302347310000016, 41.575456429999974], [-5.302445110000008, 41.57483302000003], [-5.3023399499999755, 41.57457393999999], [-5.3016580500000146, 41.57462362000001], [-5.300562130000003, 41.57280823000002], [-5.299792830000001, 41.57276058000002], [-5.299328769999988, 41.57252669000002], [-5.299678780000022, 41.571574], [-5.297489330000019, 41.57172587000002], [-5.295800509999992, 41.57212888999999], [-5.295324919999985, 41.57224646999998], [-5.293478040000025, 41.57258956999999], [-5.294171349999999, 41.57455716999999], [-5.293073330000027, 41.57437193999999], [-5.2891605899999945, 41.57191911000001], [-5.288610600000027, 41.57094834999998], [-5.287702109999998, 41.57035399], [-5.286534410000002, 41.56989088], [-5.284885190000011, 41.569716529999994], [-5.283203640000011, 41.56862412999999], [-5.282940010000004, 41.56692713000001], [-5.2825447899999745, 41.56660173], [-5.280316490000018, 41.56530399000002], [-5.279344079999987, 41.56425150000001], [-5.280505310000024, 41.56214793999999], [-5.278566099999978, 41.56122269999997], [-5.272618879999982, 41.55918789999998], [-5.2726712200000065, 41.558628450000015], [-5.272004289999984, 41.557047469999986], [-5.272256879999986, 41.556727249999994], [-5.27281911, 41.55634686000002], [-5.272859779999976, 41.55579664999999], [-5.273386689999995, 41.555092720000005], [-5.2733094199999755, 41.554256640000006], [-5.274108099999978, 41.55309699999998], [-5.274177459999976, 41.55268131999998], [-5.273944429999972, 41.551848319999976], [-5.273481549999985, 41.55095682000001], [-5.272651040000028, 41.550180669999975], [-5.27216390000001, 41.55064964000002], [-5.2702443300000255, 41.551300019999985], [-5.264723049999986, 41.55112975999998], [-5.264009769999973, 41.55164817999997], [-5.256908660000022, 41.548113160000014], [-5.257424720000017, 41.54709429000002], [-5.256314970000005, 41.54689991999999], [-5.251990920000026, 41.54666950000001], [-5.24778624999999, 41.54676983000002], [-5.247276680000027, 41.546941919999995], [-5.246009080000022, 41.54807450999999], [-5.245413159999998, 41.54886972999998], [-5.244303430000002, 41.550755779999974], [-5.243845190000002, 41.55241294000001], [-5.243571939999981, 41.55283257999997], [-5.242177799999979, 41.55377845999999], [-5.241572449999978, 41.55430365000001], [-5.2411639300000274, 41.555320359999996], [-5.239895919999981, 41.55610164000001], [-5.239400859999989, 41.55669671999999], [-5.23780137, 41.55690800999997], [-5.237529610000024, 41.55737263999998], [-5.237394080000001, 41.55726720000001], [-5.2355007200000045, 41.55904232], [-5.234222439999996, 41.55987778000002], [-5.230978030000017, 41.56247166999998], [-5.2306901900000184, 41.56281951], [-5.231401989999995, 41.56329204999997], [-5.225446229999989, 41.56726237999999], [-5.220696139999973, 41.56968698999998], [-5.220387329999994, 41.570125270000005], [-5.220203889999993, 41.57037199000001], [-5.21920664999999, 41.570670459999974], [-5.216032089999999, 41.57323556], [-5.215503459999979, 41.57285847000003], [-5.213752580000005, 41.574270230000025], [-5.211739780000016, 41.57503852000002], [-5.20906463, 41.57537819999999], [-5.206631589999972, 41.576136469999994], [-5.204990239999972, 41.57689750999998], [-5.201410010000018, 41.57778575999998], [-5.201091080000026, 41.57722445000002], [-5.198954570000012, 41.57753554999999], [-5.19651626000001, 41.57885212000002], [-5.194373680000012, 41.579694640000014], [-5.1944030299999895, 41.58020746], [-5.192752600000006, 41.58070730999998], [-5.18932233999999, 41.5814302], [-5.188830709999991, 41.58179081999998], [-5.18767016999999, 41.58223622999998], [-5.186932689999992, 41.58242139999999], [-5.185771369999998, 41.581777009999996], [-5.183688689999997, 41.58084388999998], [-5.18275865999999, 41.58065441999997], [-5.1818989199999805, 41.58005830000002], [-5.18068138000001, 41.579522999999995]]]}}]}