{"type":"FeatureCollection","features":[{"type":"Feature","properties":{"OBJECTID":1866,"ZON_CO_ID":70,"ZON_DS_NOM":"Valles de Benavente","CAL_DS_NOM":"V.C.Valles de Benavente","TPR_DS_DES":"Vino de Calidad","TPR_DS_GRU":"CALIDAD DIFERENCIADA","FAM_DS_NOM":"Vinos","classification":"VC","normalizedName":"Valles de Benavente"},"geometry":{"type":"Polygon","coordinates":[[[-6.154048450000005,42.16132236999999],[-6.143406560000017,42.15882307999999],[-6.142648529999974,42.15940217999997],[-6.141116409999995,42.16023661999998],[-6.1396669999999745,42.16127590000002],[-6.139283620000015,42.161844719999976],[-6.138097329999994,42.16306587999998],[-6.1377531399999725,42.16418292999998],[-6.137271250000026,42.164718419999986],[-6.1342919400000255,42.16321500999999],[-6.132162680000022,42.162255619999996],[-6.130989170000021,42.161531249999996],[-6.1284926199999745,42.16122118999999],[-6.12470922,42.15886597000002],[-6.119640899999979,42.15941823999998],[-6.116046859999983,42.15967807999999],[-6.113910589999989,42.16029444999998],[-6.105521090000025,42.161989860000006],[-6.0961833900000215,42.16088265000002],[-6.094457040000009,42.16097429000001],[-6.089599829999997,42.161645609999994],[-6.084381870000016,42.16062443999999],[-6.077563429999998,42.15904266000001],[-6.075606520000008,42.16186878000002],[-6.06750156999999,42.16021284999999],[-6.0572925999999825,42.15959405000001],[-6.052660730000014,42.159672450000016],[-6.049304989999996,42.159860820000006],[-6.046459959999993,42.15934211000001],[-6.034242119999988,42.15821627999998],[-6.028778110000019,42.157595319999984],[-6.023791490000008,42.15505238999998],[-6.020998490000011,42.153838259999986],[-6.020228859999975,42.15368744],[-6.016668830000015,42.15262849999999],[-6.0135857199999805,42.151926119999985],[-6.011861249999981,42.15180034000002],[-6.009372610000014,42.15112726000001],[-6.007268249999981,42.150390010000024],[-6.006035189999977,42.14939575],[-6.004408940000019,42.149042150000014],[-5.9956701899999985,42.146191009999995],[-5.992576369999995,42.14499304999998],[-5.989862010000024,42.14337087000001],[-5.985081890000004,42.139758229999984],[-5.98315599,42.13816938000002],[-5.981778829999996,42.13563869000001],[-5.974301260000004,42.13020458],[-5.97196839999998,42.129472599999986],[-5.967627590000006,42.12848638000003],[-5.9652732999999785,42.12807000999999],[-5.9646741899999824,42.12819357000001],[-5.962885389999997,42.12796965000001],[-5.96090104000001,42.127183419999994],[-5.957853520000015,42.124866680000025],[-5.956595110000023,42.12407966000001],[-5.953467779999983,42.12368299000002],[-5.953735310000013,42.12657582999998],[-5.9537189299999795,42.128305280000006],[-5.953302959999974,42.13002700999999],[-5.953119109999989,42.13205794999999],[-5.952251999999987,42.13500701999999],[-5.95020267000001,42.13881501999998],[-5.948120529999983,42.1419214],[-5.9451261699999804,42.142322560000025],[-5.935756340000012,42.14118510999998],[-5.933150599999976,42.13978393999997],[-5.931608719999986,42.13940914],[-5.926635429999976,42.14071593],[-5.92052099,42.140367579999975],[-5.914482710000016,42.14035917000001],[-5.911601189999999,42.14058548999998],[-5.90906382999998,42.14251401000001],[-5.906067319999977,42.143931810000026],[-5.902861889999997,42.150046599999996],[-5.901143859999991,42.15058539],[-5.897426160000009,42.15610062000002],[-5.896782529999996,42.155522529999985],[-5.897174899999982,42.155368529999976],[-5.894341469999972,42.152684480000005],[-5.890529169999979,42.15002504],[-5.882281079999984,42.1461443],[-5.880997309999998,42.145321060000015],[-5.882046049999985,42.142566079999995],[-5.8829591499999765,42.14082309999998],[-5.8848237899999845,42.13845280999999],[-5.883143039999993,42.13714428999998],[-5.881662759999983,42.135452480000026],[-5.878534899999977,42.13291050999999],[-5.8770726199999785,42.13134425999999],[-5.8767076400000064,42.130497909999974],[-5.87617702,42.13026808000001],[-5.874919069999976,42.12866967000002],[-5.873758510000016,42.12761812000002],[-5.8739888000000064,42.1273602],[-5.873181260000024,42.126623989999985],[-5.869266429999982,42.12217433000001],[-5.86680118999999,42.120083720000025],[-5.864835140000025,42.11940342999998],[-5.858174829999996,42.11584776000001],[-5.856275929999981,42.11493421],[-5.854326669999978,42.114352380000014],[-5.850242190000017,42.113085179999985],[-5.849373109999988,42.11258447],[-5.8465194899999915,42.11125049999998],[-5.844850710000003,42.110715570000025],[-5.840811089999988,42.11260779999998],[-5.839724620000027,42.11644398999999],[-5.838559710000027,42.11825590000001],[-5.838074740000025,42.118772209999975],[-5.836000549999994,42.11891358999998],[-5.832077649999974,42.11937075999998],[-5.830659309999987,42.12038737],[-5.826554709999982,42.121929490000014],[-5.825295559999972,42.12217664999997],[-5.821451850000017,42.12333393],[-5.812146289999987,42.126543319999996],[-5.8110002399999985,42.12743594],[-5.806492509999998,42.130554159999974],[-5.804635089999977,42.12986116000002],[-5.806368519999978,42.127747510000006],[-5.805333650000023,42.12458492000002],[-5.8026817400000255,42.12507303000001],[-5.802195810000001,42.12530103],[-5.8015781700000275,42.12610860000001],[-5.799237179999977,42.12651699000003],[-5.798135510000009,42.12759750999999],[-5.796357880000016,42.12761386],[-5.795077719999995,42.12711374999998],[-5.793607759999986,42.12724863],[-5.793045710000001,42.12739740000001],[-5.791226300000005,42.127288599999986],[-5.79034009999998,42.12776945000002],[-5.788963379999984,42.13085576999998],[-5.787939489999985,42.13343818999999],[-5.785211240000024,42.13357653000003],[-5.7833952199999885,42.13437707999998],[-5.782047350000028,42.13509419000002],[-5.780106980000028,42.13526732999998],[-5.776706620000027,42.13580898999999],[-5.77337442999999,42.135142169999995],[-5.769973300000004,42.13594481000001],[-5.764170390000004,42.13494114000002],[-5.7594870300000025,42.13436051999997],[-5.755193350000013,42.13662505000002],[-5.755224890000022,42.135399559999996],[-5.755131269999993,42.134357179999995],[-5.752864100000011,42.128666169999974],[-5.752788080000016,42.12802861],[-5.750992580000002,42.12428040999998],[-5.75207555999998,42.121354680000024],[-5.747859100000028,42.116439749999984],[-5.747392970000021,42.116009650000024],[-5.743229460000009,42.11342569999999],[-5.742947679999986,42.113342380000006],[-5.741291600000011,42.11336397000002],[-5.739531370000009,42.11377525],[-5.737315609999996,42.113720090000015],[-5.736211690000005,42.11420571000002],[-5.734531720000007,42.11451593999999],[-5.729869310000026,42.11466303999998],[-5.722987219999993,42.114664549999986],[-5.717510419999996,42.115001570000004],[-5.7131074399999875,42.115844270000025],[-5.710812589999989,42.116204719999985],[-5.708627030000002,42.11685971999998],[-5.706997279999996,42.11750157],[-5.705015870000011,42.11869201000002],[-5.704075419999981,42.1190474],[-5.6977982000000225,42.12077119000003],[-5.696842389999972,42.12076665000001],[-5.691782909999972,42.120120050000025],[-5.687664649999988,42.12027517000001],[-5.685297460000015,42.12036212999999],[-5.676768449999997,42.12033638999998],[-5.67645662000001,42.12097405999998],[-5.676390599999991,42.12141687000002],[-5.677120950000017,42.12353411999999],[-5.677445830000011,42.12406686999998],[-5.679140019999977,42.127809609999986],[-5.679776319999974,42.13084759999998],[-5.679728730000022,42.13258676999999],[-5.683578099999977,42.13435188],[-5.684706539999979,42.13500088000001],[-5.685606109999981,42.13567324000002],[-5.686944939999989,42.137289880000026],[-5.687177459999987,42.137923820000026],[-5.6870102299999985,42.13826094000001],[-5.685910620000016,42.139439400000015],[-5.6815590799999995,42.14154946000002],[-5.680950549999977,42.141752800000006],[-5.680463770000017,42.140827609999974],[-5.679627649999986,42.14022577999998],[-5.675051580000002,42.14074686999999],[-5.674125290000006,42.14058836999999],[-5.672475220000024,42.14048274999999],[-5.671410340000023,42.14076871999998],[-5.6686621900000205,42.14188634999999],[-5.667556460000014,42.14206517000002],[-5.666873070000008,42.14192796999998],[-5.665863290000004,42.14151018000001],[-5.665340089999972,42.14115312000001],[-5.6659104799999795,42.13687126000002],[-5.660363490000009,42.13529804000001],[-5.658714669999995,42.13550738999999],[-5.654300780000028,42.13382654999998],[-5.649261899999999,42.133979090000025],[-5.64522986999998,42.13216299999999],[-5.643392679999977,42.13104365999999],[-5.642912780000017,42.13055940999999],[-5.640792669999996,42.12583532999997],[-5.638183379999987,42.12214008000001],[-5.636276829999986,42.12079707999999],[-5.635637999999972,42.11968607],[-5.6350080000000276,42.11907917000002],[-5.634121259999972,42.11840611000002],[-5.630959580000024,42.11654249999998],[-5.630322420000027,42.11605279999998],[-5.626958230000014,42.1122125],[-5.626073510000026,42.111584359999995],[-5.6223424099999875,42.109391329999994],[-5.621601300000009,42.10872386],[-5.620137390000025,42.10665904000001],[-5.619487330000027,42.104971869999986],[-5.619564299999979,42.10302494000001],[-5.621272949999991,42.09959085000003],[-5.621602820000021,42.097620129999996],[-5.6236769999999865,42.09367334000001],[-5.624300189999985,42.09265948000001],[-5.625540150000006,42.09282022000002],[-5.626573819999976,42.09208511999998],[-5.628100319999987,42.09157286999999],[-5.633152999999993,42.08862026000003],[-5.635853950000012,42.08669408999998],[-5.63662703,42.08580279],[-5.638374189999979,42.08507818999999],[-5.637050390000013,42.08376683],[-5.636304540000026,42.083856019999985],[-5.63604620000001,42.08345671000001],[-5.635042610000028,42.08199387000002],[-5.634195990000023,42.08140094999999],[-5.628784499999995,42.08209246000001],[-5.625105150000024,42.083455500000014],[-5.624867300000005,42.083551],[-5.624486709999985,42.083465149999995],[-5.6210603299999775,42.082701499999985],[-5.619663419999995,42.08224711999998],[-5.617361329999994,42.082416739999985],[-5.61624347999998,42.082280149999974],[-5.6151819699999805,42.08204319999999],[-5.606240449999973,42.07950005999999],[-5.605307859999982,42.080637920000015],[-5.604374919999998,42.08058706999998],[-5.604205960000002,42.07970836999999],[-5.603781700000013,42.079384800000014],[-5.603440949999992,42.07932949999997],[-5.603153510000027,42.08028159000003],[-5.597340630000019,42.07944078999998],[-5.596820509999986,42.07913737000001],[-5.596609639999997,42.07870988000002],[-5.596863550000023,42.07811878000001],[-5.597815780000019,42.077755009999976],[-5.59733030000001,42.07652324999998],[-5.594551760000002,42.07597377000002],[-5.593865929999993,42.076052319999974],[-5.592828450000013,42.07669714999997],[-5.591385160000016,42.07865693999997],[-5.5888283400000205,42.077616009999986],[-5.588502249999976,42.07732619000001],[-5.589819009999985,42.07611674999998],[-5.588748520000024,42.07565462000002],[-5.589473109999972,42.07415236000003],[-5.58957737999998,42.073150399999975],[-5.589393649999977,42.072497150000004],[-5.588879480000003,42.07204046999999],[-5.5865000900000155,42.07119361000002],[-5.585544760000005,42.06731578],[-5.584138499999995,42.06750957000003],[-5.583508489999986,42.06598382999999],[-5.5845140999999785,42.06485350000003],[-5.587259529999983,42.058442739999975],[-5.58779235999998,42.05719697000001],[-5.58757688999998,42.05576094999998],[-5.58889326000002,42.05365998000002],[-5.588897289999977,42.052867400000025],[-5.588458300000013,42.052174879999995],[-5.587557279999999,42.051411729999984],[-5.586606510000024,42.05091085999999],[-5.585063569999988,42.05398050000002],[-5.583768710000015,42.05542353999999],[-5.5801693799999725,42.05844936],[-5.579443739999988,42.06440028999998],[-5.577721600000018,42.065447619999986],[-5.576727059999996,42.06536190000003],[-5.575159229999997,42.06484777999998],[-5.574665670000002,42.06459769999998],[-5.5735098499999935,42.062615419999986],[-5.569848709999974,42.05874404999997],[-5.569764819999989,42.05786339000002],[-5.568422720000001,42.05814558999998],[-5.565539619999981,42.05917366],[-5.564840769999989,42.05922529999998],[-5.563963460000025,42.05904678000002],[-5.561462450000022,42.057859870000016],[-5.561262759999977,42.05770223000002],[-5.561080950000019,42.056787729999996],[-5.560697520000019,42.05596778],[-5.557442330000015,42.06066917999999],[-5.557000479999999,42.06110229000001],[-5.553489039999988,42.06304460000001],[-5.552767089999975,42.06372707000003],[-5.552417300000002,42.06434722],[-5.5524310600000035,42.06589586000001],[-5.55226743999998,42.06663794999997],[-5.549454149999974,42.070329689999994],[-5.548416229999987,42.074594330000025],[-5.548246740000025,42.07700255999998],[-5.548439069999972,42.07848418999998],[-5.548247249999974,42.07912784000001],[-5.5471156599999745,42.080152569999996],[-5.546961339999996,42.08052522000003],[-5.547087320000003,42.08155805000001],[-5.546889360000023,42.082048740000005],[-5.546263399999987,42.08272003000002],[-5.546116690000019,42.08344371999999],[-5.545960460000003,42.08421265999999],[-5.544021699999973,42.086218840000015],[-5.544227030000002,42.09165359999997],[-5.544355719999999,42.09245222999999],[-5.541836760000024,42.098100439999996],[-5.543363290000002,42.099381419999986],[-5.527003850000028,42.10429961],[-5.526087889999985,42.103770440000005],[-5.525363410000011,42.10288584],[-5.524163410000028,42.10007552000002],[-5.522672059999991,42.09875749999998],[-5.522215630000005,42.09792100999999],[-5.521001990000002,42.09720023],[-5.520890759999986,42.097139630000015],[-5.519594659999996,42.09342182],[-5.518745599999988,42.091828480000004],[-5.517948139999987,42.09062123000001],[-5.518009450000022,42.08911597000002],[-5.518643080000004,42.08710284],[-5.518860729999972,42.085882319999996],[-5.518390570000008,42.084694909999996],[-5.516955259999975,42.08343413],[-5.51426994000002,42.08107505999999],[-5.513245709999978,42.07962961999999],[-5.510714950000022,42.07860439000001],[-5.509044679999988,42.07701995999997],[-5.507639489999974,42.07541169000001],[-5.506012139999996,42.07245741999998],[-5.503427750000014,42.06913678000001],[-5.501584400000013,42.06652036999998],[-5.502866480000023,42.06254796000002],[-5.50547542999999,42.05943811999998],[-5.507743839999989,42.05750638000001],[-5.505429300000003,42.05611606999997],[-5.503503389999992,42.05446508],[-5.500848899999994,42.05302806999998],[-5.498404160000007,42.05108211999999],[-5.496215570000004,42.04919358000001],[-5.495844149999982,42.04557244],[-5.4925033800000165,42.04356480000001],[-5.4893134299999815,42.04139169000001],[-5.486506229999975,42.038804949999985],[-5.49270580000001,42.03329409000003],[-5.48826342000001,42.02996843],[-5.4876681399999825,42.025856799999985],[-5.483891379999989,42.02316493000001],[-5.477824090000013,42.01839711000002],[-5.4728064199999835,42.01357933000003],[-5.472836480000012,42.01217381999999],[-5.471415589999992,42.01009713000002],[-5.471726989999979,42.006290060000026],[-5.474543540000013,42.006058240000016],[-5.478452749999974,42.004424889999996],[-5.47831137999998,42.00171726000002],[-5.478514940000025,42.000118869999994],[-5.479085269999985,41.99926002000001],[-5.479881470000009,41.998621430000014],[-5.483148480000011,41.996632550000015],[-5.484098819999986,41.99623373999998],[-5.488405890000024,41.99553701999997],[-5.493503939999982,41.9931479],[-5.4965270299999816,41.991731300000026],[-5.499265789999981,41.99045590999998],[-5.507674179999981,41.990002249999975],[-5.511908430000005,41.98655051999998],[-5.512546639999982,41.98589714000002],[-5.514031299999999,41.983748289999994],[-5.5142243000000235,41.983131679999985],[-5.516528110000024,41.98400874999999],[-5.51977721999998,41.98100161000002],[-5.521023220000018,41.97984853999998],[-5.522772110000005,41.97859433999997],[-5.52211662000002,41.97788830000002],[-5.523331649999989,41.97656477999999],[-5.525630509999985,41.975487569999984],[-5.526887409999972,41.97522574999999],[-5.528634950000026,41.97363829],[-5.527930760000004,41.97231196000001],[-5.527908560000014,41.97083551999998],[-5.525818070000014,41.968630140000016],[-5.5351996100000065,41.96540637999999],[-5.536439210000026,41.95711180000001],[-5.535155429999975,41.94877389999999],[-5.535076969999977,41.94831634000002],[-5.534057850000011,41.942386090000014],[-5.534216459999982,41.941518040000005],[-5.533284279999975,41.94021478000002],[-5.53096241999998,41.937627340000006],[-5.529005089999998,41.934797660000015],[-5.527781090000019,41.933734930000014],[-5.5270133000000214,41.93292330999998],[-5.526771810000014,41.931694849999985],[-5.523556600000006,41.92631712000002],[-5.522159520000002,41.92330387999999],[-5.522107779999999,41.923214959999996],[-5.521010629999978,41.92169008000002],[-5.517786399999977,41.91850978000002],[-5.516889610000021,41.91747578000002],[-5.516306770000028,41.91675909000003],[-5.516256460000022,41.91670615999999],[-5.512378350000006,41.913134790000015],[-5.511735359999989,41.912419399999976],[-5.509751890000018,41.91441705],[-5.507893799999977,41.91438563000003],[-5.506205070000021,41.914368490000015],[-5.503761320000024,41.91416065999999],[-5.498969439999996,41.91403095999999],[-5.491541659999996,41.91402135999999],[-5.487645320000013,41.91428601000001],[-5.485267609999994,41.91391426000001],[-5.484678859999974,41.91427822999998],[-5.482881700000007,41.91426309000002],[-5.48219813999998,41.91435892999999],[-5.481334559999993,41.91447667],[-5.481070910000028,41.91451840000002],[-5.478167460000009,41.91458112999999],[-5.473767119999991,41.91678343000001],[-5.468302240000014,41.91953080000002],[-5.465391399999987,41.921286459999976],[-5.461018039999999,41.921704550000015],[-5.4581748400000265,41.922089700000015],[-5.453439870000011,41.922515239999996],[-5.452488319999986,41.92254458999997],[-5.451187600000026,41.92006877],[-5.4498367300000155,41.918170369999984],[-5.449558920000015,41.91752788000002],[-5.449149270000021,41.91690621999999],[-5.4490966000000185,41.91679026999998],[-5.448469760000023,41.91553382000001],[-5.447987860000012,41.9149137],[-5.44725158,41.91426296999998],[-5.445186410000019,41.911650269999996],[-5.445981580000023,41.91068770999999],[-5.445160769999973,41.90908416000002],[-5.446882819999985,41.90808383000001],[-5.445806600000026,41.90705308999998],[-5.446173520000002,41.906558949999976],[-5.4438030200000185,41.904150860000016],[-5.444707230000006,41.90320400000002],[-5.441010389999974,41.89951825000003],[-5.436396489999993,41.89769804000002],[-5.435410939999997,41.897457789999976],[-5.43384014999998,41.896725609999976],[-5.431535209999993,41.895387570000025],[-5.42800311000002,41.89442666999997],[-5.425282279999976,41.893241390000014],[-5.4228848899999775,41.89231938],[-5.421321169999999,41.891767000000016],[-5.413124859999982,41.888886619999994],[-5.411240640000017,41.88942155000001],[-5.409527079999975,41.889367479999976],[-5.408867190000024,41.88976858000001],[-5.408082799999988,41.89006422],[-5.407028369999978,41.89023043999998],[-5.403685419999988,41.890759779999996],[-5.402502200000015,41.89102771],[-5.40190844,41.89126528999998],[-5.399080589999983,41.89299951999999],[-5.396299409999983,41.89469667999998],[-5.39470541999998,41.89590972000002],[-5.392489780000005,41.89758598999998],[-5.391950489999999,41.897993489999976],[-5.391555980000021,41.89775854999999],[-5.389806290000024,41.896741299999974],[-5.3871851100000185,41.895949280000025],[-5.3862117799999965,41.895384130000025],[-5.386143489999995,41.89484520000002],[-5.3855738299999985,41.890876419999984],[-5.385410509999986,41.889727059999984],[-5.3848835699999995,41.88884641999999],[-5.384502160000011,41.88798976999999],[-5.384123120000027,41.88752032999997],[-5.3831650000000195,41.88638746999999],[-5.381841629999997,41.88482991000001],[-5.380431050000027,41.88222044999998],[-5.378823459999978,41.88144324000001],[-5.378384340000025,41.88032661],[-5.377871920000018,41.87983288999999],[-5.3776227399999925,41.87961290999999],[-5.372308280000027,41.87570622999999],[-5.371748449999984,41.875231480000025],[-5.371326080000017,41.87488897999998],[-5.369601550000027,41.874852540000006],[-5.369487670000012,41.87405337000001],[-5.36903307,41.87283795000002],[-5.368818630000021,41.87159957],[-5.368126580000023,41.87047910000001],[-5.367519249999987,41.86904168000001],[-5.366764639999985,41.86818367000001],[-5.365668959999994,41.867224609999994],[-5.363939270000003,41.86508082],[-5.362387189999993,41.86219485999999],[-5.360770520000017,41.85984155],[-5.359450910000021,41.855734970000015],[-5.359020799999996,41.85517643999998],[-5.358362639999996,41.85464059999998],[-5.357069260000003,41.84927262000002],[-5.357096249999984,41.84869569],[-5.357315159999985,41.848096810000015],[-5.355388619999985,41.84614604000001],[-5.35509595000002,41.84571976000001],[-5.3543335499999785,41.84463668000001],[-5.354041549999977,41.84422839000001],[-5.351331319999986,41.84093373000002],[-5.349143589999983,41.83874503999999],[-5.345597820000023,41.83662909999998],[-5.34461164999999,41.8356766],[-5.342776249999986,41.83356164000003],[-5.3426275799999985,41.8334476],[-5.341330280000022,41.832546449999995],[-5.34150446000001,41.83104789999999],[-5.340003430000024,41.83050211],[-5.3377327399999785,41.83031420999998],[-5.337282609999988,41.830188280000016],[-5.332677190000027,41.82970555000003],[-5.33327773000002,41.82899988999998],[-5.334131739999975,41.825659299999984],[-5.338208199999997,41.823856209999974],[-5.33663679,41.82037584],[-5.334576449999986,41.814698910000004],[-5.337300400000004,41.813130479999984],[-5.338377920000028,41.81064988999998],[-5.337435579999976,41.808570669999995],[-5.336312959999987,41.80682832000002],[-5.3345756599999845,41.80506244999998],[-5.333675070000027,41.804459329999986],[-5.3329354300000205,41.803979029999994],[-5.331006300000013,41.800568880000014],[-5.332041590000017,41.800241649999975],[-5.332232760000011,41.798211400000014],[-5.3325565499999925,41.79618747000001],[-5.333768780000014,41.79510011999997],[-5.332840879999992,41.79340782000003],[-5.333250869999972,41.79210260999997],[-5.333271330000002,41.79200313000001],[-5.33369534000002,41.79108489999999],[-5.33355985999998,41.78934047000001],[-5.335145560000001,41.78926321],[-5.335318959999995,41.78840410999999],[-5.338084859999981,41.78901428],[-5.340502650000019,41.78931626000002],[-5.341544259999978,41.789168940000025],[-5.344406800000002,41.786813989999985],[-5.3457175899999925,41.78612978000001],[-5.347782970000026,41.783700959999976],[-5.349496750000014,41.78087403000001],[-5.35175984,41.780242310000006],[-5.354330549999986,41.78012660000002],[-5.35451089999998,41.78012289999998],[-5.357794269999999,41.780082549999975],[-5.361963849999995,41.77960059999998],[-5.36505889,41.779347770000015],[-5.368125659999976,41.77865415000002],[-5.370177469999987,41.77784630000002],[-5.3712209799999755,41.77710428],[-5.370819859999983,41.776013809999995],[-5.371479620000002,41.775306709999995],[-5.374358640000025,41.77377022000002],[-5.38023628000002,41.76971285000002],[-5.38210466999999,41.768836539999995],[-5.383919660000004,41.767168760000004],[-5.3856353900000045,41.76542196999998],[-5.387912959999994,41.763582410000026],[-5.391383669999982,41.760511140000006],[-5.390742929999988,41.757507420000024],[-5.3937804299999925,41.75865097000002],[-5.397437930000024,41.758997969999996],[-5.402761769999984,41.759192919999975],[-5.405471659999989,41.76025296],[-5.408781560000023,41.75998544999999],[-5.411812740000016,41.75998489],[-5.4140268400000195,41.759686199999976],[-5.415702759999988,41.759470840000006],[-5.418883730000005,41.75929581999998],[-5.419712660000016,41.75990879],[-5.421010200000012,41.76018764999998],[-5.427059129999975,41.759510620000015],[-5.428236649999974,41.75947672000001],[-5.430462920000025,41.760141120000014],[-5.434651760000008,41.75894464999999],[-5.436749720000023,41.75939549999998],[-5.439511659999994,41.759273819999976],[-5.4418463599999995,41.75930527000003],[-5.443903540000008,41.75963075999999],[-5.446416039999974,41.760225709999986],[-5.447587629999987,41.76066906],[-5.451043659999982,41.756659720000016],[-5.4518317800000204,41.755877380000015],[-5.45162947,41.753089820000014],[-5.453547920000005,41.75135571999999],[-5.4552090899999826,41.75013142],[-5.456414230000007,41.749250080000024],[-5.4583866899999975,41.747676850000005],[-5.461646840000014,41.74644525000002],[-5.463633399999992,41.743673820000026],[-5.465716709999981,41.7418639],[-5.466608010000016,41.74001652999999],[-5.468398779999973,41.739050410000004],[-5.469257719999973,41.73730277999999],[-5.4699399599999765,41.736279430000025],[-5.470680640000012,41.735840199999984],[-5.471709019999992,41.73569198000001],[-5.472940110000025,41.73487294],[-5.472277120000001,41.73733686999998],[-5.47179533000002,41.739823909999984],[-5.471246059999999,41.74149283999998],[-5.470586109999999,41.744352960000015],[-5.469220039999982,41.750128210000014],[-5.469158289999996,41.75039972000002],[-5.468988360000026,41.75255582],[-5.468693309999992,41.75395809999998],[-5.468138290000013,41.755167830000005],[-5.466510589999984,41.75663478000001],[-5.464160939999999,41.76061186999999],[-5.460532209999997,41.766381490000015],[-5.459420260000002,41.76844968],[-5.4595560000000205,41.77074331],[-5.458552800000007,41.77156631999998],[-5.457226380000009,41.77148663999998],[-5.4561939399999915,41.772175170000025],[-5.4549138599999765,41.77267985999998],[-5.454143789999989,41.77330873],[-5.453665320000027,41.77369721000002],[-5.452953340000022,41.77332516000001],[-5.452663990000019,41.77551980999999],[-5.45207757999998,41.77686521999999],[-5.452568680000013,41.77807053999999],[-5.452916230000028,41.77929692999999],[-5.452284050000003,41.78165197999999],[-5.4542127600000185,41.78458274000002],[-5.456396890000008,41.783797549999974],[-5.460078829999986,41.78536681000003],[-5.461177420000013,41.78514514],[-5.462279249999995,41.78658048],[-5.462546239999995,41.78726820999998],[-5.461423609999997,41.78780561999997],[-5.461459069999989,41.788732470000014],[-5.456820540000024,41.790795109999976],[-5.456117280000001,41.79065704999999],[-5.455269380000004,41.79051307999998],[-5.454024629999992,41.791953620000015],[-5.452899779999996,41.792436959999975],[-5.451978269999984,41.79351933999999],[-5.45343016999999,41.794668100000024],[-5.451838989999999,41.79586386],[-5.451704269999993,41.79643411000001],[-5.452630209999995,41.79704475],[-5.4531056800000215,41.79878173999998],[-5.45027601999999,41.80001292999998],[-5.449682849999988,41.80118735999997],[-5.446239439999999,41.80147692000003],[-5.445696440000006,41.802073870000015],[-5.445603989999995,41.80217490000001],[-5.444030030000022,41.803199070000005],[-5.444023309999977,41.804288929999984],[-5.444536480000011,41.80765523000002],[-5.4409548500000255,41.81287381999999],[-5.441513659999998,41.814591080000014],[-5.4389232099999845,41.817708159999995],[-5.439673889999995,41.81908812],[-5.438279850000015,41.82296327],[-5.437721339999996,41.82537970999999],[-5.442846459999998,41.82811663000001],[-5.444861520000018,41.82854204],[-5.445949089999999,41.82927536],[-5.44701710999999,41.82981096999998],[-5.449287640000023,41.83061809999998],[-5.451636210000004,41.83346786999999],[-5.451674369999978,41.83352108999998],[-5.453585830000009,41.83406563],[-5.455741419999981,41.834694979999995],[-5.457215070000018,41.837013979999995],[-5.4575201200000265,41.838376349999976],[-5.458952420000003,41.83803947000001],[-5.459668899999997,41.83788003000001],[-5.461764259999995,41.83661931],[-5.462911640000016,41.83513574],[-5.463645489999976,41.83417437000003],[-5.464289080000015,41.83431365000001],[-5.464422819999982,41.83434679999999],[-5.46517351,41.833511139999985],[-5.46520787999998,41.83346538000001],[-5.465733720000003,41.83273360999999],[-5.466191519999995,41.83211137000001],[-5.467722849999973,41.83278991999998],[-5.46907262000002,41.83313012999997],[-5.4702720500000055,41.833005249999985],[-5.471164859999988,41.833049070000015],[-5.471558899999991,41.83327473999998],[-5.471891389999996,41.833465709999984],[-5.471359810000024,41.834359740000025],[-5.470590759999993,41.83565513000002],[-5.470274780000011,41.8368327],[-5.470310349999977,41.83994797999998],[-5.470336830000008,41.84251409000001],[-5.470339690000003,41.84290127999998],[-5.4682816100000196,41.84481878999998],[-5.46667721,41.84632124000001],[-5.466200029999982,41.84832180000001],[-5.466157759999987,41.848475810000025],[-5.466086930000017,41.84851335000002],[-5.464719530000025,41.84929020999999],[-5.463996479999992,41.849909130000015],[-5.462590009999985,41.85186657999998],[-5.461652860000015,41.85381394000001],[-5.45978488999998,41.85442136],[-5.460002620000012,41.85475890999999],[-5.461365820000026,41.85700817999998],[-5.461019599999986,41.857718060000025],[-5.464732770000012,41.862492540000005],[-5.463202509999974,41.86405638999997],[-5.463298010000017,41.865288150000026],[-5.465327310000021,41.86510948],[-5.465643489999991,41.86549895000002],[-5.468567740000026,41.86916451000002],[-5.472607559999972,41.874877319999996],[-5.473850359999972,41.874607379999986],[-5.477875900000015,41.87462861],[-5.478588969999976,41.87530665999998],[-5.478710060000026,41.875322059999974],[-5.481220829999984,41.875745110000025],[-5.483115320000024,41.87581220999999],[-5.485128309999993,41.87551646999998],[-5.486478540000007,41.87677506],[-5.487753590000011,41.87640520999997],[-5.488263150000023,41.87773604],[-5.489886679999984,41.87734059000002],[-5.4910149899999965,41.87722604999999],[-5.494324199999994,41.87741534000003],[-5.496354119999978,41.87724512],[-5.497330209999973,41.87693569999999],[-5.498151189999987,41.87573807000001],[-5.498651730000006,41.87528587999998],[-5.499519770000006,41.874987799999985],[-5.500825229999975,41.87540065000002],[-5.5022652600000015,41.875864579999984],[-5.505525910000017,41.876045610000006],[-5.511545389999981,41.87682361999998],[-5.521013849999974,41.876435920000006],[-5.52319202000001,41.87605485],[-5.521013460000006,41.877345520000006],[-5.517162859999985,41.87994265999998],[-5.515221999999994,41.88146217000002],[-5.521009330000027,41.88520771999998],[-5.529843480000011,41.89039883999999],[-5.52917278000001,41.891728460000024],[-5.530102979999981,41.892392400000006],[-5.531015400000001,41.89230024],[-5.532381820000012,41.89393617000002],[-5.533255540000027,41.895303790000014],[-5.53444841999999,41.896511239999995],[-5.535406050000006,41.897255589999986],[-5.535773189999986,41.89800395999998],[-5.536131210000008,41.89913078000001],[-5.536267179999982,41.90043360999999],[-5.535639500000002,41.91198385000001],[-5.536749620000023,41.91078857000002],[-5.538024660000019,41.91040915999997],[-5.540111780000018,41.91013785000001],[-5.542486289999999,41.910121300000014],[-5.546719349999989,41.90984734],[-5.547816249999983,41.90984100999998],[-5.549457870000026,41.91019180000001],[-5.550413660000004,41.90997243999999],[-5.551885789999972,41.91000276],[-5.552103690000024,41.91002493000002],[-5.553255949999993,41.91019742999998],[-5.555294979999985,41.91295284],[-5.553633639999987,41.913016830000004],[-5.557690550000018,41.916780949999975],[-5.561735899999974,41.920545179999976],[-5.562976559999981,41.921715240000026],[-5.580035479999992,41.92788915],[-5.586831000000018,41.938173759999984],[-5.607791410000004,41.93602428999998],[-5.608370120000018,41.933651639999994],[-5.608954019999999,41.93377344999999],[-5.611865599999987,41.934778900000026],[-5.614830789999985,41.936503500000015],[-5.618172549999997,41.937994290000006],[-5.631385589999979,41.94662568000001],[-5.638491219999992,41.95189290000002],[-5.640088260000027,41.95317098999999],[-5.642581409999991,41.95598638000001],[-5.642619799999977,41.95603953],[-5.643509639999991,41.95800926999999],[-5.646870589999992,41.960210210000014],[-5.647330269999998,41.96082099],[-5.648436189999984,41.96188513999999],[-5.648510390000013,41.961928460000024],[-5.649241019999977,41.962379880000015],[-5.650407250000001,41.96256907999998],[-5.653313609999998,41.96252893000002],[-5.654994569999985,41.96116623],[-5.659224839999979,41.96017671999999],[-5.659384989999978,41.95996588000003],[-5.661019230000022,41.95777565999998],[-5.661971549999976,41.955727309999986],[-5.663595729999997,41.95590576000001],[-5.6637018000000126,41.95468754000001],[-5.663876239999979,41.952504139999974],[-5.663947969999981,41.95161992999999],[-5.666391560000022,41.94975305999998],[-5.669805129999986,41.94858400999999],[-5.670211569999992,41.94791715000002],[-5.670898509999972,41.94818934],[-5.673832090000019,41.947085379999976],[-5.6767516200000046,41.942478489999985],[-5.678064010000014,41.94040358000001],[-5.678199570000004,41.94018427999998],[-5.6809948499999905,41.939245459999995],[-5.684575530000018,41.938054050000005],[-5.68767680000002,41.93722496999999],[-5.689155869999979,41.93683007999999],[-5.689579390000006,41.936288820000016],[-5.690824439999972,41.93520596000002],[-5.69475841000002,41.93439317999997],[-5.695601329999988,41.93378801],[-5.699871169999994,41.93236379000001],[-5.700177689999975,41.93133892999998],[-5.7005622799999855,41.930735500000026],[-5.701025130000005,41.92998613999998],[-5.701671729999987,41.9293045],[-5.701813930000014,41.92895893000002],[-5.702272460000017,41.92782242999999],[-5.701754619999974,41.926411719999976],[-5.701369109999973,41.92442153000002],[-5.701243560000023,41.92287550999998],[-5.70098809000001,41.92225113000001],[-5.700908210000023,41.92207288999998],[-5.70110034999999,41.92033927],[-5.701126240000008,41.92009551000001],[-5.702168859999972,41.91965670000002],[-5.705804750000027,41.91894961999998],[-5.706530190000024,41.91728447000003],[-5.706641390000016,41.91677752999999],[-5.707622500000014,41.91203539000003],[-5.706908419999991,41.90769347999998],[-5.706615569999997,41.90589924],[-5.706489949999991,41.90520877],[-5.7069289799999865,41.903901589999975],[-5.706224019999979,41.90205402999999],[-5.707861250000008,41.90143002999997],[-5.708828740000001,41.90121807999998],[-5.710037709999995,41.90073023999997],[-5.711487359999978,41.89994852000001],[-5.712166640000021,41.899193990000015],[-5.712203240000008,41.89863477],[-5.711794119999979,41.8977979],[-5.709016210000016,41.89481959],[-5.70808113999999,41.89408517999999],[-5.7075141700000245,41.89435972000001],[-5.705834700000025,41.89340871000002],[-5.705365729999983,41.893149600000015],[-5.704113570000004,41.892611750000015],[-5.702833670000018,41.89227267000001],[-5.701706240000021,41.89211911000001],[-5.699369090000005,41.89214708999998],[-5.698568969999997,41.89175165],[-5.696760499999982,41.89030822000001],[-5.693430260000014,41.88792787],[-5.6918084000000135,41.88719142999997],[-5.690148899999997,41.88613164999998],[-5.687681740000016,41.88592829999999],[-5.6864122299999735,41.88583194],[-5.686254200000008,41.88579962],[-5.683375420000004,41.88526359000002],[-5.681137840000019,41.88507274],[-5.680179150000015,41.88462683],[-5.677759139999978,41.88353059000002],[-5.675002059999997,41.883018530000015],[-5.6713042200000245,41.881330530000014],[-5.667419670000015,41.87920546999999],[-5.667235339999991,41.87911969999999],[-5.664879690000021,41.878111750000016],[-5.663626220000026,41.87781663999999],[-5.660046270000009,41.87750342999999],[-5.658697169999982,41.877516679999985],[-5.658086920000017,41.877620879999995],[-5.656238470000005,41.876925210000024],[-5.651252580000005,41.87524836],[-5.650664280000001,41.87588334999998],[-5.6484492800000226,41.872728429999995],[-5.647936759999993,41.87228096000001],[-5.647462599999983,41.871886640000014],[-5.64599708999998,41.86965999],[-5.653487279999979,41.86198521],[-5.670407020000027,41.84966001999999],[-5.667550349999999,41.84729490000001],[-5.667413500000009,41.84719001000002],[-5.66912456,41.84662788000003],[-5.669742419999977,41.84642438999998],[-5.669917670000018,41.84629423000001],[-5.672053020000021,41.844641490000015],[-5.676563250000015,41.84160049000002],[-5.679588620000004,41.83992684999998],[-5.687695440000027,41.83680135999998],[-5.689248140000018,41.836206619999984],[-5.689872990000026,41.836173959999996],[-5.6906429,41.835579540000026],[-5.691597779999995,41.835088840000026],[-5.693522589999986,41.83446730999998],[-5.695904840000026,41.83355581000001],[-5.696128509999994,41.83343348],[-5.698070789999974,41.83237016999999],[-5.69894966999999,41.83207933],[-5.700597930000015,41.831185000000005],[-5.70188478,41.83000197000001],[-5.7027078300000085,41.82924412],[-5.704142460000014,41.828426820000004],[-5.707787310000015,41.82634159000003],[-5.7041823299999805,41.82622846999999],[-5.703338420000023,41.82620331999999],[-5.701937009999995,41.82609222999997],[-5.701616650000005,41.824487739999995],[-5.701111799999978,41.82307671000001],[-5.70045841000001,41.82128193],[-5.7000384199999985,41.819310529999996],[-5.698579789999997,41.81496802999999],[-5.697089240000025,41.81330097],[-5.696574129999988,41.81221436999999],[-5.695287399999984,41.80851618999998],[-5.694936100000007,41.80674128999999],[-5.694734359999984,41.80250429],[-5.696476140000016,41.79897813000002],[-5.698944219999987,41.79469639000001],[-5.706575960000009,41.79387724999998],[-5.714254690000018,41.793605850000006],[-5.716201599999977,41.79354178],[-5.721357990000001,41.79310442000002],[-5.727099010000018,41.79226569999997],[-5.730419089999998,41.79279915000001],[-5.734013989999994,41.79300175999998],[-5.735489900000005,41.79318273000001],[-5.736808680000024,41.79278205000003],[-5.7407237099999975,41.793436110000016],[-5.743893469999989,41.79213561],[-5.747876529999985,41.79128385000001],[-5.751123940000014,41.79011637999997],[-5.752746930000001,41.78979829999997],[-5.753606320000017,41.7896336],[-5.754821649999997,41.78963146000001],[-5.759322030000021,41.78906408],[-5.763228959999992,41.78897010999998],[-5.767052509999985,41.78861684999998],[-5.768074710000008,41.788322040000025],[-5.769583940000018,41.78815956],[-5.770899670000006,41.78825389000002],[-5.774279100000001,41.78737075999999],[-5.776640970000017,41.78689037999999],[-5.783074629999987,41.78596010000001],[-5.785528759999977,41.78594561],[-5.786838530000011,41.78562563000003],[-5.790628280000021,41.783669369999984],[-5.794644409999989,41.78222081000001],[-5.797303549999981,41.781390550000026],[-5.79983150999999,41.783076040000026],[-5.8033194899999785,41.78442283999999],[-5.805403360000014,41.78612806000001],[-5.806460909999998,41.78637237999999],[-5.808968989999983,41.78649115000002],[-5.8097455299999865,41.78691343000003],[-5.8101652400000035,41.78715531],[-5.808561520000012,41.789283909999995],[-5.803876619999983,41.794991030000006],[-5.802328320000015,41.797019120000016],[-5.800958170000001,41.80037570000002],[-5.800674319999985,41.80131921999998],[-5.7997217199999795,41.80293648999998],[-5.798182510000004,41.80518043000001],[-5.796826060000001,41.806924589999994],[-5.793734040000004,41.811664870000016],[-5.792962279999983,41.81329569000002],[-5.792616290000012,41.81669026999998],[-5.792548249999982,41.81734033999999],[-5.792754390000027,41.820973649999985],[-5.7930617600000005,41.823334690000024],[-5.793083570000022,41.8235593],[-5.793118600000014,41.824918319999995],[-5.793151290000026,41.82622335999997],[-5.7933958699999835,41.826586640000016],[-5.794221649999997,41.82785437000001],[-5.794347239999979,41.82852673999997],[-5.794308909999984,41.82875281999998],[-5.794088139999985,41.82976683999999],[-5.792950350000012,41.831568660000016],[-5.792832620000013,41.832183910000026],[-5.792382180000004,41.83345566999998],[-5.7923604700000055,41.83351024000001],[-5.792112350000025,41.83417369],[-5.7915967499999965,41.83450142999999],[-5.791382660000011,41.83483984999998],[-5.791356450000023,41.83534480999998],[-5.791056980000008,41.835658290000026],[-5.790156490000015,41.83627455999999],[-5.789973490000023,41.83677432000002],[-5.789385279999976,41.837094809999996],[-5.788909639999986,41.83751161999999],[-5.788639289999992,41.837941460000025],[-5.788263700000016,41.838166720000004],[-5.785604439999986,41.839050799999995],[-5.785557879999999,41.83908795999997],[-5.784642210000015,41.83991168],[-5.784319470000014,41.840522899999996],[-5.783334500000024,41.84391492999998],[-5.783092500000009,41.84472231000001],[-5.780745120000006,41.844472999999994],[-5.779637439999988,41.84448182],[-5.777355269999987,41.84406875000002],[-5.773817959999974,41.843595919999984],[-5.770282629999997,41.84288878000001],[-5.769374070000026,41.842487430000006],[-5.76819420999999,41.844731309999986],[-5.767374840000002,41.84779501000003],[-5.76735463,41.84928144999998],[-5.7675199600000155,41.85088049000001],[-5.768033100000025,41.851885770000024],[-5.76822291000002,41.852655690000006],[-5.7683284999999955,41.85314846],[-5.768770239999981,41.85389429000003],[-5.769817180000018,41.855264929999976],[-5.770575730000019,41.85609316],[-5.771200350000015,41.856609419999984],[-5.772512880000022,41.85743328000001],[-5.773816629999999,41.85944608],[-5.77449605999999,41.860114099999976],[-5.77546006,41.86067616999998],[-5.776498339999989,41.86211899],[-5.778189730000008,41.86389723000002],[-5.778497679999987,41.864331059999984],[-5.778866100000016,41.86643848],[-5.779216070000018,41.86728556000003],[-5.783284349999974,41.86635845000001],[-5.783773510000003,41.86624753000001],[-5.785571890000028,41.866320970000004],[-5.786356549999994,41.86635596000002],[-5.787179060000028,41.86448982000002],[-5.787938170000018,41.86116628000002],[-5.788359500000013,41.86032752],[-5.788942010000028,41.857377499999984],[-5.789015699999993,41.85602484999998],[-5.788246889999982,41.854134310000006],[-5.788207660000012,41.85406322],[-5.787833550000016,41.851829880000025],[-5.787310810000008,41.850887969999974],[-5.787092799999982,41.850028710000004],[-5.7863653800000066,41.84853340000001],[-5.785810579999975,41.84796148999999],[-5.785536890000003,41.84776099999999],[-5.784419249999985,41.84698660999999],[-5.785396209999988,41.84563005000001],[-5.785475739999981,41.84552006000001],[-5.815189110000006,41.85238688999999],[-5.827066399999978,41.85512982],[-5.827791030000014,41.85462566000001],[-5.827849210000011,41.85457919999999],[-5.827811030000021,41.85234673000002],[-5.827234369999985,41.84828134999998],[-5.8308068700000035,41.84407766999999],[-5.834102219999977,41.84178994000001],[-5.836212049999972,41.83938733000002],[-5.838212769999984,41.837788880000005],[-5.844214340000008,41.83598325000003],[-5.84519886999999,41.83537346999998],[-5.848834399999987,41.83344612000002],[-5.852357810000001,41.831710559999976],[-5.854354609999973,41.83085040999998],[-5.854356549999977,41.83143573000001],[-5.857299619999992,41.82884091],[-5.860211199999981,41.82581453],[-5.8615502200000265,41.82425018999999],[-5.862809410000011,41.822786889999975],[-5.867324139999994,41.82224193000002],[-5.875416850000022,41.819058600000005],[-5.886496609999995,41.81485404],[-5.888047190000009,41.81426569000001],[-5.89306375000001,41.81552624],[-5.915239050000025,41.815001189999975],[-5.9163851399999885,41.817970960000025],[-5.917242600000009,41.81988538000002],[-5.918034260000013,41.821675400000004],[-5.918971020000015,41.82427222000001],[-5.919524469999999,41.82585215],[-5.919939349999993,41.82756167000002],[-5.919229410000014,41.83074971999997],[-5.919476509999981,41.830887529999984],[-5.921494730000006,41.83210595999998],[-5.921858120000024,41.832682079999984],[-5.92167151000001,41.833344239999974],[-5.921640749999995,41.83346209000001],[-5.921619150000026,41.83351668],[-5.921576319999986,41.83998378000001],[-5.920987840000009,41.841871930000025],[-5.921022530000016,41.8442215],[-5.920301189999975,41.84689651000002],[-5.919724410000015,41.84983799999998],[-5.919871109999974,41.85147327999999],[-5.91979262000001,41.85160135000001],[-5.920617250000021,41.854633260000014],[-5.921290450000015,41.857777080000005],[-5.921921999999995,41.85841841000001],[-5.922633399999995,41.85948997000003],[-5.923175379999975,41.86160146999998],[-5.924362840000015,41.862543819999985],[-5.926453429999981,41.86400345999999],[-5.927281900000025,41.865261110000006],[-5.928229970000018,41.867290190000006],[-5.929164889999981,41.86823893000002],[-5.930147869999985,41.86944758999999],[-5.930629829999987,41.87102926],[-5.931062940000004,41.873386659999994],[-5.933259089999979,41.87582507000002],[-5.931508839999992,41.87602290000001],[-5.928898389999972,41.87585541999999],[-5.922802999999988,41.87484011999999],[-5.918585119999989,41.874830410000015],[-5.916665780000017,41.873960650000015],[-5.915597219999995,41.87378067999998],[-5.914548889999992,41.87378029000001],[-5.9116635199999905,41.87286293],[-5.908169110000017,41.87286148999999],[-5.905999249999979,41.872574250000014],[-5.904272100000014,41.87195157000002],[-5.90342880999998,41.87195489999999],[-5.9017334999999775,41.871502469999996],[-5.899587549999978,41.871475669999995],[-5.898537490000024,41.872501820000025],[-5.89652319999999,41.87538943999999],[-5.895881130000021,41.875846920000015],[-5.89421083000002,41.87648343000001],[-5.892013879999979,41.877466389999995],[-5.8906575400000065,41.87785179000002],[-5.888970219999976,41.87918208000002],[-5.887880779999989,41.87987592000002],[-5.887305679999997,41.88048476],[-5.887169819999997,41.88174895999998],[-5.886652040000001,41.882293319999974],[-5.885972100000004,41.88271566999998],[-5.884430889999976,41.88274541999999],[-5.883645820000027,41.88324245000001],[-5.882469669999978,41.884154550000005],[-5.881667180000022,41.88426476000001],[-5.8808744899999965,41.884861030000025],[-5.879544420000002,41.885299669999995],[-5.88239329999999,41.88593958000001],[-5.887003830000026,41.88742666000002],[-5.890669860000003,41.88800977],[-5.895396500000004,41.887791530000015],[-5.8992253999999775,41.88691136],[-5.900369899999987,41.88636911999998],[-5.902245619999974,41.88600650000001],[-5.9034710399999994,41.88592146000002],[-5.904673230000014,41.88532368],[-5.905551940000009,41.887958070000025],[-5.9069955200000095,41.88763333000003],[-5.909125490000008,41.88756133999999],[-5.911216710000019,41.88769740999999],[-5.913237279999976,41.887339940000004],[-5.916187470000011,41.887283000000025],[-5.91834861000001,41.88710198000001],[-5.920900840000002,41.88677587000001],[-5.922508470000025,41.88687902999999],[-5.92659445999999,41.88741427000002],[-5.9287356699999805,41.88811609999999],[-5.928489060000004,41.89010360999998],[-5.929528080000011,41.890158129999975],[-5.929035390000024,41.89098121000001],[-5.931023219999986,41.89254242999999],[-5.932654790000015,41.89342830999999],[-5.933496110000021,41.89390209999999],[-5.935158419999993,41.894931240000005],[-5.936598290000006,41.89583997],[-5.936992299999986,41.89575783999999],[-5.937517909999997,41.89565433000001],[-5.9428031799999985,41.897878330000026],[-5.945434540000008,41.897693730000015],[-5.946000369999979,41.89794036000001],[-5.9524238100000275,41.898171479999974],[-5.956214699999975,41.895687409999994],[-5.957310689999986,41.89540701999999],[-5.958340630000009,41.89395760000002],[-5.962474359999987,41.896030259999975],[-5.9873516999999765,41.89910443000002],[-5.987610169999982,41.901286019999986],[-5.987996650000014,41.90285189999997],[-5.992811700000004,41.905283929999996],[-5.99205139999998,41.908104449999996],[-5.991748079999979,41.911417340000014],[-5.99170921000001,41.913165400000025],[-5.991504809999981,41.91446751000001],[-5.991551070000014,41.91623135999998],[-5.991480369999977,41.916782539999986],[-5.9912040899999965,41.917321060000006],[-5.99132775999999,41.917903190000004],[-5.991942279999989,41.91918393999998],[-5.991971420000027,41.91929124000001],[-5.992166660000009,41.920114650000016],[-5.992061429999978,41.92199051],[-5.992338480000001,41.92275775000002],[-5.992848149999986,41.92359995999999],[-5.993152239999972,41.92442953],[-5.994233819999977,41.92589620000001],[-5.995547839999972,41.927689980000025],[-5.999135879999983,41.93168466999998],[-6.002548040000022,41.93320735999998],[-6.005877539999972,41.93194046000002],[-6.006644219999998,41.93131700999999],[-6.0106603199999995,41.93029311999999],[-6.016070679999984,41.93147477000002],[-6.017149829999994,41.93108618000002],[-6.020178429999987,41.92805271999998],[-6.0210288000000105,41.927417960000014],[-6.024750760000018,41.92528465999999],[-6.027076280000017,41.923206110000024],[-6.029030250000005,41.922452109999995],[-6.031657619999976,41.92191441],[-6.032616070000017,41.92152886000002],[-6.0340492899999845,41.920221200000015],[-6.036305149999976,41.92024256000002],[-6.043886209999982,41.92118529999999],[-6.04635227,41.92182224999999],[-6.04834575000001,41.92215650999998],[-6.052135620000001,41.924000879999994],[-6.055038850000017,41.92495020000001],[-6.05796239,41.92556569999999],[-6.060282070000028,41.92616121999998],[-6.064102100000014,41.92660855999998],[-6.066860130000009,41.92678698999998],[-6.0694921699999895,41.927103810000006],[-6.071506160000013,41.927608220000025],[-6.0747074000000225,41.92822487000001],[-6.075458070000025,41.92853794000001],[-6.076457779999998,41.92876328],[-6.077989530000025,41.92876720999999],[-6.079417289999981,41.92911612],[-6.079893500000026,41.92923840999998],[-6.082398379999972,41.92841468],[-6.082968250000022,41.928228260000026],[-6.085434389999989,41.928603210000006],[-6.087724019999996,41.92856861000001],[-6.088816099999974,41.92845815999999],[-6.099805319999973,41.92852190999997],[-6.102380550000021,41.92915469000002],[-6.102617310000028,41.93005783000001],[-6.103793859999996,41.93268255999999],[-6.104800560000001,41.93404213000002],[-6.105559480000011,41.934769019999976],[-6.105774719999999,41.934979320000025],[-6.106173200000001,41.93573398000001],[-6.106205960000011,41.93640849000002],[-6.105940459999999,41.93690197000001],[-6.107764840000016,41.94019351999998],[-6.108569110000019,41.94209885999999],[-6.109529590000022,41.94399095],[-6.110607049999999,41.94679839999998],[-6.111073959999999,41.948460710000006],[-6.111899940000001,41.949320820000025],[-6.123108049999985,41.95724698999999],[-6.129357490000018,41.961678329999984],[-6.13652012,41.966750760000025],[-6.147500139999977,41.97041227],[-6.148540790000027,41.97096004000002],[-6.157577179999976,41.97579956999999],[-6.15835869,41.97622831000001],[-6.15763819,41.976545320000014],[-6.156740070000012,41.97668712000001],[-6.15503228,41.97656301000001],[-6.154045409999981,41.97637402999999],[-6.149527509999984,41.97555262999998],[-6.148988280000026,41.97563048000001],[-6.147204499999987,41.975922579999974],[-6.14622473999998,41.97587742000002],[-6.145494439999993,41.975996510000016],[-6.146309280000025,41.979062950000014],[-6.147494960000017,41.982794609999985],[-6.145986520000008,41.982799969999974],[-6.145533259999979,41.984379320000016],[-6.147645669999974,41.98462754000002],[-6.149761280000007,41.986163379999994],[-6.151571450000006,41.98664495999998],[-6.153399040000011,41.987234090000015],[-6.15504623999999,41.98808030999999],[-6.160150950000002,41.988056830000005],[-6.162914960000023,41.98756639999999],[-6.164398960000028,41.987309340000024],[-6.168548199999975,41.987005669999974],[-6.172318010000026,41.988297260000024],[-6.176090750000014,41.99061524000001],[-6.176080319999983,41.98919271],[-6.179937020000011,41.99052667000001],[-6.183335119999981,41.99089165999999],[-6.1876797200000055,41.99111318000001],[-6.191182939999976,41.991889259999994],[-6.194481859999996,41.99292307000002],[-6.196880959999987,41.99334249999998],[-6.198449770000025,41.99405519999999],[-6.19932977000002,41.99403065000001],[-6.199092059999998,42.00012478999997],[-6.198945509999987,42.00177682999998],[-6.195323099999996,42.00466041999999],[-6.196324030000028,42.00608237],[-6.196987620000016,42.00703643000003],[-6.197696529999973,42.008412469999996],[-6.201805669999999,42.012818419999974],[-6.205190710000011,42.013858519999985],[-6.209105609999995,42.020385850000025],[-6.206785780000018,42.022044660000006],[-6.205896940000002,42.02430278999998],[-6.204822890000003,42.02768272999998],[-6.203614730000027,42.030318980000004],[-6.201204249999989,42.03619463000001],[-6.201181930000018,42.03623126999997],[-6.198962289999997,42.03869759000003],[-6.191594370000018,42.04137030999999],[-6.187678430000005,42.04254184000001],[-6.1819264900000235,42.04444859],[-6.179696890000002,42.04504173999999],[-6.173566629999982,42.05197442999997],[-6.171306529999981,42.05487359],[-6.170579480000015,42.05580321999997],[-6.170415900000023,42.06999089999999],[-6.164705700000013,42.07522755999997],[-6.164869790000012,42.07585339000002],[-6.166256390000001,42.08161444000001],[-6.166392330000008,42.08215999999999],[-6.166698230000009,42.083448299999986],[-6.16717546000001,42.08599257999998],[-6.166417299999978,42.089219360000016],[-6.1681080800000245,42.09525113000001],[-6.169759090000014,42.10241861999998],[-6.174810369999989,42.10477328000002],[-6.178135769999983,42.10646416999998],[-6.18047206,42.10699373],[-6.1825033100000155,42.10746867],[-6.187675049999996,42.108108440000024],[-6.190994190000026,42.1087005],[-6.201035709999985,42.11069887000002],[-6.213784970000006,42.11217925],[-6.214693829999987,42.11795307],[-6.2148372300000005,42.119831120000015],[-6.213142889999972,42.121247400000016],[-6.212799879999977,42.121401100000014],[-6.20990372,42.12273392999998],[-6.209231380000006,42.12283380000002],[-6.207022429999995,42.123165770000014],[-6.202006989999973,42.13309454],[-6.209742759999983,42.14348623000001],[-6.210243100000014,42.14404853999997],[-6.212395070000014,42.14807658000001],[-6.191030979999994,42.15321634999998],[-6.18766887999999,42.15402578999999],[-6.1801924800000165,42.15553018000003],[-6.1743106100000205,42.15698093999998],[-6.170388650000007,42.158179089999976],[-6.160212989999991,42.16577222000001],[-6.154048450000005,42.16132236999999]]]}}]}