{"type":"FeatureCollection","features":[{"type":"Feature","properties":{"OBJECTID":1862,"ZON_CO_ID":67,"ZON_DS_NOM":"Valtiendas","CAL_DS_NOM":"V.C.Valtiendas","TPR_DS_DES":"Vino de Calidad","TPR_DS_GRU":"CALIDAD DIFERENCIADA","FAM_DS_NOM":"Vinos","classification":"VC","normalizedName":"Valtiendas"},"geometry":{"type":"MultiPolygon","coordinates":[[[[-3.9638274900000283,41.586082420000025],[-3.9632425199999943,41.58350227],[-3.963224070000024,41.58342135999999],[-3.9627161600000136,41.58153411000001],[-3.961792339999988,41.57991154000001],[-3.9604920599999787,41.57797685000003],[-3.958313750000002,41.57668898999998],[-3.9557086899999945,41.57492724000002],[-3.953047790000028,41.57343612],[-3.949887629999978,41.57224630000002],[-3.9462008099999935,41.57112377999999],[-3.942237700000021,41.56913872000001],[-3.9400454799999807,41.569327799999996],[-3.9331735200000253,41.56938379000002],[-3.9310958899999946,41.56920248],[-3.9286783399999763,41.56873565000001],[-3.9245257700000025,41.56771527000001],[-3.9207766000000106,41.56637626999998],[-3.9144986100000096,41.56345399000003],[-3.9105023199999778,41.56071149000002],[-3.9055570200000034,41.556967480000026],[-3.9020082499999944,41.555301929999985],[-3.898415440000008,41.55390682000001],[-3.8945540700000265,41.552153369999985],[-3.8940335500000174,41.551797109999995],[-3.893113900000003,41.55031801000001],[-3.8926413500000194,41.54908764999999],[-3.8927474999999845,41.54808700000001],[-3.892366050000021,41.54563092000001],[-3.8918958900000007,41.54457167999999],[-3.8894160199999988,41.54121305000001],[-3.8892570099999944,41.54010635999998],[-3.8889656499999887,41.53896465999998],[-3.8883623899999975,41.53780734999998],[-3.8868450599999846,41.53645891000002],[-3.8864328500000056,41.53609277999999],[-3.8860303600000066,41.534708720000026],[-3.8859684199999833,41.53368234999999],[-3.885781829999985,41.532305640000004],[-3.8842341700000134,41.533092169999975],[-3.8828563600000052,41.53403049000002],[-3.8806416699999886,41.534254610000005],[-3.878315929999985,41.534245329999976],[-3.875133940000012,41.534746919999975],[-3.8721570499999984,41.53356249000001],[-3.8700820700000236,41.533479090000014],[-3.8679468899999847,41.53247735000002],[-3.863704670000004,41.52896929000002],[-3.8617662300000006,41.52651577],[-3.860452940000016,41.52419265999998],[-3.8589712500000246,41.52181674000002],[-3.856423339999992,41.51855699999999],[-3.8542573700000275,41.51515926000002],[-3.8527491899999973,41.51255828000001],[-3.8472638000000074,41.50728441000001],[-3.844856680000021,41.504626900000005],[-3.8441382199999907,41.50374044],[-3.843357029999993,41.501710479999986],[-3.8427249299999744,41.501012530000025],[-3.8422765199999844,41.50061948000001],[-3.838951780000002,41.500166379999996],[-3.8388074399999823,41.50012240000001],[-3.837953770000013,41.50000702],[-3.836695070000019,41.49984052999997],[-3.8358076000000096,41.49977491999999],[-3.835111359999985,41.49967189],[-3.8341524699999923,41.49964282000002],[-3.8327517999999827,41.49786046999998],[-3.8320955500000196,41.49713560999999],[-3.830488109999976,41.49510250999998],[-3.8293507100000284,41.493282179999994],[-3.8289691400000265,41.49248325999997],[-3.8282356199999867,41.49132657000001],[-3.825038549999988,41.483891289999974],[-3.8238776700000017,41.48113429],[-3.8248208800000043,41.480893330000015],[-3.8211112399999934,41.47642509000002],[-3.816055580000011,41.470588109999994],[-3.8086615600000187,41.46248842],[-3.807445889999997,41.461019710000016],[-3.8061972599999763,41.459785409999995],[-3.8037552999999775,41.45596525000002],[-3.80305611,41.45460997999999],[-3.802153970000006,41.45232833],[-3.8015386499999977,41.45097246],[-3.799075940000023,41.44638669],[-3.797683290000009,41.444108400000005],[-3.7957461799999805,41.44134746999998],[-3.7943741000000273,41.438771780000025],[-3.793807959999981,41.43749660999998],[-3.793360000000007,41.436094509999975],[-3.792722939999976,41.43291922999998],[-3.7924224800000275,41.431831380000006],[-3.7929169600000137,41.43017058999999],[-3.7934086199999797,41.43024826999999],[-3.794956730000024,41.429607069999975],[-3.796459470000002,41.429173330000026],[-3.798649580000017,41.42818534000003],[-3.8002357099999813,41.42772394999997],[-3.801562849999982,41.42761562999999],[-3.802724660000024,41.42768861000002],[-3.8040203300000144,41.42794078999998],[-3.805785510000021,41.428414859999975],[-3.807129410000016,41.42869368999999],[-3.811169790000008,41.42925979],[-3.8122628599999757,41.42957636],[-3.813262669999972,41.43009174000002],[-3.814186979999988,41.430310399999996],[-3.8149892600000044,41.43034075000003],[-3.815968010000006,41.430126640000026],[-3.817124920000026,41.429803170000014],[-3.8193434099999877,41.42919290999998],[-3.820630230000006,41.428733369999975],[-3.8217491400000085,41.42824797999998],[-3.8251225199999794,41.42906155999998],[-3.825957609999989,41.42884839999999],[-3.826806260000012,41.42876123999997],[-3.8274661699999797,41.428891609999994],[-3.828140459999986,41.429211039999984],[-3.8307706699999926,41.43086749999998],[-3.8317106900000226,41.43137414],[-3.83223842000001,41.43146039999999],[-3.8347755899999925,41.43144203999998],[-3.8360951600000135,41.431675659999996],[-3.839422060000004,41.43257023000001],[-3.8419746100000225,41.43374059000001],[-3.842278350000015,41.434089659999984],[-3.842943020000007,41.43550799000002],[-3.8435712099999932,41.43595376000002],[-3.844244479999986,41.436183029999995],[-3.8448358399999734,41.43655701],[-3.8452733699999726,41.43706722000002],[-3.8458305899999914,41.437576560000025],[-3.8465777999999773,41.43796739999999],[-3.8474438900000223,41.43829431],[-3.848681499999998,41.438654499999984],[-3.8501194300000066,41.43876999999998],[-3.85163024000002,41.43896601],[-3.8528789100000154,41.43925402000002],[-3.854256430000021,41.439324880000015],[-3.859741289999988,41.44041901000003],[-3.867504390000022,41.441783989999976],[-3.8712968300000057,41.44340374000001],[-3.8752480900000137,41.445247359999996],[-3.8736725300000217,41.45006037000002],[-3.8806374900000264,41.45250242999998],[-3.8855062999999745,41.45043838999999],[-3.8904386799999884,41.44604068000001],[-3.8913848400000006,41.44519565000002],[-3.893880280000019,41.44296945000002],[-3.892050100000006,41.438696049999976],[-3.889190680000013,41.42826939999998],[-3.886193979999973,41.41735729999999],[-3.886904780000009,41.416829389999975],[-3.8874851799999988,41.41639255000001],[-3.890853849999985,41.41597021000001],[-3.89121775000001,41.41545395999998],[-3.8920869799999878,41.41514096999998],[-3.8923227199999815,41.414004190000014],[-3.893410870000025,41.41307698000003],[-3.894376150000028,41.413663989999975],[-3.898084030000007,41.41268932999998],[-3.9060067699999763,41.410222239999996],[-3.908633469999984,41.40810277999998],[-3.9091695199999776,41.408792129999995],[-3.912091470000007,41.40897620999999],[-3.920352120000018,41.411027279999985],[-3.923698409999986,41.41159499999998],[-3.927455889999976,41.41246555999999],[-3.931644170000027,41.41333251999998],[-3.933506869999974,41.414731630000006],[-3.9351038600000265,41.41595271],[-3.9354636099999993,41.41684154000001],[-3.936929389999989,41.42058579000002],[-3.9386224400000174,41.42431015],[-3.939816329999985,41.42411125000001],[-3.940944129999991,41.42430922],[-3.9419557800000007,41.42392262999999],[-3.9425491499999907,41.42440419000002],[-3.944380350000017,41.424416210000004],[-3.944382829999995,41.42458733000001],[-3.946205290000023,41.423995890000015],[-3.947357230000023,41.42338290999999],[-3.949217879999992,41.42295324999998],[-3.950456029999998,41.42251067000001],[-3.9523150499999815,41.421153189999984],[-3.9557274200000165,41.4180083],[-3.9588622200000145,41.417982240000015],[-3.9591570499999875,41.41850223],[-3.9596368100000063,41.419389980000005],[-3.959432960000015,41.420175340000014],[-3.958880650000026,41.42086451],[-3.9589509400000225,41.421575529999984],[-3.9591947499999947,41.421879750000016],[-3.9597880900000177,41.422352209999985],[-3.9607864199999767,41.42269519000001],[-3.9609188399999766,41.42274813],[-3.961456100000021,41.42266257],[-3.9619844499999886,41.42278427000002],[-3.963957330000028,41.422668680000015],[-3.9645625399999744,41.42313201000002],[-3.9655450700000188,41.423213850000025],[-3.966594320000013,41.422952829999986],[-3.9669139299999756,41.42271595],[-3.967255640000019,41.42316346000001],[-3.9678673700000218,41.42325740000001],[-3.968782639999972,41.42203368000003],[-3.9696140199999945,41.42241401000001],[-3.9717915200000107,41.421575959999984],[-3.9739188099999865,41.42058515999997],[-3.9750783800000136,41.421304959999986],[-3.9759449100000097,41.42243257000001],[-3.9773640500000056,41.42369961000003],[-3.979254649999973,41.42527788000001],[-3.9851271499999825,41.42503862000001],[-3.987298870000018,41.42540733999999],[-3.988813979999975,41.425880749999976],[-3.993441350000012,41.42875034999997],[-3.9963701699999774,41.42931053000001],[-3.996857700000021,41.43223376999998],[-3.996897590000003,41.432494640000016],[-3.996732409999993,41.43421651],[-3.994887590000019,41.43489903],[-3.9973148600000172,41.434733900000026],[-3.9975540699999783,41.43472281999999],[-3.9991908999999737,41.43452847999998],[-4.009040970000001,41.43216365000001],[-4.01278345999998,41.42806838000001],[-4.014278629999978,41.427244540000004],[-4.018624629999977,41.432709769999974],[-4.020223900000019,41.433182009999996],[-4.02094618000001,41.43344582999998],[-4.023221750000005,41.43429936000001],[-4.02900489000001,41.43669784000002],[-4.031559370000025,41.437764879999975],[-4.03578908999998,41.44255492000002],[-4.0365578299999925,41.44422338999999],[-4.036716060000003,41.446644979999974],[-4.041272670000012,41.45160299999998],[-4.045544440000015,41.45369003000002],[-4.052017270000022,41.457116929999984],[-4.052228899999989,41.45835803],[-4.053869630000008,41.459117660000004],[-4.054309939999996,41.46042871999998],[-4.054713769999978,41.461704080000004],[-4.056457539999997,41.46216548000001],[-4.057525259999977,41.46081355000001],[-4.059058279999988,41.46009686999997],[-4.06031956999999,41.459607860000006],[-4.062099100000012,41.45859161999999],[-4.063017419999994,41.45836695999998],[-4.064212110000028,41.45820278999997],[-4.0651845300000105,41.457626319999974],[-4.065585230000011,41.45723529000003],[-4.068407460000003,41.456290360000025],[-4.0707486300000255,41.45813314999998],[-4.075798799999973,41.45941914000002],[-4.0806131200000095,41.46091428],[-4.080769649999979,41.46096684999998],[-4.085471530000007,41.46575956999999],[-4.091690579999977,41.47242926000001],[-4.093199560000016,41.47456770000002],[-4.095186730000023,41.47522434000001],[-4.097088620000022,41.476503279999974],[-4.099183260000018,41.48068073000002],[-4.1002339600000255,41.48685876000002],[-4.09495019000002,41.48963844999997],[-4.089500470000019,41.491833989999975],[-4.081543780000004,41.49458432],[-4.078658179999991,41.495404080000014],[-4.076354729999991,41.49520948999998],[-4.074577760000011,41.49497391],[-4.070464630000004,41.494742040000006],[-4.067699170000026,41.49486682000003],[-4.065277110000011,41.49474515000003],[-4.061026560000016,41.496369730000026],[-4.058034759999998,41.49731603999999],[-4.05635245000002,41.49996163999998],[-4.056559170000014,41.50014888999999],[-4.05665676000001,41.500256079999986],[-4.056470639999986,41.50060006000001],[-4.0547432000000185,41.50121038999998],[-4.053410040000017,41.50175402999997],[-4.052476870000021,41.50258222999997],[-4.0516594000000055,41.50315716],[-4.0512723400000255,41.50367411000002],[-4.050457549999976,41.50515874000001],[-4.048548240000002,41.50787832999998],[-4.045810800000027,41.50903815999999],[-4.042682780000007,41.50976011],[-4.036430549999977,41.509951709999996],[-4.034545379999997,41.511220690000016],[-4.03314284999999,41.512701470000025],[-4.031807029999982,41.51461398999999],[-4.030933179999977,41.51543247000001],[-4.027399199999991,41.517796970000006],[-4.0209493500000235,41.518430860000024],[-4.018316850000019,41.51869739],[-4.015912759999992,41.518241269999976],[-4.01376737999999,41.51823318999999],[-4.011443859999986,41.517560100000026],[-4.011413520000019,41.51638042000002],[-4.010338100000013,41.51581341000002],[-4.009165479999979,41.515931799999976],[-4.007582669999977,41.51664825],[-4.006643839999981,41.517160880000006],[-4.0059929999999895,41.51692337999998],[-4.005494890000023,41.51571175999999],[-4.002933380000002,41.515914280000004],[-4.00186063000001,41.51629293000002],[-4.000686879999989,41.51633919],[-3.999904259999994,41.5161028],[-3.9991222599999787,41.51668606999999],[-3.99858488000001,41.51759147000001],[-3.995787000000007,41.52114660000001],[-3.9946827399999734,41.52417360999999],[-3.994452850000016,41.52638238999998],[-3.994341150000025,41.53083296],[-3.9937079900000185,41.53097355],[-3.99367835999999,41.53373904],[-3.9932490499999744,41.53545414000001],[-3.9930927999999994,41.53699573],[-3.993245170000023,41.538336500000014],[-3.993657810000002,41.539449839999975],[-3.993682330000013,41.54183655000003],[-3.993149630000005,41.543849780000016],[-3.9930546699999923,41.54626454999999],[-3.9942080800000213,41.551902129999974],[-3.994361470000001,41.55330593000002],[-3.9942812799999956,41.55433345],[-3.9938633300000106,41.556012399999986],[-3.9934278299999733,41.55654759999999],[-3.992218340000022,41.55744076000002],[-3.99111769000001,41.558396019999975],[-3.990079719999983,41.55953087],[-3.9892125999999735,41.56086240000002],[-3.9887359400000264,41.56184829],[-3.9880165499999976,41.56264711],[-3.9854610599999774,41.56494789999999],[-3.9848261299999876,41.56657464],[-3.984097879999979,41.56916595000001],[-3.982977070000004,41.57197678],[-3.981728999999973,41.57431131999999],[-3.9807126900000185,41.57452718000002],[-3.980875420000018,41.5765614],[-3.980891369999995,41.57840773999999],[-3.98059164,41.58000457000003],[-3.9804421100000127,41.58201444000002],[-3.9806666000000064,41.58337260000002],[-3.9805619200000137,41.58349059],[-3.9799471599999947,41.584189400000014],[-3.9779841700000134,41.58369275000001],[-3.9729323999999906,41.58361861999998],[-3.9702764699999875,41.584911139999974],[-3.9687925299999733,41.58515786999999],[-3.9681726800000092,41.584622679999995],[-3.9661533699999723,41.58517112999999],[-3.9646767799999907,41.58591315000001],[-3.9638274900000283,41.586082420000025]]],[[[-4.014230170000019,41.36176869000002],[-4.010681809999994,41.36116034999998],[-4.004995759999986,41.36148035000002],[-4.002502760000027,41.36263704999999],[-4.00054990000001,41.3623748],[-3.997034190000022,41.36233322999999],[-3.9895656900000063,41.36101948999999],[-3.986773410000012,41.36058406000001],[-3.982746920000011,41.35996094000001],[-3.9792302600000085,41.35984678],[-3.9767808799999784,41.35994864999998],[-3.972712999999999,41.35974888999999],[-3.972288619999972,41.361761179999974],[-3.971764280000002,41.36348607000002],[-3.9706123500000103,41.36723396000002],[-3.961443480000014,41.365752559999976],[-3.9590927799999918,41.36607842000001],[-3.9491167200000064,41.35920716999999],[-3.946653700000013,41.35754300999997],[-3.9441678100000104,41.35594204],[-3.9407012600000257,41.353475290000006],[-3.9423154400000158,41.35349811999998],[-3.946053500000005,41.35324228000002],[-3.95043880999998,41.35310707999997],[-3.955289100000016,41.35370648999998],[-3.962757730000021,41.35513056000002],[-3.968371760000025,41.35481325000001],[-3.969751579999979,41.35354056],[-3.9740893399999777,41.350216149999994],[-3.9783363899999813,41.34645096000003],[-3.9813959200000113,41.34562324000001],[-3.983019679999984,41.34311425999999],[-3.9850706999999943,41.339619760000005],[-3.99667119999998,41.33538540000001],[-4.001352559999987,41.33359729],[-4.001685479999992,41.333486300000004],[-4.003647829999977,41.33286570000001],[-4.010433390000003,41.317231979999974],[-4.014967599999977,41.31684981000001],[-4.016966490000016,41.31323808000002],[-4.019406160000017,41.308793700000024],[-4.0209456100000125,41.30715866000003],[-4.025692339999978,41.30209014000002],[-4.031436830000018,41.29595857999999],[-4.033582000000024,41.29717341000003],[-4.034460039999999,41.29756186999998],[-4.0389458899999795,41.30025082999998],[-4.043234170000005,41.30476097000002],[-4.044757749999974,41.305918169999984],[-4.047137340000006,41.30756298],[-4.052104149999991,41.30962552],[-4.065431610000019,41.319618649999995],[-4.064919459999999,41.32045210000001],[-4.05793577999998,41.33191125000002],[-4.05675444000002,41.33349844999998],[-4.056695859999991,41.33357104999999],[-4.056457169999987,41.33359125999999],[-4.041567970000017,41.34793203999999],[-4.035015980000026,41.35387314000002],[-4.032411420000017,41.35623851999998],[-4.029376580000019,41.359382349999976],[-4.021164839999983,41.36790466000002],[-4.020937259999982,41.367114000000015],[-4.020305329999985,41.364930749999985],[-4.018683979999992,41.36446769999998],[-4.017011620000005,41.36379790000001],[-4.0155167799999845,41.36300941000002],[-4.014230170000019,41.36176869000002]]]]}}]}