{"type": "FeatureCollection", "features": [{"type": "Feature", "properties": {"OBJECTID": 1869, "ZON_CO_ID": 73, "ZON_DS_NOM": "Yecla", "CAL_DS_NOM": "D.O.Yecla", "TPR_DS_DES": "Denominación de Origen", "TPR_DS_GRU": "CALIDAD DIFERENCIADA", "FAM_DS_NOM": "Vinos"}, "geometry": {"type": "Polygon", "coordinates": [[[-1.3443231800000035, 38.677051389999974], [-1.344069119999972, 38.677101849999985], [-1.343524450000018, 38.677292369999975], [-1.3429654099999766, 38.67748268999998], [-1.3425627600000212, 38.67762114999999], [-1.3411144500000205, 38.67811422], [-1.3402223100000015, 38.67841693999998], [-1.3392952699999796, 38.67873716999998], [-1.3383452400000238, 38.67905707], [-1.3373026400000185, 38.67940267], [-1.3362708899999802, 38.67977545000002], [-1.3353553100000113, 38.68009582000002], [-1.3340700900000115, 38.680492000000015], [-1.333072790000017, 38.68086525000001], [-1.332053540000004, 38.68119311999999], [-1.3311834799999929, 38.681532119999986], [-1.3302459099999737, 38.68180708], [-1.3292485700000043, 38.68218029000002], [-1.3291424500000062, 38.682449099999985], [-1.3289698500000213, 38.682888160000005], [-1.3288341499999774, 38.683192589999976], [-1.3285536800000273, 38.683882410000024], [-1.3283323499999824, 38.68450100000001], [-1.3282117599999879, 38.684742570000026], [-1.3281592899999737, 38.68502115000001], [-1.327624749999984, 38.685265809999976], [-1.3267978499999913, 38.68572253000002], [-1.3258773200000178, 38.68624999999997], [-1.325341719999983, 38.68653969000002], [-1.324804850000021, 38.68688341000001], [-1.324386479999987, 38.68707565], [-1.3235703999999942, 38.68755955], [-1.3226138800000058, 38.68814954999999], [-1.3222406200000023, 38.688378469999975], [-1.321474070000022, 38.688709879999976], [-1.3206149299999765, 38.68906698000001], [-1.320138859999986, 38.68926737999999], [-1.3195651500000167, 38.68970968000002], [-1.3189795100000197, 38.690169819999994], [-1.318324070000017, 38.690665000000024], [-1.317702880000013, 38.69116967000002], [-1.317057429999977, 38.69172806], [-1.3164128099999743, 38.69225041999999], [-1.3155926100000102, 38.69290539999997], [-1.3147381200000154, 38.693550870000024], [-1.3141513699999905, 38.694056020000005], [-1.3134939500000087, 38.694632239999976], [-1.3128624700000273, 38.695082679999985], [-1.312663040000018, 38.69525100999999], [-1.3125466199999778, 38.69531239999998], [-1.3116207200000076, 38.69556935000003], [-1.3111709699999778, 38.695625930000006], [-1.3101305499999967, 38.69586319000001], [-1.3096563099999798, 38.69598248], [-1.308857900000021, 38.696196199999974], [-1.3080720400000132, 38.69636505], [-1.30721613999998, 38.69657791999998], [-1.306568000000027, 38.696757760000025], [-1.3048815199999808, 38.69757131], [-1.304148639999994, 38.697930120000024], [-1.3034040499999833, 38.69829777000001], [-1.3026123999999868, 38.69870978], [-1.3017517700000099, 38.699120789999995], [-1.300867299999993, 38.699567479999985], [-1.3004952000000003, 38.69974229000002], [-1.299712349999993, 38.7001454], [-1.2993857199999752, 38.70031184999999], [-1.2985056599999893, 38.70072255000002], [-1.2977020399999901, 38.70115236999999], [-1.296911399999999, 38.70151930999998], [-1.295691999999974, 38.70202416000001], [-1.2947401900000273, 38.70239773999998], [-1.2935201299999903, 38.70292957999999], [-1.2934120099999973, 38.70297305999998], [-1.292683899999986, 38.70327780000002], [-1.291361199999983, 38.70377208000002], [-1.2909558599999968, 38.70389230000001], [-1.28992310000001, 38.704282680000006], [-1.2888326500000176, 38.70468120999999], [-1.2878473600000007, 38.70500919], [-1.2868950399999903, 38.70540072], [-1.2866284899999982, 38.70548690999999], [-1.2861617099999876, 38.705741380000006], [-1.2855332600000224, 38.706083579999984], [-1.2847750600000154, 38.70653200999999], [-1.2841339500000117, 38.706892040000014], [-1.2838190400000258, 38.707076640000025], [-1.2832076799999754, 38.707635340000024], [-1.2824796200000037, 38.70826440000002], [-1.2823850600000242, 38.70837114], [-1.2818971500000202, 38.70884604999998], [-1.281702110000026, 38.70903691000001], [-1.281219969999995, 38.709480359999986], [-1.2806903300000272, 38.70998617999999], [-1.280091710000022, 38.71049098999998], [-1.2793857199999934, 38.71115639999999], [-1.2792802000000165, 38.71124044999999], [-1.2787057400000208, 38.71169605], [-1.2780927800000086, 38.71231777000003], [-1.2774928300000283, 38.71287661000002], [-1.2768113000000199, 38.71347929000001], [-1.2761295399999995, 38.71409097999998], [-1.2754948499999728, 38.714658299999996], [-1.2749408399999993, 38.715217800000005], [-1.2747866099999783, 38.71541375999999], [-1.274197230000027, 38.71600877999998], [-1.273619119999978, 38.71661297000003], [-1.2730872100000283, 38.71720884000001], [-1.272556370000018, 38.71775966000001], [-1.271965869999974, 38.71839970000002], [-1.271528950000004, 38.71887081], [-1.2709724900000197, 38.719529369999975], [-1.2708779000000163, 38.7196361], [-1.2699777700000254, 38.720713079999996], [-1.2694920100000218, 38.721300600000006], [-1.2689357300000097, 38.72195015], [-1.2685445399999935, 38.72243093999998], [-1.2684364899999991, 38.72261856], [-1.2681466099999739, 38.72319096000001], [-1.2678094299999998, 38.723816709999994], [-1.267447720000007, 38.724505179999994], [-1.2671704100000056, 38.725032709999994], [-1.266822359999992, 38.72563127000001], [-1.2665313599999877, 38.72624868999998], [-1.2662204100000167, 38.72673966999997], [-1.265665370000022, 38.727335159999996], [-1.2651105300000154, 38.727921630000026], [-1.2645375999999828, 38.72851234000001], [-1.2644957699999964, 38.728547760000026], [-1.2639303000000268, 38.72915660000001], [-1.2638124700000049, 38.72927198999997], [-1.263436200000001, 38.72960881], [-1.2627774000000045, 38.730211750000024], [-1.2624621100000013, 38.73040529999997], [-1.2620869200000016, 38.73069707000002], [-1.261806120000017, 38.730891129999975], [-1.2610574799999767, 38.73140261999998], [-1.2603324799999882, 38.73188742000002], [-1.2596304699999905, 38.73237255999999], [-1.258927789999973, 38.73288471000001], [-1.2582843499999967, 38.73332565999999], [-1.2576526299999955, 38.73375777000001], [-1.2569273600000201, 38.73425155000001], [-1.256202309999992, 38.734736329999976], [-1.2557463499999812, 38.735035890000006], [-1.2554893999999877, 38.73519424], [-1.2546838200000252, 38.73567781000003], [-1.2539483300000143, 38.73611734999997], [-1.2524551999999858, 38.73696006], [-1.2520478499999967, 38.73715220999998], [-1.2518256100000258, 38.73730207], [-1.2513518599999998, 38.737592329999984], [-1.2510781400000042, 38.73775943999999], [-1.2503649500000051, 38.738226329999975], [-1.2500610899999742, 38.73842001999998], [-1.249757240000008, 38.73861369999997], [-1.2495942499999728, 38.738692360000016], [-1.2484813099999883, 38.73856755000003], [-1.2477120899999932, 38.73850195], [-1.2468627900000229, 38.73841712000001], [-1.2461400099999764, 38.73833418999999], [-1.245884569999987, 38.73842947000003], [-1.2454307500000255, 38.73863892000003], [-1.2451286500000265, 38.73876052999998], [-1.244315429999972, 38.739081709999994], [-1.2438390400000117, 38.73927278999997], [-1.2435364899999968, 38.73941241], [-1.243284200000005, 38.73952575999999], [-1.2430600999999797, 38.73960348000003], [-1.242917229999989, 38.73979957], [-1.2427699400000165, 38.74017580999998], [-1.2426841399999944, 38.740390779999984], [-1.242637249999973, 38.74048468000001], [-1.2425994299999843, 38.74056071000001], [-1.2421707999999967, 38.74068040999998], [-1.241464599999972, 38.74085901000001], [-1.2406086500000129, 38.74104435999999], [-1.239610319999997, 38.74131765999999], [-1.2386401900000124, 38.74155533999999], [-1.2382221600000207, 38.74171123000002], [-1.2377806800000144, 38.74188478999997], [-1.2374778899999797, 38.742033400000025], [-1.2370738999999844, 38.74220301999998], [-1.2366407100000174, 38.742390209999996], [-1.2362226700000178, 38.74254609000002], [-1.2358499800000118, 38.742729689999976], [-1.2355823400000077, 38.74285179999998], [-1.2347719200000142, 38.743055819999995], [-1.233857100000023, 38.743294289999994], [-1.2329535399999827, 38.74354194], [-1.2319690300000161, 38.743806380000024], [-1.2310774100000117, 38.744036170000015], [-1.2302417399999968, 38.74432988000001], [-1.229218469999978, 38.744764910000015], [-1.2287481700000171, 38.74517227000001], [-1.2283267600000158, 38.74546323999999], [-1.2275731299999961, 38.74569509999998], [-1.2266158099999984, 38.74578869999999], [-1.2256025400000112, 38.745818369999995], [-1.2247374500000205, 38.74590433999998], [-1.2237137899999766, 38.74588877999997], [-1.2228142000000162, 38.745974219999994], [-1.22228444000001, 38.74599318999998], [-1.2217664199999945, 38.74600332], [-1.2210059600000136, 38.74604581], [-1.2202574500000196, 38.74607044999999], [-1.2194047500000238, 38.746120529999985], [-1.2184952100000146, 38.746142710000015], [-1.2181609900000012, 38.746164650000026], [-1.217353179999975, 38.74626045000002], [-1.2163728300000116, 38.74635361999998], [-1.2154612699999916, 38.74645683], [-1.214503929999978, 38.74655032999999], [-1.2136158199999727, 38.746635879999985], [-1.212750260000007, 38.746739779999984], [-1.2116312100000073, 38.746857809999995], [-1.2109853100000123, 38.74692001], [-1.2101662000000033, 38.747006580000004], [-1.2092431300000044, 38.74710957000002], [-1.2088743900000054, 38.747130949999985], [-1.2085967699999856, 38.74718976999998], [-1.2075446900000202, 38.74738989000002], [-1.2066087499999867, 38.74754673000001], [-1.2058690200000228, 38.74767953999998], [-1.2053031699999792, 38.747760959999994], [-1.2045900300000199, 38.747894169999995], [-1.2039854000000219, 38.74800202], [-1.2030377199999975, 38.74816765999998], [-1.2021592699999815, 38.748325350000016], [-1.20138479000002, 38.74846660999998], [-1.2005293400000028, 38.74862464], [-1.1996398300000237, 38.748764110000025], [-1.1988071499999933, 38.74893149000002], [-1.1979171899999983, 38.74908897], [-1.197316360000002, 38.74918782999998], [-1.1960364299999924, 38.75029440999998], [-1.195975400000009, 38.75034754000001], [-1.1954295699999875, 38.75054634999998], [-1.1943052199999897, 38.750871389999986], [-1.1932859699999767, 38.75113496], [-1.191999199999998, 38.75151152000001], [-1.1911073699999974, 38.75174100999999], [-1.1903082300000278, 38.751944890000004], [-1.1894502100000182, 38.75220191], [-1.1886115500000187, 38.752603410000006], [-1.1880753699999786, 38.75287442000001], [-1.187574139999981, 38.75312795999997], [-1.1870487699999899, 38.75342617000001], [-1.1862098500000116, 38.75383664999998], [-1.1854523599999993, 38.75421234999999], [-1.1847296000000256, 38.754579569999976], [-1.1843889099999956, 38.75474098000001], [-1.1839375700000119, 38.75495472], [-1.1836350699999798, 38.75508517999998], [-1.1830532100000255, 38.75488690999998], [-1.1822548600000005, 38.754604159999985], [-1.1816969299999869, 38.75437020999999], [-1.1814229199999886, 38.754284849999976], [-1.180977740000003, 38.75414275999998], [-1.1804069400000117, 38.75396267000002], [-1.1798036999999795, 38.75370097000001], [-1.1791079800000261, 38.75345585000002], [-1.178093629999978, 38.75307058999999], [-1.1772497599999951, 38.75276908000001], [-1.1768163300000083, 38.75261814999999], [-1.175660989999983, 38.75234781], [-1.1746197699999925, 38.752115290000006], [-1.1737161199999946, 38.75190293000003], [-1.172881039999993, 38.75170966000002], [-1.172069190000002, 38.751507730000014], [-1.1713942299999758, 38.75135298999999], [-1.1705251100000282, 38.751141150000024], [-1.1697696400000268, 38.75098515000002], [-1.1690031300000214, 38.75081094000001], [-1.168236859999979, 38.75062772000001], [-1.1674590800000146, 38.750444319999986], [-1.1666695800000184, 38.75026974000002], [-1.165800489999981, 38.75005786000003], [-1.1655147800000236, 38.749981289999994], [-1.1649318699999753, 38.749827960000005], [-1.164120529999991, 38.74960797], [-1.1632061399999998, 38.74936832999998], [-1.1624161999999956, 38.74921173000001], [-1.1617300099999852, 38.74904774999999], [-1.160917770000026, 38.748863770000014], [-1.1601513100000034, 38.74868950000001], [-1.1591907100000185, 38.74845811], [-1.1585618099999806, 38.748304029999986], [-1.1578303300000243, 38.74811227999999], [-1.157029840000007, 38.747919439999976], [-1.1563098699999728, 38.747727870000006], [-1.15562417000001, 38.74754583999999], [-1.1550070299999788, 38.74738291], [-1.1542981100000134, 38.74720952000001], [-1.1536581999999953, 38.74703721999998], [-1.1529722799999718, 38.74686417999999], [-1.1522523300000103, 38.746672579999995], [-1.1513835700000072, 38.74645158999999], [-1.1506749000000127, 38.746269170000005], [-1.1498516799999834, 38.746066910000025], [-1.149097480000023, 38.74586574], [-1.1482855400000176, 38.745672660000025], [-1.1475196100000176, 38.7454803], [-1.146799919999978, 38.745279659999994], [-1.146022739999978, 38.7450781], [-1.1458631200000013, 38.74502150000001], [-1.1453201900000067, 38.74488222999997], [-1.1440458700000136, 38.74455111999998], [-1.1431539199999747, 38.74433871000002], [-1.1424687599999857, 38.744138599999985], [-1.1408332299999984, 38.74376116000002], [-1.139828630000011, 38.743456820000006], [-1.139234799999997, 38.74328516999998], [-1.1383560200000034, 38.74300985999997], [-1.137476079999999, 38.74277957999999], [-1.136642610000024, 38.74253200999999], [-1.1357399199999918, 38.742292340000006], [-1.134894959999997, 38.74204458000003], [-1.1340159800000151, 38.741778239999974], [-1.1332503699999847, 38.74157678], [-1.132393470000011, 38.74134683], [-1.1315605099999857, 38.741081210000004], [-1.130817680000007, 38.74088911000001], [-1.129961729999991, 38.74062311], [-1.1291388800000277, 38.74041169999998], [-1.1283394999999814, 38.74018264], [-1.1274948399999971, 38.739925819999996], [-1.1266835000000128, 38.73971458], [-1.1258609000000206, 38.73949413999998], [-1.124958979999974, 38.73922736999998], [-1.1241368699999725, 38.73898890999999], [-1.1233602899999937, 38.73876919000003], [-1.1225384200000121, 38.738521709999986], [-1.1218391300000121, 38.73834376999997], [-1.1212329200000113, 38.73815381999998], [-1.1209952300000054, 38.73808692], [-1.1202979700000242, 38.737886479999986], [-1.1200816099999997, 38.73782892999998], [-1.119671770000025, 38.737718719999975], [-1.1194962800000212, 38.73739151000001], [-1.119133809999994, 38.73673689999998], [-1.118761500000005, 38.73601905999999], [-1.1184103100000016, 38.735373649999985], [-1.1179908299999965, 38.7347001], [-1.1176408399999787, 38.73400965000002], [-1.1173114800000121, 38.73340963999999], [-1.1169600700000046, 38.73277323000002], [-1.1167742900000235, 38.732400789999986], [-1.1167502100000206, 38.73200393000002], [-1.1167406999999798, 38.73149016999997], [-1.11673380000002, 38.73087733], [-1.1167242899999792, 38.73036357000001], [-1.1166941500000007, 38.72975937000001], [-1.1167074100000036, 38.72925498000001], [-1.1166970900000024, 38.72920976], [-1.1166423999999893, 38.72822671], [-1.1165956599999731, 38.72737895], [-1.1165997800000014, 38.72678431000003], [-1.1166010599999936, 38.726297750000015], [-1.116617290000022, 38.7261178], [-1.116619519999972, 38.72559522], [-1.1165675699999724, 38.72494561000002], [-1.1165625599999771, 38.72426071000001], [-1.1165573100000188, 38.72358482999999], [-1.1165161600000033, 38.72296241999999], [-1.116522169999996, 38.722295729999985], [-1.1164824300000191, 38.72161928000003], [-1.116476949999992, 38.72095239999999], [-1.116485329999989, 38.720195649999994], [-1.1164479500000084, 38.71942913999999], [-1.1164103400000158, 38.718671640000025], [-1.1163602899999887, 38.71794999000002], [-1.1163578800000096, 38.71716601999998], [-1.116364840000017, 38.716463309999995], [-1.1163710899999728, 38.71578761000001], [-1.116342139999972, 38.715138379999985], [-1.1163267200000178, 38.71484979000002], [-1.1161921799999845, 38.71427994999999], [-1.1161117999999988, 38.71383714000001], [-1.1160196999999812, 38.713403140000025], [-1.1158868100000063, 38.71277026000001], [-1.1157529899999759, 38.71217339999998], [-1.1156719100000032, 38.7117576], [-1.1156011400000239, 38.71138702000002], [-1.1148465599999895, 38.710780150000005], [-1.1143286600000124, 38.710357310000006], [-1.1137429799999836, 38.709888320000005], [-1.1130102299999862, 38.70932684000002], [-1.1128082999999833, 38.70913436000001], [-1.1125052699999856, 38.70885013999998], [-1.111895919999995, 38.708407780000016], [-1.1115347100000008, 38.708149649999996], [-1.1109589000000142, 38.70774388000001], [-1.110325620000026, 38.70733717000002], [-1.1097730500000011, 38.70692276], [-1.1089587199999755, 38.70640499000001], [-1.1084842500000036, 38.70608195], [-1.1078852499999812, 38.70568479000002], [-1.1072750000000156, 38.70527844999998], [-1.1065404500000113, 38.70478899], [-1.1057716700000242, 38.70428995999998], [-1.1052177199999846, 38.703929560000006], [-1.1046977899999888, 38.70358773999999], [-1.104233430000022, 38.7033189], [-1.1036217800000259, 38.70296658000001], [-1.1029430899999966, 38.70254108], [-1.1024104900000111, 38.70224409000002], [-1.1017524200000253, 38.701909020000016], [-1.1008141500000193, 38.70129908000001], [-1.1004092000000014, 38.700959109999985], [-1.1000614800000221, 38.70062906999999], [-1.0997451399999818, 38.70041669], [-1.0993171999999731, 38.70007634000001], [-1.098841870000001, 38.699789280000005], [-1.098673280000014, 38.69964236999999], [-1.098325339999974, 38.699321329999975], [-1.0977389000000244, 38.69888829000001], [-1.097163480000006, 38.698473449999995], [-1.0965193499999941, 38.69804847], [-1.0959221499999785, 38.69758822], [-1.0953809900000238, 38.69718293], [-1.0948618699999884, 38.69681405], [-1.0943652700000257, 38.696463549999976], [-1.0938351400000101, 38.69607645999997], [-1.0933062199999881, 38.69564434], [-1.0930933600000117, 38.69543362000002], [-1.092833330000019, 38.69526718999998], [-1.0925050700000156, 38.69507261000001], [-1.0923118399999794, 38.694988360000025], [-1.0919708900000273, 38.694838619999985], [-1.0916890799999805, 38.69462678000002], [-1.0914075100000105, 38.694405930000016], [-1.0912159700000075, 38.69425862999998], [-1.0910375999999928, 38.694048469999984], [-1.090870719999998, 38.69383850000003], [-1.090724430000023, 38.69371898000003], [-1.090361459999997, 38.69353283999999], [-1.089997770000025, 38.69337371], [-1.0897842100000048, 38.69319001000002], [-1.0895146299999965, 38.69295133000003], [-1.089357810000024, 38.69279559], [-1.0887937400000283, 38.69238990000002], [-1.0884786699999722, 38.692132449999974], [-1.0882191499999863, 38.69194799000002], [-1.0880051099999832, 38.6917823], [-1.0877578000000199, 38.69157101000002], [-1.0872270300000082, 38.691210909999995], [-1.086674720000019, 38.69079640000001], [-1.0861461200000235, 38.690355239999974], [-1.0858751200000256, 38.69017058999998], [-1.0854245699999865, 38.689820810000015], [-1.0849627700000042, 38.68946183000003], [-1.0846592199999918, 38.68920456000001], [-1.0845474299999864, 38.68908558999999], [-1.0842632600000002, 38.68896379], [-1.0839147099999877, 38.68866974000002], [-1.083699500000023, 38.688467979999984], [-1.0831814599999916, 38.688144120000004], [-1.0827057800000262, 38.68787501000003], [-1.0823115200000188, 38.68757119000003], [-1.0821677800000202, 38.68741115], [-1.081596999999988, 38.686775539999985], [-1.081225809999978, 38.68676495], [-1.0810686400000122, 38.68675786], [-1.0805846299999757, 38.68637146999998], [-1.0800874399999998, 38.68604792999997], [-1.0788407499999835, 38.68537868999999], [-1.0778581499999973, 38.68472279000002], [-1.0769897399999877, 38.68409578000001], [-1.0765792099999771, 38.68397189000001], [-1.0761578999999983, 38.68382079000003], [-1.0754747299999963, 38.683575270000006], [-1.0740298900000198, 38.68301084000001], [-1.0733706799999823, 38.68272966000001], [-1.0728244300000256, 38.68252240999999], [-1.0725307399999906, 38.682328340000026], [-1.0718998300000067, 38.68184938000002], [-1.0711896999999908, 38.68132405], [-1.0706040399999779, 38.68087286000002], [-1.069995170000027, 38.680430290000004], [-1.0693987600000128, 38.679951879999976], [-1.068181299999992, 38.67905772], [-1.067640670000003, 38.678643299999976], [-1.066559180000013, 38.67782346000001], [-1.0661985300000083, 38.67755618000001], [-1.0650114900000176, 38.676815669999996], [-1.0644804400000112, 38.67647348000003], [-1.0639158999999836, 38.67609469000001], [-1.0633973199999787, 38.67571665000003], [-1.0629127400000016, 38.67535720000001], [-1.0625674899999922, 38.67494599999998], [-1.0617809600000214, 38.67427516999999], [-1.061385869999981, 38.67400730999998], [-1.0609819800000082, 38.67364018000001], [-1.0601030700000251, 38.672985830000016], [-1.0597087300000112, 38.672690939999995], [-1.058966259999977, 38.67209292000001], [-1.058029949999991, 38.67143759999999], [-1.0574664499999926, 38.67102275000002], [-1.0568335400000137, 38.67062477000002], [-1.0562133500000073, 38.67018194000002], [-1.055649140000014, 38.66979409999999], [-1.055152659999976, 38.669452439999986], [-1.0542599300000006, 38.668887919999975], [-1.0537072299999863, 38.66850026999998], [-1.0523754999999824, 38.66759502999997], [-1.0517211399999837, 38.66714259999998], [-1.0510883000000035, 38.66674458], [-1.0506143399999814, 38.666421300000025], [-1.0498710300000198, 38.665859239999975], [-1.0488204900000255, 38.665183920000004], [-1.0482793400000219, 38.664796430000024], [-1.0477494400000182, 38.66441814000001], [-1.0473102199999857, 38.66408640999998], [-1.0464972999999986, 38.663550199999975], [-1.045989910000003, 38.66319028999999], [-1.0451078300000063, 38.66266193000001], [-1.0443626499999823, 38.662171890000025], [-1.043606469999986, 38.66166363999997], [-1.0429854600000112, 38.661256760000015], [-1.0425555400000235, 38.661033299999986], [-1.0422031400000265, 38.66086519999999], [-1.0415004999999837, 38.660502010000016], [-1.040401959999997, 38.65990690000001], [-1.0393931199999997, 38.65939438999999], [-1.0382159299999785, 38.65873485999998], [-1.037207369999976, 38.658213320000016], [-1.0361294200000088, 38.65770863], [-1.0351116200000092, 38.65710582000003], [-1.034352609999985, 38.65670559], [-1.0341035999999804, 38.65656624000002], [-1.0329671700000063, 38.65652008000001], [-1.0325975700000072, 38.65650935000002], [-1.0321059300000002, 38.656496559999994], [-1.0316648099999952, 38.65644858000002], [-1.030765219999978, 38.65635682999999], [-1.028816710000001, 38.656170789999976], [-1.0283922099999927, 38.6561456], [-1.0272267000000284, 38.65585110000001], [-1.0269334899999762, 38.65551726000001], [-1.0260971600000062, 38.654561520000016], [-1.0260693100000253, 38.654529509999975], [-1.0259834999999953, 38.653888300000006], [-1.0258901700000251, 38.6531028], [-1.0258795699999723, 38.652652090000004], [-1.0258011999999894, 38.65174069], [-1.0257731699999795, 38.65150593999999], [-1.0257546600000182, 38.65134343], [-1.025588110000001, 38.65029537999999], [-1.0253935499999898, 38.649012579999976], [-1.0252965099999756, 38.648362169999984], [-1.0251794800000198, 38.647603300000014], [-1.0250474000000054, 38.64655583000001], [-1.0247364300000186, 38.64491063000003], [-1.024528920000023, 38.64368166999998], [-1.0244368499999723, 38.64285113], [-1.0242766299999744, 38.64199241], [-1.0240951700000096, 38.64107025999999], [-1.024033099999997, 38.64040241999999], [-1.0239641000000006, 38.63998676], [-1.023364870000023, 38.639634220000005], [-1.022721450000006, 38.63921785000002], [-1.0216935400000011, 38.63857872], [-1.021103939999989, 38.63819029000001], [-1.0208798699999875, 38.638087369999994], [-1.0205393400000276, 38.63793743000002], [-1.0200659600000108, 38.637605029999975], [-1.0194560300000148, 38.63722525999998], [-1.0187891900000068, 38.636826489999976], [-1.0181001400000014, 38.63640032000001], [-1.0172857800000088, 38.63593598], [-1.016350100000011, 38.63528936], [-1.0159199600000193, 38.63505679999997], [-1.0157530899999756, 38.634026749999975], [-1.0155931900000041, 38.63274452000002], [-1.0154759900000272, 38.63158016], [-1.0153900500000077, 38.630947960000015], [-1.0152811500000212, 38.63031536], [-1.0151107699999784, 38.62899691000001], [-1.0150600299999724, 38.62833826999997], [-1.0148417500000164, 38.62709109000002], [-1.0147767899999849, 38.62653132999998], [-1.014581480000004, 38.625284539999996], [-1.0143924299999867, 38.624227080000026], [-1.014337179999984, 38.62331606999999], [-1.0141236399999798, 38.621897769999975], [-1.0139627899999937, 38.62065156], [-1.0137977100000057, 38.619558470000015], [-1.0136595800000237, 38.61832165999999], [-1.0134969999999726, 38.61713850000001], [-1.0133244400000194, 38.615901099999974], [-1.0130652299999952, 38.614058520000015], [-1.0129380999999853, 38.61283992], [-1.0127977500000043, 38.61168416999999], [-1.0126356900000246, 38.61048298999998], [-1.0125388100000237, 38.60983257999999], [-1.0123969699999975, 38.60873085999998], [-1.0122678500000006, 38.607584299999985], [-1.0121108000000163, 38.60661748000001], [-1.0120441299999925, 38.60612075], [-1.011831480000012, 38.60550440999998], [-1.0116233100000045, 38.60472594999999], [-1.0112467000000152, 38.60380945999998], [-1.0110612500000116, 38.60304038999999], [-1.0108388699999864, 38.602360799999985], [-1.0107035999999994, 38.60185389999998], [-1.010580549999986, 38.60132017000001], [-1.0103571899999793, 38.600676609999994], [-1.0102249099999767, 38.60006163000003], [-1.0100569499999779, 38.599491090000015], [-1.0098777700000028, 38.59891135999999], [-1.0094672500000001, 38.59756177000003], [-1.0092776000000185, 38.59694581000002], [-1.0091328600000224, 38.59636666], [-1.0089783899999816, 38.595724270000005], [-1.008777259999988, 38.59510811000001], [-1.0085776399999986, 38.59443792000002], [-1.008410700000013, 38.593831350000016], [-1.0080419099999745, 38.59263564999998], [-1.0078552699999932, 38.59191161000001], [-1.0076766199999838, 38.591313860000014], [-1.0074423400000114, 38.590652079999984], [-1.0072998599999892, 38.589991870000006], [-1.0068994200000247, 38.58869650999998], [-1.006511460000013, 38.58736532], [-1.0063128799999959, 38.58665909000001], [-1.006163440000023, 38.586251059999995], [-1.0059511399999792, 38.58562569999998], [-1.0056116200000247, 38.58461971999998], [-1.0054317500000138, 38.58406699], [-1.0049420700000269, 38.582679989999974], [-1.0048385499999881, 38.58227274000001], [-1.0045389699999987, 38.58148369999998], [-1.004274559999999, 38.58066822000001], [-1.0040610400000105, 38.58008788000001], [-1.0037013599999796, 38.578982429999996], [-1.003329220000012, 38.57791280999999], [-1.0029907599999888, 38.57687078999999], [-1.0025637699999947, 38.57571012], [-1.002451169999972, 38.575320739999995], [-1.0023961800000052, 38.57513057], [-1.0020248199999742, 38.574033929999985], [-1.0018330400000082, 38.57349900999998], [-1.0015933500000074, 38.572751530000005], [-1.001568940000027, 38.57267452000002], [-1.0018358199999966, 38.57215645000002], [-1.0024655899999857, 38.57096877999999], [-1.003129510000008, 38.56979068999999], [-1.0037352900000087, 38.56863863000001], [-1.0044121399999995, 38.567406689999984], [-1.0050413199999753, 38.56623701000001], [-1.0054400700000201, 38.56551393000001], [-1.0060684800000104, 38.56437125999997], [-1.006817300000023, 38.56302339000001], [-1.0070813699999803, 38.56260437999998], [-1.0074237100000119, 38.56184430000002], [-1.0080016900000146, 38.56086295], [-1.0083901500000252, 38.56009462999998], [-1.0089825599999926, 38.55900539999999], [-1.009200710000016, 38.558585600000015], [-1.0094709599999874, 38.55794142000002], [-1.0098822900000073, 38.55675898999999], [-1.0102863600000092, 38.55542324999999], [-1.0107113600000162, 38.55415995999999], [-1.0111590299999875, 38.552906070000006], [-1.011560309999993, 38.55166940999999], [-1.0120326300000215, 38.550352859999975], [-1.012474979999979, 38.54887359999998], [-1.0129460200000153, 38.54760207999999], [-1.0131593300000077, 38.54693889999999], [-1.01339385, 38.54633917000001], [-1.013595940000016, 38.545666789999984], [-1.0140469699999812, 38.54428679], [-1.0142353499999786, 38.54369528000001], [-1.014543539999977, 38.54250208000002], [-1.0147605399999975, 38.54170381], [-1.0148297700000057, 38.541272470000024], [-1.0151098000000047, 38.540268019999985], [-1.0154568099999892, 38.538913279999974], [-1.0157290700000203, 38.53777352999998], [-1.0158854800000086, 38.53709135999998], [-1.0162201800000048, 38.53660144999998], [-1.0166615300000217, 38.535987190000014], [-1.0174948900000231, 38.53488398000002], [-1.0183673199999816, 38.533610220000014], [-1.0191547599999922, 38.532506220000016], [-1.0199311999999736, 38.53138401000001], [-1.0208130299999993, 38.53018247], [-1.020896499999992, 38.53006675], [-1.0218493099999932, 38.52878530999999], [-1.022612229999993, 38.52773493000001], [-1.023364650000019, 38.52664833], [-1.0242366200000106, 38.52538353], [-1.0246070800000098, 38.52484012999997], [-1.0250709700000016, 38.52423522999999], [-1.0255131600000027, 38.5235849], [-1.0259179099999756, 38.522992509999995], [-1.0260617199999729, 38.52281922999998], [-1.0258439899999985, 38.52239205000001], [-1.025519490000022, 38.52167472000002], [-1.025138410000011, 38.5209294], [-1.0246625300000005, 38.51987611999999], [-1.0239991600000167, 38.51854933999999], [-1.0236507800000254, 38.51786765000003], [-1.0233255800000052, 38.51717733999999], [-1.0227853999999752, 38.515960759999984], [-1.0220687300000009, 38.5144889], [-1.0216967100000147, 38.51383384000002], [-1.0213730300000066, 38.51308948000002], [-1.0209512900000277, 38.51210467999999], [-1.020892979999985, 38.512009079999984], [-1.020792819999997, 38.511845189999974], [-1.0204696800000193, 38.511317099999985], [-1.0202532399999882, 38.51084487000003], [-1.0198846100000196, 38.50964921000002], [-1.0194222000000082, 38.50810954999997], [-1.019033879999995, 38.50679640999999], [-1.0185473500000057, 38.50530139], [-1.0181079199999772, 38.503762119999976], [-1.017839639999977, 38.50296012000001], [-1.0175780399999894, 38.50217624999999], [-1.0160422199999743, 38.500059720000024], [-1.0154698900000199, 38.499266079999984], [-1.0149762600000258, 38.49858189999998], [-1.0145323699999835, 38.49796613000001], [-1.0138772199999835, 38.49705842999998], [-1.0136454500000127, 38.49673010999999], [-1.015048859999979, 38.49531216999998], [-1.0159355900000264, 38.494335999999976], [-1.016466390000005, 38.49379533000001], [-1.016950099999974, 38.49329891999997], [-1.0174811300000215, 38.49274924000002], [-1.0180363000000057, 38.49215491000001], [-1.0191227099999765, 38.49100188], [-1.019676870000012, 38.490443570000025], [-1.0209156600000142, 38.489166950000026], [-1.021317119999992, 38.48874121], [-1.0218134599999757, 38.48819993000001], [-1.0224026899999785, 38.487615170000026], [-1.0229463300000248, 38.48702062000001], [-1.0235360300000025, 38.48641782999999], [-1.0241967000000045, 38.485735139999974], [-1.0246573900000158, 38.48523831], [-1.0251297699999782, 38.48473265000001], [-1.0262513199999717, 38.48354410000002], [-1.0274664600000278, 38.482285030000014], [-1.028113879999978, 38.481665169999985], [-1.0288934600000061, 38.480822260000025], [-1.0295542800000135, 38.48013053], [-1.030003679999993, 38.479624469999976], [-1.0303813799999944, 38.47922534000003], [-1.030958030000022, 38.47867636000001], [-1.0315122499999916, 38.47810898], [-1.0320333099999743, 38.477495980000015], [-1.0326574800000117, 38.47688471999999], [-1.033284340000023, 38.476174379999975], [-1.034097929999973, 38.47534101000002], [-1.034865179999997, 38.47452487999999], [-1.0358481499999925, 38.47378445999999], [-1.0371134100000177, 38.472778430000005], [-1.0377586999999835, 38.47223057000002], [-1.0389183500000172, 38.47131286000001], [-1.0395621499999947, 38.47081902999997], [-1.0404406900000254, 38.470121870000014], [-1.042102409999984, 38.46886110000003], [-1.0434589000000187, 38.46786553999999], [-1.0446413199999824, 38.46694815000001], [-1.0459051099999783, 38.465987059999975], [-1.0470509099999958, 38.465150129999984], [-1.048186199999975, 38.464276970000014], [-1.0499641499999939, 38.46294594], [-1.0513214000000062, 38.46191425000001], [-1.05261938000001, 38.46095365000002], [-1.0545029300000124, 38.459525180000014], [-1.0551589500000205, 38.45899542000001], [-1.0559190199999762, 38.458431340000004], [-1.0568550099999925, 38.45771697999999], [-1.0573570000000245, 38.457373889999985], [-1.0583056300000067, 38.45661467000002], [-1.0588572899999917, 38.45612821999998], [-1.059302950000017, 38.45574813000002], [-1.0602600899999857, 38.455097179999996], [-1.06097256999999, 38.45459534999998], [-1.0620697900000096, 38.45384758], [-1.0625822200000243, 38.453540669999995], [-1.0634479099999794, 38.45287917000002], [-1.0645195199999762, 38.452230069999985], [-1.0657436299999858, 38.45144832], [-1.0670617399999855, 38.45057799], [-1.0683566800000222, 38.44971628000002], [-1.0696160200000122, 38.44889902], [-1.0702804000000015, 38.44847743999998], [-1.0711306700000023, 38.44795979999998], [-1.0723221900000226, 38.447105350000015], [-1.0736769000000095, 38.44614544000001], [-1.074482479999972, 38.445581989999994], [-1.075599920000002, 38.44492453999999], [-1.0775090299999874, 38.44379348000001], [-1.0794870400000036, 38.44265451000001], [-1.0816045700000245, 38.44143668999999], [-1.082093910000026, 38.441129330000024], [-1.0841703400000142, 38.44059563000002], [-1.0857743400000004, 38.4401623], [-1.0874816200000055, 38.43972163000001], [-1.0891426100000103, 38.439298199999996], [-1.0907587199999966, 38.43883797000001], [-1.092500780000023, 38.43837976999998], [-1.0936481800000024, 38.438069559999974], [-1.094162419999975, 38.437929250000025], [-1.110056840000027, 38.44085419999999], [-1.111685609999995, 38.44122291000002], [-1.1143271099999765, 38.441860220000024], [-1.1228412500000218, 38.44711536], [-1.1313414699999953, 38.44940501999997], [-1.1401734699999793, 38.45262751000001], [-1.1466994799999952, 38.460012010000014], [-1.1554022600000167, 38.471530529999995], [-1.166062860000011, 38.482182490000014], [-1.1728767100000255, 38.48898882999998], [-1.1838793399999759, 38.50055013000002], [-1.195466290000013, 38.51325478000001], [-1.2012368700000025, 38.519579299999975], [-1.2143766300000038, 38.534621809999976], [-1.2295482900000252, 38.54984682000003], [-1.2297466399999735, 38.550151700000015], [-1.230256010000005, 38.55093434999998], [-1.2304488500000161, 38.55123013000002], [-1.2355646999999976, 38.559083939999994], [-1.2476080399999887, 38.577782660000025], [-1.2648613499999897, 38.59352088999998], [-1.279959070000018, 38.60653961999998], [-1.293848330000003, 38.61504228000001], [-1.300794940000003, 38.622424309999985], [-1.3171742700000095, 38.643557610000016], [-1.344301239999993, 38.67700602000002], [-1.3443231800000035, 38.677051389999974]]]}}]}