{"type":"FeatureCollection","crs":{"type":"name","properties":{"name":"urn:ogc:def:crs:EPSG::4326"}},"features":[{"type":"Feature","properties":{"region_id":19,"name":"Villány","name_hu":"Villányi borvidék","region_group":"Dél-Dunántúl (South Transdanubia)","area_ha_approx":2800,"notable_grapes":"Cabernet Franc, Cabernet Sauvignon, Merlot, Portugieser","notes":"Southernmost; warmest region; world-class Bordeaux varieties"},"geometry":{"type":"MultiPolygon","coordinates":[[[[17.8320867,45.7810816],[17.835223,45.781635],[17.8442876,45.7846611],[17.8416678,45.7851504],[17.8402863,45.7856895],[17.8387447,45.7865445],[17.8344541,45.7900566],[17.8328973,45.7916963],[17.8321879,45.7933068],[17.8318646,45.8003862],[17.830841,45.8043204],[17.8301005,45.8059837],[17.8293691,45.8071069],[17.8275314,45.8088218],[17.8262828,45.8095],[17.8244152,45.8100051],[17.8221727,45.8102082],[17.8202474,45.8099478],[17.8186101,45.8092635],[17.8171549,45.8082444],[17.8164174,45.8072336],[17.8159897,45.8057043],[17.8150316,45.8048333],[17.8123288,45.8039684],[17.8110376,45.8037858],[17.8086935,45.8038613],[17.8059008,45.8046853],[17.8016324,45.8055002],[17.8006191,45.8058252],[17.7961079,45.8079392],[17.7944313,45.8088079],[17.7907091,45.8112048],[17.7902328,45.8115964],[17.7882123,45.8142523],[17.7896775,45.8149222],[17.7878013,45.8251838],[17.7905485,45.8244524],[17.7916384,45.8240865],[17.7921967,45.8237085],[17.7932954,45.8233428],[17.793836,45.8233488],[17.7943941,45.822977],[17.7954755,45.8233672],[17.7986934,45.825306],[17.7975859,45.826056],[17.7948562,45.8264098],[17.7958941,45.8287023],[17.7942633,45.828684],[17.7936526,45.8313424],[17.7958331,45.8313668],[17.7969059,45.8321412],[17.7968884,45.8329034],[17.794638,45.8359277],[17.7951615,45.837074],[17.7957022,45.8370801],[17.7961733,45.8401287],[17.788409,45.8461343],[17.7900404,45.846537],[17.7921689,45.8484637],[17.7860786,45.8529633],[17.7854937,45.8544815],[17.7849439,45.8548595],[17.7822393,45.8536823],[17.7800668,45.8536577],[17.7773268,45.8540109],[17.7762273,45.8547608],[17.7756422,45.8562728],[17.7750923,45.8566508],[17.7750745,45.857413],[17.7727865,45.861955],[17.7727243,45.8646196],[17.7732387,45.8657659],[17.7748262,45.8680711],[17.775314,45.8703638],[17.7758551,45.8707481],[17.7769283,45.8711445],[17.7769195,45.8715225],[17.7785517,45.8719191],[17.7801838,45.8719376],[17.782898,45.8723526],[17.7850625,45.8731394],[17.7855948,45.8739078],[17.7855421,45.8761882],[17.786048,45.8777187],[17.7860217,45.8788588],[17.7866418,45.8807797],[17.7862672,45.8826277],[17.7856518,45.8841355],[17.7853132,45.8860904],[17.7863957,45.8861026],[17.7858194,45.8876147],[17.7857841,45.8891391],[17.7862989,45.8902915],[17.7873729,45.8910598],[17.787364,45.891444],[17.7867875,45.8929623],[17.7862373,45.8929561],[17.786211,45.8940963],[17.7873025,45.8941086],[17.786726,45.8956268],[17.7872322,45.8971511],[17.7871355,45.9013401],[17.7816686,45.9020408],[17.770202,45.902673],[17.7522034,45.9024662],[17.7510666,45.9043559],[17.7499658,45.9047275],[17.7504798,45.9062582],[17.7482511,45.9081353],[17.7470687,45.9119273],[17.7479429,45.92108],[17.747347,45.9233541],[17.7495222,45.9233793],[17.767867,45.9091235],[17.7899892,45.9196571],[17.8057664,45.9217359],[17.8056798,45.9255407],[17.8062214,45.9255467],[17.8065554,45.935071],[17.8060048,45.9350649],[17.8059961,45.9354491],[17.8032525,45.9361748],[17.8004216,45.9407177],[17.7998623,45.9410896],[17.7955015,45.9410409],[17.7954927,45.9414251],[17.7949421,45.941419],[17.7943916,45.9417909],[17.7992333,45.9448945],[17.8002823,45.9468091],[17.800772,45.9490955],[17.8018123,45.9513942],[17.8017863,45.9525344],[17.8028181,45.9552112],[17.8044006,45.9575159],[17.8049167,45.9590464],[17.8047085,45.9681804],[17.801815,45.9750037],[17.8007134,45.9757538],[17.7979063,45.9787722],[17.7973205,45.9806685],[17.7950292,45.9852111],[17.8008897,45.9917537],[17.8062266,45.9971435],[17.8088956,46.0002226],[17.8110307,46.002149],[17.8115734,46.0025331],[17.8121158,46.0025391],[17.8115561,46.0032953],[17.8109963,46.0036672],[17.810979,46.0044295],[17.8093168,46.0055578],[17.8092995,46.00632],[17.8081972,46.006686],[17.8076462,46.007058],[17.8092736,46.0074602],[17.8076027,46.0089666],[17.8075768,46.0101068],[17.8070168,46.0104787],[17.8070081,46.0108629],[17.8059057,46.0112288],[17.8058883,46.011991],[17.8064223,46.0127593],[17.8064137,46.0131373],[17.8053024,46.0138874],[17.8052763,46.0150338],[17.8047164,46.01579],[17.804165,46.0157839],[17.8041564,46.0161619],[17.803579,46.0176803],[17.803019,46.0180522],[17.8035616,46.0184426],[17.8041042,46.0184486],[17.8040868,46.0192108],[17.8046382,46.0192169],[17.8046296,46.0195949],[17.8034921,46.0214852],[17.8034834,46.0218694],[17.8029233,46.0222413],[17.8034573,46.0230096],[17.7979784,46.0233268],[17.7963329,46.0236928],[17.7941447,46.0236684],[17.7903463,46.0224854],[17.7897862,46.0232353],[17.787029,46.0239668],[17.7864864,46.0239607],[17.7842806,46.0246983],[17.7831423,46.0265884],[17.7831334,46.0269726],[17.7820394,46.0273384],[17.7825554,46.0284909],[17.7825466,46.0288689],[17.7852423,46.0304241],[17.7852335,46.0308021],[17.7857761,46.0311925],[17.7874396,46.0300644],[17.7912911,46.0289671],[17.7912559,46.0304915],[17.7906342,46.0339123],[17.7905551,46.0373391],[17.788874,46.0388389],[17.7888564,46.0396011],[17.7861336,46.0391924],[17.7757416,46.0394533],[17.7757148,46.0405997],[17.7751453,46.0413557],[17.771871,46.0413185],[17.7691395,46.0409031],[17.7673859,46.0458357],[17.7690143,46.0462324],[17.7684357,46.0477506],[17.7678303,46.050409],[17.7682926,46.053842],[17.7693782,46.0542387],[17.7688087,46.0549884],[17.7687908,46.0557507],[17.7709802,46.0557756],[17.7704283,46.0561536],[17.7698586,46.0569095],[17.7698139,46.0588119],[17.7703658,46.0588182],[17.7703211,46.0607206],[17.7680777,46.0629823],[17.768033,46.0648848],[17.7702228,46.0649097],[17.7696083,46.067568],[17.7701603,46.0675743],[17.7700352,46.0729036],[17.7694832,46.0728973],[17.7699457,46.0767146],[17.7709069,46.0824343],[17.7736406,46.0824654],[17.7730528,46.0839835],[17.7725096,46.0839774],[17.7724829,46.0851176],[17.7730171,46.085508],[17.772456,46.086264],[17.7724383,46.08702],[17.7740768,46.0870386],[17.7740678,46.0874228],[17.77462,46.0874291],[17.7746111,46.0878071],[17.7773451,46.087838],[17.7773539,46.08746],[17.7784492,46.0874724],[17.7772294,46.0927893],[17.7766416,46.0943075],[17.7760984,46.0943013],[17.7760627,46.0958257],[17.7765171,46.0996368],[17.7764192,46.1038258],[17.7757512,46.109149],[17.7768558,46.1087834],[17.7790474,46.1088081],[17.7784774,46.1095579],[17.7784596,46.1103201],[17.779003,46.1107106],[17.7795287,46.1114789],[17.7795199,46.1118569],[17.7800633,46.1122473],[17.7805891,46.1130095],[17.7816673,46.113784],[17.7827277,46.1153208],[17.7827189,46.1156988],[17.7931694,46.1135349],[17.7970094,46.1131933],[17.7992185,46.1124617],[17.799236,46.1116995],[17.8102289,46.1099119],[17.8145945,46.1103441],[17.8140338,46.1111004],[17.8277099,46.1116277],[17.8282619,46.1112556],[17.8288399,46.1101152],[17.8288655,46.1089749],[17.8283473,46.1074445],[17.8262241,46.104378],[17.8262668,46.1024756],[17.8257492,46.1013232],[17.8209779,46.0944158],[17.8168946,46.0823072],[17.8287902,46.0816701],[17.8347354,46.0809581],[17.8379985,46.0839751],[17.8384,46.084537],[17.8386536,46.0884911],[17.8399307,46.0890714],[17.8412149,46.0900285],[17.8445638,46.0902565],[17.8488103,46.0909269],[17.8500194,46.0928261],[17.8515918,46.0962706],[17.8521183,46.0970386],[17.8526617,46.0970444],[17.85538,46.0982137],[17.8570272,46.0978531],[17.8592184,46.0978763],[17.862488,46.0982889],[17.8641274,46.0986905],[17.8646708,46.0986962],[17.8657747,46.0983235],[17.8696048,46.0983637],[17.8706839,46.0991374],[17.8717547,46.1002953],[17.8760957,46.1018592],[17.8788556,46.1011256],[17.8799832,46.0992344],[17.8810869,46.0988678],[17.8821825,46.0988791],[17.8827511,46.0981226],[17.8838549,46.0977498],[17.8849416,46.097761],[17.8865975,46.0974],[17.887685,46.0977893],[17.8892995,46.0989527],[17.890898,46.100872],[17.8919856,46.1012613],[17.8925217,46.1020292],[17.8936003,46.1024246],[17.8941364,46.1031925],[17.895216,46.103966],[17.8963117,46.1039772],[17.8974066,46.1036041],[17.9001503,46.1036322],[17.9023568,46.1025142],[17.9029252,46.1017576],[17.9029491,46.1006173],[17.9062281,46.1010288],[17.9067794,46.1006562],[17.9067555,46.1017965],[17.9088672,46.1056237],[17.909947,46.106397],[17.9121058,46.1075593],[17.9148497,46.107587],[17.9164968,46.1072255],[17.9192318,46.107253],[17.9203197,46.107642],[17.9216814,46.1096636],[17.9219037,46.1103293],[17.9218723,46.1118476],[17.9212972,46.1133666],[17.9218171,46.1145123],[17.9217776,46.116421],[17.9223144,46.1171826],[17.9228735,46.116432],[17.9234339,46.1160533],[17.924521,46.1160642],[17.9261772,46.1157026],[17.9283613,46.1161025],[17.9305599,46.1153619],[17.9316715,46.1146106],[17.9349748,46.1138871],[17.9355261,46.1135083],[17.9361407,46.110471],[17.9350839,46.1085515],[17.9350995,46.1077892],[17.9362186,46.1066598],[17.9362263,46.1062818],[17.9368009,46.1047627],[17.9379354,46.102871],[17.9373999,46.1024814],[17.9379433,46.1024868],[17.9384788,46.1028764],[17.9401502,46.1017462],[17.9418356,46.0994818],[17.9418511,46.0987196],[17.9424176,46.0975846],[17.9424331,46.0968224],[17.9430008,46.0960656],[17.9430472,46.0937789],[17.9436137,46.092644],[17.9442199,46.0899847],[17.9442277,46.0896004],[17.9437063,46.0880767],[17.9437837,46.0842656],[17.9432714,46.0827358],[17.9427656,46.0804498],[17.9405763,46.0808064],[17.9400319,46.0804229],[17.9394888,46.0804176],[17.9389445,46.0800279],[17.9389367,46.0804121],[17.9378504,46.0804014],[17.9378427,46.0807794],[17.9356522,46.0807578],[17.9356988,46.0784772],[17.9362419,46.0784826],[17.9362498,46.0780984],[17.936273,46.0769582],[17.9357378,46.0765686],[17.9357688,46.0750503],[17.9396195,46.0749798],[17.9399921,46.0746552],[17.9412434,46.07472],[17.9412279,46.0754823],[17.9406692,46.0762392],[17.9439536,46.0758872],[17.9441716,46.0744264],[17.9441798,46.0727619],[17.9445405,46.0709064],[17.946244,46.0709634],[17.9443775,46.0697769],[17.9462672,46.069817],[17.9501106,46.0690984],[17.9500568,46.0717631],[17.954942,46.0737136],[17.9548885,46.0763783],[17.9553947,46.0786704],[17.955303,46.0832376],[17.9557774,46.0866699],[17.9562901,46.0881996],[17.9568346,46.088583],[17.9579376,46.0882156],[17.95842,46.0912637],[17.9589645,46.0916532],[17.9600599,46.0916638],[17.9616836,46.0924357],[17.9655134,46.0924727],[17.96543,46.0966619],[17.9637835,46.0970303],[17.9621356,46.0970144],[17.9626424,46.0993002],[17.9631554,46.10083],[17.9631326,46.1019702],[17.9636546,46.1035],[17.9641449,46.10617],[17.9646655,46.1073217],[17.9602837,46.1076575],[17.9591726,46.1084092],[17.9597097,46.1091767],[17.9596717,46.1110792],[17.9602076,46.1114625],[17.9596564,46.1118415],[17.9601847,46.112609],[17.9596412,46.1126037],[17.9595879,46.1152685],[17.9573578,46.1171497],[17.9556635,46.1194205],[17.9566679,46.1239984],[17.9571976,46.125144],[17.9582784,46.1259168],[17.9603781,46.1301272],[17.9637427,46.1263539],[17.9660183,46.1221858],[17.9660562,46.1202833],[17.9641237,46.115333],[17.9641901,46.1103741],[17.9646201,46.1096022],[17.9646276,46.1092242],[17.9657462,46.1080883],[17.9707106,46.1062331],[17.971278,46.1054762],[17.9740505,46.1035998],[17.9751462,46.1036103],[17.9767777,46.1040101],[17.9784169,46.1040257],[17.9784019,46.1047879],[17.9789468,46.1051712],[17.9794902,46.1051764],[17.9805934,46.1048088],[17.981704,46.1040569],[17.9834028,46.1010235],[17.9850879,46.0991366],[17.9861836,46.0991469],[17.9867344,46.0987678],[17.9894764,46.0984156],[17.990036,46.0980427],[17.9927411,46.0995867],[17.9927336,46.0999709],[17.9943727,46.0999863],[17.9943653,46.1003643],[17.9954463,46.1011368],[17.9992766,46.1011726],[17.9992692,46.1015569],[17.9998143,46.10194],[18.0003649,46.1015671],[18.0009083,46.1015721],[18.000923,46.1008099],[18.0025709,46.1008252],[18.0025783,46.100441],[18.003674,46.1004512],[18.0047842,46.0996991],[18.0047988,46.0989369],[18.0053494,46.0985639],[18.0053567,46.0981858],[18.0059074,46.0978067],[18.0059657,46.0947639],[18.0054369,46.0939966],[18.0055099,46.0901854],[18.0060604,46.0898124],[18.005539,46.0886671],[18.0061042,46.0875257],[18.0061334,46.0860012],[18.007236,46.0856333],[18.0077881,46.0856384],[18.0083386,46.0852654],[18.0088835,46.0856485],[18.0105293,46.0852856],[18.01272,46.0853058],[18.0138226,46.0849317],[18.0132777,46.0845486],[18.0138371,46.0841694],[18.0132995,46.0834021],[18.0133212,46.0822619],[18.012778,46.0822569],[18.0127852,46.0818788],[18.0133283,46.0818838],[18.0133357,46.0814996],[18.0168801,46.0818081],[18.0182027,46.0814868],[18.0198742,46.0818625],[18.021383,46.0817334],[18.0239026,46.0818302],[18.027042,46.0865283],[18.0280155,46.0875574],[18.0285234,46.0884936],[18.0297777,46.0898023],[18.0306644,46.0911782],[18.0306502,46.0919404],[18.0311811,46.0930857],[18.0306217,46.0934649],[18.0311669,46.0938479],[18.0300571,46.0946003],[18.0305791,46.0957455],[18.0300286,46.0961248],[18.0300143,46.096887],[18.0294194,46.0991626],[18.0299645,46.0995518],[18.0299574,46.0999298],[18.0293979,46.100309],[18.0293836,46.1010713],[18.0288189,46.1022066],[18.0309961,46.1029887],[18.0315324,46.1033716],[18.0320829,46.1029985],[18.0331857,46.1026242],[18.0331786,46.1030084],[18.0337238,46.1033914],[18.0336812,46.1056782],[18.034784,46.10531],[18.037519,46.1053346],[18.0386077,46.1057225],[18.0391582,46.1053494],[18.0397105,46.1053543],[18.0407923,46.1061202],[18.041872,46.1065141],[18.0435273,46.1061446],[18.044623,46.1061544],[18.0451734,46.1057812],[18.0457099,46.1061641],[18.0462622,46.106169],[18.0468126,46.1057958],[18.0479154,46.1054276],[18.0479084,46.1058056],[18.0484677,46.1054325],[18.0490111,46.1054373],[18.0495705,46.105058],[18.0501279,46.1043005],[18.0506783,46.1039273],[18.051781,46.1035528],[18.0523333,46.1035577],[18.0523403,46.1031797],[18.0528837,46.1031845],[18.0550473,46.1047284],[18.0555699,46.1058735],[18.0571764,46.1081747],[18.0585734,46.1215131],[18.0585527,46.1226534],[18.053081,46.1226051],[18.0525354,46.1222222],[18.0519918,46.1222174],[18.0514324,46.1225906],[18.0508888,46.1225857],[18.0503432,46.1222028],[18.0497996,46.122198],[18.0492491,46.1225712],[18.0470428,46.123314],[18.0470358,46.1236982],[18.0481109,46.1248482],[18.0503223,46.1233431],[18.0558029,46.1233916],[18.0563396,46.1237806],[18.0568921,46.1237854],[18.0574288,46.1241683],[18.0579882,46.1237951],[18.059628,46.1238095],[18.0607379,46.1230569],[18.0601924,46.1226678],[18.0607449,46.1226727],[18.0607518,46.1222946],[18.0612954,46.1222994],[18.0624053,46.1215467],[18.0645975,46.1215659],[18.0651479,46.1211926],[18.0684362,46.1212213],[18.0732891,46.1254472],[18.0738122,46.1265984],[18.0737986,46.1273607],[18.0765551,46.1262379],[18.0796267,46.1241395],[18.0815617,46.1236841],[18.0826485,46.1230348],[18.0842959,46.1224988],[18.0854476,46.1217461],[18.087374,46.1223655],[18.0903045,46.1229281],[18.0930627,46.1221892],[18.0930292,46.124098],[18.0946556,46.1248741],[18.1039729,46.1241903],[18.1039861,46.123428],[18.1050954,46.122675],[18.1056414,46.1230576],[18.1241997,46.1266391],[18.1269228,46.1274238],[18.1274729,46.1270502],[18.1280576,46.1251522],[18.130845,46.1221254],[18.1325232,46.119852],[18.1353611,46.1137823],[18.1381104,46.1134256],[18.1391949,46.1141977],[18.144135,46.1134751],[18.1441287,46.1138531],[18.1446658,46.1142417],[18.1451967,46.1150083],[18.1484784,46.1154127],[18.1517851,46.1142986],[18.152335,46.1139187],[18.1523412,46.1135407],[18.1528936,46.1135451],[18.1529124,46.1124048],[18.165496,46.1128823],[18.1848498,46.1107725],[18.1846708,46.1118906],[18.1846346,46.1141712],[18.1851539,46.1156999],[18.1845923,46.1168361],[18.1834842,46.1175899],[18.1796282,46.119085],[18.1790786,46.1194588],[18.1773934,46.1217329],[18.1762911,46.1221086],[18.1757354,46.1228605],[18.1751856,46.1232405],[18.1724163,46.1247437],[18.1729628,46.125126],[18.172404,46.125506],[18.1734636,46.1277951],[18.17401,46.1281836],[18.1750818,46.1297105],[18.1750574,46.131235],[18.1761265,46.1323837],[18.1750207,46.1335218],[18.1771862,46.134679],[18.1777389,46.1346833],[18.1793546,46.1362205],[18.180451,46.136229],[18.1831695,46.1373903],[18.1864527,46.1377998],[18.1875552,46.1374239],[18.1891954,46.1374365],[18.1892014,46.1370584],[18.1897512,46.1366783],[18.1930404,46.1367034],[18.1968615,46.1374947],[18.200133,46.138666],[18.200665,46.1394262],[18.2028579,46.1394427],[18.2055769,46.1406097],[18.2082785,46.1429108],[18.209375,46.142919],[18.211036,46.1421751],[18.2143342,46.141053],[18.2154307,46.1410611],[18.2159686,46.1414494],[18.2176121,46.1418396],[18.2192524,46.1418517],[18.2225478,46.1414978],[18.2236617,46.1403593],[18.2247434,46.1407515],[18.2252961,46.1407555],[18.2275006,46.1400093],[18.2280502,46.139629],[18.2296962,46.1392629],[18.2313454,46.1392749],[18.2324362,46.1396609],[18.23298,46.1396648],[18.2346373,46.1385363],[18.2363092,46.1370237],[18.2368756,46.1355093],[18.2374226,46.1358913],[18.2401705,46.1351487],[18.2407029,46.1359149],[18.2423464,46.1363047],[18.2507331,46.1367727],[18.2507892,46.137161],[18.2532649,46.1382913],[18.2546391,46.1392412],[18.2565709,46.137168],[18.259291,46.1383337],[18.2603709,46.1394817],[18.2603654,46.1398597],[18.2609037,46.1402478],[18.2647239,46.1417991],[18.2641602,46.1425576],[18.2647075,46.1429394],[18.2652568,46.1425652],[18.2663533,46.1425728],[18.266326,46.1444754],[18.267961,46.1448648],[18.2685082,46.1452529],[18.2695959,46.1452604],[18.2706871,46.145646],[18.2712562,46.1445095],[18.2723691,46.1433706],[18.2767248,46.1449252],[18.2805101,46.1483786],[18.2804779,46.1506654],[18.2842745,46.1533564],[18.2903129,46.1526348],[18.290297,46.1537751],[18.291943,46.1534081],[18.2924852,46.1541741],[18.2951964,46.156095],[18.296288,46.1564804],[18.2973743,46.15725],[18.308308,46.1592251],[18.3230722,46.1616082],[18.3252723,46.1604819],[18.3252825,46.1597196],[18.3258405,46.1593389],[18.3263945,46.1585863],[18.3280858,46.1547854],[18.3325532,46.1487212],[18.3336648,46.1475879],[18.335898,46.1445526],[18.3392533,46.1388655],[18.3403795,46.1365855],[18.3409371,46.1362109],[18.340947,46.1354487],[18.3414957,46.1350678],[18.3415006,46.1346898],[18.3420444,46.1346932],[18.3420642,46.1331686],[18.3431753,46.1320352],[18.3426415,46.1312695],[18.3431902,46.1308886],[18.3431999,46.1301325],[18.3437575,46.1297518],[18.3437624,46.1293737],[18.3465183,46.1278662],[18.3487305,46.1263553],[18.3492839,46.1255964],[18.3509725,46.1218013],[18.3532183,46.1176254],[18.3554395,46.1153521],[18.3559878,46.1149774],[18.3587757,46.111567],[18.3604344,46.1100525],[18.3620978,46.1081599],[18.3643421,46.1039838],[18.3654379,46.1039904],[18.3692545,46.1051539],[18.3703503,46.1051605],[18.3714603,46.1040268],[18.3736524,46.1032776],[18.3753005,46.1032875],[18.3785648,46.1044535],[18.3785835,46.102929],[18.3796746,46.1033135],[18.3807844,46.1021797],[18.3807798,46.1025577],[18.3818708,46.1029485],[18.3840577,46.1033395],[18.3851535,46.1033459],[18.3851488,46.1037302],[18.3856923,46.1037334],[18.3867788,46.1045021],[18.3873131,46.1052614],[18.3901168,46.1003319],[18.3972847,46.0954215],[18.3983849,46.0950498],[18.3962119,46.0935125],[18.3973257,46.0919943],[18.4005942,46.0935378],[18.4033512,46.0916509],[18.4060811,46.0920446],[18.4093767,46.091301],[18.4093812,46.090923],[18.4115722,46.0909354],[18.4126766,46.0901793],[18.4137721,46.0901855],[18.4143199,46.0898043],[18.4148587,46.0901916],[18.4176284,46.0879201],[18.4170851,46.0871547],[18.4181849,46.0867828],[18.4192803,46.086789],[18.4209235,46.0864139],[18.4209278,46.0860358],[18.4214931,46.0848986],[18.423675,46.0849107],[18.4236707,46.0852887],[18.4263963,46.0868285],[18.4280523,46.085313],[18.4275178,46.0845477],[18.4280697,46.0837884],[18.4291607,46.0841787],[18.4302647,46.0834224],[18.4318991,46.0838094],[18.4318905,46.0845717],[18.433499,46.0872456],[18.4334776,46.0891482],[18.4340083,46.09106],[18.4356471,46.091069],[18.4372817,46.0914559],[18.4373074,46.089169],[18.4405896,46.0895711],[18.458652,46.0896671],[18.4586643,46.0885268],[18.4614027,46.0881568],[18.4652324,46.0881767],[18.465208,46.0904636],[18.4646354,46.0923634],[18.464088,46.0927386],[18.4640757,46.0938851],[18.4646068,46.0950283],[18.4645987,46.0957906],[18.4651428,46.0965557],[18.4656862,46.0965585],[18.4656536,46.0996015],[18.466729,46.101516],[18.4667087,46.1034186],[18.4672529,46.1041838],[18.4672407,46.1053241],[18.4666762,46.1064616],[18.4644845,46.1064503],[18.4644682,46.1079748],[18.4639043,46.1098747],[18.4644437,46.1102617],[18.4633191,46.112921],[18.4638716,46.1129238],[18.4622157,46.1144399],[18.4643743,46.1167319],[18.4654622,46.1174999],[18.4676502,46.1178954],[18.4670905,46.119411],[18.4681777,46.1194166],[18.4687423,46.1182791],[18.4698505,46.1171444],[18.4703941,46.1171472],[18.4720587,46.1156311],[18.4726023,46.1156339],[18.4737104,46.1144991],[18.473162,46.114112],[18.4737345,46.1122122],[18.474278,46.112215],[18.4742941,46.1106904],[18.4786738,46.1110969],[18.4797658,46.1114805],[18.4814052,46.1114888],[18.4825051,46.1111162],[18.4830447,46.111497],[18.4813854,46.1133914],[18.4890406,46.114192],[18.4912832,46.109251],[18.4923752,46.1096407],[18.4967499,46.1096622],[18.4972985,46.110043],[18.4983906,46.1104326],[18.500053,46.1081537],[18.5000684,46.1066291],[18.5011795,46.105116],[18.5017458,46.1028318],[18.5028416,46.1028371],[18.502853,46.1016967],[18.5039678,46.0997932],[18.508411,46.0937221],[18.5106121,46.09183],[18.5122711,46.0906975],[18.5128107,46.0910781],[18.5139137,46.090321],[18.5155562,46.0899507],[18.5166629,46.0888156],[18.5177732,46.0872961],[18.5183128,46.0876767],[18.5194157,46.0869196],[18.5194193,46.0865416],[18.5205221,46.0857844],[18.5221682,46.0850298],[18.5249295,46.0831399],[18.5265645,46.0835256],[18.5281958,46.0842954],[18.5298434,46.084303],[18.5314893,46.0835483],[18.533171,46.0789882],[18.5331926,46.0767013],[18.5326638,46.0751805],[18.532671,46.0744182],[18.5305132,46.0709809],[18.5288858,46.069833],[18.5289184,46.0664058],[18.5294868,46.0637434],[18.5294941,46.0629811],[18.5289728,46.0606917],[18.5306216,46.0595589],[18.5317273,46.0584174],[18.5328366,46.0569041],[18.5384087,46.0455008],[18.5384265,46.0435982],[18.5378908,46.0428334],[18.5379015,46.0416931],[18.5390138,46.0397954],[18.5412116,46.0379026],[18.5445056,46.0367709],[18.5450448,46.0371575],[18.5477959,46.0360232],[18.5467085,46.0352561],[18.544509,46.0363928],[18.5434287,46.0348633],[18.5401686,46.033324],[18.5374424,46.031787],[18.5369068,46.0310285],[18.5346967,46.0332992],[18.5330596,46.0332917],[18.5308744,46.0329036],[18.5265095,46.0324992],[18.522132,46.0324788],[18.5177894,46.0297934],[18.5183801,46.0248504],[18.5216995,46.0210543],[18.5217142,46.0195298],[18.5233546,46.0191594],[18.5233655,46.018019],[18.5228251,46.0168699],[18.5190336,46.0134248],[18.5174045,46.0126548],[18.5174156,46.0115145],[18.5163253,46.0111313],[18.5246568,45.9974611],[18.5252211,45.9951767],[18.532469,45.9799825],[18.5352443,45.9750433],[18.5358132,45.9731432],[18.5380262,45.9693417],[18.5430041,45.9625096],[18.5369795,45.964385],[18.5347988,45.9647593],[18.5303012,45.9647561],[18.530863,45.9636183],[18.5320887,45.9628442],[18.5359382,45.9598126],[18.5370329,45.9586772],[18.5375944,45.9575394],[18.5386908,45.9571601],[18.5392363,45.9567845],[18.5403292,45.9567895],[18.5419746,45.9556504],[18.5441603,45.9556602],[18.5463389,45.9564322],[18.5485106,45.9579665],[18.5490526,45.957969],[18.5496001,45.9583494],[18.55177,45.9591214],[18.5528663,45.9587481],[18.5534207,45.9583663],[18.5534172,45.9587506],[18.5539592,45.958753],[18.5550624,45.9576174],[18.5556181,45.9560953],[18.5567212,45.9549535],[18.5589171,45.9538227],[18.5616514,45.9530723],[18.562209,45.9523124],[18.5633085,45.9515549],[18.5633254,45.9496523],[18.560596,45.9488781],[18.5589716,45.9477307],[18.558975,45.9473527],[18.5600812,45.9458329],[18.563349,45.9469874],[18.5633591,45.9458471],[18.5628185,45.9447044],[18.56228,45.9443178],[18.5628253,45.9439421],[18.5639381,45.94166],[18.5634199,45.9389928],[18.5536308,45.9351447],[18.5520016,45.9336129],[18.5503502,45.9355083],[18.541648,45.9324202],[18.5416409,45.9331824],[18.5383744,45.9320273],[18.5367404,45.9320199],[18.5356266,45.9343017],[18.535623,45.9346797],[18.534527,45.935059],[18.5339853,45.9350565],[18.5209404,45.9292818],[18.5181883,45.9319338],[18.5138427,45.9303886],[18.5132958,45.9300079],[18.5132996,45.9296237],[18.5116992,45.9261888],[18.5117253,45.9235239],[18.5111823,45.922759],[18.5101102,45.9216135],[18.5041496,45.9173952],[18.5030879,45.914347],[18.5031411,45.9090173],[18.5020834,45.9055849],[18.5021176,45.9021578],[18.5026819,45.8998736],[18.5027047,45.8975868],[18.5022051,45.8933948],[18.5016549,45.8933921],[18.5011287,45.8918712],[18.5011326,45.8914869],[18.5005912,45.8914843],[18.498961,45.890336],[18.4940498,45.8906899],[18.49352,45.8895469],[18.4924711,45.8853521],[18.493109,45.8758358],[18.4936667,45.8750763],[18.4936706,45.8746982],[18.505812,45.8599083],[18.5069279,45.8564864],[18.5086062,45.852683],[18.5249244,45.8554253],[18.5260406,45.8527656],[18.524968,45.850858],[18.5260733,45.8493385],[18.5260987,45.8466737],[18.5271857,45.847063],[18.5277266,45.8470655],[18.5304884,45.8428888],[18.5304991,45.8417485],[18.5283306,45.8413542],[18.5283486,45.8394517],[18.5272654,45.8386843],[18.5267266,45.8375415],[18.5278243,45.8367843],[18.5272907,45.8360195],[18.5273052,45.834495],[18.5262294,45.8329654],[18.5267737,45.8325899],[18.5267773,45.8322119],[18.5256979,45.8310603],[18.5262584,45.8299226],[18.5268028,45.8295409],[18.5268064,45.8291628],[18.5273632,45.8284031],[18.5268209,45.8276383],[18.5262838,45.8272578],[18.5257342,45.8272552],[18.5251972,45.8268685],[18.5252045,45.8261062],[18.5257524,45.8253527],[18.525756,45.8249685],[18.5246731,45.8242011],[18.5225052,45.8238129],[18.5225125,45.8230507],[18.5214297,45.8222833],[18.5198026,45.8218976],[18.518174,45.8207433],[18.5165433,45.8207356],[18.514931,45.8188253],[18.5111538,45.8153801],[18.5084394,45.8138425],[18.5078988,45.8138398],[18.5051707,45.8145889],[18.5029793,45.8157248],[18.4997245,45.8141844],[18.5035616,45.8115382],[18.504111,45.8115408],[18.5035654,45.8111539],[18.5013982,45.8107653],[18.5003121,45.8103758],[18.4992298,45.8096144],[18.499245,45.8080899],[18.4965287,45.8076923],[18.496544,45.806174],[18.4970921,45.8054144],[18.499287,45.8039006],[18.4987377,45.8038979],[18.4938496,45.8027335],[18.4922194,45.8027254],[18.4927726,45.8023439],[18.4922504,45.7996764],[18.4895344,45.7992848],[18.4884603,45.7977549],[18.4884681,45.7969926],[18.4890163,45.7962331],[18.4906707,45.7947168],[18.4889904,45.7933662],[18.4880094,45.7889956],[18.4874681,45.7882306],[18.4863864,45.7874629],[18.4858578,45.7863199],[18.4858774,45.7844112],[18.4853439,45.7828902],[18.4853595,45.7813657],[18.4843065,45.7786955],[18.4829336,45.7769886],[18.4823323,45.7756502],[18.4822293,45.7752972],[18.4824698,45.7743364],[18.4824343,45.7732511],[18.4819528,45.7732398],[18.4821108,45.7654765],[18.4807206,45.7664954],[18.4638006,45.7662352],[18.4562828,45.7695229],[18.4541002,45.767421],[18.4450763,45.7605196],[18.4475195,45.7590813],[18.4490566,45.7579597],[18.4479265,45.7487143],[18.4498922,45.74649],[18.4500733,45.7457849],[18.4498815,45.7450289],[18.4480671,45.7423293],[18.4484106,45.7420928],[18.446853,45.737128],[18.4459592,45.7372049],[18.4453094,45.7378933],[18.4439563,45.738121],[18.4383466,45.7384792],[18.4367096,45.738413],[18.434613,45.7388477],[18.4321999,45.7395735],[18.4298331,45.7406872],[18.4275001,45.7414873],[18.4271952,45.7407181],[18.4247841,45.7405182],[18.4242024,45.7402566],[18.4263008,45.7387457],[18.4274717,45.7375222],[18.4281319,45.7356426],[18.4282734,45.7342283],[18.4280246,45.7326143],[18.4290637,45.7322442],[18.4285507,45.7315193],[18.4311704,45.7298382],[18.4216926,45.7206797],[18.4214459,45.7202347],[18.4215296,45.7181808],[18.421345,45.718025],[18.422669,45.7134525],[18.4228277,45.7134749],[18.4234551,45.7120356],[18.4228964,45.7119906],[18.4227977,45.7121487],[18.4219838,45.7123018],[18.4199211,45.7115983],[18.4183977,45.7114259],[18.4150323,45.7129814],[18.4123595,45.7139917],[18.4088401,45.7139403],[18.4076481,45.7137584],[18.405519,45.714903],[18.404528,45.7184772],[18.4035172,45.719948],[18.4012295,45.7225394],[18.3997062,45.723419],[18.39929,45.7231127],[18.3989842,45.723085],[18.3987011,45.7233518],[18.3986982,45.7238223],[18.3975119,45.724101],[18.394907,45.7240278],[18.3920106,45.7248521],[18.3893831,45.7260953],[18.3865064,45.7279315],[18.3845046,45.7296233],[18.3838308,45.7303941],[18.3834514,45.7311096],[18.3828653,45.7316669],[18.3820753,45.7321096],[18.3882861,45.7383417],[18.3928849,45.7392814],[18.3945469,45.7393541],[18.3941111,45.7400146],[18.3940558,45.7402302],[18.3942347,45.7402053],[18.3942509,45.7403642],[18.3933956,45.7404754],[18.3873648,45.7462915],[18.3967639,45.7490305],[18.3969073,45.7495972],[18.3979476,45.7497672],[18.3995209,45.7505743],[18.3993059,45.751408],[18.3993461,45.7519725],[18.400041,45.7535311],[18.4002707,45.7548428],[18.4001397,45.7552439],[18.3996937,45.7553871],[18.3991537,45.7553087],[18.3985816,45.7549138],[18.3980829,45.7538593],[18.3975081,45.7531173],[18.3971714,45.7531367],[18.395617,45.7550206],[18.3951747,45.7563603],[18.3945426,45.7571712],[18.3936824,45.7576389],[18.3925194,45.7574472],[18.3920305,45.757766],[18.3923467,45.759088],[18.3924248,45.7609482],[18.3918949,45.7616983],[18.3895993,45.7622651],[18.3870053,45.7643387],[18.3856372,45.7647726],[18.3845319,45.7639372],[18.3838068,45.7638238],[18.3829621,45.7641736],[18.382445,45.7642104],[18.3814061,45.7635665],[18.3807321,45.7636669],[18.3798369,45.7649082],[18.3783585,45.7655429],[18.3743509,45.7676955],[18.3719591,45.7685292],[18.3723264,45.7693181],[18.3717911,45.7689306],[18.3704099,45.7691658],[18.3701005,45.7699024],[18.3642257,45.7729364],[18.3666767,45.7667215],[18.3663741,45.7666171],[18.3654236,45.765671],[18.3650013,45.7656476],[18.3637386,45.7661322],[18.3625717,45.7662096],[18.361559,45.7658805],[18.3582039,45.7672462],[18.3564332,45.7668788],[18.3566246,45.7640971],[18.3565234,45.7639181],[18.3560094,45.7638591],[18.3550973,45.764297],[18.3546835,45.7640042],[18.3517534,45.761191],[18.351763,45.7604349],[18.3506927,45.759666],[18.3501535,45.7589003],[18.3495541,45.758731],[18.3496232,45.7581347],[18.3485763,45.7567474],[18.3463957,45.7550653],[18.3461211,45.7545587],[18.3457571,45.7519148],[18.3450018,45.7499557],[18.3442866,45.7497222],[18.3421426,45.7480641],[18.3390932,45.746955],[18.3378033,45.7470782],[18.3376232,45.74921],[18.3370668,45.7507247],[18.3366408,45.7514183],[18.3350203,45.7528789],[18.3333656,45.7538641],[18.3322933,45.7542324],[18.3309607,45.7544589],[18.3284149,45.7544176],[18.3226451,45.7548332],[18.3192312,45.7560977],[18.3160267,45.7564895],[18.3124084,45.7561715],[18.3095105,45.7565116],[18.3063426,45.7573881],[18.3053572,45.7575781],[18.3042012,45.7575442],[18.3025637,45.7586299],[18.3002776,45.7596678],[18.2982999,45.760385],[18.2964138,45.7608096],[18.2928174,45.7608854],[18.290938,45.7605369],[18.2891952,45.7599208],[18.2830764,45.7571337],[18.2759005,45.7554698],[18.2753976,45.7558748],[18.2741194,45.7564571],[18.2686428,45.7582055],[18.2647308,45.759764],[18.2620818,45.7606377],[18.2595646,45.7611685],[18.2537634,45.761783],[18.2504659,45.7619718],[18.2489056,45.7618283],[18.2454442,45.760994],[18.2437187,45.7610245],[18.2426728,45.7614462],[18.241835,45.762018],[18.2409965,45.7631366],[18.2401179,45.7648668],[18.2394613,45.7657606],[18.237724,45.7671534],[18.2362404,45.7688247],[18.2355406,45.7703476],[18.2350521,45.7719171],[18.2346062,45.7742369],[18.2342817,45.7750523],[18.2322479,45.7774244],[18.2303105,45.7787814],[18.2280096,45.7795955],[18.225426,45.7800783],[18.2163439,45.7804451],[18.2115431,45.7812188],[18.2058094,45.7811866],[18.2049604,45.781358],[18.2030986,45.7819564],[18.1981248,45.7850068],[18.1951553,45.7865349],[18.1936976,45.7870712],[18.1907376,45.7874275],[18.1883865,45.7872358],[18.1871317,45.7868783],[18.1839177,45.7854674],[18.1823291,45.7842544],[18.1806764,45.7826351],[18.1771836,45.7803053],[18.1725702,45.7766239],[18.1712123,45.77596],[18.1695489,45.7758412],[18.1674386,45.7761396],[18.1663134,45.7764822],[18.162811,45.7782294],[18.1591943,45.7809982],[18.1580032,45.7821488],[18.1562539,45.7844009],[18.1557417,45.7848463],[18.152558,45.7865274],[18.1504852,45.7872701],[18.1479136,45.7879121],[18.1452877,45.7883305],[18.1421583,45.7885163],[18.1396328,45.7882893],[18.1357016,45.7874282],[18.133832,45.7873248],[18.1313037,45.7876912],[18.125781,45.789142],[18.1239087,45.7891408],[18.1229823,45.7889473],[18.1218819,45.7885096],[18.1197827,45.7871446],[18.1182354,45.7855641],[18.1169319,45.783521],[18.1159462,45.7815257],[18.113577,45.7779216],[18.1108525,45.7749248],[18.1093922,45.7729437],[18.1069218,45.7709222],[18.1048442,45.7697022],[18.0993296,45.7670116],[18.0975562,45.7663906],[18.0869635,45.7645143],[18.0850982,45.76434],[18.0817101,45.7643572],[18.0794407,45.764804],[18.0745311,45.766203],[18.0701602,45.7680912],[18.0669601,45.7688749],[18.0625114,45.7706332],[18.0589177,45.7717035],[18.0532714,45.7731162],[18.0457136,45.7741975],[18.0378874,45.774622],[18.0358281,45.774935],[18.0300021,45.776776],[18.0267797,45.7772616],[18.0206159,45.7796693],[18.0145452,45.7829706],[18.0129971,45.7841556],[18.010076,45.7876888],[18.0069188,45.7898494],[18.0054904,45.7912018],[18.0022606,45.793411],[17.9989175,45.7945732],[17.9963607,45.7951546],[17.9945445,45.7953126],[17.9914198,45.7952951],[17.988323,45.7948259],[17.9808198,45.7912713],[17.976939,45.7898369],[17.9743292,45.7891406],[17.9699088,45.7886908],[17.9640314,45.7896836],[17.9559112,45.7922277],[17.9540725,45.7925739],[17.9497935,45.7923769],[17.9472518,45.7918317],[17.9427297,45.7905328],[17.9411441,45.7899412],[17.9350916,45.7871411],[17.9335401,45.7866283],[17.9303114,45.7859115],[17.9273345,45.7858842],[17.921805,45.7869838],[17.9174614,45.7885195],[17.9112044,45.7910443],[17.9061943,45.7921906],[17.9002073,45.7913074],[17.898329,45.790785],[17.8964809,45.7900254],[17.890421,45.7867263],[17.8872065,45.7853452],[17.8761624,45.7793173],[17.873869,45.7777659],[17.8718446,45.776123],[17.8706917,45.7745441],[17.8693019,45.769305],[17.8684808,45.7679245],[17.8670672,45.7670953],[17.8656436,45.7667708],[17.8632734,45.7669801],[17.8604222,45.7676857],[17.8579862,45.7686976],[17.8563413,45.7697995],[17.8554614,45.7709319],[17.854488,45.7732174],[17.8524818,45.7757551],[17.8524727,45.7767406],[17.853367,45.7786438],[17.8515771,45.778193],[17.8494843,45.7769756],[17.8475469,45.7753534],[17.8379929,45.7662031],[17.8360477,45.766248],[17.8337259,45.7660696],[17.8311639,45.7656738],[17.8305865,45.7674234],[17.8288341,45.7708244],[17.8271252,45.7711622],[17.829603,45.7782518],[17.8309719,45.779424],[17.8308732,45.7797564],[17.8322361,45.7803397],[17.8320867,45.7810816]]],[[[18.4978082,45.7721127],[18.5084862,45.773346],[18.5093325,45.7695165],[18.498648,45.768277],[18.4978082,45.7721127]]]]}}]}