{"type": "FeatureCollection", "features": [{"type": "Feature", "properties": {"id": "AOC-Alsace-Grand-Cru-Kessler", "name": "Kessler", "commune": "Guebwiller", "family": "砂岩", "familyColor": "#e67e22", "lessonId": "AL2M2L3"}, "geometry": {"type": "MultiPolygon", "coordinates": [[[[7.229372, 47.909769], [7.229364, 47.909742], [7.229062, 47.909585], [7.228876, 47.909504], [7.228553, 47.909385], [7.228221, 47.909527], [7.227997, 47.909604], [7.227922, 47.909606], [7.227625, 47.909642], [7.227499, 47.909683], [7.227329, 47.909734], [7.22712, 47.909776], [7.226921, 47.90983], [7.226307, 47.909995], [7.226301, 47.910094], [7.226284, 47.910149], [7.226341, 47.910127], [7.226217, 47.910176], [7.226028, 47.910197], [7.225545, 47.91026], [7.225374, 47.910329], [7.225317, 47.910362], [7.225291, 47.910397], [7.22538, 47.91041], [7.225675, 47.910414], [7.225896, 47.910489], [7.226158, 47.910582], [7.226257, 47.910618], [7.226244, 47.910613], [7.226234, 47.910633], [7.226137, 47.910796], [7.226026, 47.910978], [7.226213, 47.911042], [7.226351, 47.911055], [7.226493, 47.91115], [7.226566, 47.911227], [7.226607, 47.911274], [7.226664, 47.911352], [7.226647, 47.91137], [7.226667, 47.911388], [7.226733, 47.911436], [7.227007, 47.911318], [7.227007, 47.911316], [7.227094, 47.911327], [7.227114, 47.911444], [7.227142, 47.911598], [7.227181, 47.911674], [7.227261, 47.911636], [7.227404, 47.911822], [7.227476, 47.911912], [7.22755, 47.912008], [7.227471, 47.912092], [7.227454, 47.912114], [7.227446, 47.91214], [7.227449, 47.912152], [7.227546, 47.912362], [7.227569, 47.912415], [7.227576, 47.912434], [7.227611, 47.912631], [7.227623, 47.912718], [7.227626, 47.912726], [7.227634, 47.912784], [7.227634, 47.912791], [7.227629, 47.912959], [7.227567, 47.913129], [7.227487, 47.913332], [7.227487, 47.913335], [7.227489, 47.913388], [7.22752, 47.913812], [7.227533, 47.914015], [7.227603, 47.914317], [7.227607, 47.914337], [7.227903, 47.914447], [7.228546, 47.914671], [7.228871, 47.914783], [7.22889, 47.914792], [7.228993, 47.914833], [7.229445, 47.915022], [7.229467, 47.91503], [7.229517, 47.915016], [7.2294, 47.91479], [7.229482, 47.914945], [7.229526, 47.914927], [7.229551, 47.914977], [7.229561, 47.914995], [7.22957, 47.91501], [7.229631, 47.915097], [7.229778, 47.915264], [7.229979, 47.915495], [7.230515, 47.916406], [7.230874, 47.916741], [7.231139, 47.917002], [7.231376, 47.917384], [7.231528, 47.917633], [7.231769, 47.91757], [7.231877, 47.917543], [7.23205, 47.917499], [7.232313, 47.917431], [7.232665, 47.917343], [7.232962, 47.917267], [7.23332, 47.917177], [7.233247, 47.917034], [7.233007, 47.916682], [7.233052, 47.916675], [7.233274, 47.916638], [7.233703, 47.916568], [7.234341, 47.916464], [7.2346, 47.916422], [7.23463, 47.916225], [7.234609, 47.916127], [7.234547, 47.915918], [7.234479, 47.915744], [7.234415, 47.915544], [7.234362, 47.915414], [7.234276, 47.915248], [7.234254, 47.915213], [7.234169, 47.915081], [7.23407, 47.914989], [7.233844, 47.91484], [7.233784, 47.914792], [7.233621, 47.914601], [7.233528, 47.914511], [7.233439, 47.914438], [7.233047, 47.914159], [7.233024, 47.914142], [7.232947, 47.914083], [7.232886, 47.913959], [7.232844, 47.913696], [7.232794, 47.913578], [7.23273, 47.913482], [7.23266, 47.913417], [7.232447, 47.913266], [7.232434, 47.913263], [7.231123, 47.913671], [7.231084, 47.913692], [7.231037, 47.913667], [7.230941, 47.91364], [7.230868, 47.91363], [7.230654, 47.913612], [7.230451, 47.913584], [7.230462, 47.913551], [7.230478, 47.913554], [7.23069, 47.913584], [7.230825, 47.913594], [7.230954, 47.913603], [7.23101, 47.913603], [7.231083, 47.913646], [7.231285, 47.913582], [7.231952, 47.913371], [7.232388, 47.913233], [7.232216, 47.913021], [7.232012, 47.912857], [7.231885, 47.912769], [7.231874, 47.91277], [7.231758, 47.912686], [7.231598, 47.912603], [7.231547, 47.912598], [7.231303, 47.912333], [7.231243, 47.912223], [7.231215, 47.912172], [7.231172, 47.912029], [7.231168, 47.912015], [7.231152, 47.911884], [7.231146, 47.911848], [7.231144, 47.911682], [7.231143, 47.91167], [7.231119, 47.91147], [7.231077, 47.911207], [7.231044, 47.911035], [7.231018, 47.910877], [7.230928, 47.910619], [7.230947, 47.910491], [7.23094, 47.91033], [7.230936, 47.910316], [7.23089, 47.910215], [7.230857, 47.910169], [7.23078, 47.910116], [7.230646, 47.910073], [7.23061, 47.910068], [7.230295, 47.910018], [7.230151, 47.909993], [7.230074, 47.909963], [7.229895, 47.909905], [7.229577, 47.909817], [7.229515, 47.909814], [7.229372, 47.909769]]]]}}]}