{"type": "FeatureCollection", "features": [{"type": "Feature", "properties": {"id": "AOC-Alsace-Grand-Cru-Wiebelsberg", "name": "Wiebelsberg", "commune": "Andlau", "family": "砂岩", "familyColor": "#d35400", "lessonId": "AL2M2L3"}, "geometry": {"type": "MultiPolygon", "coordinates": [[[[7.425725, 48.389244], [7.425732, 48.389228], [7.425758, 48.389144], [7.425789, 48.389044], [7.42583, 48.388831], [7.425863, 48.388426], [7.42577, 48.388434], [7.425709, 48.388441], [7.425675, 48.388451], [7.425595, 48.388453], [7.425562, 48.388454], [7.425442, 48.388455], [7.425419, 48.388163], [7.425227, 48.388172], [7.425186, 48.388173], [7.425095, 48.388177], [7.425046, 48.388172], [7.424924, 48.388161], [7.424873, 48.388156], [7.424802, 48.388149], [7.424749, 48.38815], [7.424677, 48.388152], [7.424618, 48.388154], [7.424505, 48.388156], [7.424404, 48.38816], [7.424419, 48.388326], [7.424352, 48.388338], [7.424256, 48.388357], [7.424149, 48.388379], [7.424124, 48.388379], [7.424044, 48.388382], [7.423907, 48.388387], [7.423788, 48.388378], [7.423568, 48.388373], [7.423568, 48.388363], [7.423484, 48.388332], [7.423338, 48.388237], [7.423151, 48.388113], [7.423091, 48.388074], [7.422956, 48.387989], [7.422927, 48.387974], [7.422868, 48.387938], [7.422802, 48.387948], [7.42247, 48.388093], [7.422337, 48.388176], [7.422219, 48.388272], [7.422138, 48.388337], [7.42186, 48.388581], [7.421821, 48.388614], [7.421694, 48.388633], [7.421637, 48.388658], [7.42157, 48.388727], [7.421271, 48.389034], [7.42092, 48.389389], [7.420892, 48.389458], [7.420838, 48.389593], [7.420788, 48.389715], [7.421016, 48.389873], [7.421165, 48.389919], [7.421412, 48.390157], [7.421504, 48.390247], [7.421767, 48.390155], [7.421923, 48.390118], [7.42202, 48.390095], [7.4222, 48.390039], [7.422483, 48.389952], [7.422637, 48.38989], [7.422777, 48.389833], [7.422938, 48.389775], [7.423071, 48.389729], [7.423107, 48.389717], [7.423164, 48.389697], [7.423294, 48.389595], [7.423329, 48.389568], [7.423345, 48.389579], [7.423385, 48.389607], [7.423464, 48.389642], [7.423439, 48.389651], [7.423257, 48.389715], [7.423185, 48.389739], [7.423132, 48.389794], [7.423074, 48.389859], [7.423036, 48.3899], [7.422974, 48.389865], [7.422924, 48.389839], [7.422809, 48.389886], [7.422484, 48.390026], [7.422342, 48.390067], [7.422076, 48.39014], [7.421794, 48.390221], [7.421595, 48.390287], [7.421546, 48.390305], [7.421471, 48.390341], [7.421333, 48.390408], [7.421244, 48.390464], [7.421142, 48.390528], [7.421053, 48.390601], [7.420962, 48.390682], [7.420808, 48.390851], [7.420655, 48.391014], [7.420514, 48.391161], [7.42047, 48.391208], [7.420276, 48.391419], [7.420191, 48.391487], [7.420185, 48.391501], [7.42014, 48.391623], [7.42027, 48.391628], [7.420632, 48.391678], [7.420833, 48.391729], [7.420898, 48.39174], [7.420889, 48.391779], [7.420865, 48.391853], [7.421281, 48.392029], [7.421703, 48.392218], [7.421946, 48.392298], [7.422043, 48.392091], [7.422086, 48.392016], [7.422151, 48.391901], [7.42218, 48.391853], [7.42225, 48.39173], [7.422265, 48.391708], [7.422281, 48.391686], [7.422315, 48.391648], [7.422383, 48.391573], [7.42244, 48.39151], [7.422468, 48.391478], [7.42247, 48.391474], [7.422471, 48.391471], [7.422543, 48.3914], [7.422598, 48.391346], [7.422634, 48.391309], [7.422652, 48.391292], [7.422676, 48.391274], [7.422759, 48.391214], [7.422868, 48.391131], [7.422879, 48.391122], [7.423103, 48.390989], [7.423114, 48.390985], [7.423183, 48.390948], [7.423293, 48.390888], [7.423412, 48.390842], [7.423582, 48.390779], [7.423713, 48.390729], [7.423741, 48.390722], [7.423848, 48.390698], [7.423908, 48.390681], [7.424048, 48.390639], [7.42415, 48.390609], [7.424391, 48.390572], [7.424805, 48.390531], [7.42505, 48.390508], [7.425254, 48.390518], [7.425354, 48.39052], [7.425484, 48.390526], [7.425544, 48.390531], [7.425786, 48.390554], [7.425999, 48.390573], [7.426102, 48.390591], [7.426373, 48.390414], [7.426471, 48.390366], [7.426679, 48.390319], [7.426769, 48.390287], [7.426837, 48.390239], [7.426934, 48.390216], [7.427045, 48.39021], [7.427141, 48.390153], [7.427348, 48.390075], [7.427376, 48.390054], [7.427464, 48.389874], [7.427296, 48.389814], [7.427225, 48.389788], [7.427065, 48.38972], [7.42668, 48.389556], [7.426542, 48.389506], [7.426475, 48.389483], [7.426382, 48.389459], [7.426175, 48.389416], [7.426084, 48.389402], [7.425978, 48.389383], [7.42582, 48.389344], [7.425725, 48.389244]], [[7.423036, 48.3899], [7.423036, 48.3899], [7.422874, 48.390072], [7.423036, 48.3899]]]]}}]}