{"type": "FeatureCollection", "features": [{"type": "Feature", "properties": {"id": "AOC-Alsace-Grand-Cru-Kitterle", "name": "Kitterlé", "commune": "Guebwiller", "family": "砂岩", "familyColor": "#c0392b", "lessonId": "AL2M2L3"}, "geometry": {"type": "MultiPolygon", "coordinates": [[[[7.223248, 47.904539], [7.223034, 47.904508], [7.22295, 47.904499], [7.222726, 47.904482], [7.222559, 47.904479], [7.222479, 47.904483], [7.22236, 47.904504], [7.222101, 47.904551], [7.221919, 47.904586], [7.221846, 47.904611], [7.22168, 47.904714], [7.221697, 47.904731], [7.221703, 47.904773], [7.221853, 47.904998], [7.222016, 47.905165], [7.222076, 47.905314], [7.22212, 47.905462], [7.222166, 47.905461], [7.22224, 47.905456], [7.222417, 47.905421], [7.222482, 47.905426], [7.222562, 47.905427], [7.222897, 47.905483], [7.222929, 47.905489], [7.222912, 47.905537], [7.222907, 47.905544], [7.222872, 47.905538], [7.222534, 47.905502], [7.222532, 47.905485], [7.22222, 47.905498], [7.222126, 47.905504], [7.22211, 47.905504], [7.222085, 47.905455], [7.222049, 47.905306], [7.221999, 47.905184], [7.221832, 47.905], [7.221666, 47.904774], [7.221533, 47.90482], [7.221314, 47.904934], [7.221129, 47.905037], [7.221002, 47.905126], [7.220912, 47.905198], [7.220896, 47.905209], [7.220924, 47.905224], [7.220548, 47.905512], [7.220509, 47.905492], [7.220247, 47.905708], [7.220611, 47.905872], [7.220626, 47.905855], [7.220725, 47.905882], [7.220971, 47.906008], [7.221013, 47.906032], [7.221111, 47.905956], [7.221, 47.906043], [7.220847, 47.906143], [7.220795, 47.90619], [7.220741, 47.906249], [7.22069, 47.906318], [7.220486, 47.906624], [7.220338, 47.906853], [7.220287, 47.906945], [7.220278, 47.906965], [7.220197, 47.907098], [7.220167, 47.907157], [7.220075, 47.907281], [7.219993, 47.907365], [7.219964, 47.907402], [7.219937, 47.907432], [7.219915, 47.907463], [7.219906, 47.907483], [7.219897, 47.907509], [7.219895, 47.907513], [7.219883, 47.907571], [7.219816, 47.907771], [7.219735, 47.907929], [7.219692, 47.907969], [7.219629, 47.908052], [7.219473, 47.908205], [7.219335, 47.908324], [7.219183, 47.908443], [7.219105, 47.908503], [7.219046, 47.90854], [7.218892, 47.908627], [7.218739, 47.908693], [7.21863, 47.908735], [7.218434, 47.908796], [7.218262, 47.908862], [7.218271, 47.908871], [7.218298, 47.908902], [7.218232, 47.908915], [7.218061, 47.908956], [7.217863, 47.908999], [7.21785, 47.909001], [7.217857, 47.909026], [7.217896, 47.909108], [7.217939, 47.909147], [7.218109, 47.909264], [7.218131, 47.909297], [7.218133, 47.909297], [7.218062, 47.909311], [7.217971, 47.909341], [7.217651, 47.909464], [7.217477, 47.909539], [7.217337, 47.909605], [7.217542, 47.909856], [7.21767, 47.910015], [7.217697, 47.910052], [7.217692, 47.910054], [7.218081, 47.910833], [7.218604, 47.910704], [7.219242, 47.910427], [7.219323, 47.910404], [7.21946, 47.910371], [7.219772, 47.910322], [7.220225, 47.910311], [7.220631, 47.910323], [7.221169, 47.910423], [7.221223, 47.910426], [7.221462, 47.910432], [7.221744, 47.910371], [7.221394, 47.910114], [7.221384, 47.909885], [7.221385, 47.909602], [7.221433, 47.909083], [7.221451, 47.908812], [7.22102, 47.908752], [7.220974, 47.908746], [7.220988, 47.908717], [7.221121, 47.908438], [7.221176, 47.90838], [7.221526, 47.908233], [7.221811, 47.908112], [7.22189, 47.907958], [7.221974, 47.907739], [7.221975, 47.907582], [7.222006, 47.907536], [7.222025, 47.907503], [7.222059, 47.907449], [7.222083, 47.907455], [7.222131, 47.907454], [7.222128, 47.907409], [7.22218, 47.907228], [7.222155, 47.907215], [7.222214, 47.907083], [7.222129, 47.907055], [7.222262, 47.906735], [7.222397, 47.906611], [7.222551, 47.906289], [7.222597, 47.906271], [7.222634, 47.90626], [7.222661, 47.906256], [7.22269, 47.906251], [7.222716, 47.906248], [7.222754, 47.906254], [7.223, 47.906444], [7.223041, 47.906484], [7.223558, 47.906993], [7.22352, 47.90702], [7.223577, 47.907162], [7.223662, 47.907251], [7.223989, 47.907549], [7.224185, 47.907484], [7.224401, 47.907404], [7.224458, 47.907386], [7.22446, 47.907406], [7.224471, 47.907445], [7.2245, 47.907538], [7.224658, 47.908078], [7.224874, 47.908402], [7.225074, 47.908624], [7.225196, 47.908767], [7.225333, 47.909015], [7.225341, 47.909173], [7.225247, 47.909146], [7.225214, 47.909172], [7.225153, 47.909281], [7.225004, 47.909259], [7.224893, 47.909413], [7.225704, 47.909703], [7.225739, 47.909728], [7.226011, 47.909513], [7.225701, 47.909759], [7.225573, 47.909904], [7.225535, 47.909963], [7.225459, 47.910092], [7.225473, 47.910165], [7.225526, 47.910183], [7.22565, 47.910225], [7.226026, 47.910169], [7.22611, 47.910155], [7.226107, 47.910108], [7.2261, 47.910029], [7.22612, 47.910003], [7.226186, 47.909925], [7.226296, 47.909887], [7.226686, 47.90981], [7.226829, 47.909783], [7.22722, 47.909715], [7.227302, 47.909701], [7.227577, 47.909623], [7.22778, 47.909568], [7.227829, 47.90952], [7.227873, 47.909495], [7.227824, 47.90945], [7.22793, 47.909543], [7.227956, 47.909564], [7.228037, 47.909541], [7.228195, 47.909503], [7.228503, 47.90936], [7.228567, 47.909329], [7.22844, 47.909211], [7.228249, 47.909065], [7.228055, 47.908848], [7.227998, 47.908773], [7.227779, 47.908485], [7.227711, 47.90841], [7.227187, 47.908018], [7.227124, 47.907968], [7.227035, 47.907865], [7.227041, 47.907704], [7.227064, 47.907624], [7.22727, 47.907409], [7.227296, 47.907331], [7.227325, 47.907097], [7.227446, 47.906725], [7.227457, 47.906694], [7.227382, 47.906628], [7.227357, 47.90662], [7.227218, 47.90656], [7.227152, 47.906536], [7.227086, 47.906513], [7.226962, 47.906478], [7.226828, 47.906439], [7.226601, 47.906354], [7.226422, 47.906261], [7.226372, 47.906232], [7.226261, 47.906162], [7.226188, 47.906116], [7.226085, 47.90603], [7.225873, 47.905729], [7.225821, 47.905652], [7.225788, 47.905574], [7.225809, 47.905467], [7.22586, 47.905335], [7.225811, 47.905319], [7.225627, 47.905262], [7.22531, 47.905158], [7.225068, 47.90508], [7.224813, 47.904976], [7.224813, 47.904971], [7.224548, 47.904879], [7.224485, 47.904856], [7.224179, 47.904754], [7.22411, 47.904733], [7.223787, 47.904649], [7.223784, 47.90464], [7.223686, 47.90462], [7.223497, 47.904576], [7.223462, 47.904569], [7.223248, 47.904539]]]]}}]}