{"type": "FeatureCollection", "features": [{"type": "Feature", "properties": {"id": "AOC-Alsace-Grand-Cru-Spiegel", "name": "Spiegel", "commune": "Bergholtz & Guebwiller", "family": "泥灰砂岩", "familyColor": "#2980b9", "lessonId": "AL2M5L1"}, "geometry": {"type": "MultiPolygon", "coordinates": [[[[7.236876, 47.91598], [7.236783, 47.915817], [7.236544, 47.915954], [7.236203, 47.91615], [7.236058, 47.916211], [7.235805, 47.916269], [7.235721, 47.916287], [7.235393, 47.916313], [7.235172, 47.91633], [7.234688, 47.916349], [7.234654, 47.916419], [7.234689, 47.916531], [7.234834, 47.916663], [7.234917, 47.916763], [7.23495, 47.916875], [7.234976, 47.91696], [7.234988, 47.917014], [7.234997, 47.917062], [7.235044, 47.917178], [7.235061, 47.917192], [7.235022, 47.917244], [7.235098, 47.917524], [7.23514, 47.917672], [7.235144, 47.917688], [7.2351, 47.917846], [7.23507, 47.91797], [7.235034, 47.918098], [7.235023, 47.918185], [7.234996, 47.918351], [7.234963, 47.918549], [7.234956, 47.91863], [7.234953, 47.918721], [7.234955, 47.91878], [7.23496, 47.91885], [7.234956, 47.918897], [7.234941, 47.919078], [7.234937, 47.919132], [7.234912, 47.919252], [7.234908, 47.919272], [7.234893, 47.919345], [7.234877, 47.919421], [7.234855, 47.919514], [7.234843, 47.919593], [7.234819, 47.919735], [7.234802, 47.919851], [7.2348, 47.919862], [7.234798, 47.919943], [7.234796, 47.920046], [7.234796, 47.920055], [7.234801, 47.920083], [7.234806, 47.920105], [7.234827, 47.920164], [7.234833, 47.920178], [7.234896, 47.920287], [7.234917, 47.920322], [7.234998, 47.920462], [7.235097, 47.920622], [7.235123, 47.920719], [7.235156, 47.920829], [7.235192, 47.920945], [7.235529, 47.920933], [7.23582, 47.920923], [7.236104, 47.920912], [7.236288, 47.920906], [7.236466, 47.920887], [7.236714, 47.920861], [7.237054, 47.920828], [7.237145, 47.920817], [7.23739, 47.920796], [7.237619, 47.920777], [7.237617, 47.920751], [7.23771, 47.920743], [7.237963, 47.920723], [7.238054, 47.920716], [7.238292, 47.920673], [7.238461, 47.920645], [7.238717, 47.920557], [7.23879, 47.920531], [7.238903, 47.9204], [7.239114, 47.92033], [7.239187, 47.920305], [7.239159, 47.920256], [7.239088, 47.920138], [7.239047, 47.919991], [7.238994, 47.919795], [7.238978, 47.919731], [7.238929, 47.919552], [7.238869, 47.919403], [7.238805, 47.919243], [7.238761, 47.919126], [7.238596, 47.919175], [7.238515, 47.919201], [7.238256, 47.919254], [7.238232, 47.91926], [7.23819, 47.919265], [7.238057, 47.919281], [7.237842, 47.919308], [7.23759, 47.919339], [7.237359, 47.919367], [7.237324, 47.919372], [7.237274, 47.919379], [7.237256, 47.919385], [7.237184, 47.919397], [7.236524, 47.919561], [7.23636, 47.919587], [7.23622, 47.91961], [7.236206, 47.919575], [7.236194, 47.919552], [7.236158, 47.919474], [7.236136, 47.91943], [7.236053, 47.919265], [7.236002, 47.919162], [7.235988, 47.91913], [7.235908, 47.918901], [7.235884, 47.918835], [7.235846, 47.918721], [7.235894, 47.918724], [7.235894, 47.918723], [7.23592, 47.918806], [7.235947, 47.918879], [7.235993, 47.918986], [7.236054, 47.919153], [7.236134, 47.919314], [7.236248, 47.919532], [7.236319, 47.919549], [7.236356, 47.919541], [7.236599, 47.919496], [7.236749, 47.919456], [7.236941, 47.919408], [7.237193, 47.919344], [7.237191, 47.919117], [7.237188, 47.919105], [7.237204, 47.919003], [7.237207, 47.918947], [7.237221, 47.918848], [7.237225, 47.918833], [7.237242, 47.918679], [7.237242, 47.918474], [7.237211, 47.918361], [7.237203, 47.918324], [7.237184, 47.918252], [7.237165, 47.918219], [7.23713, 47.918083], [7.237109, 47.917922], [7.237097, 47.917839], [7.237082, 47.917721], [7.23707, 47.917628], [7.237063, 47.917577], [7.237027, 47.917434], [7.236998, 47.917304], [7.236985, 47.917212], [7.236984, 47.917191], [7.236982, 47.917135], [7.236981, 47.917056], [7.236989, 47.916949], [7.236995, 47.916832], [7.237011, 47.916689], [7.23702, 47.916573], [7.237005, 47.916417], [7.236996, 47.916338], [7.23694, 47.916138], [7.236876, 47.91598]]], [[[7.238707, 47.920766], [7.238734, 47.920677], [7.238194, 47.920758], [7.237834, 47.920823], [7.237541, 47.920875], [7.236225, 47.920985], [7.23623, 47.921014], [7.236024, 47.921025], [7.235701, 47.921044], [7.235354, 47.921064], [7.235393, 47.921241], [7.235408, 47.921363], [7.23542, 47.921478], [7.235425, 47.921517], [7.235458, 47.921628], [7.235466, 47.921653], [7.235521, 47.921808], [7.235534, 47.92184], [7.235717, 47.921842], [7.235873, 47.921716], [7.235992, 47.921621], [7.236004, 47.921606], [7.236178, 47.921604], [7.236566, 47.9216], [7.236685, 47.921612], [7.237039, 47.921646], [7.237091, 47.92165], [7.237136, 47.921652], [7.237324, 47.921656], [7.237381, 47.921656], [7.23761, 47.921602], [7.237726, 47.921577], [7.237754, 47.921568], [7.237838, 47.921536], [7.237942, 47.921497], [7.238132, 47.921425], [7.238254, 47.921377], [7.238406, 47.921327], [7.238476, 47.92127], [7.238528, 47.921176], [7.238623, 47.920966], [7.238694, 47.920812], [7.238707, 47.920766]]], [[[7.234339, 47.913018], [7.234333, 47.913007], [7.234295, 47.912998], [7.234279, 47.913004], [7.233599, 47.913256], [7.232878, 47.913527], [7.232844, 47.913569], [7.232849, 47.913591], [7.232918, 47.913819], [7.232943, 47.914002], [7.23308, 47.914136], [7.233464, 47.914418], [7.233561, 47.914493], [7.233657, 47.914584], [7.233845, 47.914782], [7.234107, 47.914977], [7.234244, 47.915087], [7.234317, 47.915227], [7.234327, 47.915245], [7.234407, 47.915409], [7.234535, 47.915736], [7.234559, 47.915809], [7.234581, 47.915884], [7.234717, 47.91631], [7.23517, 47.916308], [7.235716, 47.916261], [7.235877, 47.916229], [7.236038, 47.916192], [7.236175, 47.916131], [7.236775, 47.915783], [7.236735, 47.915722], [7.236676, 47.915655], [7.236471, 47.915409], [7.236392, 47.915318], [7.23605, 47.914968], [7.235949, 47.914845], [7.235934, 47.914828], [7.235499, 47.914308], [7.235475, 47.914282], [7.235307, 47.914126], [7.235182, 47.914008], [7.234809, 47.913661], [7.234724, 47.913541], [7.234396, 47.913092], [7.234339, 47.913018]]]]}}]}