{"type": "FeatureCollection", "features": [{"type": "Feature", "properties": {"id": "AOC-Alsace-Grand-Cru-Pfersigberg", "name": "Pfersigberg", "commune": "Eguisheim & Wettolsheim", "family": "泥灰砂岩", "familyColor": "#e74c3c", "lessonId": "AL2M5L1"}, "geometry": {"type": "MultiPolygon", "coordinates": [[[[7.290594, 48.034254], [7.290411, 48.034085], [7.290374, 48.034051], [7.290295, 48.034003], [7.290194, 48.033962], [7.290033, 48.033923], [7.289682, 48.033842], [7.289389, 48.033777], [7.289401, 48.033751], [7.289249, 48.033699], [7.289188, 48.033678], [7.289059, 48.033648], [7.288904, 48.033629], [7.288784, 48.033635], [7.28867, 48.033657], [7.288387, 48.033738], [7.288271, 48.033771], [7.288242, 48.033779], [7.288181, 48.033788], [7.287929, 48.033828], [7.287324, 48.033893], [7.287186, 48.033907], [7.287055, 48.033923], [7.28669, 48.033962], [7.286494, 48.033994], [7.286383, 48.034012], [7.286295, 48.034026], [7.286062, 48.034066], [7.28562, 48.034154], [7.285464, 48.034185], [7.285151, 48.034268], [7.284944, 48.034341], [7.284845, 48.034404], [7.284807, 48.034465], [7.284806, 48.034519], [7.284805, 48.034603], [7.284802, 48.034668], [7.284792, 48.034678], [7.284669, 48.034823], [7.284654, 48.034872], [7.284687, 48.035013], [7.285025, 48.034976], [7.285313, 48.034971], [7.285369, 48.034974], [7.285475, 48.034981], [7.285618, 48.034994], [7.286179, 48.035045], [7.286456, 48.035052], [7.28694, 48.035018], [7.287376, 48.034932], [7.288125, 48.034789], [7.288575, 48.034736], [7.288967, 48.034728], [7.289067, 48.034738], [7.289613, 48.034807], [7.289935, 48.03484], [7.29051, 48.034909], [7.290909, 48.034857], [7.291053, 48.034842], [7.29112, 48.034833], [7.291108, 48.034824], [7.291211, 48.034893], [7.291558, 48.035031], [7.291684, 48.035065], [7.292134, 48.035109], [7.293082, 48.035199], [7.293641, 48.035235], [7.294689, 48.035301], [7.295186, 48.035368], [7.294822, 48.035015], [7.294731, 48.034926], [7.294699, 48.034893], [7.294645, 48.03482], [7.294601, 48.034818], [7.294267, 48.034801], [7.293765, 48.034778], [7.293762, 48.034801], [7.293635, 48.034795], [7.293628, 48.034877], [7.293622, 48.034942], [7.293579, 48.034936], [7.293511, 48.034929], [7.293454, 48.034922], [7.293397, 48.034916], [7.293137, 48.034884], [7.293053, 48.034874], [7.293028, 48.034871], [7.292966, 48.034863], [7.292773, 48.034839], [7.292678, 48.034826], [7.292227, 48.034771], [7.292223, 48.034652], [7.292219, 48.034539], [7.292237, 48.034424], [7.290665, 48.034258], [7.290594, 48.034254]]], [[[7.287647, 48.035461], [7.287216, 48.035512], [7.287094, 48.035524], [7.287083, 48.035524], [7.287024, 48.035525], [7.286696, 48.035266], [7.286586, 48.035198], [7.286481, 48.035162], [7.286344, 48.035158], [7.286168, 48.035152], [7.285578, 48.035091], [7.285399, 48.035077], [7.285289, 48.035072], [7.285189, 48.035071], [7.285114, 48.035073], [7.284986, 48.035085], [7.284815, 48.035099], [7.284897, 48.035276], [7.284974, 48.035437], [7.285013, 48.035519], [7.28504, 48.035615], [7.285058, 48.035681], [7.28513, 48.035799], [7.285136, 48.035907], [7.285105, 48.036096], [7.285123, 48.036209], [7.285135, 48.036233], [7.285197, 48.036365], [7.285277, 48.036486], [7.285301, 48.036519], [7.285335, 48.036579], [7.285404, 48.036692], [7.285451, 48.036777], [7.285482, 48.036861], [7.285503, 48.036923], [7.285532, 48.036945], [7.285761, 48.036921], [7.286065, 48.036921], [7.286562, 48.03696], [7.286739, 48.036955], [7.286914, 48.036924], [7.286927, 48.036923], [7.287049, 48.036903], [7.28715, 48.036885], [7.28757, 48.036898], [7.287709, 48.036911], [7.287868, 48.036925], [7.28805, 48.036942], [7.288558, 48.037084], [7.288748, 48.037133], [7.289221, 48.037141], [7.289249, 48.037114], [7.289274, 48.036966], [7.289319, 48.036715], [7.289338, 48.036619], [7.289356, 48.036516], [7.289365, 48.036463], [7.289373, 48.03642], [7.289388, 48.036309], [7.289391, 48.036286], [7.289384, 48.036198], [7.289384, 48.03619], [7.28952, 48.035917], [7.289607, 48.0356], [7.289581, 48.035574], [7.289442, 48.035554], [7.289344, 48.035541], [7.289276, 48.035531], [7.289102, 48.035508], [7.288902, 48.035491], [7.288589, 48.035468], [7.288556, 48.035465], [7.288206, 48.035458], [7.287925, 48.035441], [7.287647, 48.035461]]], [[[7.291676, 48.036058], [7.291488, 48.035926], [7.291335, 48.035831], [7.291129, 48.035743], [7.290925, 48.03568], [7.290862, 48.03567], [7.290688, 48.035643], [7.29065, 48.035638], [7.290161, 48.035641], [7.290065, 48.035641], [7.289989, 48.035642], [7.289954, 48.035638], [7.289859, 48.035627], [7.289747, 48.035607], [7.289712, 48.035603], [7.289682, 48.035597], [7.289659, 48.035609], [7.289654, 48.035613], [7.289571, 48.035922], [7.289438, 48.036194], [7.289445, 48.036285], [7.289424, 48.036425], [7.289351, 48.036844], [7.289305, 48.037107], [7.289333, 48.037131], [7.289691, 48.037131], [7.289786, 48.037144], [7.289892, 48.037158], [7.290092, 48.037206], [7.290266, 48.037267], [7.290362, 48.037319], [7.290685, 48.037524], [7.291031, 48.037684], [7.291169, 48.037724], [7.291689, 48.03781], [7.291979, 48.037837], [7.292277, 48.03783], [7.292346, 48.037818], [7.292431, 48.037806], [7.292462, 48.037801], [7.292518, 48.037788], [7.292692, 48.037746], [7.292902, 48.037688], [7.293068, 48.037644], [7.293243, 48.037616], [7.293551, 48.037567], [7.293561, 48.037534], [7.293358, 48.037379], [7.293147, 48.037194], [7.293144, 48.03719], [7.292895, 48.036935], [7.292848, 48.036888], [7.292789, 48.036827], [7.292669, 48.036703], [7.292541, 48.036618], [7.292362, 48.0365], [7.292263, 48.036435], [7.292167, 48.036379], [7.291947, 48.036254], [7.291904, 48.036223], [7.291676, 48.036058]]], [[[7.285431, 48.037001], [7.285416, 48.037005], [7.285229, 48.03702], [7.285237, 48.037086], [7.285197, 48.037156], [7.285102, 48.037316], [7.285325, 48.037351], [7.285394, 48.037363], [7.285405, 48.037401], [7.285518, 48.037405], [7.285645, 48.037413], [7.285697, 48.037424], [7.28595, 48.037429], [7.286039, 48.037433], [7.286241, 48.037439], [7.286435, 48.037444], [7.286418, 48.037569], [7.286529, 48.037572], [7.286937, 48.037577], [7.286932, 48.037675], [7.286931, 48.037733], [7.287478, 48.037687], [7.287537, 48.037815], [7.287607, 48.037976], [7.287652, 48.037971], [7.287703, 48.037966], [7.287836, 48.037952], [7.287972, 48.037936], [7.288134, 48.037919], [7.288126, 48.037857], [7.288521, 48.037849], [7.288532, 48.037851], [7.2887, 48.037843], [7.289022, 48.037826], [7.289225, 48.037817], [7.289257, 48.037808], [7.289294, 48.0378], [7.289411, 48.037785], [7.289496, 48.037774], [7.289615, 48.037752], [7.289625, 48.037542], [7.289657, 48.037183], [7.289477, 48.037178], [7.289308, 48.037175], [7.289308, 48.037181], [7.2893, 48.037181], [7.289066, 48.037175], [7.288748, 48.037169], [7.28874, 48.037169], [7.288556, 48.037124], [7.288542, 48.03712], [7.288394, 48.037079], [7.288262, 48.037042], [7.288059, 48.036987], [7.288034, 48.03698], [7.287866, 48.036965], [7.287568, 48.036936], [7.287565, 48.036936], [7.287487, 48.036934], [7.287414, 48.036931], [7.287352, 48.036928], [7.287158, 48.036922], [7.287153, 48.036924], [7.287076, 48.036936], [7.287005, 48.036948], [7.286885, 48.036968], [7.286745, 48.036991], [7.286697, 48.036993], [7.286562, 48.036996], [7.286378, 48.036981], [7.286089, 48.036958], [7.286062, 48.036955], [7.285769, 48.036958], [7.285764, 48.036959], [7.285615, 48.036973], [7.285529, 48.036982], [7.285431, 48.037001]]], [[[7.299951, 48.044555], [7.299914, 48.044434], [7.299657, 48.044451], [7.299419, 48.044467], [7.299365, 48.044523], [7.299356, 48.044685], [7.299329, 48.044805], [7.299301, 48.044862], [7.299273, 48.044917], [7.299257, 48.044952], [7.299244, 48.045025], [7.299298, 48.045183], [7.299319, 48.045247], [7.299343, 48.045313], [7.299367, 48.045382], [7.299399, 48.045475], [7.299433, 48.045596], [7.299452, 48.045662], [7.299462, 48.045718], [7.29978, 48.04569], [7.300233, 48.045652], [7.300428, 48.045636], [7.300409, 48.045532], [7.300386, 48.045419], [7.300368, 48.045328], [7.30035, 48.045237], [7.300174, 48.045256], [7.300159, 48.0452], [7.300144, 48.045143], [7.300085, 48.044924], [7.300059, 48.044863], [7.300032, 48.044796], [7.299984, 48.04467], [7.299951, 48.044555]]], [[[7.299307, 48.044512], [7.299308, 48.044454], [7.299147, 48.044359], [7.298867, 48.04428], [7.298634, 48.04423], [7.298365, 48.044231], [7.298166, 48.044258], [7.298057, 48.044273], [7.297956, 48.044289], [7.297839, 48.044308], [7.297717, 48.044327], [7.297563, 48.044352], [7.297526, 48.044357], [7.29734, 48.04438], [7.297308, 48.044385], [7.297242, 48.044397], [7.297229, 48.044399], [7.297191, 48.044406], [7.297142, 48.04442], [7.296945, 48.044481], [7.296786, 48.044539], [7.296608, 48.044605], [7.296359, 48.044676], [7.296314, 48.044688], [7.296233, 48.044711], [7.296193, 48.044718], [7.296049, 48.044741], [7.295973, 48.044753], [7.295874, 48.044767], [7.295821, 48.044777], [7.29571, 48.044793], [7.295654, 48.044801], [7.29554, 48.044819], [7.295492, 48.044826], [7.295314, 48.044851], [7.295141, 48.044872], [7.295042, 48.044882], [7.294959, 48.044886], [7.294573, 48.0449], [7.294347, 48.044895], [7.294116, 48.044891], [7.294097, 48.04489], [7.29392, 48.044902], [7.293813, 48.044909], [7.293717, 48.044916], [7.293656, 48.04492], [7.293549, 48.044937], [7.293462, 48.044949], [7.293435, 48.044954], [7.293283, 48.045004], [7.293098, 48.045071], [7.293017, 48.045097], [7.292999, 48.045105], [7.292799, 48.045157], [7.292756, 48.045168], [7.29253, 48.045228], [7.292465, 48.045247], [7.292396, 48.045264], [7.29232, 48.045283], [7.292272, 48.04529], [7.291955, 48.04533], [7.291824, 48.045339], [7.291728, 48.045344], [7.291503, 48.045327], [7.291328, 48.045281], [7.291324, 48.045332], [7.291316, 48.045401], [7.291313, 48.045401], [7.291219, 48.045402], [7.291171, 48.045402], [7.290714, 48.04541], [7.290486, 48.045413], [7.289045, 48.045435], [7.288964, 48.045438], [7.288771, 48.045439], [7.288661, 48.045442], [7.288586, 48.045442], [7.288548, 48.045444], [7.288543, 48.045444], [7.288397, 48.045442], [7.288393, 48.045619], [7.288395, 48.045976], [7.288415, 48.046126], [7.288444, 48.046315], [7.288445, 48.046333], [7.28843, 48.046382], [7.288488, 48.046432], [7.288532, 48.04647], [7.288597, 48.046513], [7.288767, 48.046622], [7.288934, 48.046726], [7.289049, 48.046783], [7.289215, 48.046874], [7.28942, 48.046986], [7.289704, 48.047132], [7.289734, 48.047145], [7.289985, 48.047259], [7.289994, 48.04726], [7.290479, 48.047484], [7.29061, 48.047535], [7.290685, 48.047565], [7.29079, 48.047603], [7.290793, 48.047604], [7.290913, 48.047625], [7.291034, 48.047621], [7.291042, 48.04762], [7.291182, 48.047622], [7.291304, 48.047641], [7.291378, 48.047659], [7.291504, 48.047688], [7.291562, 48.047702], [7.291651, 48.047741], [7.291759, 48.047787], [7.291851, 48.047825], [7.291894, 48.04782], [7.291953, 48.047793], [7.292007, 48.047764], [7.29202, 48.047756], [7.292097, 48.047713], [7.292162, 48.047684], [7.292222, 48.047657], [7.292433, 48.047607], [7.292537, 48.047598], [7.292652, 48.047587], [7.292825, 48.047564], [7.292885, 48.047544], [7.292992, 48.047468], [7.293165, 48.04735], [7.293452, 48.047145], [7.293503, 48.047107], [7.293637, 48.047071], [7.294289, 48.046999], [7.294465, 48.046978], [7.294883, 48.046932], [7.294956, 48.046899], [7.294986, 48.046874], [7.295015, 48.046832], [7.294998, 48.04686], [7.295087, 48.046822], [7.295123, 48.046833], [7.295327, 48.046801], [7.296012, 48.046723], [7.296041, 48.046719], [7.296341, 48.046679], [7.296852, 48.046585], [7.296913, 48.046564], [7.296881, 48.046468], [7.296845, 48.046367], [7.296817, 48.046278], [7.296778, 48.046169], [7.296746, 48.046071], [7.296689, 48.045897], [7.296661, 48.045817], [7.296663, 48.045802], [7.296681, 48.04583], [7.296767, 48.04609], [7.296847, 48.046323], [7.296926, 48.04656], [7.297307, 48.046429], [7.297678, 48.04632], [7.298099, 48.046249], [7.298113, 48.046247], [7.298245, 48.046224], [7.298397, 48.046213], [7.298813, 48.04623], [7.299109, 48.046234], [7.299256, 48.04623], [7.299334, 48.046222], [7.29939, 48.046194], [7.299418, 48.046132], [7.299427, 48.046116], [7.29943, 48.045951], [7.299433, 48.045852], [7.299404, 48.045666], [7.299371, 48.045559], [7.299349, 48.045482], [7.299318, 48.0454], [7.299297, 48.045343], [7.29927, 48.045274], [7.299263, 48.045251], [7.299259, 48.045244], [7.299233, 48.045185], [7.29921, 48.045134], [7.299164, 48.045029], [7.299126, 48.044989], [7.299221, 48.044908], [7.299277, 48.044802], [7.299305, 48.044682], [7.299307, 48.044512]], [[7.292564, 48.046408], [7.292706, 48.046401], [7.292843, 48.046396], [7.292958, 48.046392], [7.292961, 48.046391], [7.292956, 48.046429], [7.292562, 48.046446], [7.292564, 48.046408]]], [[[7.29838, 48.046392], [7.298376, 48.046248], [7.298255, 48.046252], [7.298009, 48.046297], [7.297688, 48.046354], [7.297326, 48.046461], [7.296986, 48.04658], [7.296865, 48.046611], [7.296535, 48.046677], [7.296352, 48.046713], [7.296025, 48.046754], [7.295332, 48.046831], [7.295041, 48.046892], [7.295006, 48.046919], [7.294984, 48.046979], [7.294919, 48.046976], [7.294468, 48.047016], [7.293996, 48.047064], [7.293642, 48.047102], [7.293529, 48.047137], [7.293366, 48.047253], [7.293194, 48.047378], [7.293077, 48.04746], [7.292912, 48.047576], [7.292912, 48.047583], [7.292912, 48.04761], [7.292913, 48.047658], [7.292958, 48.047657], [7.293427, 48.047638], [7.294082, 48.047623], [7.294393, 48.047612], [7.295116, 48.047547], [7.29517, 48.047544], [7.295169, 48.047542], [7.295197, 48.047654], [7.29521, 48.047704], [7.295219, 48.047787], [7.295984, 48.047779], [7.295984, 48.04777], [7.295971, 48.047707], [7.296128, 48.047694], [7.297003, 48.047617], [7.297041, 48.047614], [7.297094, 48.047609], [7.297104, 48.047527], [7.297076, 48.047786], [7.297073, 48.047847], [7.297072, 48.047896], [7.297073, 48.047941], [7.297078, 48.047968], [7.297095, 48.048048], [7.297112, 48.048131], [7.2977, 48.04808], [7.297862, 48.048062], [7.298226, 48.048003], [7.298641, 48.047952], [7.298681, 48.047947], [7.298652, 48.047863], [7.298621, 48.047778], [7.298593, 48.047694], [7.298582, 48.047653], [7.298511, 48.047447], [7.298504, 48.047364], [7.298499, 48.047299], [7.29849, 48.047186], [7.298482, 48.047093], [7.29847, 48.046906], [7.29846, 48.04685], [7.298445, 48.046799], [7.298425, 48.04672], [7.298416, 48.046675], [7.298403, 48.046586], [7.298397, 48.046535], [7.298391, 48.046503], [7.298381, 48.046413], [7.29838, 48.046392]]], [[[7.29881, 48.046261], [7.298513, 48.04625], [7.298434, 48.046296], [7.298434, 48.04633], [7.29843, 48.046412], [7.298449, 48.046546], [7.298465, 48.046677], [7.298494, 48.0468], [7.298517, 48.046897], [7.298524, 48.046978], [7.298544, 48.047219], [7.298562, 48.047445], [7.298593, 48.04753], [7.298646, 48.047683], [7.29866, 48.047723], [7.298674, 48.047765], [7.298696, 48.04784], [7.298729, 48.04794], [7.298758, 48.048036], [7.298781, 48.048158], [7.298796, 48.048242], [7.298805, 48.048281], [7.298823, 48.048407], [7.298829, 48.048513], [7.298869, 48.04851], [7.299341, 48.048467], [7.299828, 48.048404], [7.299863, 48.048497], [7.299917, 48.048641], [7.29993, 48.048671], [7.299945, 48.048714], [7.299962, 48.048758], [7.299982, 48.048812], [7.299983, 48.048815], [7.299999, 48.048916], [7.300004, 48.048946], [7.300008, 48.048966], [7.299993, 48.049011], [7.29998, 48.049044], [7.299979, 48.049068], [7.299983, 48.049118], [7.299993, 48.049278], [7.299997, 48.049319], [7.300422, 48.049298], [7.301353, 48.049243], [7.301388, 48.04924], [7.301382, 48.049195], [7.301372, 48.049139], [7.301355, 48.049034], [7.301348, 48.048985], [7.301342, 48.048937], [7.301336, 48.048895], [7.30133, 48.048858], [7.301324, 48.048822], [7.301339, 48.048769], [7.301369, 48.048674], [7.301381, 48.048631], [7.301398, 48.048569], [7.301439, 48.048418], [7.301469, 48.048256], [7.301469, 48.048189], [7.30147, 48.047997], [7.30148, 48.047854], [7.301485, 48.047754], [7.301484, 48.047744], [7.301477, 48.04769], [7.301471, 48.047643], [7.301458, 48.047557], [7.301454, 48.047534], [7.301442, 48.047453], [7.301425, 48.047353], [7.301425, 48.047344], [7.301405, 48.047197], [7.301373, 48.047198], [7.301177, 48.047207], [7.301151, 48.047121], [7.301039, 48.047124], [7.301, 48.047114], [7.300982, 48.047061], [7.300979, 48.04705], [7.300965, 48.047016], [7.300951, 48.046979], [7.300933, 48.046922], [7.300896, 48.046821], [7.300893, 48.046756], [7.30089, 48.046686], [7.299508, 48.046816], [7.299504, 48.046733], [7.299503, 48.046682], [7.299499, 48.046632], [7.299472, 48.046637], [7.29947, 48.046539], [7.299462, 48.046444], [7.299451, 48.04625], [7.299333, 48.046251], [7.299108, 48.046262], [7.29881, 48.046261]]], [[[7.288257, 48.040166], [7.288037, 48.040169], [7.28805, 48.040422], [7.288065, 48.040748], [7.288053, 48.04086], [7.288025, 48.041087], [7.288295, 48.041097], [7.288298, 48.041068], [7.288465, 48.041071], [7.288465, 48.041103], [7.288586, 48.041108], [7.288699, 48.041112], [7.288853, 48.041118], [7.288923, 48.041115], [7.289038, 48.041111], [7.289158, 48.041105], [7.289479, 48.041082], [7.28972, 48.041108], [7.290233, 48.041233], [7.290258, 48.04124], [7.291007, 48.04143], [7.291132, 48.041444], [7.291246, 48.041423], [7.291264, 48.041421], [7.291591, 48.041142], [7.291697, 48.041061], [7.291823, 48.041022], [7.291759, 48.04086], [7.291713, 48.040757], [7.291646, 48.040724], [7.291632, 48.040584], [7.291609, 48.0405], [7.291586, 48.040414], [7.291562, 48.040222], [7.291558, 48.040098], [7.291549, 48.039963], [7.290794, 48.039996], [7.290746, 48.039998], [7.290388, 48.040024], [7.289947, 48.040052], [7.289933, 48.040053], [7.289474, 48.040097], [7.28919, 48.040132], [7.289145, 48.040137], [7.288901, 48.040146], [7.288807, 48.04015], [7.288724, 48.040153], [7.288673, 48.040155], [7.288557, 48.040157], [7.288474, 48.04016], [7.288389, 48.040163], [7.288257, 48.040166]]], [[[7.292891, 48.039274], [7.292852, 48.039225], [7.29281, 48.039202], [7.292721, 48.039171], [7.292375, 48.039108], [7.29201, 48.039052], [7.291491, 48.03901], [7.291537, 48.03928], [7.291558, 48.039409], [7.291566, 48.039544], [7.291585, 48.039636], [7.291588, 48.039645], [7.291599, 48.039714], [7.291596, 48.039774], [7.291584, 48.039924], [7.292113, 48.039892], [7.292713, 48.039832], [7.29278, 48.039825], [7.293084, 48.039727], [7.293159, 48.039659], [7.293075, 48.03952], [7.293025, 48.039435], [7.293019, 48.039428], [7.292891, 48.039274]]], [[[7.29374, 48.038117], [7.293706, 48.037923], [7.293609, 48.037621], [7.29357, 48.037602], [7.293193, 48.037663], [7.293087, 48.037679], [7.293063, 48.037686], [7.292934, 48.037723], [7.292803, 48.037758], [7.292682, 48.03779], [7.292479, 48.037837], [7.292367, 48.037855], [7.292282, 48.037867], [7.29203, 48.037873], [7.291971, 48.037875], [7.291863, 48.037864], [7.291789, 48.037918], [7.29162, 48.038681], [7.291567, 48.03895], [7.291612, 48.038986], [7.291948, 48.039015], [7.292016, 48.039021], [7.292092, 48.039031], [7.29238, 48.039071], [7.292876, 48.039161], [7.292946, 48.039256], [7.292998, 48.039328], [7.293037, 48.039383], [7.293107, 48.039486], [7.293156, 48.039562], [7.293178, 48.039596], [7.293217, 48.039643], [7.293316, 48.039681], [7.293642, 48.039725], [7.29378, 48.039732], [7.293944, 48.039737], [7.294513, 48.039723], [7.29444, 48.039611], [7.294249, 48.039322], [7.294163, 48.03919], [7.294127, 48.039134], [7.294081, 48.039067], [7.294078, 48.039062], [7.29403, 48.038973], [7.293957, 48.038837], [7.293894, 48.038717], [7.293888, 48.038708], [7.293865, 48.038588], [7.293864, 48.038581], [7.293837, 48.038449], [7.293837, 48.038445], [7.293766, 48.038235], [7.29374, 48.038117]]], [[[7.290019, 48.041243], [7.289709, 48.041166], [7.289462, 48.041137], [7.289302, 48.041148], [7.289077, 48.041165], [7.288962, 48.041168], [7.288844, 48.04117], [7.28865, 48.041167], [7.288559, 48.041164], [7.288456, 48.041163], [7.288413, 48.041193], [7.288456, 48.041458], [7.288478, 48.041697], [7.288533, 48.041717], [7.288628, 48.041717], [7.288633, 48.041717], [7.288714, 48.041718], [7.288738, 48.041719], [7.288816, 48.041717], [7.288894, 48.041718], [7.288948, 48.04172], [7.289034, 48.041722], [7.289045, 48.041722], [7.289152, 48.041725], [7.289273, 48.041728], [7.289296, 48.041835], [7.290034, 48.04176], [7.290039, 48.041819], [7.290063, 48.041816], [7.290245, 48.041806], [7.290339, 48.041803], [7.290449, 48.0418], [7.290725, 48.041797], [7.29098, 48.041794], [7.291203, 48.041791], [7.291206, 48.041791], [7.291258, 48.041542], [7.291026, 48.041502], [7.290991, 48.041496], [7.290771, 48.041435], [7.290504, 48.041362], [7.290381, 48.041329], [7.290265, 48.041297], [7.290227, 48.041288], [7.290041, 48.041247], [7.290019, 48.041243]]], [[[7.293772, 48.039768], [7.293635, 48.039759], [7.29322, 48.039713], [7.293064, 48.039782], [7.292791, 48.039862], [7.292119, 48.039932], [7.292042, 48.039936], [7.291796, 48.039951], [7.291568, 48.039964], [7.291576, 48.040224], [7.291599, 48.04041], [7.291645, 48.040585], [7.291661, 48.040716], [7.291676, 48.040725], [7.291726, 48.040753], [7.29178, 48.040885], [7.291809, 48.04095], [7.291837, 48.041022], [7.292036, 48.040998], [7.292515, 48.040972], [7.292945, 48.040967], [7.293105, 48.040984], [7.293282, 48.041016], [7.293296, 48.041019], [7.29354, 48.041044], [7.293762, 48.041067], [7.293776, 48.041068], [7.293957, 48.041081], [7.294152, 48.041097], [7.294446, 48.041119], [7.294536, 48.041125], [7.294611, 48.041131], [7.29472, 48.041145], [7.294731, 48.041147], [7.294959, 48.041173], [7.295114, 48.041192], [7.295324, 48.041264], [7.295661, 48.041381], [7.295831, 48.041452], [7.296041, 48.041564], [7.296063, 48.041559], [7.296142, 48.041645], [7.296358, 48.041592], [7.296892, 48.041477], [7.296984, 48.041392], [7.296953, 48.041332], [7.297293, 48.041287], [7.297343, 48.04128], [7.297298, 48.041217], [7.297247, 48.041147], [7.29722, 48.041014], [7.297215, 48.040987], [7.297191, 48.040855], [7.297189, 48.04083], [7.2971, 48.040833], [7.296955, 48.040833], [7.296847, 48.040821], [7.296794, 48.040804], [7.296695, 48.040774], [7.29662, 48.040741], [7.296462, 48.040624], [7.296259, 48.040442], [7.296136, 48.040382], [7.296019, 48.040323], [7.295884, 48.040256], [7.295808, 48.040213], [7.295735, 48.040171], [7.295661, 48.040128], [7.295605, 48.040094], [7.295546, 48.040059], [7.295486, 48.040023], [7.295258, 48.039887], [7.29514, 48.039828], [7.295107, 48.039821], [7.294975, 48.039784], [7.294948, 48.039778], [7.294819, 48.039777], [7.2947, 48.039778], [7.294593, 48.03978], [7.294544, 48.039767], [7.293948, 48.039776], [7.293772, 48.039768]]], [[[7.292549, 48.041019], [7.292409, 48.041024], [7.29204, 48.041047], [7.291841, 48.041072], [7.291741, 48.041104], [7.291647, 48.041167], [7.291309, 48.041477], [7.291682, 48.041566], [7.291817, 48.041608], [7.29196, 48.041651], [7.291991, 48.041663], [7.292155, 48.041731], [7.29235, 48.041821], [7.29254, 48.041906], [7.292562, 48.041912], [7.292741, 48.041958], [7.292809, 48.041968], [7.293163, 48.042026], [7.293463, 48.042078], [7.293623, 48.042104], [7.293803, 48.042134], [7.294209, 48.042202], [7.294389, 48.042232], [7.29452, 48.042256], [7.294684, 48.042287], [7.294821, 48.04232], [7.294941, 48.04235], [7.295068, 48.04238], [7.295322, 48.042468], [7.295566, 48.042625], [7.295736, 48.042705], [7.296121, 48.042814], [7.296799, 48.042983], [7.296826, 48.042945], [7.296787, 48.042897], [7.296685, 48.042775], [7.29657, 48.042639], [7.296497, 48.042544], [7.296491, 48.042528], [7.296435, 48.0424], [7.296408, 48.042342], [7.296342, 48.042193], [7.296273, 48.042038], [7.296228, 48.041937], [7.296192, 48.041857], [7.296182, 48.041843], [7.296121, 48.04175], [7.296102, 48.04172], [7.296009, 48.041628], [7.295787, 48.041503], [7.295625, 48.041433], [7.295467, 48.041377], [7.295067, 48.04128], [7.294832, 48.041231], [7.294766, 48.041217], [7.294687, 48.041202], [7.294597, 48.041184], [7.294537, 48.041179], [7.294394, 48.041168], [7.294077, 48.041142], [7.293961, 48.041131], [7.293782, 48.041116], [7.293549, 48.041089], [7.293302, 48.041062], [7.293095, 48.041026], [7.292998, 48.041022], [7.292939, 48.041019], [7.292723, 48.041018], [7.292549, 48.041019]]]]}}]}