{"type": "FeatureCollection", "features": [{"type": "Feature", "properties": {"id": "AOC-Alsace-Grand-Cru-Kirchberg-de-Ribeauville", "name": "Kirchberg de Ribeauvillé", "commune": "Ribeauvillé", "family": "泥灰砂岩", "familyColor": "#f39c12", "lessonId": "AL2M5L1"}, "geometry": {"type": "MultiPolygon", "coordinates": [[[[7.322806, 48.19736], [7.322719, 48.197222], [7.322648, 48.19707], [7.322137, 48.197092], [7.322054, 48.197097], [7.321949, 48.19713], [7.321754, 48.197189], [7.321505, 48.197204], [7.321314, 48.197177], [7.321255, 48.19711], [7.321139, 48.197055], [7.321045, 48.197015], [7.32089, 48.196974], [7.320608, 48.196952], [7.320476, 48.196856], [7.320246, 48.196716], [7.320216, 48.196707], [7.319897, 48.196666], [7.319644, 48.19663], [7.319636, 48.196631], [7.319631, 48.196642], [7.319582, 48.196636], [7.319567, 48.196644], [7.319531, 48.196642], [7.319227, 48.196583], [7.319186, 48.196575], [7.319105, 48.196544], [7.319011, 48.196475], [7.319038, 48.196348], [7.318871, 48.196246], [7.31858, 48.196383], [7.318551, 48.196395], [7.318591, 48.19642], [7.318701, 48.196575], [7.318556, 48.19662], [7.318559, 48.196625], [7.318627, 48.196687], [7.318514, 48.196756], [7.318474, 48.196733], [7.318418, 48.196769], [7.318269, 48.196632], [7.318218, 48.196601], [7.318155, 48.196757], [7.318132, 48.196837], [7.318098, 48.196885], [7.318047, 48.196948], [7.318044, 48.196952], [7.317951, 48.197028], [7.318016, 48.19707], [7.318058, 48.197083], [7.318098, 48.197147], [7.318117, 48.197209], [7.318167, 48.197294], [7.318146, 48.197406], [7.318155, 48.197409], [7.318198, 48.197451], [7.318189, 48.197668], [7.318084, 48.197695], [7.318001, 48.197734], [7.318018, 48.197744], [7.317921, 48.197784], [7.317828, 48.1978], [7.317826, 48.197802], [7.317848, 48.197815], [7.317954, 48.197893], [7.31821, 48.198018], [7.318444, 48.198114], [7.31858, 48.198131], [7.318589, 48.198132], [7.318738, 48.198143], [7.319095, 48.198263], [7.319086, 48.198276], [7.319077, 48.198304], [7.31911, 48.198544], [7.319068, 48.198683], [7.319065, 48.198688], [7.319084, 48.198987], [7.319194, 48.199102], [7.319328, 48.199163], [7.319402, 48.199177], [7.319474, 48.199203], [7.319571, 48.199263], [7.319609, 48.199301], [7.320054, 48.199737], [7.320149, 48.199867], [7.320186, 48.200129], [7.320335, 48.200426], [7.320383, 48.200485], [7.320461, 48.200556], [7.320691, 48.200463], [7.320725, 48.200451], [7.320866, 48.200397], [7.320928, 48.200365], [7.32114, 48.200256], [7.321212, 48.200271], [7.321555, 48.200156], [7.321517, 48.200085], [7.3215, 48.200039], [7.321575, 48.200067], [7.321925, 48.200164], [7.322413, 48.200321], [7.322487, 48.200345], [7.322673, 48.200403], [7.322811, 48.200384], [7.322823, 48.200257], [7.32284, 48.199884], [7.32276, 48.199492], [7.322663, 48.199137], [7.322665, 48.199056], [7.322673, 48.199053], [7.322728, 48.198709], [7.322765, 48.198529], [7.322914, 48.198279], [7.322959, 48.198208], [7.323024, 48.198105], [7.323031, 48.198096], [7.32311, 48.19781], [7.323178, 48.197719], [7.323161, 48.197705], [7.322957, 48.197527], [7.322916, 48.19748], [7.322806, 48.19736]]]]}}]}