{"type": "FeatureCollection", "features": [{"type": "Feature", "properties": {"id": "AOC-Alsace-Grand-Cru-Vorbourg", "name": "Vorbourg", "commune": "Rouffach & Westhalten", "family": "泥灰砂岩", "familyColor": "#27ae60", "lessonId": "AL2M5L1"}, "geometry": {"type": "MultiPolygon", "coordinates": [[[[7.279303, 47.94844], [7.279271, 47.948445], [7.278465, 47.948535], [7.277453, 47.948758], [7.276778, 47.948941], [7.275946, 47.949195], [7.275645, 47.949263], [7.275212, 47.949377], [7.274547, 47.949583], [7.27435, 47.949673], [7.274003, 47.94986], [7.273685, 47.950072], [7.273544, 47.950184], [7.273285, 47.950438], [7.273157, 47.950542], [7.273029, 47.95062], [7.273021, 47.950626], [7.273012, 47.950652], [7.27302, 47.95068], [7.273083, 47.950756], [7.273158, 47.95083], [7.273233, 47.950894], [7.273333, 47.950968], [7.2736, 47.951117], [7.273707, 47.951174], [7.273768, 47.951203], [7.274029, 47.951318], [7.27413, 47.951402], [7.27416, 47.9515], [7.274406, 47.951832], [7.274424, 47.951851], [7.274595, 47.951977], [7.274621, 47.951996], [7.275628, 47.95178], [7.275623, 47.951909], [7.275813, 47.951907], [7.275807, 47.952026], [7.275888, 47.952005], [7.276005, 47.952021], [7.276309, 47.951932], [7.276691, 47.951745], [7.276715, 47.951779], [7.277108, 47.951658], [7.277256, 47.951568], [7.277723, 47.951308], [7.277757, 47.951288], [7.277803, 47.951263], [7.278036, 47.951098], [7.278195, 47.95093], [7.278309, 47.95085], [7.278453, 47.950811], [7.278653, 47.950789], [7.278726, 47.950766], [7.279022, 47.950878], [7.279621, 47.951083], [7.27969, 47.951038], [7.279746, 47.9511], [7.279712, 47.951111], [7.280058, 47.951448], [7.280081, 47.95149], [7.280164, 47.951628], [7.280192, 47.951672], [7.280214, 47.951711], [7.280232, 47.951742], [7.280245, 47.95176], [7.280304, 47.951832], [7.280393, 47.951942], [7.280443, 47.951987], [7.280498, 47.952045], [7.280545, 47.952088], [7.280659, 47.952176], [7.28074, 47.952212], [7.280879, 47.952243], [7.280942, 47.952257], [7.281342, 47.95232], [7.281436, 47.952324], [7.281536, 47.952304], [7.281822, 47.952223], [7.282265, 47.952065], [7.282666, 47.951911], [7.282678, 47.951862], [7.282717, 47.951836], [7.282814, 47.951847], [7.28313, 47.951713], [7.283213, 47.95167], [7.283106, 47.951544], [7.283058, 47.951484], [7.282975, 47.951387], [7.283022, 47.95137], [7.282876, 47.951183], [7.282804, 47.951094], [7.282736, 47.951011], [7.282676, 47.950934], [7.282506, 47.95072], [7.282356, 47.950526], [7.282358, 47.950524], [7.28215, 47.950265], [7.282036, 47.950121], [7.281982, 47.950056], [7.281944, 47.950007], [7.281931, 47.94999], [7.281842, 47.949874], [7.281794, 47.949815], [7.281746, 47.949755], [7.281684, 47.949678], [7.281612, 47.94959], [7.281543, 47.949501], [7.281474, 47.949412], [7.281421, 47.949345], [7.28134, 47.949242], [7.281244, 47.949121], [7.281191, 47.949056], [7.281164, 47.949025], [7.281549, 47.948872], [7.281555, 47.948814], [7.281461, 47.948745], [7.281144, 47.94854], [7.281101, 47.948513], [7.280897, 47.948416], [7.280722, 47.948376], [7.280346, 47.948337], [7.280158, 47.948324], [7.279798, 47.948352], [7.279641, 47.948372], [7.279388, 47.948403], [7.279301, 47.948413], [7.279303, 47.94844]]], [[[7.278947, 47.950908], [7.278659, 47.950834], [7.278601, 47.950879], [7.278679, 47.951015], [7.278801, 47.951234], [7.278817, 47.951261], [7.278864, 47.951344], [7.278864, 47.951345], [7.278915, 47.951439], [7.279184, 47.951919], [7.279191, 47.951937], [7.279506, 47.95245], [7.279613, 47.952643], [7.279777, 47.952943], [7.279783, 47.952952], [7.279868, 47.953075], [7.279874, 47.953084], [7.279883, 47.953093], [7.280083, 47.953376], [7.279907, 47.95313], [7.279857, 47.953146], [7.279181, 47.953407], [7.279192, 47.953415], [7.279351, 47.953557], [7.279435, 47.953634], [7.279272, 47.953672], [7.279278, 47.953683], [7.279443, 47.953992], [7.279604, 47.954222], [7.28, 47.954619], [7.280108, 47.954586], [7.280283, 47.954991], [7.280289, 47.955005], [7.280236, 47.955016], [7.280289, 47.955165], [7.280425, 47.95562], [7.280473, 47.955881], [7.28048, 47.955899], [7.28048, 47.955906], [7.280485, 47.955931], [7.280565, 47.956256], [7.280568, 47.956267], [7.280581, 47.956326], [7.280585, 47.956337], [7.280632, 47.956418], [7.280719, 47.956574], [7.280734, 47.956596], [7.280744, 47.956618], [7.280766, 47.956658], [7.280924, 47.956981], [7.280992, 47.956924], [7.280998, 47.956931], [7.281034, 47.957054], [7.281063, 47.95714], [7.281077, 47.957188], [7.281117, 47.957311], [7.281091, 47.957317], [7.281167, 47.957567], [7.281175, 47.957597], [7.281234, 47.957627], [7.281474, 47.957613], [7.281666, 47.957633], [7.281955, 47.957689], [7.282112, 47.957739], [7.282501, 47.957862], [7.282711, 47.957871], [7.282998, 47.957844], [7.283148, 47.957844], [7.283171, 47.957825], [7.28322, 47.957798], [7.283279, 47.957828], [7.283764, 47.957791], [7.284214, 47.95771], [7.284593, 47.957626], [7.284904, 47.95758], [7.285136, 47.957535], [7.285175, 47.957487], [7.285168, 47.957466], [7.28513, 47.957323], [7.285116, 47.95728], [7.285097, 47.957216], [7.285046, 47.957048], [7.285005, 47.956913], [7.284994, 47.956809], [7.284991, 47.956764], [7.284986, 47.956712], [7.284985, 47.956694], [7.284974, 47.95666], [7.284959, 47.956606], [7.284941, 47.956546], [7.284926, 47.95649], [7.284903, 47.956408], [7.284895, 47.956378], [7.284829, 47.956157], [7.284806, 47.95608], [7.284722, 47.955827], [7.284747, 47.955745], [7.285006, 47.955628], [7.285081, 47.955564], [7.28512, 47.955483], [7.285155, 47.955411], [7.285131, 47.955387], [7.285122, 47.955373], [7.285128, 47.955382], [7.285154, 47.955332], [7.28547, 47.955221], [7.285613, 47.955171], [7.285481, 47.955003], [7.285765, 47.954924], [7.285775, 47.95492], [7.285692, 47.95488], [7.285423, 47.954778], [7.28517, 47.954704], [7.285055, 47.954671], [7.284769, 47.954585], [7.284582, 47.954531], [7.284563, 47.954494], [7.284493, 47.954358], [7.284467, 47.954301], [7.28443, 47.954217], [7.284417, 47.954186], [7.284381, 47.954136], [7.284411, 47.954177], [7.284461, 47.954164], [7.284896, 47.954036], [7.284843, 47.953939], [7.284677, 47.953648], [7.284655, 47.953614], [7.284592, 47.9535], [7.284567, 47.953455], [7.284458, 47.953328], [7.284339, 47.953192], [7.284274, 47.953116], [7.284254, 47.953096], [7.28419, 47.953069], [7.283987, 47.952983], [7.28396, 47.952949], [7.283844, 47.952999], [7.283791, 47.953008], [7.283766, 47.952967], [7.28375, 47.952939], [7.28367, 47.952846], [7.283573, 47.952733], [7.283528, 47.952682], [7.283452, 47.952663], [7.283362, 47.952686], [7.283333, 47.952657], [7.283319, 47.952623], [7.2833, 47.952579], [7.283277, 47.952524], [7.283257, 47.952476], [7.283243, 47.952444], [7.283223, 47.952421], [7.28319, 47.952381], [7.283156, 47.952364], [7.283078, 47.952322], [7.283012, 47.952272], [7.282946, 47.952222], [7.28285, 47.952121], [7.282683, 47.951947], [7.282284, 47.952098], [7.281849, 47.952255], [7.281469, 47.952364], [7.281438, 47.952416], [7.281506, 47.952534], [7.281572, 47.952644], [7.281587, 47.952697], [7.281606, 47.952765], [7.28162, 47.952808], [7.281694, 47.952897], [7.28173, 47.952939], [7.281733, 47.952942], [7.281785, 47.952991], [7.281837, 47.953039], [7.281895, 47.953091], [7.281994, 47.953183], [7.282087, 47.953308], [7.282114, 47.953339], [7.282152, 47.953388], [7.282184, 47.953416], [7.282251, 47.953417], [7.282243, 47.953418], [7.282283, 47.953449], [7.282277, 47.953503], [7.282345, 47.953578], [7.282354, 47.953587], [7.282444, 47.953715], [7.282484, 47.953903], [7.282505, 47.954005], [7.282523, 47.954094], [7.282545, 47.954193], [7.282565, 47.954442], [7.282571, 47.954478], [7.282583, 47.95453], [7.282692, 47.954681], [7.282779, 47.954804], [7.282921, 47.955001], [7.283006, 47.955117], [7.283023, 47.95513], [7.283007, 47.955203], [7.282906, 47.955173], [7.28283, 47.955166], [7.282312, 47.955169], [7.282255, 47.95522], [7.282369, 47.955403], [7.282384, 47.955429], [7.282456, 47.955513], [7.282416, 47.955524], [7.282351, 47.955449], [7.28234, 47.955438], [7.282327, 47.955415], [7.282274, 47.955327], [7.282228, 47.95525], [7.28211, 47.955052], [7.282137, 47.955062], [7.282309, 47.955131], [7.282897, 47.955126], [7.282926, 47.955094], [7.282542, 47.954553], [7.28253, 47.954541], [7.282529, 47.954525], [7.282515, 47.954455], [7.282511, 47.954444], [7.282492, 47.954209], [7.282489, 47.954195], [7.282443, 47.953964], [7.282425, 47.953872], [7.282395, 47.953729], [7.282364, 47.953687], [7.282315, 47.953611], [7.282307, 47.953603], [7.282303, 47.953596], [7.282241, 47.953526], [7.282233, 47.953517], [7.282146, 47.953443], [7.282108, 47.953406], [7.282019, 47.953294], [7.281989, 47.953256], [7.28195, 47.953207], [7.281941, 47.953196], [7.281935, 47.953189], [7.281804, 47.953068], [7.281688, 47.95296], [7.28168, 47.952953], [7.281668, 47.952939], [7.28159, 47.952843], [7.281564, 47.952813], [7.281544, 47.952738], [7.281521, 47.952645], [7.2814, 47.952448], [7.281385, 47.952425], [7.28132, 47.952357], [7.280921, 47.952294], [7.280708, 47.952251], [7.280614, 47.95221], [7.28051, 47.952124], [7.280493, 47.952112], [7.280484, 47.952101], [7.280438, 47.952058], [7.28035, 47.951973], [7.280339, 47.951962], [7.280327, 47.951948], [7.280315, 47.951931], [7.280291, 47.951906], [7.28017, 47.951765], [7.279988, 47.951468], [7.279813, 47.951298], [7.279807, 47.951289], [7.27976, 47.951248], [7.27967, 47.951156], [7.279479, 47.951089], [7.279419, 47.951069], [7.278985, 47.950917], [7.278947, 47.950908]], [[7.28144, 47.955796], [7.28149, 47.955783], [7.281523, 47.955861], [7.281539, 47.955898], [7.281567, 47.955968], [7.281594, 47.956039], [7.281617, 47.95609], [7.2817, 47.956219], [7.28176, 47.95633], [7.281847, 47.956489], [7.281848, 47.956491], [7.281898, 47.956513], [7.281911, 47.956546], [7.281206, 47.956788], [7.281203, 47.956787], [7.281197, 47.956774], [7.281188, 47.956762], [7.281799, 47.95655], [7.281817, 47.956543], [7.28181, 47.956528], [7.281656, 47.956242], [7.28165, 47.956233], [7.281589, 47.956142], [7.281561, 47.956099], [7.28156, 47.956092], [7.28144, 47.955796]]], [[[7.289999, 47.962605], [7.289917, 47.962399], [7.289835, 47.962377], [7.289468, 47.96252], [7.288953, 47.962686], [7.288927, 47.962732], [7.288883, 47.962743], [7.288811, 47.962749], [7.288352, 47.963186], [7.288247, 47.963285], [7.288138, 47.963387], [7.287693, 47.963992], [7.287553, 47.964086], [7.28719, 47.964418], [7.286751, 47.964822], [7.286586, 47.96448], [7.286421, 47.964136], [7.286257, 47.963793], [7.286189, 47.963647], [7.286095, 47.963456], [7.285999, 47.963486], [7.285946, 47.963438], [7.285897, 47.963393], [7.285461, 47.963512], [7.285392, 47.963586], [7.285313, 47.963904], [7.285274, 47.964054], [7.285254, 47.96413], [7.285406, 47.964326], [7.285423, 47.964403], [7.285504, 47.96477], [7.285545, 47.964945], [7.285589, 47.965131], [7.28574, 47.965765], [7.285787, 47.965814], [7.285867, 47.965838], [7.287156, 47.965685], [7.287209, 47.965679], [7.287377, 47.965659], [7.28793, 47.965637], [7.287971, 47.965635], [7.288181, 47.965586], [7.288702, 47.965417], [7.290021, 47.964998], [7.29042, 47.964929], [7.290853, 47.964867], [7.290921, 47.964788], [7.290632, 47.964258], [7.290625, 47.96421], [7.290592, 47.963998], [7.290315, 47.963435], [7.290277, 47.963332], [7.290233, 47.963218], [7.290086, 47.96282], [7.289999, 47.962605]]], [[[7.282324, 47.957831], [7.281941, 47.957713], [7.281666, 47.957658], [7.281471, 47.957638], [7.281252, 47.957652], [7.281231, 47.957689], [7.281445, 47.958056], [7.281511, 47.958167], [7.281521, 47.958222], [7.281575, 47.958536], [7.281655, 47.958793], [7.28168, 47.958831], [7.281709, 47.958892], [7.28174, 47.958946], [7.281774, 47.959004], [7.281807, 47.959108], [7.28182, 47.95914], [7.281828, 47.959172], [7.281906, 47.959403], [7.28191, 47.959425], [7.281903, 47.959728], [7.2819, 47.959829], [7.281918, 47.959886], [7.28195, 47.959977], [7.282062, 47.96014], [7.282371, 47.960275], [7.282432, 47.960304], [7.282599, 47.960377], [7.282613, 47.960382], [7.282745, 47.960561], [7.282854, 47.960705], [7.282944, 47.960822], [7.283242, 47.961228], [7.283427, 47.961493], [7.283476, 47.961594], [7.283483, 47.961621], [7.283498, 47.961674], [7.283499, 47.96168], [7.283506, 47.961804], [7.283511, 47.961928], [7.283558, 47.96195], [7.283605, 47.961937], [7.283907, 47.96185], [7.283972, 47.961819], [7.284, 47.961838], [7.284066, 47.96183], [7.284204, 47.961834], [7.284514, 47.961785], [7.284639, 47.961743], [7.284917, 47.961696], [7.284994, 47.961681], [7.285351, 47.961589], [7.285686, 47.961549], [7.285965, 47.961543], [7.28594, 47.961432], [7.285915, 47.96133], [7.28591, 47.9613], [7.285882, 47.961119], [7.285854, 47.960968], [7.285778, 47.960931], [7.285701, 47.960867], [7.28573, 47.960832], [7.285693, 47.960605], [7.285659, 47.960418], [7.285794, 47.960388], [7.285966, 47.96033], [7.285992, 47.960285], [7.286008, 47.960252], [7.285938, 47.960118], [7.2859, 47.960045], [7.285846, 47.959945], [7.285778, 47.959926], [7.28579, 47.959875], [7.285894, 47.959838], [7.285921, 47.959773], [7.285881, 47.959713], [7.28582, 47.959621], [7.285799, 47.95959], [7.285783, 47.959523], [7.285764, 47.959459], [7.28573, 47.959334], [7.285721, 47.959261], [7.28571, 47.959194], [7.285693, 47.959143], [7.285664, 47.959052], [7.285653, 47.959011], [7.285624, 47.958927], [7.285596, 47.958842], [7.28558, 47.958747], [7.285572, 47.958675], [7.285555, 47.958562], [7.285535, 47.958413], [7.285528, 47.958368], [7.285501, 47.958263], [7.285482, 47.958199], [7.285458, 47.958095], [7.285446, 47.958054], [7.285376, 47.957784], [7.285353, 47.957699], [7.285347, 47.957686], [7.285238, 47.957573], [7.285208, 47.957563], [7.285186, 47.957557], [7.284917, 47.957614], [7.284885, 47.957617], [7.284609, 47.957657], [7.284593, 47.95766], [7.28423, 47.95774], [7.283777, 47.957823], [7.283252, 47.957862], [7.283207, 47.957903], [7.283207, 47.957901], [7.28315, 47.957896], [7.283113, 47.957867], [7.283, 47.957867], [7.28271, 47.957894], [7.282494, 47.957886], [7.282324, 47.957831]]], [[[7.28737, 47.962155], [7.28735, 47.962044], [7.287325, 47.961901], [7.28728, 47.961772], [7.287245, 47.961678], [7.287207, 47.96157], [7.287197, 47.961547], [7.287114, 47.961512], [7.287116, 47.961474], [7.287153, 47.961433], [7.287128, 47.961354], [7.287083, 47.961235], [7.287041, 47.961114], [7.287038, 47.961105], [7.286989, 47.960965], [7.286946, 47.960836], [7.28693, 47.960797], [7.286751, 47.960552], [7.286695, 47.960546], [7.286585, 47.960646], [7.286505, 47.960696], [7.286353, 47.960764], [7.285945, 47.960902], [7.285907, 47.960957], [7.285963, 47.961294], [7.285964, 47.961301], [7.286024, 47.961577], [7.286088, 47.961609], [7.286096, 47.961644], [7.286043, 47.961684], [7.286043, 47.961718], [7.286045, 47.96174], [7.286049, 47.961888], [7.286057, 47.96205], [7.285997, 47.962367], [7.285954, 47.96247], [7.285863, 47.962538], [7.28585, 47.962549], [7.28575, 47.962598], [7.285764, 47.962612], [7.28572, 47.962635], [7.285706, 47.962621], [7.285613, 47.962666], [7.28554, 47.962725], [7.28551, 47.962787], [7.285492, 47.962827], [7.28549, 47.962835], [7.285476, 47.962895], [7.28548, 47.962954], [7.285484, 47.963026], [7.285431, 47.963435], [7.285476, 47.963457], [7.286201, 47.963265], [7.286905, 47.963086], [7.287422, 47.963002], [7.287428, 47.96284], [7.287424, 47.96273], [7.287423, 47.962681], [7.287419, 47.962633], [7.287418, 47.962586], [7.287414, 47.962507], [7.287409, 47.962406], [7.28741, 47.962386], [7.28739, 47.962275], [7.28737, 47.962155]]], [[[7.284907, 47.961709], [7.284632, 47.961755], [7.284509, 47.961798], [7.284197, 47.961849], [7.284057, 47.961847], [7.283978, 47.96186], [7.283421, 47.962016], [7.283449, 47.962132], [7.283477, 47.962243], [7.283493, 47.962305], [7.283518, 47.962418], [7.283579, 47.96267], [7.283631, 47.962879], [7.283652, 47.962979], [7.283712, 47.962988], [7.283757, 47.963116], [7.283796, 47.963226], [7.283827, 47.963313], [7.283931, 47.963609], [7.284098, 47.964082], [7.284396, 47.964048], [7.284576, 47.964047], [7.284711, 47.964062], [7.28479, 47.964044], [7.284843, 47.964069], [7.284881, 47.9641], [7.285091, 47.964116], [7.285178, 47.964057], [7.285243, 47.963934], [7.285363, 47.963423], [7.285388, 47.963242], [7.285402, 47.963151], [7.285422, 47.963024], [7.285415, 47.962936], [7.285411, 47.962891], [7.285432, 47.962815], [7.285484, 47.962705], [7.285575, 47.962633], [7.285807, 47.962517], [7.285896, 47.962452], [7.285925, 47.962375], [7.285931, 47.962355], [7.28598, 47.962099], [7.285989, 47.962047], [7.285986, 47.961975], [7.285988, 47.961962], [7.285976, 47.961652], [7.285972, 47.961634], [7.285955, 47.961558], [7.285674, 47.961564], [7.285347, 47.961603], [7.284984, 47.961696], [7.284907, 47.961709]]], [[[7.271688, 47.951066], [7.271806, 47.951325], [7.27189, 47.951408], [7.272044, 47.951558], [7.271892, 47.951801], [7.271825, 47.951966], [7.272044, 47.952021], [7.272081, 47.951839], [7.27223, 47.952223], [7.272148, 47.952214], [7.272098, 47.952383], [7.272337, 47.952621], [7.272407, 47.952691], [7.272473, 47.952944], [7.272848, 47.953001], [7.272842, 47.95303], [7.272845, 47.95307], [7.27274, 47.953059], [7.272506, 47.95306], [7.272311, 47.953102], [7.272522, 47.953581], [7.272731, 47.953719], [7.273027, 47.953993], [7.273471, 47.953847], [7.273366, 47.953442], [7.273414, 47.953436], [7.273409, 47.953145], [7.27345, 47.953112], [7.27349, 47.953118], [7.2738, 47.953129], [7.274197, 47.953165], [7.274405, 47.953182], [7.274364, 47.953103], [7.274286, 47.952898], [7.274205, 47.952694], [7.274161, 47.952544], [7.274159, 47.952524], [7.274139, 47.952274], [7.274106, 47.952072], [7.274098, 47.952029], [7.274096, 47.952011], [7.274094, 47.951982], [7.274375, 47.951871], [7.274369, 47.951864], [7.274146, 47.951562], [7.274113, 47.951518], [7.27411, 47.951513], [7.274081, 47.951422], [7.273978, 47.951339], [7.273936, 47.951363], [7.273835, 47.9513], [7.273778, 47.951266], [7.273668, 47.951197], [7.273295, 47.950989], [7.273169, 47.950898], [7.273146, 47.950876], [7.273117, 47.950848], [7.273039, 47.950775], [7.272991, 47.950716], [7.272952, 47.950668], [7.272745, 47.950759], [7.272571, 47.950832], [7.272534, 47.950844], [7.272529, 47.950846], [7.2725, 47.950856], [7.272398, 47.950883], [7.272262, 47.950924], [7.271967, 47.950993], [7.271688, 47.951066]]]]}}]}