{"type": "FeatureCollection", "features": [{"type": "Feature", "properties": {"id": "AOC-Alsace-Grand-Cru-Ollwiller", "name": "Ollwiller", "commune": "Wuenheim", "family": "泥灰砂岩", "familyColor": "#c0392b", "lessonId": "AL2M5L1"}, "geometry": {"type": "MultiPolygon", "coordinates": [[[[7.206332, 47.867618], [7.206207, 47.867597], [7.206006, 47.867563], [7.20596, 47.867554], [7.205911, 47.867545], [7.205642, 47.8675], [7.205346, 47.86745], [7.205283, 47.867466], [7.205094, 47.868191], [7.205061, 47.868311], [7.205012, 47.868305], [7.204975, 47.868242], [7.204945, 47.868237], [7.204867, 47.868229], [7.204708, 47.868214], [7.204251, 47.868167], [7.204122, 47.868153], [7.203989, 47.868142], [7.203847, 47.868131], [7.203714, 47.868119], [7.203369, 47.868092], [7.202749, 47.867976], [7.202383, 47.867879], [7.20226, 47.867847], [7.202099, 47.867817], [7.201861, 47.867791], [7.201864, 47.867759], [7.201778, 47.867753], [7.201886, 47.86776], [7.202112, 47.86778], [7.202281, 47.867807], [7.202773, 47.867939], [7.203306, 47.868038], [7.203388, 47.868052], [7.204269, 47.868125], [7.204988, 47.868205], [7.205061, 47.868177], [7.205238, 47.867501], [7.205247, 47.867452], [7.203627, 47.866744], [7.201429, 47.86697], [7.20143, 47.866979], [7.201428, 47.86699], [7.201367, 47.86699], [7.201262, 47.866985], [7.201165, 47.86698], [7.201028, 47.866972], [7.20088, 47.866965], [7.200713, 47.866954], [7.200536, 47.866946], [7.200396, 47.866937], [7.200256, 47.866929], [7.20017, 47.866925], [7.200121, 47.866922], [7.200024, 47.866918], [7.199919, 47.866913], [7.199831, 47.866908], [7.199782, 47.866908], [7.199666, 47.866896], [7.199377, 47.866867], [7.199329, 47.866863], [7.199253, 47.866852], [7.199164, 47.866842], [7.198985, 47.86682], [7.19888, 47.866806], [7.198736, 47.866787], [7.198486, 47.866845], [7.198476, 47.866847], [7.198339, 47.86685], [7.198224, 47.866851], [7.198088, 47.866852], [7.198023, 47.866852], [7.197967, 47.866853], [7.197887, 47.866854], [7.197815, 47.866855], [7.197657, 47.866826], [7.197614, 47.866818], [7.19755, 47.866828], [7.197452, 47.866842], [7.197394, 47.866852], [7.197343, 47.866846], [7.197278, 47.866841], [7.197229, 47.866838], [7.19716, 47.866836], [7.197103, 47.866837], [7.197098, 47.866835], [7.197035, 47.866816], [7.197031, 47.866874], [7.19702, 47.867238], [7.197006, 47.867736], [7.196949, 47.868068], [7.196984, 47.868099], [7.197021, 47.868132], [7.197053, 47.868163], [7.197108, 47.868212], [7.197128, 47.868236], [7.197152, 47.868263], [7.197231, 47.868352], [7.197296, 47.868425], [7.197367, 47.868471], [7.197463, 47.868504], [7.197543, 47.86853], [7.197736, 47.868566], [7.197834, 47.868584], [7.197931, 47.868602], [7.198243, 47.868642], [7.198334, 47.868651], [7.198437, 47.868664], [7.198499, 47.86867], [7.198594, 47.868683], [7.198629, 47.868687], [7.198655, 47.868668], [7.198708, 47.868661], [7.198707, 47.868659], [7.19875, 47.868688], [7.198903, 47.868721], [7.199028, 47.868747], [7.199093, 47.868759], [7.199158, 47.868771], [7.199338, 47.868808], [7.199439, 47.868835], [7.199513, 47.868856], [7.199647, 47.868891], [7.199828, 47.868969], [7.199997, 47.86904], [7.200063, 47.869067], [7.200293, 47.869165], [7.200362, 47.869153], [7.200367, 47.869146], [7.200383, 47.869153], [7.200409, 47.869245], [7.200524, 47.86934], [7.200642, 47.869441], [7.200701, 47.869471], [7.200815, 47.869527], [7.200951, 47.869596], [7.201018, 47.869627], [7.201066, 47.86962], [7.201149, 47.869421], [7.201187, 47.869284], [7.20131, 47.868912], [7.201399, 47.868682], [7.201434, 47.868556], [7.201462, 47.868467], [7.20147, 47.868436], [7.201476, 47.868371], [7.201561, 47.868328], [7.201625, 47.868326], [7.201817, 47.868314], [7.201836, 47.868313], [7.201809, 47.868341], [7.201794, 47.868329], [7.201728, 47.868333], [7.201589, 47.86834], [7.201554, 47.868368], [7.201506, 47.86844], [7.201434, 47.868688], [7.201345, 47.868914], [7.201312, 47.869011], [7.201295, 47.869062], [7.201222, 47.869288], [7.201187, 47.869425], [7.201107, 47.869626], [7.201141, 47.869691], [7.201236, 47.869744], [7.201301, 47.869779], [7.201374, 47.869818], [7.201427, 47.869849], [7.201572, 47.869927], [7.201645, 47.869967], [7.201734, 47.870005], [7.201826, 47.870045], [7.201945, 47.870093], [7.202002, 47.870108], [7.202057, 47.870122], [7.20215, 47.870146], [7.202308, 47.870183], [7.202392, 47.870198], [7.202553, 47.870227], [7.202588, 47.870204], [7.202689, 47.869851], [7.202718, 47.869851], [7.202786, 47.869854], [7.20299, 47.869863], [7.20306, 47.869866], [7.20313, 47.869869], [7.203358, 47.869906], [7.203423, 47.869916], [7.203485, 47.869927], [7.20355, 47.869937], [7.203621, 47.869949], [7.20364, 47.869953], [7.203699, 47.869922], [7.203752, 47.869944], [7.203767, 47.86997], [7.203848, 47.86998], [7.203973, 47.869997], [7.204146, 47.87002], [7.204308, 47.870036], [7.204451, 47.87005], [7.204656, 47.87007], [7.204716, 47.870077], [7.204959, 47.870099], [7.205032, 47.870104], [7.205099, 47.87011], [7.205169, 47.870113], [7.205263, 47.870115], [7.205389, 47.87012], [7.205502, 47.870121], [7.205607, 47.870135], [7.205751, 47.870152], [7.205786, 47.870156], [7.20584, 47.870163], [7.205967, 47.87018], [7.206102, 47.870197], [7.206116, 47.8702], [7.206176, 47.870178], [7.206192, 47.870111], [7.20622, 47.870059], [7.20626, 47.870018], [7.206325, 47.869967], [7.20635, 47.869936], [7.206429, 47.869749], [7.206564, 47.8694], [7.206515, 47.869346], [7.206536, 47.869312], [7.206694, 47.869343], [7.206797, 47.869364], [7.206901, 47.869386], [7.207073, 47.869434], [7.207242, 47.868999], [7.207249, 47.868984], [7.207285, 47.868894], [7.207298, 47.86886], [7.207647, 47.868362], [7.207813, 47.868048], [7.207685, 47.868024], [7.207588, 47.867986], [7.207453, 47.867935], [7.20729, 47.867872], [7.207177, 47.867831], [7.207099, 47.867792], [7.206954, 47.867724], [7.206867, 47.867711], [7.206775, 47.867694], [7.206685, 47.867679], [7.20646, 47.867641], [7.206332, 47.867618]]], [[[7.210292, 47.868678], [7.210232, 47.868661], [7.210169, 47.868681], [7.210126, 47.868675], [7.210104, 47.868627], [7.209904, 47.868573], [7.20969, 47.868516], [7.209583, 47.868487], [7.209422, 47.868443], [7.209296, 47.868408], [7.209173, 47.868376], [7.20906, 47.868344], [7.209017, 47.868333], [7.208978, 47.868322], [7.208931, 47.868305], [7.208896, 47.868294], [7.20875, 47.868249], [7.208614, 47.868216], [7.208491, 47.868188], [7.208475, 47.868185], [7.208313, 47.868147], [7.208229, 47.868129], [7.208161, 47.868111], [7.207845, 47.868049], [7.207669, 47.868363], [7.207491, 47.868622], [7.207323, 47.868862], [7.207276, 47.868979], [7.20728, 47.869004], [7.207106, 47.869445], [7.207237, 47.869502], [7.207347, 47.869572], [7.207428, 47.869621], [7.207507, 47.86967], [7.207586, 47.869718], [7.207668, 47.869769], [7.207755, 47.869824], [7.207865, 47.869892], [7.207927, 47.869931], [7.207986, 47.869967], [7.208115, 47.870036], [7.208193, 47.87008], [7.208286, 47.870129], [7.208437, 47.870209], [7.208647, 47.870324], [7.208728, 47.870366], [7.208823, 47.870416], [7.208907, 47.870458], [7.20903, 47.870526], [7.209097, 47.870562], [7.209158, 47.870554], [7.209139, 47.870556], [7.209207, 47.87057], [7.209217, 47.870626], [7.209265, 47.870649], [7.209515, 47.870766], [7.209637, 47.870823], [7.209671, 47.87084], [7.209813, 47.870913], [7.209878, 47.870948], [7.209959, 47.870988], [7.210059, 47.871043], [7.210157, 47.871093], [7.210224, 47.871129], [7.210244, 47.871139], [7.210283, 47.871164], [7.210337, 47.871195], [7.210384, 47.871224], [7.210469, 47.871273], [7.210621, 47.87137], [7.210667, 47.871403], [7.210844, 47.871515], [7.210867, 47.871529], [7.210875, 47.871534], [7.210921, 47.871572], [7.210961, 47.871601], [7.211015, 47.871644], [7.211075, 47.871626], [7.211199, 47.871661], [7.211325, 47.871696], [7.211525, 47.871754], [7.211585, 47.871734], [7.211575, 47.871738], [7.211629, 47.871747], [7.211659, 47.871791], [7.211741, 47.871809], [7.21188, 47.871844], [7.212017, 47.871875], [7.212205, 47.871915], [7.212368, 47.871951], [7.212461, 47.871971], [7.212575, 47.871994], [7.212619, 47.872], [7.212736, 47.872022], [7.213164, 47.872122], [7.213217, 47.872106], [7.213265, 47.872108], [7.21332, 47.872164], [7.213418, 47.872211], [7.213482, 47.872243], [7.213578, 47.872344], [7.213762, 47.872361], [7.213905, 47.872375], [7.214151, 47.872397], [7.214166, 47.872386], [7.214211, 47.872386], [7.214234, 47.872407], [7.214326, 47.872412], [7.214428, 47.87242], [7.214576, 47.872429], [7.214706, 47.872437], [7.215048, 47.87246], [7.215333, 47.872479], [7.215383, 47.872465], [7.215338, 47.872237], [7.215316, 47.872132], [7.215272, 47.872007], [7.215165, 47.871704], [7.215149, 47.871676], [7.215065, 47.871535], [7.214921, 47.871401], [7.214291, 47.870887], [7.214134, 47.870772], [7.214034, 47.870692], [7.21386, 47.870562], [7.213695, 47.870436], [7.213492, 47.870281], [7.213384, 47.870198], [7.213273, 47.870111], [7.213239, 47.870096], [7.213128, 47.870044], [7.213056, 47.87001], [7.212994, 47.869982], [7.212897, 47.869937], [7.2128, 47.86989], [7.212738, 47.869861], [7.21273, 47.869858], [7.21269, 47.869823], [7.212635, 47.86978], [7.212607, 47.869756], [7.212575, 47.869757], [7.212433, 47.869762], [7.212315, 47.869694], [7.21227, 47.869669], [7.212048, 47.86954], [7.211962, 47.869493], [7.211903, 47.86946], [7.211837, 47.86941], [7.211763, 47.869355], [7.211698, 47.869306], [7.211578, 47.86922], [7.21151, 47.869168], [7.211453, 47.869125], [7.211383, 47.869091], [7.211317, 47.869063], [7.21125, 47.86903], [7.211183, 47.869], [7.211122, 47.868971], [7.211055, 47.868943], [7.210978, 47.868911], [7.210887, 47.868873], [7.210806, 47.868838], [7.210674, 47.868789], [7.210577, 47.868755], [7.210396, 47.868705], [7.210292, 47.868678]]]]}}]}