{"type": "FeatureCollection", "features": [{"type": "Feature", "properties": {"id": "AOC-Alsace-Grand-Cru-Saering", "name": "Saering", "commune": "Guebwiller", "family": "泥灰砂岩", "familyColor": "#16a085", "lessonId": "AL2M5L1"}, "geometry": {"type": "MultiPolygon", "coordinates": [[[[7.228413, 47.905948], [7.228312, 47.905924], [7.228121, 47.905883], [7.228042, 47.905867], [7.227867, 47.905827], [7.227709, 47.905795], [7.227502, 47.905752], [7.227317, 47.90571], [7.227221, 47.905691], [7.226826, 47.905607], [7.226717, 47.905583], [7.226621, 47.905558], [7.226481, 47.905518], [7.226302, 47.905465], [7.226118, 47.90541], [7.22586, 47.905335], [7.225809, 47.905467], [7.225788, 47.905574], [7.225821, 47.905652], [7.225873, 47.905729], [7.226085, 47.90603], [7.226188, 47.906116], [7.226261, 47.906162], [7.226372, 47.906232], [7.226422, 47.906261], [7.226601, 47.906354], [7.226828, 47.906439], [7.226962, 47.906478], [7.227086, 47.906513], [7.227152, 47.906536], [7.227218, 47.90656], [7.227357, 47.90662], [7.227445, 47.906651], [7.227457, 47.906694], [7.227446, 47.906725], [7.227325, 47.907097], [7.227296, 47.907331], [7.22727, 47.907409], [7.227064, 47.907624], [7.227041, 47.907704], [7.227035, 47.907865], [7.227124, 47.907968], [7.227187, 47.908018], [7.227711, 47.90841], [7.227779, 47.908485], [7.227998, 47.908773], [7.228055, 47.908848], [7.228249, 47.909065], [7.22844, 47.909211], [7.228567, 47.909329], [7.228806, 47.909227], [7.229076, 47.909114], [7.229309, 47.908985], [7.229448, 47.908877], [7.229539, 47.908706], [7.229512, 47.908536], [7.229472, 47.908338], [7.22942, 47.908085], [7.229412, 47.908055], [7.229454, 47.907801], [7.229435, 47.907402], [7.229473, 47.90731], [7.229585, 47.907063], [7.229615, 47.907006], [7.229846, 47.906675], [7.230072, 47.906349], [7.230073, 47.906295], [7.229969, 47.906261], [7.229789, 47.906224], [7.229645, 47.906197], [7.229446, 47.906159], [7.229444, 47.906163], [7.229275, 47.906131], [7.229085, 47.906097], [7.229089, 47.906089], [7.228866, 47.906047], [7.228861, 47.906056], [7.228646, 47.90601], [7.228651, 47.906], [7.22852, 47.905973], [7.228413, 47.905948]]], [[[7.231765, 47.907968], [7.231389, 47.907793], [7.231388, 47.907789], [7.23127, 47.907748], [7.230893, 47.907591], [7.23079, 47.907547], [7.230343, 47.907354], [7.229902, 47.907174], [7.229725, 47.907101], [7.22964, 47.907082], [7.229511, 47.907406], [7.22951, 47.907435], [7.229502, 47.907799], [7.229472, 47.90806], [7.229554, 47.908526], [7.229624, 47.908698], [7.229548, 47.908816], [7.229493, 47.908899], [7.229366, 47.909017], [7.2292, 47.909097], [7.229097, 47.909146], [7.22875, 47.909301], [7.228691, 47.909362], [7.228741, 47.909415], [7.22911, 47.909573], [7.229489, 47.909754], [7.230043, 47.909918], [7.230233, 47.909972], [7.230254, 47.909975], [7.23042, 47.910007], [7.230739, 47.910064], [7.230875, 47.910126], [7.230941, 47.910141], [7.231336, 47.91003], [7.231396, 47.910004], [7.231764, 47.909982], [7.231927, 47.90997], [7.231962, 47.909971], [7.232142, 47.909975], [7.232349, 47.909982], [7.232703, 47.910016], [7.233459, 47.910086], [7.23352, 47.910041], [7.233281, 47.909702], [7.232991, 47.909429], [7.23254, 47.908982], [7.232458, 47.9089], [7.232283, 47.908683], [7.232252, 47.908639], [7.232141, 47.908458], [7.231968, 47.908161], [7.231896, 47.90807], [7.231815, 47.908002], [7.231804, 47.907994], [7.231765, 47.907968]]], [[[7.232498, 47.906884], [7.2324, 47.906858], [7.232116, 47.906824], [7.232042, 47.906812], [7.231955, 47.906795], [7.231793, 47.906752], [7.231709, 47.906732], [7.231632, 47.906708], [7.231349, 47.906626], [7.231289, 47.906608], [7.231003, 47.906525], [7.230819, 47.90647], [7.23077, 47.906456], [7.230723, 47.906441], [7.230556, 47.9064], [7.230472, 47.90638], [7.230376, 47.906356], [7.230168, 47.906306], [7.229921, 47.906667], [7.229685, 47.907009], [7.229769, 47.907081], [7.229833, 47.907108], [7.229921, 47.907144], [7.230013, 47.907181], [7.230367, 47.907323], [7.23062, 47.907427], [7.230678, 47.90745], [7.230822, 47.907508], [7.231019, 47.907591], [7.231168, 47.907655], [7.231346, 47.907727], [7.231424, 47.907761], [7.231796, 47.907931], [7.231858, 47.907967], [7.231945, 47.90805], [7.232023, 47.908146], [7.232162, 47.908379], [7.232316, 47.908632], [7.232361, 47.908691], [7.232502, 47.908881], [7.232557, 47.908933], [7.233015, 47.909392], [7.233342, 47.90969], [7.233621, 47.910072], [7.233686, 47.910103], [7.234224, 47.910129], [7.234533, 47.910145], [7.23459, 47.910148], [7.235123, 47.910237], [7.235186, 47.910264], [7.235281, 47.910302], [7.235416, 47.910356], [7.235626, 47.91047], [7.235996, 47.910599], [7.236436, 47.910676], [7.236714, 47.910724], [7.237014, 47.910751], [7.237066, 47.910738], [7.237219, 47.909972], [7.237236, 47.909973], [7.237252, 47.909977], [7.237382, 47.90999], [7.23748, 47.909977], [7.237624, 47.90994], [7.237737, 47.909901], [7.238051, 47.909771], [7.238079, 47.909759], [7.237986, 47.909571], [7.237723, 47.909195], [7.237696, 47.909124], [7.237702, 47.909102], [7.237723, 47.909033], [7.237847, 47.908868], [7.237726, 47.908799], [7.2376, 47.908726], [7.237563, 47.908704], [7.237272, 47.908546], [7.23709, 47.908457], [7.236681, 47.908269], [7.236676, 47.908274], [7.236288, 47.908108], [7.235854, 47.907947], [7.23571, 47.907894], [7.235327, 47.907757], [7.234921, 47.907609], [7.234404, 47.907386], [7.234036, 47.907239], [7.233646, 47.907116], [7.233205, 47.907008], [7.232832, 47.906937], [7.232498, 47.906884]]]]}}]}