{"type": "FeatureCollection", "features": [{"type": "Feature", "properties": {"id": "AOC-Alsace-Grand-Cru-Furstentum", "name": "Furstentum", "commune": "Kientzheim & Sigolsheim", "family": "泥灰砂岩", "familyColor": "#e67e22", "lessonId": "AL2M5L1"}, "geometry": {"type": "MultiPolygon", "coordinates": [[[[7.29304, 48.144041], [7.293111, 48.144154], [7.293135, 48.144148], [7.293295, 48.144331], [7.293376, 48.144362], [7.293569, 48.144317], [7.293783, 48.144268], [7.294195, 48.144168], [7.294144, 48.143707], [7.294143, 48.143704], [7.294141, 48.143668], [7.294139, 48.143648], [7.294136, 48.143648], [7.294135, 48.143632], [7.294005, 48.143655], [7.293575, 48.143733], [7.293642, 48.143898], [7.293352, 48.143968], [7.293056, 48.144037], [7.29304, 48.144041]]], [[[7.290434, 48.144949], [7.290392, 48.144967], [7.290377, 48.144973], [7.290197, 48.145044], [7.290192, 48.145046], [7.290032, 48.145108], [7.289917, 48.145143], [7.289675, 48.145216], [7.289591, 48.145243], [7.289344, 48.145293], [7.289106, 48.145341], [7.289088, 48.145347], [7.289067, 48.145294], [7.288941, 48.145328], [7.288922, 48.145332], [7.288848, 48.145351], [7.288666, 48.145399], [7.288519, 48.145437], [7.288313, 48.145493], [7.288215, 48.145352], [7.288067, 48.145419], [7.287917, 48.145489], [7.287986, 48.145575], [7.288085, 48.145707], [7.287821, 48.145765], [7.287667, 48.145799], [7.287668, 48.145934], [7.287668, 48.146073], [7.287716, 48.14623], [7.287614, 48.146401], [7.287613, 48.146461], [7.287561, 48.146546], [7.287547, 48.146573], [7.287371, 48.146722], [7.287308, 48.146814], [7.287262, 48.146942], [7.287248, 48.147002], [7.287247, 48.147085], [7.287252, 48.147153], [7.287303, 48.147283], [7.287382, 48.147289], [7.287447, 48.147294], [7.287865, 48.14714], [7.287917, 48.14712], [7.288309, 48.147068], [7.288706, 48.147014], [7.28892, 48.146968], [7.289352, 48.146879], [7.289466, 48.146853], [7.289722, 48.146829], [7.289909, 48.14681], [7.289987, 48.146802], [7.290036, 48.147247], [7.290565, 48.147192], [7.291094, 48.147342], [7.291144, 48.147354], [7.291485, 48.14741], [7.291695, 48.147444], [7.29223, 48.147591], [7.292858, 48.147636], [7.293886, 48.147424], [7.29392, 48.147419], [7.294024, 48.147401], [7.294195, 48.147378], [7.294386, 48.147352], [7.294647, 48.147313], [7.294879, 48.14728], [7.294813, 48.147031], [7.294793, 48.146955], [7.294692, 48.146573], [7.294623, 48.146325], [7.294612, 48.14628], [7.2946, 48.146232], [7.294599, 48.14623], [7.294599, 48.146226], [7.294596, 48.146221], [7.294557, 48.146078], [7.294495, 48.145843], [7.29443, 48.1456], [7.294318, 48.145186], [7.294315, 48.14519], [7.294315, 48.145186], [7.294285, 48.145079], [7.294296, 48.14505], [7.294279, 48.144874], [7.294264, 48.144721], [7.294244, 48.144581], [7.29423, 48.14447], [7.294219, 48.144371], [7.294195, 48.144177], [7.29413, 48.144196], [7.294013, 48.144224], [7.29339, 48.144371], [7.293305, 48.144388], [7.293246, 48.144363], [7.293137, 48.144281], [7.293054, 48.144242], [7.292941, 48.144252], [7.292804, 48.144284], [7.292674, 48.144312], [7.292558, 48.144338], [7.292491, 48.144351], [7.292351, 48.144383], [7.292227, 48.14441], [7.292121, 48.144431], [7.292081, 48.144442], [7.292044, 48.14445], [7.291952, 48.144472], [7.291838, 48.144496], [7.291819, 48.144496], [7.291722, 48.144496], [7.291585, 48.144503], [7.291457, 48.14454], [7.291415, 48.144558], [7.29128, 48.144615], [7.291152, 48.144669], [7.291069, 48.144704], [7.290877, 48.144763], [7.290828, 48.144787], [7.29076, 48.14482], [7.290656, 48.144861], [7.29045, 48.144943], [7.290434, 48.144949]]], [[[7.28642, 48.145888], [7.286533, 48.146196], [7.286624, 48.146318], [7.286627, 48.146318], [7.28672, 48.146407], [7.286913, 48.146459], [7.286945, 48.146519], [7.28686, 48.146541], [7.286881, 48.146597], [7.286907, 48.146652], [7.287246, 48.146584], [7.287292, 48.146577], [7.287515, 48.146544], [7.287592, 48.146458], [7.28759, 48.1464], [7.287642, 48.146316], [7.287692, 48.146231], [7.287654, 48.146097], [7.287648, 48.146061], [7.287647, 48.145946], [7.287643, 48.145869], [7.287641, 48.145802], [7.287453, 48.145811], [7.287323, 48.145842], [7.287277, 48.145734], [7.286907, 48.145782], [7.286478, 48.145875], [7.28642, 48.145888]]], [[[7.298691, 48.142404], [7.298571, 48.142115], [7.298215, 48.142216], [7.297889, 48.14228], [7.297667, 48.142326], [7.297498, 48.142401], [7.297461, 48.142417], [7.297492, 48.142401], [7.297365, 48.142386], [7.297317, 48.142398], [7.29712, 48.142458], [7.296988, 48.142526], [7.296742, 48.142645], [7.29663, 48.142724], [7.296583, 48.142771], [7.296335, 48.142903], [7.296072, 48.142983], [7.296065, 48.14299], [7.295599, 48.143122], [7.295512, 48.143147], [7.295412, 48.143174], [7.295272, 48.143214], [7.295107, 48.143261], [7.295218, 48.143403], [7.295038, 48.143451], [7.295051, 48.14347], [7.295038, 48.143475], [7.294575, 48.143607], [7.29433, 48.143644], [7.29416, 48.143671], [7.294141, 48.143671], [7.29418, 48.143989], [7.294194, 48.144123], [7.294195, 48.144134], [7.294195, 48.144136], [7.294211, 48.144173], [7.294215, 48.14418], [7.294207, 48.144182], [7.294201, 48.144183], [7.294202, 48.144186], [7.294225, 48.144369], [7.29425, 48.144581], [7.294267, 48.144721], [7.294284, 48.144874], [7.294314, 48.145105], [7.29431, 48.145085], [7.294318, 48.145186], [7.29443, 48.1456], [7.294495, 48.145843], [7.294557, 48.146078], [7.294596, 48.146221], [7.294599, 48.146226], [7.2946, 48.146232], [7.294612, 48.14628], [7.294623, 48.146325], [7.294692, 48.146573], [7.294793, 48.146955], [7.295355, 48.146813], [7.295848, 48.146943], [7.296073, 48.147], [7.296241, 48.147042], [7.296526, 48.146973], [7.296764, 48.146913], [7.29698, 48.146861], [7.297344, 48.14666], [7.29748, 48.146583], [7.297581, 48.146527], [7.297622, 48.146506], [7.297686, 48.146469], [7.297745, 48.146425], [7.297892, 48.146319], [7.297979, 48.146256], [7.298114, 48.14616], [7.298236, 48.14607], [7.298297, 48.146027], [7.298403, 48.145949], [7.298505, 48.145877], [7.29865, 48.14583], [7.29871, 48.145812], [7.29877, 48.145791], [7.298823, 48.145775], [7.298862, 48.145763], [7.298943, 48.145735], [7.299041, 48.145704], [7.299062, 48.145671], [7.29917, 48.145539], [7.299277, 48.145436], [7.299373, 48.145351], [7.299485, 48.145246], [7.299593, 48.145143], [7.299603, 48.145136], [7.299623, 48.145117], [7.299644, 48.145048], [7.2997, 48.144905], [7.299564, 48.144654], [7.29916, 48.143924], [7.299078, 48.143945], [7.299067, 48.143948], [7.299041, 48.143958], [7.299035, 48.143949], [7.29898, 48.143866], [7.298847, 48.143662], [7.298834, 48.143534], [7.298832, 48.143502], [7.298832, 48.143378], [7.298848, 48.143267], [7.298862, 48.143182], [7.298835, 48.143086], [7.298819, 48.143021], [7.298676, 48.143016], [7.298698, 48.14282], [7.298775, 48.142803], [7.298718, 48.142533], [7.298564, 48.142591], [7.298699, 48.14244], [7.298691, 48.142406], [7.298691, 48.142404]]]]}}]}