{"type":"FeatureCollection","crs":{"type":"name","properties":{"name":"urn:ogc:def:crs:EPSG::4326"}},"features":[{"type":"Feature","properties":{"region_id":4,"name":"Mátra","name_hu":"Mátrai borvidék","region_group":"Észak-Magyarország","area_ha_approx":6000,"notable_grapes":"Olaszrizling, Müller-Thurgau, Szürkebarát, Muscat Ottonel","notes":"Largest northern region; volcanic Mátra hills"},"geometry":{"type":"Polygon","coordinates":[[[19.5848394,47.7482564],[19.5825718,47.7475109],[19.5797515,47.7475239],[19.5786253,47.747907],[19.578088,47.7501961],[19.5780995,47.7513362],[19.5741642,47.7528786],[19.5724682,47.7532643],[19.5707929,47.7547962],[19.5713647,47.7559338],[19.5685439,47.7559466],[19.5634666,47.7563535],[19.5556162,47.7617174],[19.5427036,47.769389],[19.5438699,47.7731887],[19.5421787,47.7731959],[19.5399213,47.7735898],[19.5359831,47.7751246],[19.533193,47.7785631],[19.5326266,47.7789496],[19.5298116,47.7797236],[19.5281202,47.7797306],[19.5270078,47.7818185],[19.5263447,47.7823084],[19.5258935,47.7835445],[19.5259143,47.785831],[19.5264854,47.7869688],[19.5259316,47.7877333],[19.525935,47.7881112],[19.5253719,47.7888757],[19.5242537,47.7892645],[19.5242606,47.7900267],[19.5225803,47.7923139],[19.5152871,47.7972947],[19.5130318,47.7980659],[19.5153142,47.8003371],[19.5249528,47.8044866],[19.5260874,47.8048661],[19.5294845,47.80523],[19.5300525,47.8059898],[19.5379938,47.8093832],[19.5397004,47.8109003],[19.5431051,47.8120259],[19.548217,47.8146684],[19.5510591,47.8165585],[19.5590107,47.8207125],[19.5596071,47.8233743],[19.5596813,47.8309895],[19.5602389,47.8306091],[19.5619597,47.8325038],[19.5659426,47.8351505],[19.5687789,47.8362779],[19.5710427,47.8362677],[19.573301,47.8366417],[19.5801154,47.8388909],[19.5869134,47.8403838],[19.5948596,47.8433953],[19.5959996,47.844152],[19.5960035,47.84453],[19.5954448,47.8456728],[19.5965888,47.8468137],[19.5960393,47.8479565],[19.5966126,47.8490939],[19.5966325,47.8509961],[19.5960909,47.8529072],[19.5960989,47.8536693],[19.595544,47.8551901],[19.5949944,47.856339],[19.5910871,47.8613022],[19.5865888,47.8643718],[19.5894482,47.866645],[19.5905964,47.8681577],[19.5911778,47.8700635],[19.5985789,47.8742112],[19.5985869,47.8749733],[19.59802,47.8753601],[19.598024,47.8757381],[19.5750634,47.8994467],[19.5745053,47.8998334],[19.5745129,47.9005955],[19.5722578,47.9017459],[19.570014,47.9040424],[19.5688844,47.9044255],[19.5660934,47.9082487],[19.5672456,47.9101458],[19.5683866,47.9109029],[19.5701164,47.9143216],[19.5706953,47.9150812],[19.5701315,47.9158397],[19.5701391,47.9166018],[19.5712841,47.9177429],[19.5712917,47.9184988],[19.570737,47.9192635],[19.5685005,47.9218132],[19.5679929,47.9219908],[19.5677903,47.9225168],[19.56737,47.9227051],[19.5676824,47.9230148],[19.5673814,47.9238514],[19.5673889,47.9246135],[19.5679755,47.926129],[19.5679793,47.9265131],[19.5685492,47.9272727],[19.5687006,47.9279388],[19.5680019,47.9287932],[19.5680057,47.9291774],[19.5685718,47.9295528],[19.568017,47.9303175],[19.5685832,47.9306991],[19.5680209,47.9307016],[19.5680246,47.9310796],[19.5674568,47.9314601],[19.566902,47.9322247],[19.5674719,47.9329843],[19.5657944,47.934894],[19.5652341,47.9360428],[19.5646754,47.9364233],[19.5635564,47.9379525],[19.5613069,47.9398647],[19.5601877,47.941394],[19.5596438,47.9432986],[19.5585282,47.9452058],[19.5585319,47.9455899],[19.5579768,47.9463545],[19.5557231,47.9478824],[19.555266,47.948647],[19.5546367,47.9528379],[19.5540851,47.9539804],[19.5540888,47.9543646],[19.5535243,47.9551292],[19.5535353,47.9562692],[19.5541109,47.9566509],[19.5541182,47.9574068],[19.5535501,47.9577934],[19.5529948,47.958558],[19.5535611,47.9589335],[19.5530021,47.9593201],[19.5535648,47.9593176],[19.5524376,47.9600846],[19.5518749,47.9600871],[19.5518786,47.960465],[19.5513067,47.9604675],[19.5513103,47.9608455],[19.5507476,47.9608479],[19.5501794,47.9612345],[19.5501977,47.9631367],[19.5496387,47.9635232],[19.5490832,47.9642816],[19.5479559,47.9650486],[19.5485258,47.9658082],[19.5479631,47.9658106],[19.5485295,47.9661924],[19.5479704,47.9665727],[19.5479777,47.9673348],[19.546843,47.9673397],[19.5468502,47.9681018],[19.5462783,47.9681043],[19.5462819,47.9684822],[19.5457228,47.9688688],[19.54516,47.9688712],[19.5451636,47.9692491],[19.5445916,47.9692516],[19.5445989,47.9700137],[19.5463109,47.9715306],[19.5480358,47.9734254],[19.5486095,47.974563],[19.5497481,47.9749423],[19.5508829,47.9749373],[19.5508792,47.9745532],[19.5520031,47.9734082],[19.5519958,47.9726461],[19.5525549,47.9722658],[19.5531269,47.9722633],[19.5548061,47.9703475],[19.5553688,47.9703451],[19.5559372,47.9699646],[19.5565036,47.9703401],[19.556741,47.9695314],[19.5587583,47.9688122],[19.5610278,47.9688022],[19.5615867,47.9684155],[19.5621587,47.968413],[19.5627103,47.9672705],[19.5649796,47.9672604],[19.5649758,47.9668762],[19.5655424,47.9672579],[19.5655386,47.9668737],[19.5661068,47.9664932],[19.566662,47.9657286],[19.5666582,47.9653507],[19.5660955,47.9653532],[19.5660917,47.964969],[19.5666544,47.9649665],[19.5666507,47.9645886],[19.5677853,47.9645835],[19.5677815,47.9641994],[19.5689161,47.9641943],[19.5706211,47.9649487],[19.571193,47.9649462],[19.5711968,47.9653303],[19.5717595,47.9653278],[19.5723391,47.9660873],[19.5729056,47.9664627],[19.5729094,47.9668406],[19.5723581,47.9679894],[19.5729362,47.9695111],[19.5757799,47.9706383],[19.5757876,47.9714004],[19.5752325,47.972165],[19.5758029,47.9729245],[19.5758067,47.9733025],[19.5775251,47.9744348],[19.5792074,47.972909],[19.5809011,47.9725171],[19.5820359,47.9725119],[19.5820398,47.972896],[19.584325,47.9744036],[19.5843289,47.9747877],[19.5854716,47.9755445],[19.5866103,47.9759172],[19.587736,47.975912],[19.5917047,47.9751314],[19.5933945,47.9743613],[19.5950921,47.9743533],[19.5950882,47.9739754],[19.5973618,47.9743426],[19.5973698,47.9751047],[19.5951717,47.981968],[19.5946168,47.9827328],[19.5940605,47.9842596],[19.5912433,47.9857971],[19.5906764,47.9854156],[19.5884102,47.9858103],[19.5878341,47.9854288],[19.5872712,47.9854314],[19.5872673,47.9850535],[19.5867043,47.9850561],[19.5855653,47.9846772],[19.5844303,47.9846825],[19.583862,47.9850692],[19.5838698,47.9858313],[19.5816244,47.9873597],[19.581636,47.9885059],[19.5799364,47.9892696],[19.5787935,47.988519],[19.577107,47.9896667],[19.5788128,47.9904211],[19.5783978,47.9914892],[19.5761525,47.9933248],[19.576009,47.9935858],[19.5761199,47.9940096],[19.5760183,47.9945939],[19.5763298,47.9949437],[19.577638,47.9957011],[19.5765327,47.996481],[19.5763382,47.9970109],[19.5744757,47.9971096],[19.573946,47.9976355],[19.5740345,47.9986684],[19.5756546,48.002161],[19.575837,48.0031516],[19.5756814,48.00404],[19.5761364,48.0050429],[19.5765447,48.0055815],[19.5789866,48.0075524],[19.5801222,48.0075472],[19.5812655,48.0083041],[19.5829953,48.0113384],[19.5847073,48.0117085],[19.5875262,48.0101774],[19.5943147,48.0086215],[19.5977095,48.0074654],[19.5994042,48.0070732],[19.6016591,48.0055382],[19.601092,48.005163],[19.5999525,48.0047904],[19.598809,48.0040337],[19.5987969,48.0028875],[19.5976535,48.0021308],[19.5999083,48.0006021],[19.6055437,47.9975267],[19.6089212,47.9948461],[19.6106277,47.9956],[19.6134325,47.9929221],[19.6134202,47.991782],[19.6128449,47.9906386],[19.6139801,47.990633],[19.613976,47.9902551],[19.6145307,47.9894903],[19.6145265,47.9891061],[19.6150946,47.9887254],[19.6156493,47.9879606],[19.617903,47.9864253],[19.6190381,47.9864197],[19.6207237,47.9852713],[19.6247254,47.9883],[19.6241666,47.9886808],[19.624175,47.9894428],[19.624738,47.98944],[19.6253051,47.9898152],[19.6275839,47.990566],[19.6292736,47.9897954],[19.630413,47.9901739],[19.6304172,47.9905518],[19.6321544,47.9932074],[19.6338526,47.9931989],[19.6367076,47.9950928],[19.6378429,47.9950871],[19.6401091,47.9946914],[19.6429427,47.9946769],[19.6452045,47.9939032],[19.6457719,47.9942845],[19.6463442,47.9942815],[19.6503436,47.9969252],[19.6503524,47.9976873],[19.6509286,47.9988244],[19.6515009,47.9988214],[19.6526406,47.9991934],[19.6560331,47.9987978],[19.656601,47.9984168],[19.6588536,47.9976429],[19.6611243,47.9976309],[19.6622507,47.9968629],[19.6622462,47.9964787],[19.6628003,47.9957137],[19.6633681,47.9953327],[19.6644989,47.9949487],[19.6650574,47.9945616],[19.6656297,47.9945586],[19.6667513,47.9941746],[19.6679181,47.9968328],[19.6690579,47.9972046],[19.6690624,47.9975888],[19.6685084,47.9983539],[19.6690895,47.9998688],[19.6691031,48.001015],[19.6708334,48.002908],[19.6714147,48.0044291],[19.6720458,48.0101323],[19.6833927,48.0100709],[19.6850868,48.0089215],[19.6856407,48.0081564],[19.6879118,48.0081439],[19.6907649,48.0096524],[19.6924589,48.0092588],[19.6935992,48.0096367],[19.6936086,48.0103987],[19.6958986,48.0119041],[19.696476,48.0130471],[19.6964807,48.0134251],[19.6976212,48.0138028],[19.6976259,48.0141808],[19.6953733,48.0157176],[19.6953827,48.0164797],[19.6897412,48.0187911],[19.6880562,48.0199467],[19.6880608,48.0203246],[19.685249,48.0222422],[19.6807194,48.0234132],[19.6795926,48.0241753],[19.6779163,48.0260928],[19.6796294,48.0272235],[19.6807654,48.0272174],[19.6858819,48.0279515],[19.6898393,48.0267897],[19.6954957,48.0256121],[19.7000443,48.0259708],[19.7051514,48.0259421],[19.7074137,48.0251671],[19.7096763,48.0251543],[19.7136426,48.0247475],[19.716487,48.0247312],[19.7176181,48.0243467],[19.7198757,48.0239495],[19.7204532,48.0243303],[19.7221573,48.0246984],[19.726701,48.024672],[19.7278178,48.0239034],[19.7283904,48.0239],[19.7295213,48.0235154],[19.7312205,48.0235055],[19.7335023,48.0242542],[19.7352016,48.0242441],[19.7374783,48.0246086],[19.7403135,48.0245918],[19.7408811,48.0242104],[19.7425803,48.0242003],[19.7442744,48.023806],[19.7454155,48.0241833],[19.7465462,48.0237924],[19.7470995,48.0230331],[19.751055,48.021863],[19.7533063,48.0203313],[19.7544369,48.0199403],[19.7550146,48.020321],[19.7561463,48.020692],[19.7578495,48.0203037],[19.7600964,48.0191437],[19.7606741,48.0195243],[19.7612374,48.0195208],[19.7618151,48.0198953],[19.7623783,48.0198918],[19.7624095,48.022178],[19.7618618,48.0233214],[19.7641752,48.0263557],[19.7653176,48.0274888],[19.7653228,48.0278667],[19.7676052,48.0286147],[19.7693296,48.0297503],[19.7710395,48.0304956],[19.7721755,48.0304886],[19.7682616,48.0347014],[19.7683036,48.0377496],[19.7654741,48.0389072],[19.7615072,48.0393158],[19.7615331,48.0412178],[19.7530633,48.0431538],[19.7541642,48.0454071],[19.7554155,48.0459152],[19.7578282,48.0459199],[19.7585644,48.0462007],[19.7603895,48.047424],[19.7610221,48.0480869],[19.761824,48.047787],[19.7638496,48.047608],[19.7653139,48.0472384],[19.7724718,48.046746],[19.7738506,48.0456411],[19.7741047,48.0442505],[19.7773195,48.0445827],[19.779453,48.0452059],[19.7829169,48.0453175],[19.784408,48.0450923],[19.7864924,48.0456114],[19.7882769,48.0456172],[19.7950478,48.0429096],[19.7961732,48.0421403],[19.7967351,48.0413746],[19.7972932,48.040993],[19.796146,48.0402383],[19.7978294,48.0390873],[19.7978239,48.0387032],[19.7955444,48.0375778],[19.7943919,48.0364389],[19.7926815,48.035694],[19.7915508,48.0360792],[19.7892731,48.0357157],[19.7881315,48.0353388],[19.7875627,48.0349645],[19.7869793,48.0342061],[19.7852582,48.0326927],[19.7841168,48.032322],[19.7818447,48.0323364],[19.7812759,48.0319558],[19.7784351,48.0315957],[19.7784297,48.0312116],[19.7778571,48.0312152],[19.7778464,48.0304531],[19.7789772,48.0300681],[19.7801026,48.0292989],[19.782938,48.029281],[19.7840633,48.0285117],[19.7840525,48.0277497],[19.7851778,48.0269804],[19.7862977,48.0258332],[19.786861,48.0258297],[19.7880024,48.0262066],[19.7897178,48.0273357],[19.7925732,48.0280796],[19.7988509,48.0310816],[19.8017066,48.0318252],[19.8034171,48.0325763],[19.8045641,48.0333309],[19.8057057,48.0337015],[19.8062637,48.0333199],[19.8079853,48.0348329],[19.8074274,48.0352145],[19.8108802,48.0382404],[19.8120127,48.0386109],[19.8125965,48.0393692],[19.8143129,48.040498],[19.8154548,48.0408746],[19.8160164,48.0401088],[19.8165742,48.039721],[19.8165519,48.0382031],[19.8171098,48.0378152],[19.8182404,48.0374298],[19.8193766,48.0374222],[19.8205015,48.0366527],[19.8244452,48.0347242],[19.8272639,48.0335591],[19.8278365,48.0335552],[19.82895,48.0320297],[19.8329443,48.0335209],[19.8329501,48.033905],[19.8369562,48.0361581],[19.8386558,48.0361466],[19.8392343,48.0365268],[19.8403669,48.036897],[19.8437697,48.0364959],[19.8478703,48.0349713],[19.8500241,48.0362883],[19.8487212,48.0302368],[19.8495626,48.0253706],[19.8478483,48.0255185],[19.8474052,48.0244447],[19.8483793,48.0234224],[19.8511678,48.0235273],[19.8521752,48.0216541],[19.8571034,48.0195071],[19.860223,48.0187641],[19.8587459,48.0175981],[19.8579754,48.0157457],[19.8561433,48.0147247],[19.8583182,48.0129292],[19.8615236,48.0157034],[19.8680517,48.0152615],[19.8762446,48.008095],[19.8762325,48.007333],[19.8773469,48.0065691],[19.8795997,48.0054067],[19.8812923,48.0050166],[19.8778769,48.0038947],[19.8789883,48.0023687],[19.878416,48.0023728],[19.8800814,47.9996965],[19.8823549,48.0004362],[19.8834721,47.999288],[19.8789218,47.9981805],[19.8766391,47.9974347],[19.8698186,47.9963429],[19.8652596,47.9952288],[19.8663652,47.9933187],[19.8640888,47.9929568],[19.8612554,47.9929766],[19.8589968,47.9937545],[19.8589673,47.9918463],[19.8600612,47.9891742],[19.8600553,47.9887963],[19.868588,47.9902607],[19.8697112,47.9894906],[19.8697051,47.9891065],[19.8691329,47.9891105],[19.8696992,47.9887285],[19.8696932,47.9883444],[19.8708223,47.9879585],[19.8708163,47.9875743],[19.8702382,47.9872004],[19.8702323,47.9868225],[19.8696633,47.9864424],[19.8696574,47.9860644],[19.8685104,47.9853104],[19.8684985,47.9845483],[19.8679204,47.9841744],[19.8673575,47.9841784],[19.8679144,47.9837903],[19.8661868,47.9819002],[19.865618,47.98152],[19.8650459,47.9815241],[19.86504,47.9811461],[19.863905,47.9811541],[19.8644652,47.980388],[19.8644534,47.9796259],[19.8638754,47.979252],[19.8638517,47.9777279],[19.863283,47.9773539],[19.863277,47.9769698],[19.8627049,47.9769738],[19.8632651,47.9762077],[19.8632474,47.9750677],[19.8638042,47.9746796],[19.8637865,47.9735396],[19.8632178,47.9731657],[19.8637806,47.9731617],[19.8649094,47.9727696],[19.8648916,47.9716296],[19.8665594,47.9697156],[19.8659848,47.9689575],[19.8665297,47.9678135],[19.8670599,47.9651392],[19.8676108,47.9643793],[19.8675989,47.9636172],[19.8698501,47.962455],[19.8704101,47.9616951],[19.8715234,47.9609251],[19.872634,47.9593929],[19.8731998,47.9590047],[19.8731938,47.9586267],[19.8743223,47.9582407],[19.8743283,47.9586187],[19.8760074,47.9574666],[19.8760133,47.9578445],[19.8765639,47.9570784],[19.8765579,47.9567005],[19.8771297,47.9566964],[19.8782581,47.9563042],[19.8788086,47.9555381],[19.8788026,47.9551602],[19.879937,47.955152],[19.879931,47.9547741],[19.8810654,47.954766],[19.881634,47.9551399],[19.8827562,47.9543697],[19.8838906,47.9543615],[19.8850189,47.9539754],[19.8850068,47.9532133],[19.8855632,47.9528252],[19.885539,47.9513072],[19.8861046,47.950919],[19.8866549,47.9501528],[19.8872267,47.9501487],[19.8872084,47.9490087],[19.8877587,47.9482425],[19.8877527,47.9478646],[19.8871902,47.9478687],[19.887178,47.9471066],[19.8877343,47.9467184],[19.8871718,47.9467225],[19.8877283,47.9463405],[19.8883,47.9463363],[19.8894188,47.9459441],[19.8911064,47.9447917],[19.8913913,47.9441572],[19.8919769,47.9439193],[19.8922222,47.9436434],[19.894475,47.9432429],[19.895658,47.9422386],[19.8961624,47.9420904],[19.8978405,47.940938],[19.8984121,47.9409338],[19.8989313,47.9382655],[19.8989127,47.9371193],[19.8994442,47.9352131],[19.900541,47.9329186],[19.9011003,47.9321585],[19.900504,47.9306385],[19.9010631,47.9298723],[19.9004544,47.9275902],[19.8998798,47.9268323],[19.9009826,47.9249219],[19.9009517,47.9230198],[19.9015015,47.9222535],[19.9020482,47.9207252],[19.902598,47.919959],[19.9031602,47.9199548],[19.903713,47.9188106],[19.9037068,47.9184327],[19.908236,47.9184],[19.9105079,47.9191379],[19.9121749,47.9183707],[19.9122776,47.916963],[19.9144244,47.9160652],[19.915571,47.9164372],[19.9161827,47.9194683],[19.9167427,47.9194811],[19.9202238,47.9236368],[19.9207789,47.9236319],[19.9202311,47.9232599],[19.9224659,47.9232355],[19.9218305,47.9183068],[19.9229657,47.9186671],[19.9229594,47.9182892],[19.9252266,47.9182721],[19.9269287,47.9186372],[19.9274846,47.918255],[19.9269224,47.9182592],[19.9274207,47.9144446],[19.9262681,47.9133132],[19.9273888,47.9125425],[19.927376,47.9117804],[19.9284967,47.9110097],[19.9279155,47.909874],[19.9273378,47.9095004],[19.926198,47.9091248],[19.9256359,47.9091291],[19.9248783,47.9085495],[19.9239061,47.9087165],[19.9232924,47.909713],[19.9201262,47.9107521],[19.9197738,47.9104266],[19.9190674,47.9104701],[19.9174205,47.9134162],[19.9169684,47.9138057],[19.9145223,47.9138511],[19.914393,47.9141646],[19.9121511,47.9157056],[19.9114843,47.9164975],[19.9093531,47.9176287],[19.9065237,47.9176497],[19.9048031,47.9161381],[19.9002689,47.9161714],[19.899123,47.9154177],[19.8991169,47.9150397],[19.8979926,47.915048],[19.8979863,47.9146638],[19.8973965,47.913528],[19.8973842,47.9127659],[19.8968097,47.9120079],[19.8962323,47.9116342],[19.8934094,47.9120327],[19.8928534,47.912421],[19.8905987,47.9131995],[19.8900274,47.9132037],[19.8883439,47.9139719],[19.8877817,47.9139759],[19.8866361,47.9132282],[19.886624,47.9124661],[19.8871617,47.9109379],[19.8871556,47.9105538],[19.8865874,47.9101799],[19.8860161,47.910184],[19.8859979,47.909044],[19.8854236,47.908286],[19.8854054,47.9071397],[19.88426,47.906392],[19.8825524,47.9056421],[19.8819812,47.9056462],[19.8819691,47.9048842],[19.8825161,47.9033559],[19.8841932,47.9022036],[19.8847552,47.9021996],[19.884737,47.9010534],[19.8841689,47.9006795],[19.8841568,47.8999174],[19.8825288,47.8984055],[19.8818602,47.8980316],[19.878087,47.8972546],[19.8774045,47.8969455],[19.8770552,47.8966044],[19.8767235,47.8954038],[19.8750044,47.8938918],[19.8738655,47.8935219],[19.8732975,47.8931417],[19.8732855,47.8923796],[19.8715873,47.8927759],[19.8687593,47.8927959],[19.8556845,47.8890768],[19.8545749,47.8906089],[19.8534447,47.8902443],[19.8522879,47.8906321],[19.850611,47.8906439],[19.8494775,47.8902717],[19.849468,47.8898769],[19.8488991,47.8891198],[19.8477481,47.8879954],[19.8477481,47.8876114],[19.8471697,47.8872274],[19.8471691,47.8868622],[19.8477169,47.8860893],[19.8482628,47.8856915],[19.8482494,47.8841835],[19.8493706,47.8834136],[19.8493648,47.8830294],[19.8521748,47.8818698],[19.8521631,47.8811077],[19.8532608,47.8788136],[19.853826,47.8784316],[19.8538202,47.8780537],[19.8549412,47.8772837],[19.8549119,47.8753754],[19.8582302,47.8707854],[19.8604718,47.8692453],[19.8610218,47.8684855],[19.8649454,47.8661714],[19.8660542,47.8646392],[19.8660483,47.8642612],[19.8649099,47.8638851],[19.8637866,47.863893],[19.864898,47.863123],[19.865457,47.8623568],[19.8654452,47.8616009],[19.8648507,47.8600808],[19.8637157,47.8593266],[19.8642417,47.8570363],[19.8647974,47.8566544],[19.8636625,47.8559002],[19.863633,47.853998],[19.8675377,47.8505438],[19.869751,47.8478635],[19.872544,47.8451791],[19.8764234,47.8402003],[19.8786178,47.8363737],[19.8808333,47.8333152],[19.8813796,47.8317869],[19.8824932,47.8306387],[19.8830363,47.8294946],[19.8852027,47.8233876],[19.8851966,47.8230034],[19.8862856,47.8203309],[19.8873532,47.8168964],[19.8884602,47.815364],[19.8917933,47.811535],[19.8923482,47.8111467],[19.8951136,47.8069437],[19.8967812,47.8054071],[19.8989911,47.8023419],[19.8972745,47.8012144],[19.8932898,47.7993412],[19.8892992,47.7970836],[19.8887261,47.7963256],[19.8898327,47.7947931],[19.8909453,47.7936448],[19.8898084,47.7932751],[19.890357,47.7925089],[19.8903448,47.7917468],[19.8909026,47.7909805],[19.8942921,47.7913338],[19.8948437,47.7901895],[19.8965108,47.7886529],[19.8965047,47.788275],[19.8959378,47.7879011],[19.8964801,47.7867507],[19.8975986,47.7859803],[19.8975884,47.7844707],[19.8970041,47.7844664],[19.896431,47.7837084],[19.8958641,47.7833284],[19.8947334,47.7833367],[19.8930267,47.7829711],[19.8896377,47.7826116],[19.888501,47.7822418],[19.8867883,47.7814921],[19.883936,47.7796103],[19.8816779,47.7792423],[19.8850181,47.7765536],[19.8866912,47.7754013],[19.887267,47.7757751],[19.8878156,47.7750151],[19.8877973,47.7738688],[19.8945864,47.7742036],[19.8967338,47.7677121],[19.8893881,47.7670035],[19.8899122,47.7647193],[19.8882213,47.7647316],[19.8876455,47.7643515],[19.8876333,47.7635894],[19.8887575,47.7632033],[19.8893151,47.762437],[19.8926783,47.7612723],[19.894372,47.7608757],[19.89549,47.7601053],[19.8937718,47.7589776],[19.8942435,47.7528826],[19.8947917,47.7521164],[19.8930524,47.7490864],[19.8919041,47.7479484],[19.8907763,47.7464673],[19.8884325,47.7445192],[19.8810691,47.7407951],[19.8776977,47.7419596],[19.8765679,47.7419677],[19.8765799,47.7427298],[19.8760315,47.7434959],[19.8731845,47.742376],[19.8674853,47.7386055],[19.8606867,47.736751],[19.859557,47.7367589],[19.8561328,47.7344962],[19.8504764,47.7333953],[19.8482229,47.733789],[19.8454034,47.7338084],[19.8436503,47.7296376],[19.8335674,47.7346516],[19.8329923,47.7342775],[19.8313025,47.734289],[19.8273702,47.7354558],[19.8228795,47.7373884],[19.8161437,47.7397199],[19.8150085,47.7393495],[19.8144371,47.738591],[19.8149863,47.7378252],[19.813263,47.73555],[19.8132575,47.735172],[19.8121057,47.7336552],[19.8176835,47.7294291],[19.8182417,47.7286632],[19.820445,47.7248436],[19.8220618,47.7198814],[19.8220505,47.7191193],[19.8214646,47.717983],[19.8214534,47.7172208],[19.8242138,47.7126352],[19.8253001,47.7103412],[19.8264124,47.7091935],[19.8184732,47.7061978],[19.8094225,47.7043553],[19.8083067,47.7038631],[19.8060173,47.7024752],[19.8037484,47.7017278],[19.8026085,47.7009731],[19.800367,47.7021279],[19.7880095,47.7052566],[19.7857515,47.705271],[19.7829282,47.704911],[19.7823431,47.7037682],[19.777262,47.7034224],[19.7766599,47.7003773],[19.7688135,47.7038534],[19.7603866,47.7065703],[19.7580566,47.7012553],[19.756337,47.6989792],[19.7557527,47.6978425],[19.7546125,47.6963251],[19.7518012,47.6974887],[19.7501124,47.6974989],[19.7489261,47.6956234],[19.7427894,47.6983054],[19.7411057,47.6986935],[19.7410956,47.6979314],[19.7399467,47.6964138],[19.7376343,47.6922447],[19.7375993,47.6895741],[19.7325644,47.6926529],[19.7206449,47.6978601],[19.7133042,47.7016663],[19.7118298,47.7026703],[19.7197769,47.7068134],[19.7220545,47.7083246],[19.7288643,47.7117116],[19.7187928,47.7174839],[19.7159891,47.7194026],[19.7109452,47.7220963],[19.7109405,47.7217183],[19.7075805,47.7232557],[19.6985825,47.7255933],[19.6985966,47.7267335],[19.6974765,47.727502],[19.6974812,47.7278861],[19.6946713,47.7286579],[19.6946694,47.728431],[19.6890329,47.7294515],[19.6918164,47.7244593],[19.6917637,47.7222047],[19.6923191,47.7210613],[19.6934298,47.7195307],[19.6939618,47.7172411],[19.6939524,47.716479],[19.693383,47.7157199],[19.6934184,47.7154215],[19.6922305,47.7138239],[19.6871259,47.7115718],[19.6859921,47.7111939],[19.6803417,47.7100847],[19.6803371,47.7097006],[19.6797634,47.7093257],[19.6797542,47.7085635],[19.6797451,47.7078014],[19.6803142,47.7077983],[19.6803051,47.7070361],[19.6797223,47.7058991],[19.6791578,47.7055241],[19.6785887,47.7055272],[19.6794876,47.7032739],[19.6734854,47.7032683],[19.6742038,47.7158254],[19.6736346,47.7158285],[19.6736708,47.7188771],[19.6674733,47.7189105],[19.6669084,47.7192916],[19.6663886,47.7227212],[19.6658462,47.7250107],[19.6664155,47.7250076],[19.6596608,47.726946],[19.6585764,47.7262761],[19.6546001,47.7284971],[19.6551738,47.728872],[19.6445432,47.7365432],[19.6439737,47.7365461],[19.6433877,47.7342688],[19.6393956,47.7304782],[19.6382575,47.7297218],[19.6359728,47.7274531],[19.6342704,47.7263153],[19.6314252,47.7248115],[19.6291586,47.7232985],[19.6274515,47.7225449],[19.6183387,47.7145964],[19.614021,47.7110738],[19.6110791,47.7109141],[19.6067257,47.711911],[19.6051611,47.7126346],[19.6009295,47.7153542],[19.5984306,47.7166564],[19.5876403,47.7234095],[19.584396,47.726087],[19.5807978,47.729696],[19.5791719,47.7306568],[19.5751146,47.7325543],[19.5709386,47.7349031],[19.5774285,47.739529],[19.5853519,47.745942],[19.5876577,47.7467318],[19.5859655,47.7478731],[19.5848394,47.7482564]]]}}]}