{"type": "FeatureCollection", "features": [{"type": "Feature", "properties": {"id": "AOC-Alsace-Bergheim", "name": "Alsace Bergheim", "tier": "denomination"}, "geometry": {"type": "MultiPolygon", "coordinates": [[[[7.34992002670488, 48.1977916517671], [7.34785502297757, 48.1971622470058], [7.34767226069114, 48.1980387799976], [7.34771514444169, 48.1982532074751], [7.3507631147468, 48.1983875938947], [7.34992002670488, 48.1977916517671]]], [[[7.35351116956823, 48.1980253440848], [7.35064205399027, 48.1971390843364], [7.35043712755579, 48.1980780799397], [7.35172556668613, 48.198871439528], [7.35207379823101, 48.1986222212057], [7.35180758151088, 48.1989162662795], [7.35271876205855, 48.1994678701765], [7.35323883760437, 48.1996429739306], [7.35332018252404, 48.1992126421838], [7.35350515200525, 48.1994220061913], [7.3532753681496, 48.1996560447444], [7.35634878228577, 48.200909766896], [7.35640897544694, 48.1996264519696], [7.35395419691937, 48.1975448979943], [7.35351116956823, 48.1980253440848]]], [[[7.3475991908279, 48.1980222777665], [7.34613030836241, 48.1978220861446], [7.34572721924894, 48.1985884981789], [7.34674220155134, 48.200259704672], [7.34864807795944, 48.1999176907649], [7.34787418278903, 48.1988285040486], [7.3475991908279, 48.1980222777665]]], [[[7.34771774215644, 48.1982650971596], [7.3486136189058, 48.1998071270505], [7.34951150112224, 48.1996110130173], [7.35063502751757, 48.1995064206133], [7.35050341792757, 48.1991757716064], [7.35102211221198, 48.1992329739005], [7.35154801846877, 48.2000097544498], [7.3527821341754, 48.2001311295389], [7.35245137764577, 48.1994227627931], [7.35077794312056, 48.1983974104566], [7.34771774215644, 48.1982650971596]]], [[[7.34951582716404, 48.2006996329254], [7.35162434771381, 48.2002698978184], [7.35065095861613, 48.1995328679825], [7.34873150610245, 48.1998047648621], [7.34951582716404, 48.2006996329254]]], [[[7.35641991594435, 48.1994831235918], [7.3564016907243, 48.2010378512204], [7.35823063955656, 48.2011892051272], [7.35804906281069, 48.2009836876671], [7.35924522973176, 48.2014966920963], [7.36059276532685, 48.2013767008558], [7.3601762554355, 48.1995249690242], [7.3586924584085, 48.1993706300175], [7.35857776004969, 48.1991082123897], [7.35605840654208, 48.1991536679869], [7.35641991594435, 48.1994831235918]]], [[[7.3526385055987, 48.1995194934534], [7.35329836091353, 48.2008555422956], [7.35446395163252, 48.2008274930009], [7.35443510182101, 48.2014804573092], [7.35627686899912, 48.2014262643607], [7.35625802805389, 48.200950155212], [7.3526385055987, 48.1995194934534]]], [[[7.33816974736378, 48.200991968561], [7.33829735519157, 48.2011994979576], [7.33815491578833, 48.2009968393654], [7.3362746054434, 48.2016672904665], [7.33720257680859, 48.2022688561035], [7.33858165440214, 48.2028134584542], [7.33949520911581, 48.2033883226339], [7.34022538896454, 48.2032565744519], [7.34260828424319, 48.2032068439718], [7.34369938340471, 48.202737015617], [7.34479416591599, 48.2023939231627], [7.34509792781686, 48.2019184635429], [7.34328598005282, 48.2015099930262], [7.34103254709615, 48.2013907874674], [7.34102508016661, 48.2016783494358], [7.34095014896195, 48.201355970396], [7.3394504371621, 48.2004771793819], [7.33816974736378, 48.200991968561]]], [[[7.34867332011776, 48.1999410016151], [7.34681917981561, 48.2002859762517], [7.34704297710796, 48.2006003456098], [7.3469092558757, 48.2008096541428], [7.34747234584404, 48.201503345673], [7.34759845398977, 48.2019031381658], [7.34978720866898, 48.201340625513], [7.34867332011776, 48.1999410016151]]], [[[7.34678113161012, 48.2002888197514], [7.34407296202634, 48.201184543425], [7.34747879554603, 48.202534841301], [7.34747179830195, 48.2015637433041], [7.34686098834653, 48.2008095398482], [7.34678113161012, 48.2002888197514]]], [[[7.34495371344498, 48.2022116025217], [7.34519375793491, 48.2029456747869], [7.34611875823724, 48.2029322460934], [7.34652033440882, 48.2029845008252], [7.34669538993886, 48.2031604463186], [7.34704630697256, 48.2036970435774], [7.34809472668029, 48.2035535223267], [7.3460973814514, 48.2022149033454], [7.34531720037527, 48.20198329243], [7.34495371344498, 48.2022116025217]]], [[[7.33706813587233, 48.2022568559138], [7.33752498137974, 48.2036515334029], [7.33903355261476, 48.2032480482997], [7.33706813587233, 48.2022568559138]]], [[[7.33754563570812, 48.2036928578333], [7.33878942592882, 48.2053042548447], [7.34021237935689, 48.2049181426098], [7.3400414051347, 48.2047375324545], [7.33995528898374, 48.2046035446791], [7.33977165068493, 48.2041576509246], [7.33976526400675, 48.2040407363501], [7.33981539440426, 48.2038636190992], [7.33960209859287, 48.2034422456052], [7.33905822171852, 48.2032840883355], [7.33754563570812, 48.2036928578333]]], [[[7.34263344287148, 48.2032504350126], [7.33962978861139, 48.2034363610814], [7.3398412482622, 48.2038665432164], [7.33980214823535, 48.2041613054267], [7.34114519438615, 48.20631413503], [7.34250398875381, 48.2059083679475], [7.34231895518922, 48.2057323333424], [7.34215769876596, 48.2054652184404], [7.3420575670672, 48.2054410572629], [7.34186651121031, 48.2051771111017], [7.34172235610547, 48.2047754554803], [7.34172278479005, 48.2043926309493], [7.34176637791988, 48.204173849695], [7.34189005878615, 48.2051798493064], [7.34218234144068, 48.2054616082446], [7.34252335895436, 48.2058963907788], [7.34361266391657, 48.2051193396021], [7.34368615399494, 48.2046547943421], [7.34398107455533, 48.2039964603719], [7.34371611978896, 48.2050087450758], [7.34526504086153, 48.204517454868], [7.3461633610099, 48.2038496002678], [7.34560576767127, 48.2037870491985], [7.34547666742392, 48.2036779877057], [7.34536826315243, 48.2034961618057], [7.34531987496249, 48.2032917597208], [7.34561606165525, 48.2037794608827], [7.34702493437092, 48.2037026971419], [7.34650982265436, 48.2029943501424], [7.34518086893725, 48.2029593963607], [7.3448859882482, 48.2024530822892], [7.34263344287148, 48.2032504350126]]], [[[7.3625995552966, 48.2001740823382], [7.36302427405179, 48.2017312740066], [7.36426431873995, 48.2014330895129], [7.36407352861641, 48.2001848203426], [7.3625995552966, 48.2001740823382]]], [[[7.36055904291224, 48.2002483370164], [7.36075730758134, 48.2018765337549], [7.36299964822522, 48.2017383124835], [7.36255911194196, 48.2001756677613], [7.36055904291224, 48.2002483370164]]], [[[7.35827838328942, 48.2075587408749], [7.35831657747618, 48.2078528203721], [7.3586940101262, 48.2078048169483], [7.35870573267217, 48.207538902449], [7.35827838328942, 48.2075587408749]]], [[[7.36171531801105, 48.2076193829885], [7.36131758080924, 48.2077951201876], [7.36164633797871, 48.2078301908169], [7.36171531801105, 48.2076193829885]]], [[[7.35872212273415, 48.207321297885], [7.35904058775279, 48.2077586729246], [7.35920341513619, 48.2077696903228], [7.35831746045246, 48.2078651336405], [7.35838234130572, 48.2081118178258], [7.35960012595995, 48.2085206608636], [7.35985778350459, 48.2077512844196], [7.35872212273415, 48.207321297885]]], [[[7.36001212955548, 48.2078129888925], [7.35980998691577, 48.2080504329752], [7.35994177777194, 48.2080725087486], [7.36001212955548, 48.2078129888925]]], [[[7.36025806715024, 48.2078540969667], [7.35994177777194, 48.2080725087486], [7.36024078217306, 48.2081194964365], [7.36025806715024, 48.2078540969667]]], [[[7.36248346700714, 48.2085900171663], [7.36345418990857, 48.2086064869707], [7.3633448176076, 48.2083828974176], [7.36323284966142, 48.2078851801486], [7.36174390876827, 48.2076390529762], [7.36169066557986, 48.207859191965], [7.36078701652228, 48.2077912065573], [7.36116778092049, 48.2086653197039], [7.36164157702913, 48.2086429434835], [7.36170313296616, 48.2087840430811], [7.36195866438982, 48.2087471131732], [7.36215939651331, 48.2086458828235], [7.36248346700714, 48.2085900171663]]], [[[7.36560268812642, 48.2079453274642], [7.36324929023537, 48.2078899792655], [7.36347375014787, 48.208616397454], [7.36169406170715, 48.2087998783075], [7.36117369783572, 48.208676545781], [7.36143805169594, 48.2095742446031], [7.36227407333785, 48.2094208776207], [7.36371340009936, 48.2092705209624], [7.36386620151043, 48.2092906441165], [7.36405611124616, 48.2095375689779], [7.36585297176727, 48.2091997697276], [7.36560268812642, 48.2079453274642]]], [[[7.36377117232968, 48.2093169573735], [7.36145029625826, 48.2096163268327], [7.36235864009573, 48.2110002788268], [7.36455319977766, 48.2105277662716], [7.36377117232968, 48.2093169573735]]], [[[7.36580581408917, 48.209255493927], [7.36405115795379, 48.2096096648309], [7.36493420286609, 48.2111529591577], [7.36655168617473, 48.2109147855923], [7.36580581408917, 48.209255493927]]], [[[7.3603630137887, 48.2085232057122], [7.36064347157888, 48.2099565006389], [7.36045507393837, 48.211124784761], [7.36108776824991, 48.2130198823798], [7.36300047655595, 48.2127264241163], [7.36146214509714, 48.2100366404064], [7.36053171961873, 48.207757564572], [7.3603630137887, 48.2085232057122]]], [[[7.3598079666438, 48.2080602401369], [7.35995289809219, 48.2095846939239], [7.35928052229171, 48.2106901107713], [7.35930066651774, 48.2116561284566], [7.35973561921005, 48.2123735138206], [7.35949095682831, 48.2132563127777], [7.36103083721741, 48.2132167261228], [7.36039157036467, 48.2113236735944], [7.35932569749707, 48.2116050094352], [7.36035498263583, 48.2112089562027], [7.36053280361011, 48.2099453601052], [7.36024160616689, 48.2081310909562], [7.3598079666438, 48.2080602401369]]], [[[7.36240576374526, 48.211028815941], [7.36285759466165, 48.2111936975135], [7.36248323265216, 48.2112627771147], [7.36274013614498, 48.2118060518549], [7.36310976932553, 48.2117107424409], [7.36327155980446, 48.211982768829], [7.36365146564548, 48.2118747320699], [7.3637332735151, 48.2120209393844], [7.36466070810241, 48.2118215521159], [7.36503769635119, 48.2117630022473], [7.36457655028027, 48.2105720508955], [7.36240576374526, 48.211028815941]]], [[[7.36643805515221, 48.2109623356466], [7.36495012707638, 48.2112101346251], [7.36528998612125, 48.2124146723329], [7.3671419935592, 48.2121864716904], [7.36643805515221, 48.2109623356466]]], [[[7.36504001545284, 48.2117730995909], [7.36372569005642, 48.2120319435764], [7.36364408295728, 48.2118881619661], [7.36326174260954, 48.2119961084683], [7.36310133348812, 48.2117244815822], [7.36274202181907, 48.2118158047854], [7.36319802645901, 48.2127055135588], [7.36522357959456, 48.212451282472], [7.36504001545284, 48.2117730995909]]]]}}]}