{"type": "FeatureCollection", "features": [{"type": "Feature", "properties": {"id": "AOC-Alsace-Vallée-Noble", "name": "Alsace Vallée Noble", "tier": "denomination"}, "geometry": {"type": "MultiPolygon", "coordinates": [[[[7.2442141387231, 47.9601422576998], [7.24224376728756, 47.960786178095], [7.24115083956619, 47.9613221380803], [7.24228108639489, 47.9611232431363], [7.24296328869781, 47.9611135606107], [7.24338460636169, 47.960887270559], [7.24472502174962, 47.960426159127], [7.2442141387231, 47.9601422576998]]], [[[7.24295433693332, 47.9612279801371], [7.24068146973215, 47.961524920083], [7.24087342079178, 47.9616515519205], [7.24032178437518, 47.9616882316892], [7.24073329996872, 47.9620048471243], [7.23999306835186, 47.9620977219189], [7.24050378064642, 47.962927793354], [7.24050652896764, 47.9638708319285], [7.2415066145667, 47.96384220205], [7.24172646556499, 47.9632361155627], [7.24158765353621, 47.9631163079357], [7.24153813637003, 47.9623804380709], [7.24295433693332, 47.9612279801371]]], [[[7.24229411144854, 47.9620199498197], [7.24158769759402, 47.9624329925542], [7.24184333688143, 47.9631371754303], [7.24254759947082, 47.9625279209262], [7.24229411144854, 47.9620199498197]]], [[[7.24199007427608, 47.9630878057416], [7.24145906117873, 47.9645388582609], [7.24220992441192, 47.964575008306], [7.24257854932047, 47.9650778292117], [7.24319680924743, 47.9648203650409], [7.24297511442626, 47.9647062567129], [7.24292927394869, 47.964500809635], [7.24290187892717, 47.9640900265275], [7.24308154927461, 47.9636057029989], [7.24247254786248, 47.9626430155073], [7.24199007427608, 47.9630878057416]]], [[[7.23813557708379, 47.9647045155717], [7.23913394501873, 47.9631213476699], [7.23721076544076, 47.9642936656417], [7.23813557708379, 47.9647045155717]]], [[[7.24050850994828, 47.9638804936971], [7.24114006112181, 47.9646541086463], [7.24157866022337, 47.9647689494946], [7.2412865670593, 47.9643553779486], [7.2414994138671, 47.9638528262319], [7.24050850994828, 47.9638804936971]]], [[[7.24017236002434, 47.9626412706726], [7.23902854012596, 47.9634475217233], [7.23903927513453, 47.963848361682], [7.23930779388233, 47.9638015398114], [7.2393470491471, 47.9638829459841], [7.2389229008912, 47.9641733090913], [7.23896382756381, 47.9652752066119], [7.23956256607293, 47.9651642856632], [7.23990965194738, 47.965487104874], [7.24037588669754, 47.9654173723389], [7.24091684691316, 47.9654798540412], [7.23993662932055, 47.9655190259425], [7.24055622235777, 47.9658346200351], [7.23996423055294, 47.9661271702323], [7.24027385222924, 47.9659516093963], [7.23955845458465, 47.9652420298781], [7.23898006431265, 47.9653674471919], [7.23980807073285, 47.9669795110198], [7.24044158950603, 47.9672609875591], [7.24129419751113, 47.9667438121598], [7.24273539166215, 47.9677401661046], [7.24315363012087, 47.9676171817858], [7.24303438517882, 47.9678189486007], [7.24358315662106, 47.968000369506], [7.24384046417347, 47.9683963568185], [7.24432997879647, 47.9680206118443], [7.24470493481866, 47.9684695746402], [7.24544331975302, 47.9676459319625], [7.24303403068747, 47.9665896836843], [7.24247651415429, 47.9658916308353], [7.24106941238728, 47.9650673501385], [7.24140001950172, 47.9648171272611], [7.24105190690244, 47.9646743248994], [7.24069910344027, 47.9643404498901], [7.24040659829616, 47.9638092807072], [7.24042228821106, 47.9628870257831], [7.24017236002434, 47.9626412706726]]], [[[7.23892503168621, 47.9636380822207], [7.23784535619176, 47.965188041555], [7.23649800407617, 47.9663952621753], [7.23871252149774, 47.9675818657247], [7.24002236736301, 47.9673365029206], [7.23941849375174, 47.9664092157128], [7.23920320960568, 47.9658922002744], [7.23878151032248, 47.9667215879954], [7.23915708336808, 47.9658004075868], [7.23897112148305, 47.96545861376], [7.2387993090951, 47.9648659477207], [7.23892503168621, 47.9636380822207]]], [[[7.237721767194, 47.9652383729673], [7.23543294540032, 47.9657242254564], [7.23498316134322, 47.9662315208788], [7.23642424955122, 47.9664076554838], [7.237721767194, 47.9652383729673]]], [[[7.24062275273019, 47.9673598911948], [7.24095930161022, 47.9676363142571], [7.241666005949, 47.9672762610942], [7.24129546948718, 47.9667965782618], [7.24062275273019, 47.9673598911948]]], [[[7.23878988616251, 47.9676531548826], [7.2394249550679, 47.9681686296733], [7.24043670727609, 47.9678773335286], [7.24001805556914, 47.9673865865943], [7.23878988616251, 47.9676531548826]]], [[[7.24100542269425, 47.9676760154834], [7.24248162433843, 47.9685797241707], [7.24287097473085, 47.968853333957], [7.24374050854496, 47.9685842694473], [7.24347085865371, 47.9680559766807], [7.24269015042815, 47.9677751456555], [7.24184156801536, 47.9673102063234], [7.24100542269425, 47.9676760154834]]], [[[7.24009468737846, 47.9673464194942], [7.24057634326047, 47.9680207249463], [7.24067163047044, 47.9684935839791], [7.24135307726482, 47.9683844459478], [7.24230130528639, 47.9693210081365], [7.24353603945038, 47.9688546348788], [7.24277026287548, 47.968914560091], [7.24066815635474, 47.9674426070396], [7.24009468737846, 47.9673464194942]]], [[[7.23461090532624, 47.9676853694551], [7.23410249269069, 47.9680890599425], [7.23419423042459, 47.9688540465578], [7.23557978035978, 47.9684974990529], [7.23532747057466, 47.9683613190251], [7.23504604600612, 47.9681127240002], [7.23496095364289, 47.9681008314912], [7.23461090532624, 47.9676853694551]]], [[[7.23350991185247, 47.9683632113135], [7.23411206196304, 47.9700910533312], [7.23465566319428, 47.9700551464648], [7.23407481755625, 47.9686931564886], [7.23400829718447, 47.9681613988267], [7.23350991185247, 47.9683632113135]]], [[[7.23714876966768, 47.9698306943174], [7.2357238560006, 47.9684800473064], [7.23424596935506, 47.9689355447859], [7.23472882957991, 47.9696844492622], [7.23542332591541, 47.9697180807296], [7.23598539516902, 47.9699836821422], [7.23714876966768, 47.9698306943174]]], [[[7.23446844030031, 47.9667844138551], [7.23497076330128, 47.9680909248482], [7.23505746139, 47.9681027594581], [7.23534201661756, 47.9683535847637], [7.23556880670706, 47.9683317088914], [7.23638553373249, 47.9687596287036], [7.23721204213775, 47.9699153802751], [7.23775532564119, 47.9701909338159], [7.23899987518272, 47.9716326918159], [7.23945575434003, 47.9719175203936], [7.23986259887987, 47.9717673832498], [7.23947932938051, 47.9719303682353], [7.23978755757883, 47.9721343668787], [7.24014778247315, 47.9720020432675], [7.24052815740836, 47.9721231367866], [7.23988165298067, 47.9721764827413], [7.24038229306342, 47.9726280413801], [7.23895867785602, 47.9716545460755], [7.23858397774796, 47.9711564407895], [7.23802115684797, 47.9715293057559], [7.23913709747712, 47.9724602917101], [7.24007839974633, 47.9739655229085], [7.24160882100809, 47.9736536980796], [7.24154027052379, 47.9733574168211], [7.24208147785458, 47.9728487799334], [7.24121480833232, 47.9726265572129], [7.24194592528436, 47.9717124515354], [7.2393510404925, 47.9701092950662], [7.23905751510385, 47.9702985105533], [7.23826386771978, 47.9696245518807], [7.23829333963581, 47.9692666031116], [7.23766578775466, 47.9691420733964], [7.23810073166348, 47.9687394857521], [7.2362462833399, 47.9673488255252], [7.235463446164, 47.9669551013767], [7.23517347952539, 47.9673096442893], [7.23475611064771, 47.9669887150423], [7.2350424550211, 47.9667986872315], [7.23486179042309, 47.9665917005175], [7.23446844030031, 47.9667844138551]]], [[[7.23604780505375, 47.9700139658253], [7.23767571122817, 47.9712189490203], [7.23799647634182, 47.9715076655184], [7.23855982527134, 47.9711346914888], [7.2373293068072, 47.9700073111385], [7.23604780505375, 47.9700139658253]]], [[[7.23468369672827, 47.9697527668008], [7.23524538304526, 47.9713078557085], [7.23595255051657, 47.972182770346], [7.23753787857553, 47.9712071582601], [7.23597428439381, 47.9700394179545], [7.23571374650893, 47.9705641323447], [7.23594292636711, 47.9700299142683], [7.23468369672827, 47.9697527668008]]], [[[7.23611970764013, 47.9724387283652], [7.23712396227399, 47.9732253281561], [7.2377027783768, 47.9727669063843], [7.2362351168481, 47.9721935797127], [7.23611970764013, 47.9724387283652]]], [[[7.23470598161325, 47.9731340713234], [7.23571421047226, 47.9735424767086], [7.23609047141429, 47.9729424846032], [7.23533551419927, 47.9726550882815], [7.23470598161325, 47.9731340713234]]], [[[7.23621265144072, 47.972719892881], [7.23575459614963, 47.9737722741386], [7.23618202940554, 47.9741880968792], [7.23665629244073, 47.9736069195965], [7.23708843662114, 47.973249320284], [7.23621265144072, 47.972719892881]]], [[[7.23647194211237, 47.9720452597264], [7.23661245789761, 47.9723339009457], [7.23827490055165, 47.9728808198075], [7.23775481678892, 47.9727882807839], [7.23716277215864, 47.9732507848279], [7.23862168035311, 47.9738920085462], [7.2378830081637, 47.9737649085488], [7.23692673719309, 47.9746171697191], [7.23797727166454, 47.9749666233491], [7.23821057124508, 47.9746986550608], [7.23862929192159, 47.974408134935], [7.23773270108705, 47.975558446234], [7.23878513996167, 47.9759162961049], [7.24004352051725, 47.9758436705516], [7.24009145210223, 47.9752939066595], [7.24035212056308, 47.9745296332897], [7.23908964149063, 47.9724844446434], [7.23758008741016, 47.9712315008254], [7.23647194211237, 47.9720452597264]]], [[[7.23711737119826, 47.9732704467829], [7.23620293004929, 47.9742111354875], [7.2368577867502, 47.9746058676742], [7.23785352109205, 47.9737335282103], [7.23711737119826, 47.9732704467829]]], [[[7.24162195198837, 47.9736919766785], [7.24011972633058, 47.9740207183584], [7.24040391037806, 47.9745227171251], [7.24014092711478, 47.9752966271572], [7.24147009773454, 47.9751360847936], [7.24139092030113, 47.9747959372132], [7.2418716172755, 47.9743342778137], [7.24162195198837, 47.9736919766785]]], [[[7.25467071917285, 47.9570649711148], [7.25265877735333, 47.9575876527189], [7.24961276953998, 47.9580740887195], [7.24992203642177, 47.9590393000474], [7.25083660554503, 47.9586767083132], [7.25281696439443, 47.9584117873831], [7.25342252263431, 47.957967535858], [7.25764375724585, 47.9578172826196], [7.25613017587443, 47.9571928777748], [7.25467071917285, 47.9570649711148]]], [[[7.2495518185244, 47.9579682356133], [7.24619002635452, 47.9590185549855], [7.24988919995969, 47.9590431018701], [7.2495518185244, 47.9579682356133]]], [[[7.25347006123098, 47.9579931217592], [7.25290293307267, 47.9584313855617], [7.24995302256069, 47.9590860345452], [7.25018459951211, 47.9595676578478], [7.25308003894376, 47.9590214132497], [7.25374700855233, 47.9583024911428], [7.25391327941121, 47.9581958901883], [7.25425262789331, 47.9581176272122], [7.25347006123098, 47.9579931217592]]], [[[7.2499198328958, 47.9590854330867], [7.25008632933481, 47.9595870758378], [7.25014235024146, 47.9595728818484], [7.2499198328958, 47.9590854330867]]], [[[7.25352745504301, 47.9589153562014], [7.25396146684442, 47.9598055642184], [7.25454225740903, 47.9600537270569], [7.25394208165409, 47.9591462875559], [7.25416645860825, 47.9588609383951], [7.25352745504301, 47.9589153562014]]], [[[7.25217525107825, 47.9592633530231], [7.24996866169322, 47.9596540600713], [7.2485876999517, 47.9594882676672], [7.2476529557923, 47.9598790580504], [7.2505147138519, 47.960163596602], [7.25217525107825, 47.9592633530231]]], [[[7.24759296757031, 47.9590437079397], [7.2461454860781, 47.9590303492862], [7.24446515889267, 47.9600648727187], [7.24474685676059, 47.9604206835617], [7.24505450530419, 47.9603366544145], [7.24629818176489, 47.9595728704572], [7.24759296757031, 47.9590437079397]]], [[[7.25054668583707, 47.9602058792063], [7.24703340132158, 47.9599670735425], [7.24576500795479, 47.9605831449469], [7.24598744241236, 47.9605843864783], [7.24638843661102, 47.9609301130266], [7.24709989308991, 47.9606476260112], [7.24773588808608, 47.9606122789726], [7.25083936993481, 47.9608686917478], [7.25184848330022, 47.9605134864337], [7.25355658435106, 47.9603161811317], [7.25389847414105, 47.9598632721292], [7.25346429594646, 47.9589041250202], [7.25054668583707, 47.9602058792063]]], [[[7.25439567439411, 47.9601398782698], [7.2540624856779, 47.9599306925569], [7.25379016279757, 47.9601838009234], [7.25417014822175, 47.9602254640571], [7.25439567439411, 47.9601398782698]]], [[[7.24709990213024, 47.9592650386996], [7.24494054144544, 47.9605286809573], [7.24300170288264, 47.9611458789962], [7.24492151245265, 47.9608940984367], [7.24626532796807, 47.9601859074584], [7.24870127702139, 47.959417106897], [7.25008632933481, 47.9595870758378], [7.24982841501178, 47.9590664805385], [7.24709990213024, 47.9592650386996]]], [[[7.24818442368259, 47.9607843244324], [7.24904003929006, 47.9610514124917], [7.24937640976073, 47.9609290216325], [7.24818442368259, 47.9607843244324]]], [[[7.24811413020953, 47.960757757008], [7.24634176099004, 47.9609537907199], [7.24585392743092, 47.96059435025], [7.24494120511245, 47.9609238484259], [7.24400864570404, 47.9611750176255], [7.24297449161326, 47.9612936729312], [7.24361405891189, 47.9617920201524], [7.24369977004758, 47.9619507848347], [7.24428408603876, 47.9619887020753], [7.24811413020953, 47.960757757008]]], [[[7.2536245032029, 47.9603666241334], [7.25133220068009, 47.9608384166], [7.24889437366464, 47.9611257169753], [7.24700338788004, 47.962563988207], [7.24936028306064, 47.9624763079751], [7.24975648153563, 47.9629056519527], [7.25049989592519, 47.9626182936223], [7.25114594159366, 47.9625306539443], [7.25227316491651, 47.9616320504508], [7.25250043686168, 47.961094974828], [7.25347737911061, 47.9607235262261], [7.2536245032029, 47.9603666241334]]], [[[7.24296667135271, 47.961299903582], [7.24240015030317, 47.9619885420098], [7.24263872815793, 47.9624745207032], [7.24421769695749, 47.9620041689983], [7.24371469576848, 47.9619729566282], [7.24296667135271, 47.961299903582]]], [[[7.25352215453403, 47.9607464183788], [7.2523975831613, 47.9614919995303], [7.25280445933864, 47.9616646351493], [7.2524082856262, 47.9615618185511], [7.25255292190631, 47.9617639568599], [7.2518526946594, 47.962007317435], [7.25177523246112, 47.9624248714056], [7.25339875586889, 47.962291466195], [7.25409293752974, 47.9632747217941], [7.25372760309037, 47.9634626133495], [7.25447696891752, 47.9636021111778], [7.25462694303169, 47.9627225666238], [7.25510811890932, 47.9618218300197], [7.25560764485028, 47.9614805467982], [7.25537136715226, 47.9608024521684], [7.25447386439782, 47.9601628213936], [7.25418394730157, 47.9602602928652], [7.25370024163908, 47.9603155745976], [7.25352215453403, 47.9607464183788]]], [[[7.24729151690166, 47.9612520950775], [7.24461443560078, 47.9619819010392], [7.24473085766037, 47.9620214935631], [7.24478353288854, 47.9621497280455], [7.2447622162742, 47.9622588267445], [7.24460906936137, 47.9623855773304], [7.2450366968469, 47.9627722531482], [7.2456385336428, 47.9623689173687], [7.24683793502078, 47.9618943147449], [7.24729151690166, 47.9612520950775]]], [[[7.24764265959089, 47.960933967406], [7.24707206594453, 47.9617819363238], [7.24487182584566, 47.9629285375812], [7.24369504502977, 47.9642137706448], [7.24462520302027, 47.9645365981105], [7.2449514175595, 47.9639571225502], [7.2453326781003, 47.9635790644359], [7.24883451329336, 47.961105441681], [7.24816229347476, 47.960786116249], [7.24764265959089, 47.960933967406]]], [[[7.24269813758961, 47.9625528547615], [7.24326234830752, 47.962890893009], [7.24257079948981, 47.9626366727617], [7.24360424234139, 47.9640735751378], [7.24502424110529, 47.9627775699867], [7.24458191783094, 47.9623715980715], [7.24471511953637, 47.9620344092436], [7.24269813758961, 47.9625528547615]]], [[[7.24916645323211, 47.9625055809681], [7.24736683823419, 47.9627993161592], [7.24660221848596, 47.9635003662197], [7.2463394766102, 47.9642135487816], [7.24685081183295, 47.9649862549071], [7.24690209117635, 47.965250985719], [7.24797668509708, 47.9649194966729], [7.2477296940489, 47.9646908636771], [7.24820564318941, 47.964414455506], [7.24777839513001, 47.9639928086656], [7.24823712352107, 47.9636724116564], [7.25133583715165, 47.9636848447633], [7.25202309245296, 47.9634099640726], [7.25148697150331, 47.9624495456177], [7.24961715389896, 47.9629820709904], [7.24916645323211, 47.9625055809681]]], [[[7.24685547850121, 47.9626555845598], [7.24528814744757, 47.9636747627131], [7.24476581030468, 47.9646016327371], [7.24677440807691, 47.9652401009847], [7.24679997599404, 47.9649932299509], [7.24629114845136, 47.964228363831], [7.24626433327947, 47.9639841976743], [7.24690123982755, 47.9630691287984], [7.24750258602528, 47.9627083392038], [7.24685547850121, 47.9626555845598]]], [[[7.2429894696401, 47.9643912083768], [7.24416383253834, 47.9657088294084], [7.24567580634238, 47.9663622862504], [7.24655874746849, 47.9658342402964], [7.24363666947824, 47.9642589586114], [7.24314816097538, 47.9636734124949], [7.2429894696401, 47.9643912083768]]], [[[7.24489075102274, 47.9647005789935], [7.24664983363132, 47.965827162047], [7.2472383337452, 47.9654597203052], [7.24489075102274, 47.9647005789935]]], [[[7.25556283847454, 47.9579305562279], [7.25662088366717, 47.9592127143127], [7.25662583355074, 47.9590087638971], [7.25697519883232, 47.9586359642932], [7.25759002609475, 47.9582974306293], [7.25749655537724, 47.9579690712281], [7.25556283847454, 47.9579305562279]]], [[[7.25397611183824, 47.9582097465396], [7.25353713645069, 47.9588153282996], [7.25442942490974, 47.9588323064045], [7.25503177444171, 47.959086715381], [7.25583268854099, 47.959613131121], [7.25620130783148, 47.9599392710338], [7.25638783352757, 47.9602668721576], [7.25651695848785, 47.9602139760452], [7.25666021866994, 47.9593549467716], [7.25556598133264, 47.9580832931308], [7.25397611183824, 47.9582097465396]]], [[[7.256644616191, 47.9590204301723], [7.257135776208, 47.9597177639906], [7.25730958404058, 47.9603161976756], [7.25778948776515, 47.9601819096539], [7.25758829547429, 47.9583159688687], [7.256644616191, 47.9590204301723]]], [[[7.25732227411696, 47.9603305180569], [7.25795386999064, 47.9611905693941], [7.25912029168747, 47.9607062168752], [7.25826611577442, 47.9590351911035], [7.2578392395071, 47.959136285993], [7.25781190886679, 47.9601920919897], [7.25732227411696, 47.9603305180569]]], [[[7.25431597282061, 47.9594313256325], [7.25457093351936, 47.9601234356808], [7.25534357224101, 47.9606869287377], [7.2563591900733, 47.9621635816677], [7.25706647459733, 47.961816204898], [7.25584295821305, 47.9596791805264], [7.25429109446423, 47.9588507458492], [7.25402987306539, 47.9591534719338], [7.25431597282061, 47.9594313256325]]], [[[7.25674603254234, 47.9593909504648], [7.256542036869, 47.9602255042973], [7.25639529061491, 47.9602845366245], [7.25711406064504, 47.961795554036], [7.25786108064935, 47.9611863628541], [7.257236743317, 47.9602997316822], [7.25708488813164, 47.9597306938323], [7.25674603254234, 47.9593909504648]]], [[[7.25796648062751, 47.9612072358226], [7.25712347072401, 47.9618141390346], [7.2573888836431, 47.9624436791864], [7.25734815065238, 47.9635365587005], [7.25715264530822, 47.9638004985333], [7.25925586789762, 47.9633275220426], [7.25905412938233, 47.9630030001772], [7.2595767183911, 47.9628803160994], [7.25907810921263, 47.962720402287], [7.25952702287362, 47.9625375732836], [7.25905908339916, 47.962431973623], [7.25945660686595, 47.962249205791], [7.25911977600671, 47.9607298481559], [7.25796648062751, 47.9612072358226]]], [[[7.25638213293746, 47.9621952850361], [7.25720016544847, 47.9636604357266], [7.25708701917471, 47.9618564667437], [7.25638213293746, 47.9621952850361]]], [[[7.25521558173286, 47.9622008737716], [7.25590063917677, 47.9633056672844], [7.25574676423883, 47.9640495383886], [7.25683569677774, 47.9641362520882], [7.25705885520289, 47.963591835987], [7.25610305453323, 47.961873200914], [7.25561494829026, 47.9615313825309], [7.25521558173286, 47.9622008737716]]], [[[7.2547016437088, 47.9628072808901], [7.25451764802145, 47.9643175732131], [7.25441216236303, 47.9644226932759], [7.25570300458783, 47.9640510337826], [7.25581951270592, 47.9635051672691], [7.2551652837213, 47.9622145022737], [7.2547016437088, 47.9628072808901]]], [[[7.26068174566277, 47.9645556614239], [7.25805026707095, 47.9651400099434], [7.25912375530849, 47.9658839072788], [7.25945813760539, 47.9662507537921], [7.2605743067241, 47.9664268414288], [7.26039803598268, 47.9652745088903], [7.26068174566277, 47.9645556614239]]], [[[7.26336419660465, 47.9661629385845], [7.26273563443205, 47.966074628015], [7.26189971967074, 47.965609007361], [7.26258859641691, 47.9662752633212], [7.26336419660465, 47.9661629385845]]], [[[7.25795376199244, 47.9666541666866], [7.25810532398159, 47.9662023786262], [7.2578246229538, 47.9658488136747], [7.25693557762286, 47.9664816230997], [7.25795376199244, 47.9666541666866]]], [[[7.25780338443992, 47.9657264741819], [7.25820174827303, 47.9662483611592], [7.25800785463775, 47.967544252466], [7.25880785401543, 47.9678319457508], [7.25982252802645, 47.9676683488079], [7.2597856779415, 47.9672067180862], [7.25871595068783, 47.967391507477], [7.25984243212647, 47.9665039453753], [7.25941358580478, 47.9662758016082], [7.25796491196549, 47.9651766303015], [7.25780338443992, 47.9657264741819]]], [[[7.26415725345753, 47.9663475655021], [7.26540990917132, 47.9666185108108], [7.26516389185748, 47.967146470536], [7.2655731458561, 47.9675808795309], [7.26547185545239, 47.9679346007153], [7.26692638069551, 47.9680937464127], [7.26708784744182, 47.9671826709598], [7.26619772236544, 47.9669094814291], [7.26624158238633, 47.9665675784955], [7.26457266865765, 47.9658584297815], [7.26428047121683, 47.9658593948066], [7.26415725345753, 47.9663475655021]]], [[[7.26330934158547, 47.967318970918], [7.26356619046793, 47.9668553319088], [7.26292703669208, 47.9666738575645], [7.26288544149961, 47.9671425711802], [7.26330934158547, 47.967318970918]]], [[[7.26051467419122, 47.9652865005522], [7.26143501077714, 47.9667201558424], [7.26082774770798, 47.9659506249616], [7.26063433810211, 47.9664257454385], [7.26037418723671, 47.9666083099074], [7.26069429017373, 47.9668157909713], [7.26027984609305, 47.967128953741], [7.26086022948672, 47.9674924618164], [7.26030972577879, 47.9673169503096], [7.25984692289742, 47.9677781364084], [7.26073516254786, 47.9680131388827], [7.26182349196247, 47.9689903473425], [7.26349638651105, 47.9688527652577], [7.26392687698577, 47.9690775008863], [7.26333151895948, 47.9684700435271], [7.26307757980559, 47.9681211063044], [7.2625501566072, 47.9683277047123], [7.26184542958491, 47.9684823331469], [7.26154142015892, 47.9682682327339], [7.26256143729941, 47.96829611241], [7.26222496584714, 47.9675367689437], [7.26191536423687, 47.9676234364576], [7.26221166625922, 47.9674915585733], [7.26209129747097, 47.9665324986121], [7.261487454685, 47.9654068559822], [7.26051467419122, 47.9652865005522]]], [[[7.26385868093685, 47.9656140671116], [7.26319187548159, 47.9665646584132], [7.26284983328652, 47.9665766214855], [7.2635989948437, 47.9668277347774], [7.26383019583536, 47.9669992305982], [7.26413748387924, 47.9674407701505], [7.26380598753885, 47.967041927014], [7.26337943474275, 47.9675879712093], [7.26279670703624, 47.9675474750325], [7.26388867585533, 47.9680759853648], [7.26302062348238, 47.96797699194], [7.26406863749822, 47.9691147134287], [7.2650142332091, 47.9683096417166], [7.26541440624175, 47.9681461357885], [7.26410457425926, 47.9663583100743], [7.26424327002824, 47.9657689987351], [7.26385868093685, 47.9656140671116]]], [[[7.25616949575048, 47.9662532521912], [7.25593655327016, 47.9668181170791], [7.25681370646297, 47.9674583861018], [7.25658464059289, 47.9676271975767], [7.25690755994094, 47.9679633733762], [7.25672078857756, 47.9682226686376], [7.2573038056107, 47.9685673523828], [7.25676452065284, 47.9693615098705], [7.25844400655548, 47.969506029571], [7.25889012681282, 47.9685815876856], [7.25768203997939, 47.9673691456651], [7.25810042934011, 47.9668260336543], [7.25684966049337, 47.9664812219615], [7.2578013233758, 47.9658160420138], [7.25759986210594, 47.9654081433888], [7.25616949575048, 47.9662532521912]]], [[[7.25977573540561, 47.9677973909367], [7.25984700643087, 47.9679544159176], [7.26004428127172, 47.9678910242342], [7.25977573540561, 47.9677973909367]]], [[[7.2667119664669, 47.968132537632], [7.26616645468215, 47.9681910144758], [7.26583313105241, 47.968479711433], [7.26670605666363, 47.9685623752784], [7.2667119664669, 47.968132537632]]], [[[7.25807214036329, 47.9676695375737], [7.25895682542679, 47.9685849373569], [7.25854155867354, 47.9694791510235], [7.26044807330045, 47.9693409843989], [7.26233587970073, 47.9696642696556], [7.26386155515134, 47.9691162821411], [7.2619889553662, 47.9690703224135], [7.26161823850711, 47.9689462429989], [7.26060448804866, 47.9680870038154], [7.2601801044213, 47.9684252200957], [7.25953553691376, 47.9679044265867], [7.25969684433052, 47.9677792529514], [7.25867964188889, 47.9678880549065], [7.25807214036329, 47.9676695375737]], [[7.25945630405148, 47.9680305893052], [7.25916268115979, 47.9681024302816], [7.25939692117171, 47.9678344698739], [7.25945630405148, 47.9680305893052]]], [[[7.26502351463381, 47.9683982573937], [7.26419105696517, 47.9691283844998], [7.26466472856809, 47.9695060229455], [7.26619583500961, 47.9681042391422], [7.26502351463381, 47.9683982573937]]], [[[7.26332927065987, 47.9693959705431], [7.26390311113124, 47.9695475499666], [7.26406097356711, 47.969994873828], [7.26457185900856, 47.9694976783755], [7.26409718998456, 47.9691643267633], [7.26332927065987, 47.9693959705431]]]]}}]}