{"type": "FeatureCollection", "features": [{"type": "Feature", "properties": {"id": "AOC-Alsace-Wolxheim", "name": "Alsace Wolxheim", "tier": "denomination"}, "geometry": {"type": "MultiPolygon", "coordinates": [[[[7.49870845696356, 48.5682292801873], [7.49877996182924, 48.5697437741808], [7.5010207146887, 48.5692541591204], [7.50116375410193, 48.5689377598872], [7.50168689772301, 48.5683716657633], [7.50102417699525, 48.5681291674413], [7.501394213584, 48.5675634664236], [7.50081709287572, 48.5673880035219], [7.50016972095952, 48.5674091396499], [7.50007119392324, 48.5679875318906], [7.49947178215712, 48.5683487793503], [7.49870845696356, 48.5682292801873]]], [[[7.49770001478561, 48.5706939391628], [7.49814380952029, 48.570308183588], [7.49711012535584, 48.5705739472459], [7.49717896376652, 48.5705882363418], [7.49770001478561, 48.5706939391628]]], [[[7.4963631612545, 48.5715793435677], [7.49819422832419, 48.5720703923319], [7.49830885322377, 48.5718069712491], [7.4991135019661, 48.571842738949], [7.49928713291903, 48.5708584883595], [7.49964751582462, 48.5696967414179], [7.49853122513763, 48.5699299659661], [7.4979426399198, 48.5706688096794], [7.49754013632582, 48.5707293168378], [7.49707976676017, 48.5706519964301], [7.4963631612545, 48.5715793435677]]], [[[7.49796939995205, 48.5728288489937], [7.49988608575708, 48.5733201472819], [7.50051384570461, 48.5723973592787], [7.50099823304191, 48.5724932192039], [7.50201431974312, 48.5693942491498], [7.50102431585317, 48.5693055151901], [7.49971268166889, 48.5696777858798], [7.49915418565918, 48.5718895827435], [7.49835521753905, 48.5718677910735], [7.49796939995205, 48.5728288489937]]], [[[7.49645505464737, 48.5737634046228], [7.49733997153072, 48.5722489513891], [7.4970428474147, 48.5721376125041], [7.49720066305724, 48.5718743155119], [7.49632403060372, 48.5716074484534], [7.49465218597182, 48.5731932804409], [7.49645505464737, 48.5737634046228]]], [[[7.49822105159398, 48.5721076246994], [7.49711024940373, 48.5720924900043], [7.49740213296379, 48.5721902417046], [7.49648709947167, 48.5739040997192], [7.4969766227938, 48.5738700379655], [7.4971022417092, 48.5733125220228], [7.49768998493784, 48.5734119181393], [7.49822105159398, 48.5721076246994]]], [[[7.49993510492531, 48.5733312658898], [7.50118755333718, 48.5736717240939], [7.50178492284666, 48.5735655775767], [7.50225692423605, 48.5730389934061], [7.50059541702985, 48.5724649542334], [7.49993510492531, 48.5733312658898]]], [[[7.49612804562335, 48.5739111948695], [7.49451511907235, 48.5731623785318], [7.49338158311003, 48.5742444011095], [7.4935678517598, 48.5742600645263], [7.49368319947197, 48.5742704350733], [7.49366620906914, 48.5754357954611], [7.49443459424377, 48.5747418988741], [7.49302268172436, 48.576258944476], [7.49458298638467, 48.5764399820333], [7.49573739243365, 48.5771466761001], [7.49571636976768, 48.5758032744369], [7.496010143875666, 48.57510244998643], [7.49717082831208, 48.5746560199947], [7.4970120790572, 48.5738939695446], [7.49612804562335, 48.5739111948695]], [[7.49437747982377, 48.5743297349388], [7.494392541886979, 48.574332003559206], [7.49417035410525, 48.5743131044313], [7.49437747982377, 48.5743297349388]], [[7.49478734953255, 48.574400506927], [7.494762820252225, 48.574396294646], [7.494879619672996, 48.57441664984279], [7.49478734953255, 48.574400506927]], [[7.49599867161222, 48.57509909717039], [7.4952991733114, 48.5748948099701], [7.495357829656192, 48.574560551413946], [7.49529930864754, 48.5748948048518], [7.49599867161222, 48.57509909717039]]], [[[7.49844305005189, 48.5764665947281], [7.49603108872605, 48.5766629952397], [7.49600789919914, 48.5772766399905], [7.4976158940007, 48.5775965711076], [7.49903377572286, 48.5782825440417], [7.4989224722146, 48.5770445509638], [7.49844305005189, 48.5764665947281]]], [[[7.50107310440491, 48.5691766257393], [7.50426949422378, 48.5696691151724], [7.5049420894334, 48.5684972704892], [7.50246538365331, 48.5680659272214], [7.50277214602589, 48.5676360125861], [7.5015856419356, 48.5672888869919], [7.50105512218363, 48.5681290766801], [7.50173510172615, 48.5683733538229], [7.50107310440491, 48.5691766257393]]], [[[7.50709638719093, 48.5695212658816], [7.50662434087575, 48.5698477164769], [7.50650606938783, 48.5704088889842], [7.5103846622445, 48.5706111284447], [7.51030022640376, 48.5701227864113], [7.5105413537517, 48.56947531432], [7.51035260481007, 48.5690951327018], [7.50709638719093, 48.5695212658816]]], [[[7.51317772539146, 48.5698010944217], [7.51055978963839, 48.5695569220317], [7.51046509350512, 48.5706511894544], [7.51179837325354, 48.5707620902714], [7.51183737391281, 48.5710728101083], [7.51231580370933, 48.5711277644251], [7.51280134518703, 48.571076217562], [7.5128549507646, 48.5708003647046], [7.51390113718876, 48.5708409165804], [7.5141990630469, 48.5702243909423], [7.51394266764265, 48.5701558760378], [7.51420855004323, 48.5702163269463], [7.51441255808101, 48.56971563368], [7.51322636512627, 48.569642471147], [7.51305672414101, 48.5703203475607], [7.51386799797802, 48.5703810368806], [7.51326950365175, 48.5703648417672], [7.51196111795309, 48.5702024658611], [7.51303942960079, 48.5703181660802], [7.51317772539146, 48.5698010944217]]], [[[7.50649822797995, 48.5704360813936], [7.50596843539939, 48.57144506871], [7.5085918084185, 48.5714489744399], [7.5098228926835, 48.5716026981352], [7.51065518546281, 48.5717842486862], [7.51037452769509, 48.5706636815439], [7.50649822797995, 48.5704360813936]]], [[[7.51069408619936, 48.571550311834], [7.51067084486014, 48.5717863574289], [7.51088575008137, 48.5718176656288], [7.51069408619936, 48.571550311834]]], [[[7.50557441663647, 48.5728912540918], [7.50641021352613, 48.5726403537272], [7.50594307813956, 48.5714864401962], [7.50498602724337, 48.5722307748081], [7.50557441663647, 48.5728912540918]]], [[[7.5072076889077, 48.5725121308297], [7.50954818844044, 48.5730236951654], [7.51003951372697, 48.5722921299224], [7.51065479324936, 48.5718175108289], [7.50595522283317, 48.5714808440364], [7.50642250920531, 48.572636508771], [7.5072076889077, 48.5725121308297]]], [[[7.51093831024558, 48.5718604059596], [7.5095621313591, 48.5730247879785], [7.50988086803792, 48.5730130999516], [7.51112825353385, 48.5732940461345], [7.51109656881839, 48.5721134848419], [7.51093831024558, 48.5718604059596]]], [[[7.51112813989331, 48.5733258110116], [7.50929789002374, 48.5730354889056], [7.5088482476214, 48.5737215447011], [7.51013943331304, 48.5739859733723], [7.51037546390554, 48.5737092824889], [7.51015366668586, 48.5739904338834], [7.51069796007297, 48.5740058648872], [7.51112813989331, 48.5733258110116]]], [[[7.50740774757726, 48.5725602264505], [7.50557507577238, 48.5729556960543], [7.50493852576035, 48.5722609569054], [7.5001600876839, 48.5766446018394], [7.50188573066218, 48.5771482405518], [7.5031565986421, 48.5764705729548], [7.50322070091618, 48.5771019988413], [7.50455476252487, 48.5773102644521], [7.50518461943415, 48.5761708630378], [7.50438888008108, 48.5761116855137], [7.50421809579083, 48.5763660229177], [7.50444601707557, 48.5760182938082], [7.5046823487469, 48.5760806971562], [7.50515850217525, 48.5754131181181], [7.50389963340956, 48.5748284557504], [7.50506499708282, 48.5739055432757], [7.50605365524125, 48.574486633971], [7.50640142790247, 48.573635145115], [7.50883534845846, 48.5737183849387], [7.50928658014705, 48.5730318634474], [7.50740774757726, 48.5725602264505]]]]}}]}