{"type": "FeatureCollection", "features": [{"type": "Feature", "properties": {"id": "AOC-Alsace-Rodern", "name": "Alsace Rodern", "tier": "denomination"}, "geometry": {"type": "MultiPolygon", "coordinates": [[[[7.34758722757072, 48.2239708885338], [7.34591607258538, 48.2241394780218], [7.34464235558906, 48.2237650787097], [7.34429139743811, 48.2243681511965], [7.34749156858716, 48.2246390936327], [7.34758722757072, 48.2239708885338]]], [[[7.34867486622293, 48.2246362419706], [7.34792068534391, 48.2245441694975], [7.34790127673233, 48.2245949878175], [7.34804893317713, 48.2246029764736], [7.34867486622293, 48.2246362419706]]], [[[7.34432798295555, 48.2246680558296], [7.34517034918173, 48.2247616812742], [7.34521048897764, 48.2245500579548], [7.34443360428532, 48.2244327562245], [7.34432798295555, 48.2246680558296]]], [[[7.34519460477882, 48.2246731075606], [7.34520639195261, 48.224969869682], [7.34687118590213, 48.2249396705247], [7.34624017705896, 48.2246355191392], [7.34519460477882, 48.2246731075606]]], [[[7.34787969039122, 48.2246521042161], [7.34698504161882, 48.2246277384192], [7.34689886123772, 48.2250937378321], [7.34858360932318, 48.2250862997195], [7.34863535140626, 48.2246509443658], [7.34787969039122, 48.2246521042161]]], [[[7.34620181154802, 48.2270635213909], [7.3470189907474, 48.2270392920554], [7.34696953327508, 48.2264935805307], [7.34618666713333, 48.2265772834328], [7.34620181154802, 48.2270635213909]]], [[[7.34919844121069, 48.2265605369957], [7.34824010926379, 48.2272212297352], [7.34927791472895, 48.2270790996349], [7.34919844121069, 48.2265605369957]]], [[[7.34635746555438, 48.227194583934], [7.34643434544185, 48.227489039355], [7.34803410879538, 48.2272793708317], [7.34809711842894, 48.2269183963093], [7.34635746555438, 48.227194583934]]], [[[7.34621636393265, 48.2275311274104], [7.34619020780819, 48.2271010755095], [7.34458200172694, 48.2269972534191], [7.34477413463492, 48.2277885009146], [7.34621636393265, 48.2275311274104]]], [[[7.34917762938506, 48.2271696641448], [7.34653115227888, 48.2275900975289], [7.34644063570454, 48.2280265173771], [7.34932011260893, 48.2281641406599], [7.34917762938506, 48.2271696641448]]], [[[7.3471522552002, 48.2281530595747], [7.34639884056129, 48.2280724822245], [7.3463400053475, 48.2282847036534], [7.3469370478118, 48.2284217732601], [7.3471522552002, 48.2281530595747]]], [[[7.34938526756237, 48.228339174894], [7.34717528920219, 48.2281576182584], [7.34682212650635, 48.2286505683185], [7.34854690600311, 48.2287738582163], [7.34938526756237, 48.228339174894]]], [[[7.34637444941778, 48.2285911743895], [7.34680904032538, 48.2286488873979], [7.34691552963331, 48.2284290537479], [7.34633347049266, 48.228293775389], [7.34637444941778, 48.2285911743895]]], [[[7.34646257470925, 48.2275974884623], [7.34232864014586, 48.228448983033], [7.34266486447691, 48.2291593270667], [7.34401098494804, 48.2286696901247], [7.34397483804076, 48.229286586551], [7.34534190350684, 48.2293504531329], [7.34580254109562, 48.2292987143821], [7.34606425192231, 48.2288872633216], [7.34756297939242, 48.2292965297927], [7.3497981131154, 48.2305944770407], [7.35075501689516, 48.2300434060539], [7.34975689578889, 48.2294871433229], [7.34946159139654, 48.2297608852129], [7.34968506887315, 48.2298294291829], [7.34943678958768, 48.2297627000495], [7.34974219774252, 48.2294822779988], [7.3492586300356, 48.2293182429217], [7.34902666474246, 48.2289490302195], [7.34901268488217, 48.2286586572361], [7.34845759229455, 48.2288601428246], [7.34427393435024, 48.2286380269774], [7.34621043436931, 48.2285664836224], [7.34646257470925, 48.2275974884623]]], [[[7.34873415807142, 48.2246830799608], [7.34860764513222, 48.2251226314984], [7.34989033202246, 48.2251963987202], [7.34975075285832, 48.2246963610566], [7.34873415807142, 48.2246830799608]]], [[[7.35407741514819, 48.2272766113461], [7.35522686055907, 48.2282751249846], [7.35852088230456, 48.2282875626184], [7.35842933327296, 48.2274251209054], [7.3549962023548, 48.227112596653], [7.35407741514819, 48.2272766113461]]], [[[7.35072497851315, 48.2271617626145], [7.34925574989929, 48.2271422751599], [7.34946410529529, 48.2284822552015], [7.35110237080426, 48.2280084446995], [7.35072497851315, 48.2271617626145]]], [[[7.35091133480145, 48.227372160096], [7.35138209149417, 48.2282927184498], [7.35222324101058, 48.2278268215307], [7.3523445028146, 48.2277796370058], [7.35243298534763, 48.2277748430378], [7.35139134037684, 48.2283034616027], [7.35193178340997, 48.2289309213034], [7.35365966372094, 48.2278668571992], [7.35324579911309, 48.2273775684381], [7.35091133480145, 48.227372160096]]], [[[7.35337377086476, 48.2272957116633], [7.35378434979164, 48.2279084877399], [7.35314424641298, 48.2282724534614], [7.35381602925647, 48.2285450585599], [7.35363085775361, 48.2286822825265], [7.35466314592692, 48.2297594659414], [7.35543456761317, 48.2298746523886], [7.35621011311405, 48.2295126162169], [7.35666696037227, 48.229986161439], [7.35723790256943, 48.2297318755221], [7.35726574053246, 48.2292659476034], [7.35726442857235, 48.2297166584656], [7.35841691847731, 48.2289434699076], [7.35787295097681, 48.2283722183829], [7.35645145711907, 48.2283808849439], [7.35654294107289, 48.228931262554], [7.35640962489059, 48.2292503208714], [7.35642097411933, 48.2283775941641], [7.35508713730047, 48.2282882093669], [7.3539507510033, 48.2272208160187], [7.35337377086476, 48.2272957116633]], [[7.35681567511475, 48.2298321650684], [7.35667129859487, 48.229836321333], [7.3568966744762, 48.2298298067702], [7.35681567511475, 48.2298321650684]]], [[[7.35108118511342, 48.2280736571313], [7.35037392953855, 48.2283628541167], [7.35131768049998, 48.2294091734607], [7.3518926500999, 48.2289666071949], [7.35108118511342, 48.2280736571313]]], [[[7.34910188952646, 48.2286250027485], [7.34928903237218, 48.2292715252654], [7.35080473589297, 48.2298843248777], [7.35129821275012, 48.2294233179635], [7.35028777057806, 48.2283157452719], [7.34947007384064, 48.2284941105953], [7.34961929610734, 48.2287056076086], [7.34929337169675, 48.2289383942235], [7.34959308646952, 48.2287017971811], [7.34910188952646, 48.2286250027485]]], [[[7.35286311035186, 48.2283794217675], [7.35178882826899, 48.229141741147], [7.35227233163995, 48.2296266649911], [7.35239354351021, 48.2299120036532], [7.35272082754681, 48.2297986496199], [7.35187624415835, 48.2302134902146], [7.35334766684379, 48.2305033900535], [7.35407178139993, 48.2299462756277], [7.35300704620542, 48.2300503292902], [7.35460824966541, 48.2298279950704], [7.35345935618205, 48.2285719087358], [7.35286311035186, 48.2283794217675]]], [[[7.35062540142879, 48.2302198496004], [7.3515741992739, 48.2304006160123], [7.35212974131802, 48.2300346413572], [7.35238226147379, 48.2299158438998], [7.35154535390955, 48.2292524542636], [7.35062540142879, 48.2302198496004]]]]}}]}