{"type": "FeatureCollection", "features": [{"type": "Feature", "properties": {"id": "AOC-Alsace-Ottrott", "name": "Alsace Ottrott", "tier": "denomination"}, "geometry": {"type": "MultiPolygon", "coordinates": [[[[7.43214461229905, 48.4543316153001], [7.43362116496334, 48.4538337808951], [7.43303837119983, 48.4530250320944], [7.43178641121852, 48.4540984775639], [7.43214461229905, 48.4543316153001]]], [[[7.43608942944743, 48.4547706889735], [7.43434007536796, 48.4537717588695], [7.43377799588156, 48.4538671125117], [7.43505467607893, 48.4549327913504], [7.43608942944743, 48.4547706889735]]], [[[7.4322194666257, 48.4543662558619], [7.43381763206649, 48.455293153938], [7.43490108671734, 48.4549715136995], [7.43366515585506, 48.4538830901666], [7.4322194666257, 48.4543662558619]]], [[[7.43434665690794, 48.4562346057507], [7.43608530327702, 48.4565435579572], [7.43238380837864, 48.4545221657901], [7.4315987478478, 48.4546527390218], [7.43257306612085, 48.456218872479], [7.43434665690794, 48.4562346057507]]], [[[7.43516668713211, 48.4550752470323], [7.43678732309042, 48.4564928317276], [7.43799229091124, 48.4560894429745], [7.43624960082814, 48.4547761853659], [7.43516668713211, 48.4550752470323]]], [[[7.43408672079247, 48.4552602511594], [7.43620411539153, 48.4565741189869], [7.43662934286172, 48.4564892812438], [7.43494565244385, 48.4550083666278], [7.43408672079247, 48.4552602511594]]], [[[7.43343684538571, 48.4570965902601], [7.43553730245909, 48.4567432735231], [7.4359665037534, 48.456657343529], [7.43321502776588, 48.4562750231589], [7.43343684538571, 48.4570965902601]]], [[[7.43644486657457, 48.4566770222623], [7.43695170398348, 48.4569372937403], [7.43644572508851, 48.456658338537], [7.43644486657457, 48.4566770222623]]], [[[7.43757361170723, 48.4571837963997], [7.43725689714585, 48.4571053626867], [7.43708892121266, 48.4570365006471], [7.43723388251183, 48.4575348053599], [7.43748008578956, 48.4575723572297], [7.43757361170723, 48.4571837963997]]], [[[7.43710122525429, 48.4575039523621], [7.43697876684064, 48.4569785852097], [7.43632400660243, 48.4566799217436], [7.43363319012805, 48.4572030513797], [7.43322252584592, 48.4579846042068], [7.43427002976429, 48.4580062618397], [7.43614762007265, 48.4575593608226], [7.43710122525429, 48.4575039523621]]], [[[7.43714713798247, 48.4575662987201], [7.43584413002822, 48.4577142492782], [7.436593604339, 48.4583206375262], [7.43708641495617, 48.4582803048786], [7.43714713798247, 48.4575662987201]]], [[[7.43703661640719, 48.458301765751], [7.43662685710073, 48.4583726451506], [7.43580510088324, 48.4577573373132], [7.43422235665406, 48.4580384545283], [7.43434751156877, 48.4585960246547], [7.43576753869702, 48.4583128834126], [7.43632631948614, 48.4593987770114], [7.43703661640719, 48.458301765751]]], [[[7.43665154002789, 48.4597458563433], [7.43652232803091, 48.460255633783], [7.43733159084641, 48.4604487710964], [7.43731640339788, 48.460110637685], [7.43735945783091, 48.459730724226], [7.43665154002789, 48.4597458563433]]], [[[7.43862291074521, 48.4534462282537], [7.43808422984033, 48.4547213233111], [7.43879453829283, 48.455297267186], [7.44032411957848, 48.4539185713925], [7.44014069333388, 48.4534557682582], [7.43862291074521, 48.4534462282537]]], [[[7.44092797012519, 48.455113860382], [7.44074722099179, 48.4545675660018], [7.44098370274919, 48.4538710297101], [7.44052686461336, 48.4538989503846], [7.43896397262282, 48.4553545838472], [7.43991789415901, 48.4559036965899], [7.44064238335438, 48.455648018624], [7.44092797012519, 48.455113860382]]], [[[7.44027944943929, 48.4578469612834], [7.4403958059762, 48.4564462985719], [7.43980701641291, 48.4559669114383], [7.43691277541538, 48.4566211321871], [7.43726640703155, 48.4570736505207], [7.44027944943929, 48.4578469612834]]], [[[7.43725608181295, 48.4575522208752], [7.43726244930488, 48.4579158240484], [7.43747221015762, 48.4575849511728], [7.43725608181295, 48.4575522208752]]], [[[7.44319924874522, 48.4581227998871], [7.44206664101002, 48.457600137816], [7.44217835785508, 48.4573740252887], [7.44051509372108, 48.4569242071297], [7.44047725387998, 48.4578744253986], [7.44131755475565, 48.4583576359833], [7.44264563004231, 48.4586640302874], [7.44319924874522, 48.4581227998871]]], [[[7.44190896821955, 48.458574713608], [7.4377182902791, 48.4572174427705], [7.43727756541654, 48.4581329956068], [7.439013655369, 48.4588142244553], [7.4400875784472, 48.4594070959202], [7.44060331796115, 48.4598200169703], [7.44306822684875, 48.4604628152313], [7.44511658861431, 48.4604530062672], [7.44507912542124, 48.4595167808091], [7.44190896821955, 48.458574713608]], [[7.44364016999763, 48.4597538886417], [7.44363936733882, 48.4597540088212], [7.44363010079332, 48.4597213777324], [7.44364016999763, 48.4597538886417]]], [[[7.43619766642531, 48.4596220020301], [7.43811776144428, 48.459547324764], [7.43851842812852, 48.4586819253169], [7.43720335795786, 48.4583271537457], [7.43619766642531, 48.4596220020301]]], [[[7.4405947507049, 48.4598580464602], [7.43861681918601, 48.4587112210523], [7.43824351643805, 48.4595061263976], [7.4377991360706, 48.4596771044495], [7.438025567511538, 48.45988677366788], [7.43735945783091, 48.459730724226], [7.43733159464492, 48.4604488160064], [7.43767976776079, 48.4606634818555], [7.43770159024953, 48.4603400922681], [7.438324511015742, 48.46016586026517], [7.43952957599746, 48.4613859076449], [7.44059992598693, 48.4615901542455], [7.44211679565474, 48.4614805037974], [7.44498001087822, 48.4609852374554], [7.44508999969349, 48.4608683040807], [7.44511351582841, 48.4604934883334], [7.44306447730176, 48.4605001238276], [7.4405947507049, 48.4598580464602]], [[7.44356441235394, 48.4606108737141], [7.44350002963666, 48.4610839470705], [7.443526065501609, 48.46119541360141], [7.44349883322514, 48.4610842171575], [7.44356441235394, 48.4606108737141]], [[7.44356514848851, 48.460605169545], [7.443565673064107, 48.460601612565426], [7.443564570099325, 48.46060965137461], [7.44356514848851, 48.460605169545]], [[7.43830704457146, 48.4601273606986], [7.43831578719615, 48.460146631206996], [7.4381853672124985, 48.46002460037529], [7.43830704457146, 48.4601273606986]]]]}}]}