{"type": "FeatureCollection", "features": [{"type": "Feature", "properties": {"id": "AOC-Alsace-Scherwiller", "name": "Alsace Scherwiller", "tier": "denomination"}, "geometry": {"type": "MultiPolygon", "coordinates": [[[[7.4309907307071, 48.2812864629998], [7.43282124656684, 48.2815623736972], [7.43303328336246, 48.280520879956], [7.43209028553252, 48.2808326804589], [7.4309907307071, 48.2812864629998]]], [[[7.42791632847011, 48.2825222818486], [7.42942263940186, 48.2817705026259], [7.43150256802472, 48.2810009786385], [7.42976666162496, 48.2805494259919], [7.42938679728522, 48.2817633300617], [7.42968725481344, 48.2806887927178], [7.42816678760015, 48.280419466204], [7.42790647627129, 48.2814804641757], [7.42750994207442, 48.2814419272408], [7.42709132159234, 48.2823112293581], [7.42791632847011, 48.2825222818486]]], [[[7.43715440966426, 48.2830044134183], [7.43752721844903, 48.2815454026103], [7.4375950958846, 48.2815001387455], [7.4382092103202, 48.2815297952642], [7.43830150196688, 48.2814714483917], [7.43824586041762, 48.280268457462], [7.43495425675252, 48.2802071134039], [7.43528858469392, 48.2817189255568], [7.43505524106297, 48.2827474357778], [7.43715440966426, 48.2830044134183]]], [[[7.42972736773151, 48.2818780336561], [7.43180450040847, 48.282239743509], [7.4319335240943, 48.2825166070915], [7.43192448074947, 48.2825968338938], [7.43236236567642, 48.2826067708589], [7.43269673228861, 48.2815700179028], [7.43088269366365, 48.281331065813], [7.42972736773151, 48.2818780336561]]], [[[7.43357887973493, 48.2802998139947], [7.43151594583644, 48.2849374092182], [7.43228055373805, 48.28487778244], [7.43278645699804, 48.2826308761375], [7.43498911926296, 48.2828135840875], [7.43511570698649, 48.2815034576521], [7.43306439339588, 48.2815541993908], [7.43496692185913, 48.2814778160678], [7.43487384779166, 48.2802045888534], [7.43357887973493, 48.2802998139947]], [[7.43270714669327, 48.2823383609728], [7.43270556621863, 48.2823628867131], [7.43269843649054, 48.2823551788781], [7.43270714669327, 48.2823383609728]]], [[[7.43180112971462, 48.2822574424964], [7.42971009777396, 48.2820434575556], [7.4295311608466, 48.281813475554], [7.42780091517025, 48.2826815146059], [7.42766932061227, 48.283380424375], [7.42967991620822, 48.2835670477188], [7.42915733118319, 48.2847218190189], [7.4313177766443, 48.2849122627592], [7.43233346195971, 48.2826194798221], [7.43190323731088, 48.2826091203066], [7.43180112971462, 48.2822574424964]]], [[[7.43261161558982, 48.2835466125231], [7.43225405031495, 48.2849863744969], [7.43491402354787, 48.2851148986281], [7.4374153947771, 48.2855577853359], [7.43807801482539, 48.2848889360003], [7.43764629178749, 48.2841114048353], [7.43754386648466, 48.2831749792825], [7.4372874316374, 48.2830640322953], [7.43281841457607, 48.2826448169259], [7.43261161558982, 48.2835466125231]]], [[[7.43291798922645, 48.2871948096853], [7.43505954643189, 48.2863422221214], [7.4373365664207, 48.2855837245163], [7.43494851621214, 48.2851492901774], [7.43162927359783, 48.2850373785857], [7.43118598709692, 48.2861184896571], [7.43291798922645, 48.2871948096853]]], [[[7.43902665055935, 48.2851431229472], [7.43512265491209, 48.2863989248606], [7.43267877377797, 48.2873413879034], [7.43438648877692, 48.2887536937559], [7.43604844214672, 48.2896218642236], [7.43803059835913, 48.2873151967073], [7.43902851651954, 48.2866160447981], [7.43978212218141, 48.2854843118251], [7.43902665055935, 48.2851431229472]]], [[[7.44059214740066, 48.2791486619119], [7.43922671201129, 48.2792628192034], [7.43914580800067, 48.2802247875883], [7.44066775482005, 48.2800931261042], [7.44059214740066, 48.2791486619119]]], [[[7.43467196072679, 48.280135115741], [7.43908352756149, 48.2802259104988], [7.43915936640544, 48.2797659009962], [7.4345615322493, 48.2796174870995], [7.43467196072679, 48.280135115741]]], [[[7.44325701145692, 48.2829089558712], [7.44589252927069, 48.2807100286064], [7.44322565403429, 48.2801760871759], [7.4432865653992, 48.2795444218324], [7.44215005517929, 48.2798804783184], [7.44220608748424, 48.2810630449893], [7.44209094295823, 48.2815369704532], [7.44207614502057, 48.279911778469], [7.43970857858718, 48.2802797497127], [7.43987528611196, 48.2808397333405], [7.43974538197272, 48.281662420041], [7.43950125887193, 48.2822690623046], [7.44325701145692, 48.2829089558712]]], [[[7.43909317137096, 48.2831697838489], [7.43982698793634, 48.2807761233471], [7.43966462613387, 48.2802820768131], [7.4383136396399, 48.2802701023185], [7.43835484428429, 48.2814699857609], [7.43829219383226, 48.2815676366385], [7.4375672167015, 48.2815682320841], [7.43724856205511, 48.2828767885198], [7.43909317137096, 48.2831697838489]]], [[[7.4486941851463, 48.2835046473723], [7.44850863612487, 48.2825455340932], [7.44890228458718, 48.2819504079422], [7.44636908964704, 48.2811204694931], [7.44491888400848, 48.2818814487654], [7.44765119722919, 48.2826229548772], [7.44514197675172, 48.2820339159731], [7.44476625936281, 48.2818104097201], [7.44375512674174, 48.2826150112964], [7.4486941851463, 48.2835046473723]]], [[[7.43782333146357, 48.2854379790112], [7.44036447577148, 48.2846613911866], [7.44207854515666, 48.2838671721009], [7.43723455264229, 48.282941251909], [7.43758168081412, 48.2831142179412], [7.43769466245165, 48.2840941787367], [7.43812398452399, 48.2845741465397], [7.43812444968128, 48.2848967896558], [7.43782333146357, 48.2854379790112]]], [[[7.43918984892644, 48.28509454853], [7.44135902975689, 48.2858870898577], [7.44553463749285, 48.2864203045031], [7.4471334032435, 48.2867883921562], [7.44778504125671, 48.2865037948802], [7.44833736198664, 48.2851589693981], [7.44193657959749, 48.2840088990673], [7.44056800169085, 48.2846587457907], [7.43918984892644, 48.28509454853]]], [[[7.44757142430967, 48.2870679428195], [7.44783517226105, 48.2865409738483], [7.44711456347145, 48.2868291127665], [7.44757142430967, 48.2870679428195]]], [[[7.43697790293461, 48.2886864509281], [7.44039312263259, 48.2893616700863], [7.4406374076895, 48.2887086591787], [7.44228355607571, 48.2889562148807], [7.44243410578501, 48.2883832306657], [7.44668235490874, 48.2890449358607], [7.44771145402862, 48.2873061231682], [7.44558554091062, 48.2864762445876], [7.44230019357141, 48.2860907068628], [7.44134375181473, 48.2859268645258], [7.4398277888906, 48.2855070628549], [7.43909025736632, 48.2866276488291], [7.43807298998465, 48.2873375306971], [7.43697790293461, 48.2886864509281]]]]}}]}