{"type": "FeatureCollection", "features": [{"type": "Feature", "properties": {"id": "AOC-Alsace-Côtes-de-Barr", "name": "Alsace Côtes de Barr", "tier": "denomination"}, "geometry": {"type": "MultiPolygon", "coordinates": [[[[7.43905028380563, 48.4074648984757], [7.43749098857895, 48.4071901845134], [7.4372438704185, 48.4078085692445], [7.43678526607439, 48.4078380894033], [7.43640586744271, 48.4087876152412], [7.43818462091898, 48.4085678120892], [7.43859647006976, 48.4082476384025], [7.43920772894891, 48.4079409864707], [7.43905028380563, 48.4074648984757]]], [[[7.43660254492785, 48.4079773003792], [7.43564066960808, 48.4076918123079], [7.4356343829708, 48.4087502722764], [7.43629842725701, 48.408824707871], [7.43660254492785, 48.4079773003792]]], [[[7.43982162984285, 48.4078017427811], [7.43893830265528, 48.4081111131786], [7.43830004437089, 48.4085611453766], [7.43774622721884, 48.4088189646185], [7.43965974025112, 48.4085603009314], [7.43957406678146, 48.4080511576898], [7.43961435928777, 48.4079866623484], [7.43982162984285, 48.4078017427811]]], [[[7.44341256483813, 48.4089453015279], [7.4450808335972, 48.4088514542054], [7.44567412260923, 48.4088972249128], [7.44583034800306, 48.4084596537398], [7.44525886422635, 48.4078911585397], [7.44047289494533, 48.4075298079372], [7.43970568078425, 48.4077509418587], [7.43983663941898, 48.407798386946], [7.43967002706157, 48.4085699174292], [7.4390387952596, 48.4087235957592], [7.44005658716869, 48.408824763705], [7.44057570171491, 48.4089841722888], [7.44148632502227, 48.4093671478695], [7.44262116713837, 48.4099094004514], [7.4431597434771, 48.4099258780318], [7.44377231299818, 48.4100602326589], [7.44397170228662, 48.4096990797061], [7.44332286520788, 48.4090288618815], [7.44341256483813, 48.4089453015279]]], [[[7.43722491407449, 48.4087407233308], [7.4370252227818, 48.4094576201017], [7.43745996569888, 48.4096548933057], [7.4377205304742, 48.4102958916349], [7.43840920748646, 48.4102595522264], [7.43877068256864, 48.4105185861946], [7.44031206397826, 48.4103048526929], [7.44094425574591, 48.4107561165898], [7.44268103989582, 48.4099787912408], [7.43983113756581, 48.4088187051609], [7.43775591540219, 48.4089079886393], [7.43722491407449, 48.4087407233308]]], [[[7.4438570007735, 48.4101061651537], [7.44315661357585, 48.4099416742089], [7.44287730534338, 48.409983776361], [7.44368856611008, 48.4104732752722], [7.4438570007735, 48.4101061651537]]], [[[7.43809841766398, 48.4109781792571], [7.43999183784812, 48.4113902174035], [7.44088199195963, 48.4107864739148], [7.44032334850925, 48.4103758852908], [7.4393343153451, 48.4106184834629], [7.43875437347425, 48.4105690267722], [7.43835712978726, 48.410346384585], [7.43785453751624, 48.410329708658], [7.43809841766398, 48.4109781792571]]], [[[7.44805287617468, 48.4134334691606], [7.44829402407638, 48.41307173277], [7.4480003376221, 48.4125175998693], [7.44556234912625, 48.410622576006], [7.44525750737828, 48.4105197566617], [7.44491086328189, 48.4113989710001], [7.44474306718496, 48.4116888358423], [7.44523183142508, 48.4105298209211], [7.44501760473094, 48.410450183075], [7.44443879788864, 48.4106093116866], [7.44354012987309, 48.4104817258736], [7.44275493527862, 48.4111610303115], [7.44352834263946, 48.4104783834118], [7.44274184888516, 48.4099952534912], [7.44018059430645, 48.4113991829781], [7.43949030848701, 48.4115127246043], [7.43944296906181, 48.4118205040979], [7.44086337450414, 48.4118851353103], [7.44729124429539, 48.4127447082997], [7.44805287617468, 48.4134334691606]]], [[[7.43917558649284, 48.4126570796669], [7.44273221849254, 48.4133546569018], [7.44375034860231, 48.4134250569661], [7.44401291467174, 48.4131609249155], [7.44507506003194, 48.413714533427], [7.4455065798937, 48.4133900847673], [7.44599180102851, 48.4137559189028], [7.44661843945376, 48.4133748552776], [7.44612270568929, 48.4128960621488], [7.44610101373305, 48.4128604724855], [7.44609795665434, 48.4127380402676], [7.43940244773022, 48.4119463709719], [7.43917558649284, 48.4126570796669]]], [[[7.44563731137818, 48.4089340187597], [7.44419016938925, 48.4090995953675], [7.44347653046433, 48.4090278744658], [7.44417320510841, 48.4095884376839], [7.44444639893176, 48.4100706306489], [7.44498377534995, 48.4096635465434], [7.44521928539637, 48.4096796705359], [7.44520323458055, 48.4093893133582], [7.44529461190281, 48.409031399098], [7.44563731137818, 48.4089340187597]]], [[[7.44380719483667, 48.4093720302734], [7.4439886446755, 48.4097009672419], [7.44379492958881, 48.4100683951855], [7.44436317254938, 48.4100883501744], [7.44380719483667, 48.4093720302734]]], [[[7.44527837286221, 48.4097541356676], [7.44503251749031, 48.4097309209358], [7.44447342241343, 48.4100908824405], [7.44498852627801, 48.4102281662676], [7.44527837286221, 48.4097541356676]]], [[[7.44443382072749, 48.4105712925632], [7.44495643753931, 48.4102600069074], [7.44386469482317, 48.4101283134797], [7.44369832009045, 48.4104749819248], [7.44443382072749, 48.4105712925632]]], [[[7.44530958020084, 48.4104569799227], [7.4449689906343, 48.4102644017943], [7.44490022806937, 48.4104434132506], [7.44530958020084, 48.4104569799227]]], [[[7.44659647730596, 48.4112005599055], [7.44814587512467, 48.4125787261258], [7.44837950260244, 48.4130837519037], [7.44817815390336, 48.4136021341188], [7.44904280261574, 48.4137603395624], [7.44914762207744, 48.4125516568915], [7.44859299079203, 48.4116558111032], [7.44797588428203, 48.4105366770793], [7.44792747929731, 48.4103407065369], [7.44674669284924, 48.410055864091], [7.44721012837517, 48.4094295174418], [7.4468399696425, 48.4092074176144], [7.44535021908526, 48.4090231853104], [7.44529876373074, 48.409737601668], [7.44500686559644, 48.4102321638517], [7.44659647730596, 48.4112005599055]]], [[[7.45130012777898, 48.4116415416242], [7.45036233874569, 48.4109946584125], [7.45033503224001, 48.4106379445479], [7.44810100962854, 48.4098407584103], [7.44798620051013, 48.4104603284734], [7.44919114610279, 48.4125413721399], [7.44913873446329, 48.4137151975341], [7.45221519312968, 48.4129150840247], [7.45130012777898, 48.4116415416242]]], [[[7.45156981129028, 48.4119904015602], [7.45191691187051, 48.4123407673848], [7.45241367524542, 48.4121957687935], [7.45239338764593, 48.4117266153312], [7.45156981129028, 48.4119904015602]]], [[[7.44742175225048, 48.412981569736], [7.44714605999514, 48.4127628629038], [7.4461121047332, 48.412740482931], [7.44664033863241, 48.4133649325196], [7.44742175225048, 48.412981569736]]]]}}]}