{"type": "FeatureCollection", "features": [{"type": "Feature", "properties": {"id": "AOC-Alsace-Saint-Hippolyte", "name": "Alsace Saint-Hippolyte", "tier": "denomination"}, "geometry": {"type": "MultiPolygon", "coordinates": [[[[7.3580770743856, 48.2315422104573], [7.35529711020334, 48.2324874489153], [7.35536283362853, 48.2328420567594], [7.35801291697166, 48.2329911840585], [7.35766616334883, 48.2324173383101], [7.35868253257, 48.2320541486377], [7.3580770743856, 48.2315422104573]]], [[[7.36086594933612, 48.2322853202004], [7.35976607835205, 48.2332075281131], [7.35925892212462, 48.2334163049203], [7.35987508731863, 48.2338616081805], [7.36171522860188, 48.2328158132421], [7.36086594933612, 48.2322853202004]]], [[[7.35424285098715, 48.2332396761663], [7.35252274305054, 48.2335048629439], [7.35243237424889, 48.2340797865961], [7.35707177465752, 48.2332954497424], [7.35658683440651, 48.2329474804177], [7.35419070636298, 48.2327489456391], [7.35424285098715, 48.2332396761663]]], [[[7.3594750576302, 48.2340642671329], [7.35661368566349, 48.2344927584632], [7.35668423898474, 48.2348322283425], [7.35813356575693, 48.2346882679882], [7.3594750576302, 48.2340642671329]]], [[[7.35858922841869, 48.2346444142993], [7.36023004025073, 48.2352384243101], [7.3607947015341, 48.2343616653295], [7.35980644088122, 48.2339807509231], [7.35858922841869, 48.2346444142993]]], [[[7.35762832322431, 48.2348502870544], [7.35842471048505, 48.2350494227519], [7.35873455804523, 48.2347935053018], [7.35851002717854, 48.2346522941863], [7.35762832322431, 48.2348502870544]]], [[[7.35677937151739, 48.2350806771277], [7.35493756014451, 48.2352171089836], [7.3545172707141, 48.2352908231781], [7.35483925045567, 48.2356777026193], [7.35677937151739, 48.2350806771277]]], [[[7.36020093666175, 48.2353920625065], [7.35930674148326, 48.2364501279972], [7.36015157706864, 48.2362627667601], [7.36132628906562, 48.2362034331844], [7.36198217467919, 48.2351186494713], [7.36085541384491, 48.2344042098808], [7.36020093666175, 48.2353920625065]]], [[[7.36021358792194, 48.2352955335085], [7.35875754629603, 48.2348088772463], [7.35844609319354, 48.2350633220781], [7.35716139204978, 48.2351135300509], [7.35446505208928, 48.236064394232], [7.35459632289089, 48.2364091048634], [7.35493661858594, 48.2363842090722], [7.35562549920465, 48.236413499113], [7.35754985980796, 48.2365489497133], [7.35881322030085, 48.2364833060859], [7.35904666814002, 48.2365332624231], [7.36021358792194, 48.2352955335085]]], [[[7.35390843436494, 48.2356342604606], [7.35311777477181, 48.2361297511096], [7.35336624465357, 48.2364024665801], [7.35467645784898, 48.2357513820689], [7.35390843436494, 48.2356342604606]]], [[[7.35887362684532, 48.2365433450492], [7.3575531168904, 48.2365655006112], [7.35674236748742, 48.236532247626], [7.35493699302457, 48.2363969013195], [7.35460220269692, 48.2364231260127], [7.35476430178158, 48.2373530702066], [7.35719732231061, 48.2371012012945], [7.35887362684532, 48.2365433450492]]], [[[7.35159962662569, 48.237283474514], [7.35219996199189, 48.2372989263728], [7.35317305140389, 48.2369573005225], [7.35294191996218, 48.2365777014205], [7.35159962662569, 48.237283474514]]], [[[7.36131015795784, 48.2362252959763], [7.3592840400774, 48.2364773695485], [7.35920102708838, 48.2367897960605], [7.35807668747481, 48.2372985398771], [7.35741995074539, 48.2379958378219], [7.36131015795784, 48.2362252959763]]], [[[7.35315653728333, 48.2365434762172], [7.35319733632678, 48.2369638846643], [7.35220514658252, 48.2373127028959], [7.35137660548067, 48.2373597290077], [7.35179140977075, 48.2382157507595], [7.35232292837384, 48.2381426336563], [7.35273621357948, 48.2379348271144], [7.35320226511264, 48.2378481689961], [7.35397936148698, 48.2378641243443], [7.35443827441332, 48.2375245948893], [7.35376042693578, 48.2371277672277], [7.35443950393792, 48.2369224091568], [7.35428002720817, 48.2361041089804], [7.35315653728333, 48.2365434762172]]], [[[7.35904860302454, 48.2365843758197], [7.35731948192286, 48.2371185010807], [7.35598923090421, 48.2372726544664], [7.35538335559201, 48.237614547323], [7.35596489959088, 48.2379117384709], [7.3561105429901, 48.2380189178996], [7.35637461345498, 48.2382793372698], [7.35736830319982, 48.2380090980436], [7.35802986442056, 48.2372689984338], [7.35898137363379, 48.2368658509709], [7.35904860302454, 48.2365843758197]]], [[[7.36011175382297, 48.2369976766792], [7.36046627613921, 48.2374951722658], [7.36151945970406, 48.2370933857224], [7.36076735871906, 48.237436473268], [7.36023701920234, 48.237557886716], [7.35965635604702, 48.2381031599369], [7.35945867702278, 48.2382166125361], [7.35885586931876, 48.2383899870843], [7.35719149934057, 48.238724187755], [7.35638371326997, 48.2395724050882], [7.35911004121738, 48.2392611082278], [7.36003531523461, 48.2387541197086], [7.35996990236444, 48.2385097125468], [7.36035737023027, 48.2383178807133], [7.36100750458199, 48.2382323238956], [7.36204629067614, 48.2373338145349], [7.36140520499058, 48.2362605344378], [7.36011175382297, 48.2369976766792]]], [[[7.35245255374318, 48.2380918978767], [7.35273487111701, 48.2380639193331], [7.35274228873132, 48.2379463179464], [7.35271568216716, 48.2379622575778], [7.35245255374318, 48.2380918978767]]], [[[7.35629292089963, 48.2383126293388], [7.35537050204099, 48.2376206084779], [7.35503029399864, 48.2377788704059], [7.35581942475349, 48.2384968971764], [7.35629292089963, 48.2383126293388]]], [[[7.36004873514502, 48.2369973903273], [7.35791197947398, 48.2379428060335], [7.3580803710584, 48.2381928754221], [7.35789414802422, 48.2379376067085], [7.3574256952444, 48.2380294185662], [7.35503451455788, 48.2388353887612], [7.35619976407829, 48.2396056845821], [7.35718303517325, 48.2387066575279], [7.35945525924061, 48.2381899748432], [7.3599005506757, 48.2377774829597], [7.36019731888675, 48.2375541260564], [7.36041720656453, 48.2374564329172], [7.36004873514502, 48.2369973903273]]], [[[7.35998865262758, 48.2385162293569], [7.36005684051156, 48.2387534150375], [7.35979597701439, 48.2389135371579], [7.3601838555233, 48.2391586539478], [7.36089339948333, 48.238278170688], [7.35998865262758, 48.2385162293569]]], [[[7.359824887915, 48.2389564453775], [7.3591158139136, 48.2392672932197], [7.35932749776886, 48.2395513578403], [7.36017384800717, 48.239166502932], [7.359824887915, 48.2389564453775]]], [[[7.36397152635842, 48.2273962888403], [7.36460478785885, 48.2278904093916], [7.36456877088719, 48.2272828335586], [7.36397152635842, 48.2273962888403]]], [[[7.36447015959168, 48.2279780219832], [7.36220230094583, 48.2262798172925], [7.36114945798978, 48.2277995734281], [7.36148077846419, 48.2279390871445], [7.36202961809076, 48.227351446568], [7.36289805334911, 48.2278714001419], [7.36294517837304, 48.2279991537495], [7.3629304693887, 48.2280625975412], [7.36275287126361, 48.2283317554496], [7.36291527682369, 48.2283645933406], [7.36272497027325, 48.2284753482346], [7.36341681661566, 48.2291460077217], [7.36358653546874, 48.229355109535], [7.36366758463185, 48.2295683896039], [7.36440155468934, 48.2293711222616], [7.36490866575517, 48.2293009190887], [7.36344456086302, 48.228788758166], [7.36506637260185, 48.2292785972879], [7.36447015959168, 48.2279780219832]]], [[[7.36198796153043, 48.2274233654405], [7.36157097079999, 48.2279728824126], [7.36231116339097, 48.2284864938532], [7.36275702178426, 48.228298800253], [7.36288899225023, 48.2278922812008], [7.36198796153043, 48.2274233654405]]], [[[7.36052022817945, 48.2277531571843], [7.36109076692969, 48.2282475394143], [7.36062138229605, 48.2286122698067], [7.36054121463312, 48.2294104029541], [7.36164109340724, 48.2296432727565], [7.36197839353402, 48.2285462797481], [7.36215127911849, 48.2285020437595], [7.36129543339097, 48.2278734819552], [7.36052022817945, 48.2277531571843]]], [[[7.36220307430824, 48.2286226861624], [7.36180627260814, 48.2296981780228], [7.36232302800719, 48.2302951999991], [7.36348988934071, 48.229917844195], [7.36364903448796, 48.2295740315471], [7.36319152885705, 48.2289401308595], [7.36220307430824, 48.2286226861624]]], [[[7.36370645124401, 48.2295898422344], [7.36352331692943, 48.2299420211232], [7.36414566942701, 48.2304115855987], [7.36519035988246, 48.2299467212239], [7.36450226539076, 48.2300139737098], [7.36424722730608, 48.2297323304882], [7.36507295170148, 48.2293075512903], [7.36370645124401, 48.2295898422344]]], [[[7.36036683562291, 48.2296045522332], [7.36015960900863, 48.2302445397823], [7.36060888102287, 48.2305118982597], [7.3594580307967, 48.2312544077915], [7.3597638464395, 48.2315419352093], [7.36062812991965, 48.2315710248869], [7.36137197579227, 48.2310770263681], [7.36241470553412, 48.2305033118661], [7.36223938034115, 48.2302672010694], [7.361959529823, 48.2303733326222], [7.36172566968697, 48.2301600200083], [7.36223149524278, 48.2302583007062], [7.36169616284957, 48.2296812492279], [7.36036683562291, 48.2296045522332]]], [[[7.36243118232264, 48.2305296473601], [7.36070534702739, 48.2315620451741], [7.36283685017651, 48.2321926832232], [7.36336232594353, 48.2320930627084], [7.36260089491428, 48.2314572351431], [7.36317059488909, 48.2311326767704], [7.36290969732155, 48.230863322862], [7.36243118232264, 48.2305296473601]]], [[[7.36001674447137, 48.2320082206807], [7.36089625343259, 48.2322570764447], [7.3618576644148, 48.2327310702866], [7.36270784425596, 48.2322506177875], [7.36065016417073, 48.2316335616082], [7.36018328430903, 48.2317713774663], [7.36001674447137, 48.2320082206807]]], [[[7.36503016405321, 48.23243224425], [7.36424217222847, 48.2319304178332], [7.36287763092526, 48.2322747125711], [7.36324556250471, 48.2324471128192], [7.36341483578809, 48.2325513377671], [7.36371664922713, 48.2328097164103], [7.36389870322774, 48.232731076258], [7.36431939812594, 48.2329036859416], [7.36454326042355, 48.2328135867558], [7.36467038503394, 48.2329511785609], [7.36497399626506, 48.2328110004427], [7.36456119130422, 48.2325642974031], [7.36503016405321, 48.23243224425]]], [[[7.36142469773847, 48.2330864358639], [7.36302506167274, 48.2335993562603], [7.36465753368626, 48.2329572407456], [7.36371325942029, 48.2328257919886], [7.36288238611893, 48.2323044549181], [7.36245503951607, 48.2325027275752], [7.36307018582872, 48.2330006796456], [7.36243974402509, 48.2325118536041], [7.36142469773847, 48.2330864358639]]], [[[7.36255024224412, 48.2343811621896], [7.36412278010331, 48.2343815342642], [7.3646911045105, 48.2341264091689], [7.36553239701016, 48.2338855198066], [7.3660008341086, 48.2336312874724], [7.36610309685922, 48.2333238192194], [7.36574696309814, 48.2334535965306], [7.36609338350955, 48.2330128318078], [7.36555019629965, 48.2326723677655], [7.36292609950652, 48.2337790969484], [7.36255024224412, 48.2343811621896]]], [[[7.36082941556904, 48.2333581307279], [7.36029887433014, 48.2340977384499], [7.3607646280151, 48.2343160967792], [7.36102707227466, 48.2341183349601], [7.3621001290661, 48.2336234382439], [7.36082941556904, 48.2333581307279]]], [[[7.36247218621477, 48.2336305086459], [7.3608617408872, 48.2343323352669], [7.36203475666328, 48.2350156886972], [7.36263902820114, 48.2339301928322], [7.36247218621477, 48.2336305086459]]], [[[7.36227431276573, 48.2348673414001], [7.3635011622628, 48.2353044820091], [7.36521128652775, 48.2348273751989], [7.36488967552843, 48.2346477711726], [7.36609224589257, 48.2340166622717], [7.36599747915194, 48.2336575448091], [7.36554718189413, 48.2339076820644], [7.36413279727186, 48.2344063961027], [7.3624710044323, 48.2345287235624], [7.36227431276573, 48.2348673414001]], [[7.36391313047858, 48.2347410902164], [7.36389404920953, 48.2347435977319], [7.36378604804832, 48.234540506051], [7.36391313047858, 48.2347410902164]]], [[[7.36628164965218, 48.2349042271519], [7.36480435101392, 48.2351908019204], [7.3649743894068, 48.2359587804599], [7.3648999599085, 48.2361741120631], [7.36478710086857, 48.2364059132516], [7.36447459622406, 48.2369340908847], [7.36593383489249, 48.2369629603452], [7.36648892012796, 48.2358754780047], [7.36587400621645, 48.2359314682672], [7.36585940451267, 48.2350795237953], [7.36628164965218, 48.2349042271519]]], [[[7.36163671665588, 48.2362218847548], [7.36284635322246, 48.2369721851051], [7.36383870052422, 48.2353131846506], [7.3632934437927, 48.235320899201], [7.36316883768808, 48.2354841953229], [7.36288941755569, 48.2357718022883], [7.36326311005116, 48.2353471620698], [7.36215666825475, 48.2350675063759], [7.3619527559316, 48.2354248636076], [7.36219814834709, 48.2355327665667], [7.36245965148422, 48.2356739568335], [7.36276797703955, 48.2358739734303], [7.36194804607777, 48.2354331478933], [7.36163671665588, 48.2362218847548]]], [[[7.36478970369322, 48.235181701117], [7.36303887797233, 48.2370898798428], [7.36325382498988, 48.2372682037384], [7.36446394681273, 48.236921147572], [7.36495392468453, 48.2359641328231], [7.36478970369322, 48.235181701117]]], [[[7.36325034607675, 48.2372815790993], [7.36301533559105, 48.2370922816741], [7.36275053970227, 48.2374670285017], [7.36325034607675, 48.2372815790993]]], [[[7.36450411036136, 48.2369907633336], [7.36432663370353, 48.2382421634309], [7.36464101725864, 48.238288667153], [7.36476056205038, 48.2379616388778], [7.36546341733113, 48.2379915274404], [7.36546950337519, 48.2386332775935], [7.36604228803574, 48.2386757214545], [7.36654015242495, 48.2384879871224], [7.36657144012173, 48.2383950935959], [7.36668037511733, 48.2382576056671], [7.36681540897355, 48.2376032467122], [7.36704571100683, 48.2370779223972], [7.36450411036136, 48.2369907633336]]], [[[7.36279586070855, 48.2374849088123], [7.36182161260579, 48.2384834108106], [7.36204086754746, 48.2388099056067], [7.36243598482797, 48.2391032294112], [7.3644657068392, 48.2389636151384], [7.36433048764034, 48.2386844824086], [7.36430695839755, 48.2382521724078], [7.36437269835142, 48.2378781109873], [7.36373500352626, 48.2378857286624], [7.3643479888868, 48.2378403651941], [7.36448984677482, 48.2369944445555], [7.36279586070855, 48.2374849088123]]], [[[7.36467563330086, 48.2274381161256], [7.36524478671297, 48.2294395244209], [7.36601170162664, 48.2297670300086], [7.36534426948355, 48.2299143565374], [7.36554330152859, 48.2303892924057], [7.36610653823907, 48.2302654633613], [7.36669858287313, 48.2307791209231], [7.36754923833182, 48.2304647847212], [7.36635574421244, 48.229444401041], [7.36691681956026, 48.2298773784339], [7.36741344839234, 48.2294479029586], [7.36584240009448, 48.2270833557791], [7.36467563330086, 48.2274381161256]]], [[[7.367565227004, 48.2304559026655], [7.36804752445265, 48.23017897906], [7.3674233953866, 48.2294588894964], [7.36692638594667, 48.2298870273617], [7.367565227004, 48.2304559026655]]], [[[7.36760167480123, 48.2305067309568], [7.3684647850969, 48.2311726495937], [7.36873307482295, 48.2313973821456], [7.36908683791573, 48.2312229855013], [7.36875343975027, 48.2308994636639], [7.36914052801198, 48.2306194802005], [7.36852219379731, 48.2299728055438], [7.36760167480123, 48.2305067309568]]], [[[7.36674639695239, 48.2308141193936], [7.36712560078319, 48.231282028523], [7.36794585954941, 48.2308791496522], [7.36755564090561, 48.230516003565], [7.36674639695239, 48.2308141193936]]], [[[7.36793859531066, 48.2308907728969], [7.36686249537893, 48.2315934650403], [7.36809107951556, 48.2309957927767], [7.36793859531066, 48.2308907728969]]], [[[7.36728019838901, 48.231650197055], [7.36752441191279, 48.2315958355337], [7.36838749840839, 48.2311693813747], [7.36818180652065, 48.2310489382327], [7.36728019838901, 48.231650197055]]], [[[7.36754590665608, 48.2315866597047], [7.36750423575824, 48.231964341068], [7.36871759455879, 48.2314042630064], [7.36841871035975, 48.2311651626272], [7.36754590665608, 48.2315866597047]]], [[[7.37037753781275, 48.233578675475], [7.37104148797415, 48.2341110087004], [7.37036163098793, 48.2335869240394], [7.36852112939145, 48.2347064955307], [7.36968460483432, 48.23462108925], [7.37218766712168, 48.2356593728051], [7.37312421069544, 48.2355065492743], [7.37168761106875, 48.2344217748135], [7.3720747377525, 48.2341892720518], [7.37115426487807, 48.2334427756835], [7.37086915085985, 48.2335732738359], [7.37114409923009, 48.2334340504061], [7.37095611999232, 48.2332785320109], [7.37037753781275, 48.233578675475]]], [[[7.36633666878763, 48.2349154394434], [7.36590202010268, 48.2350973227123], [7.36599420508962, 48.2357183184221], [7.36652479402218, 48.2358558581056], [7.36700485150762, 48.2350678039183], [7.36652447390939, 48.2345529016746], [7.36619138924153, 48.2346776822809], [7.36633666878763, 48.2349154394434]]], [[[7.36706409185288, 48.2350794905632], [7.36601625015747, 48.2369580206386], [7.36752053919413, 48.2370470234448], [7.36817679044911, 48.2356946374568], [7.36706409185288, 48.2350794905632]]], [[[7.37367812773141, 48.2344865655448], [7.37403884132067, 48.2349906448274], [7.37324403932236, 48.2355331107495], [7.37429939022451, 48.2364427503498], [7.37499717577923, 48.2366667874067], [7.37524842748506, 48.2368350947694], [7.37664064874507, 48.2380237548328], [7.378074126773937, 48.238580511438116], [7.37786013687549, 48.238686448546], [7.37896299897658, 48.239724504788], [7.37951418577007, 48.2405082067135], [7.3804466635628, 48.2402163859994], [7.37480466085351, 48.2340943726666], [7.37367812773141, 48.2344865655448]]], [[[7.3682025086384, 48.2357103572518], [7.36808177788044, 48.2362115360318], [7.36753958253254, 48.2370489323924], [7.36850508082143, 48.2371115315389], [7.36886111073819, 48.2366971684343], [7.36853586765404, 48.235886634467], [7.3682025086384, 48.2357103572518]]], [[[7.36974858463338, 48.2346834239763], [7.36848984156686, 48.2347928116444], [7.36780326619995, 48.2353429498121], [7.36866908487134, 48.2358762086895], [7.37330919993638, 48.2371147396044], [7.37442495048172, 48.2375295725585], [7.37694205204944, 48.2390734183868], [7.37849219111649, 48.2403852497871], [7.37942342129236, 48.2404289823326], [7.377582532652, 48.2385064170312], [7.37692910696502, 48.238201358492], [7.376441927832421, 48.23847472168104], [7.37692897621256, 48.2382014083961], [7.37623987220632, 48.237924703291], [7.37577541778228, 48.2372992146586], [7.37415968690337, 48.2364107982949], [7.37326364194876, 48.2356262846357], [7.37271202590785, 48.2357557531837], [7.37203832287499, 48.2356623795027], [7.36974858463338, 48.2346834239763]]], [[[7.3719929539519, 48.2373348806935], [7.37417772778087, 48.2381199727543], [7.37492232270708, 48.2385403495936], [7.3753223691179, 48.2384145055726], [7.37439940343549, 48.2375500739412], [7.37171820515023, 48.2367986865319], [7.3719929539519, 48.2373348806935]]], [[[7.36855797746844, 48.2359027580349], [7.3689349845737, 48.2365794486858], [7.36880103570096, 48.2371359068907], [7.37049728759139, 48.2382397613148], [7.37473850519601, 48.2394297458233], [7.37606793142564, 48.2394230206338], [7.37415714753761, 48.2381483103065], [7.37192838300499, 48.2373614222553], [7.37150443722489, 48.2367519912108], [7.36855797746844, 48.2359027580349]]], [[[7.36893613784161, 48.2373060010796], [7.36706662265954, 48.237077960031], [7.36670010617498, 48.2382596695605], [7.36655942055149, 48.2384893472447], [7.36854962165946, 48.2383517537457], [7.36856947232778, 48.2382104405433], [7.36877772470916, 48.2376064471441], [7.36893613784161, 48.2373060010796]]], [[[7.36858364447458, 48.2382137911576], [7.36985996479246, 48.2384292495966], [7.37000456261154, 48.2380208152724], [7.3689486119995, 48.2373165335314], [7.36858364447458, 48.2382137911576]]], [[[7.36988602311436, 48.2383725943743], [7.37066998821233, 48.2383328558109], [7.37001054986367, 48.2380409596223], [7.36988602311436, 48.2383725943743]]]]}}]}