{"type": "FeatureCollection", "features": [{"type": "Feature", "properties": {"id": "AOC-Alsace-Coteaux-du-Haut-Koenigsbourg", "name": "Alsace Coteaux du Haut Koenigsbourg", "tier": "denomination"}, "geometry": {"type": "MultiPolygon", "coordinates": [[[[7.37511222807665, 48.2343237643561], [7.37594252250421, 48.2354599885298], [7.37624190526062, 48.2353795040592], [7.3772472433718, 48.2353340381723], [7.37656471932732, 48.2339602075507], [7.37511222807665, 48.2343237643561]]], [[[7.37645866238117, 48.2360810378751], [7.37726900105899, 48.2357778606857], [7.37766110717411, 48.2356752812983], [7.37725969633584, 48.2353443002454], [7.37595197926227, 48.2354715332712], [7.37645866238117, 48.2360810378751]]], [[[7.37664229442307, 48.2361936342202], [7.376900108731, 48.2364344180112], [7.37793559850306, 48.2360096152497], [7.37767587611888, 48.2356874400039], [7.37664229442307, 48.2361936342202]]], [[[7.37876729191185, 48.2374180981271], [7.37890916268853, 48.237057241881], [7.37798295019029, 48.2360924778963], [7.37689033634486, 48.2365100264986], [7.37898061771423, 48.2385810552048], [7.38077478313397, 48.2380749235212], [7.37996861731473, 48.2372713521442], [7.37876729191185, 48.2374180981271]]], [[[7.38039216143297, 48.2375517599405], [7.38135156266748, 48.2385903413372], [7.38223703753884, 48.239816620941], [7.38299958698151, 48.2395305443483], [7.3821105283857, 48.2371242048878], [7.38039216143297, 48.2375517599405]], [[7.38239062972371, 48.2379034920218], [7.38239076420596, 48.2379034870307], [7.382329290721679, 48.23791483834633], [7.38239062972371, 48.2379034920218]]], [[[7.37907724221479, 48.2386788966578], [7.37987897679566, 48.2395069690902], [7.38158462925718, 48.2389889699523], [7.38077492135113, 48.2380749634511], [7.37907724221479, 48.2386788966578]]], [[[7.38003964934528, 48.2396238816244], [7.38053683789837, 48.2402154740241], [7.38211768047587, 48.2397391354422], [7.38159213783768, 48.2390013976106], [7.38003964934528, 48.2396238816244]]], [[[7.38054332597427, 48.2402448362026], [7.38075792002063, 48.2407766206814], [7.38145534054259, 48.2406269275642], [7.38124307424236, 48.2405028744609], [7.3809999944149, 48.2401444929554], [7.38054332597427, 48.2402448362026]]], [[[7.38115041158205, 48.2430682423145], [7.38148115498253, 48.2432784657551], [7.38152144826423, 48.2432422314088], [7.38133047765189, 48.2431164419638], [7.38154427132342, 48.2429910447736], [7.38115041158205, 48.2430682423145]]], [[[7.37780721065739, 48.2447749120969], [7.37819706738919, 48.2446574583473], [7.3779166610394, 48.2448954835183], [7.37821373125954, 48.2452249243124], [7.37890040205339, 48.2448964092787], [7.3787165199159, 48.2447585028316], [7.37822002438568, 48.2439498365009], [7.3776812734347, 48.2445257271115], [7.37812295909981, 48.2437964549345], [7.37701614095001, 48.2443453697968], [7.3777775110092, 48.2447470862014], [7.37799060560728, 48.2445367888408], [7.37780721065739, 48.2447749120969]]], [[[7.37890040205339, 48.2448964092787], [7.37821401519278, 48.2452250940158], [7.37893911972302, 48.2449499437266], [7.37890040205339, 48.2448964092787]]], [[[7.38332545103242, 48.2473885717926], [7.38482857301198, 48.2473378208674], [7.38323843574726, 48.2458739940467], [7.38257560874039, 48.2461970538964], [7.38219426889534, 48.2463406996731], [7.3822721763708, 48.2465295734868], [7.38234553372865, 48.2467951236803], [7.38233880116943, 48.2470061523572], [7.38217835263088, 48.2463342612894], [7.38322854224027, 48.2458685938792], [7.38279484406795, 48.2456422802602], [7.38174207956085, 48.2437571185046], [7.3805731617965, 48.2427002691583], [7.37789011719691, 48.2430481218447], [7.37900072275335, 48.2450385854102], [7.37916329804416, 48.2455142209243], [7.37921023900128, 48.2462818805596], [7.37906072190768, 48.2464260211477], [7.37920871211498, 48.2468348813903], [7.3817062681196, 48.2468890424955], [7.38232352736359, 48.2470852993359], [7.38196035435938, 48.2471213936258], [7.38232168912185, 48.2470907744421], [7.38213436633637, 48.247477829821], [7.38332545103242, 48.2473885717926]], [[7.38244348375648, 48.2469962302053], [7.38277045800616, 48.2468842492028], [7.38242111850306, 48.2470014757516], [7.38244348375648, 48.2469962302053]], [[7.38309729636253, 48.2467722722791], [7.38309732550565, 48.246772298232], [7.38277045800616, 48.2468842492028], [7.38309729636253, 48.2467722722791]], [[7.38309743086733, 48.2467722672872], [7.38311582837941, 48.2467874447372], [7.38309732550565, 48.246772298232], [7.38309743086733, 48.2467722672872]]], [[[7.37834812432477, 48.2453680005148], [7.3787938906476, 48.245942716602], [7.37908050450018, 48.2458864913257], [7.37893911972302, 48.2449499437266], [7.37834812432477, 48.2453680005148]]], [[[7.37879698421854, 48.245942601901], [7.37917002083031, 48.2461827136461], [7.37908050450018, 48.2458864913257], [7.37879698421854, 48.245942601901]]], [[[7.37898529358598, 48.2462116413462], [7.37919191698301, 48.2462757112238], [7.37917002083031, 48.2461827136461], [7.37898529358598, 48.2462116413462]]], [[[7.38304958233856, 48.2395331493473], [7.38433307226295, 48.239150947787], [7.38413162595589, 48.2385537967268], [7.38285503014289, 48.2389262787332], [7.38304958233856, 48.2395331493473]]], [[[7.38237219736945, 48.240006254209], [7.38249142169847, 48.2402962364677], [7.38423284820965, 48.2401011523638], [7.38460444977232, 48.2398540459936], [7.38457499883886, 48.2391158765485], [7.38237219736945, 48.240006254209]]], [[[7.38146442981254, 48.2406242923788], [7.38251175382289, 48.2407839972546], [7.38214572088449, 48.239779457824], [7.381021579812, 48.2401412590192], [7.38124742312899, 48.2404821668241], [7.38146442981254, 48.2406242923788]]], [[[7.38336157563027, 48.2432301759378], [7.38420308838911, 48.2427738187281], [7.383160875896, 48.2426469198712], [7.38336157563027, 48.2432301759378]]], [[[7.38172562612916, 48.2430644733114], [7.38135547741184, 48.2434073522464], [7.381811410859112, 48.24355588937403], [7.38286994823111, 48.2456190369001], [7.38396247598596, 48.246281834338], [7.38669856235397, 48.2450137842668], [7.38443326478878, 48.2436041565666], [7.38424704137456, 48.2430604658532], [7.38335888204387, 48.2432334750093], [7.38427761297601, 48.2439580505811], [7.38467163491123, 48.2443675042348], [7.38403027491849, 48.2438278245081], [7.38297058259738, 48.2442127505287], [7.38402384131896, 48.2438234674659], [7.38345661136487, 48.2433768254243], [7.38325488513865, 48.2431380281173], [7.382400267630149, 48.24333852399751], [7.38325659991959, 48.2431359368767], [7.38312023623167, 48.2426497800014], [7.38167076457369, 48.2429498548296], [7.38138149629075, 48.2431167118845], [7.38172562612916, 48.2430644733114]], [[7.38367520146633, 48.2458160594047], [7.38382346600594, 48.2457478358073], [7.38344736444599, 48.2459365292424], [7.38367520146633, 48.2458160594047]], [[7.38239051589068, 48.2433408310188], [7.382390653503741, 48.24334079846294], [7.38241354847676, 48.2433987764372], [7.38239051589068, 48.2433408310188]]], [[[7.38397127877016, 48.2462903388498], [7.38494509719267, 48.2472756406886], [7.38556636160884, 48.2472021080125], [7.38600577952388, 48.2476540282463], [7.38791529836587, 48.2473360026181], [7.38727800990258, 48.245857727127], [7.38687246683184, 48.2459957093052], [7.38727800242173, 48.2458576372896], [7.38670764184744, 48.2450223684279], [7.38397127877016, 48.2462903388498]], [[7.38580944810024, 48.246256694264], [7.38585661053784, 48.2463159508018], [7.38586344843185, 48.2463251589602], [7.38580944810024, 48.246256694264]], [[7.38666574571324, 48.2459338189297], [7.38706238048133, 48.2457812092359], [7.38582082830838, 48.2462523966886], [7.38666574571324, 48.2459338189297]]], [[[7.38209880180961, 48.2481257236176], [7.38401885526692, 48.2497142036183], [7.38629897750752, 48.2496555893925], [7.38519600696827, 48.2482914735654], [7.3842740622411, 48.2477093150028], [7.38414979426036, 48.2475471251755], [7.38257899398012, 48.2476488604732], [7.38209880180961, 48.2481257236176]]], [[[7.38524936798771, 48.2482630885624], [7.38608060974563, 48.249209248924], [7.38658902315834, 48.2502059635044], [7.38740665944852, 48.2503108561603], [7.38721142425922, 48.2495542931734], [7.38611222885085, 48.2481968935112], [7.38566825922096, 48.2473483658228], [7.38430070565241, 48.2476046936591], [7.38524936798771, 48.2482630885624]]], [[[7.3879159163931, 48.2473855430539], [7.38603758616679, 48.2478043305607], [7.38616342338249, 48.2481846290188], [7.38726000413185, 48.2495397823892], [7.38750904295582, 48.2503461628004], [7.3885917080532, 48.2505290640791], [7.39062274050792, 48.2501898121606], [7.3883720594034, 48.2485692905464], [7.38801262107594, 48.2486665156937], [7.38837179038565, 48.2485693005422], [7.38816597785584, 48.2481831441357], [7.38726080315341, 48.2484216943722], [7.38816307015876, 48.2481757726072], [7.3879159163931, 48.2473855430539]], [[7.38699911307532, 48.2490624913382], [7.38692528374757, 48.2490865008337], [7.38692525460129, 48.2490864748818], [7.38699911307532, 48.2490624913382]], [[7.38783303555042, 48.2487151183659], [7.38783301985483, 48.2487150919145], [7.38801262107594, 48.2486665156937], [7.38783303555042, 48.2487151183659]], [[7.38783290104112, 48.2487151233632], [7.38780015732199, 48.2486621806278], [7.38783301985483, 48.2487150919145], [7.38783290104112, 48.2487151233632]], [[7.38746544681927, 48.2489105366484], [7.3874306952356, 48.248878845475], [7.38746543933767, 48.2489104468112], [7.38746544681927, 48.2489105366484]], [[7.38862240684651, 48.2490300292303], [7.38848926138497, 48.249137257364], [7.38844666095024, 48.2490275480036], [7.38862240684651, 48.2490300292303]], [[7.38776488211549, 48.2493467442503], [7.38778427666458, 48.2493706251564], [7.38743137672535, 48.2494314060936], [7.38776488211549, 48.2493467442503]], [[7.38816316107253, 48.2492621980493], [7.38793638874203, 48.249319375684], [7.38786026548481, 48.2493450029435], [7.38793624674874, 48.2493192908442], [7.38816316107253, 48.2492621980493]]], [[[7.38554047209044, 48.2506531228327], [7.38622859458498, 48.2510174974891], [7.38755171947508, 48.250403332463], [7.38566480621296, 48.2502648868692], [7.38554047209044, 48.2506531228327]]], [[[7.38873030865562, 48.2581143800731], [7.38882123459949, 48.2583844998021], [7.38878855295329, 48.2586498399462], [7.38960741013969, 48.2583904329723], [7.38926182577101, 48.2580311908977], [7.3893320082536, 48.2574207594743], [7.3888614636761, 48.2575699907915], [7.38893477376329, 48.2580838042487], [7.38884972722379, 48.2576121499421], [7.38848145458561, 48.2576348436265], [7.38873030865562, 48.2581143800731]]], [[[7.38848829992739, 48.2576910911989], [7.38716430900404, 48.2583163733879], [7.38761056334792, 48.2582820464563], [7.38733161522538, 48.2584504679712], [7.38714072053575, 48.2583150866934], [7.38848424036796, 48.2576812392895], [7.38845068272418, 48.2572395724439], [7.38792870514012, 48.2574955141076], [7.38726077926128, 48.2577782310523], [7.38702728991507, 48.2578621483479], [7.38691228816221, 48.2578812881641], [7.38665995117243, 48.2580014097561], [7.38690656959817, 48.2578709571361], [7.38791375560085, 48.2574812906284], [7.38843561915123, 48.2572094029652], [7.38812389308615, 48.2571268136012], [7.38559874096975, 48.2580828064667], [7.38657558139955, 48.2590787072652], [7.38698016814031, 48.2588129843467], [7.38657558888108, 48.2590787971018], [7.38904978546175, 48.2616472557643], [7.38924482605968, 48.2614078744984], [7.38857873012014, 48.2592122003082], [7.38875371420145, 48.2586366258445], [7.38837939995188, 48.2587650675505], [7.38816487413418, 48.2588854997661], [7.38802487156683, 48.2589253043745], [7.38837211897799, 48.2587554254298], [7.38875625969385, 48.2586104881536], [7.38848829992739, 48.2576910911989]], [[7.38728621538412, 48.2585097373113], [7.38728608084978, 48.258509742308], [7.38730228283058, 48.2584887746834], [7.38728621538412, 48.2585097373113]]], [[[7.39124848118662, 48.2593398962119], [7.39031824125109, 48.259491981907], [7.39057518932741, 48.2593284261681], [7.38965298100374, 48.2584514593683], [7.38873960377301, 48.2588268412987], [7.38874052602561, 48.2596461286212], [7.38901635691801, 48.2602225263609], [7.38930419679352, 48.2601720912419], [7.38902099359685, 48.2602425397433], [7.38928200122187, 48.2613827030491], [7.38930853906675, 48.2621934678478], [7.39012707299398, 48.2622226184119], [7.3907131704215, 48.2619890676388], [7.391143380808233, 48.26194623207783], [7.39097839531233, 48.2629995762493], [7.3916418885658, 48.2633413191195], [7.39134096293359, 48.2634081959237], [7.39154152945253, 48.2637142487288], [7.39220815331079, 48.2635835823222], [7.39255677997241, 48.2647667101026], [7.39308659464819, 48.2646866335887], [7.39362542971691, 48.2665881966592], [7.39397785704587, 48.2665398553487], [7.3942074215666, 48.2671607666174], [7.39312018721485, 48.2674533383581], [7.39347218163883, 48.2689658844605], [7.39480951344942, 48.2700993488888], [7.39542720131779, 48.2702192032572], [7.39495285513456, 48.270725177264], [7.39554349192289, 48.2706825701954], [7.39626158353682, 48.2701585131998], [7.39625212930571, 48.2686434113672], [7.39449034592925, 48.2658507931261], [7.39437330998119, 48.2649835586638], [7.39370546003261, 48.2640302945616], [7.39342855526034, 48.2632364099823], [7.3925513861861, 48.2633993331218], [7.39200071825773, 48.263300404584], [7.39342376882312, 48.2632243323978], [7.39302548971655, 48.2626094224], [7.39267010898886, 48.2615362150096], [7.39235253797321, 48.261623448943], [7.39193435425681, 48.2616920740938], [7.39189887490071, 48.2616242752078], [7.39153567704051, 48.2617114008367], [7.391073239004342, 48.26180036210571], [7.39189872478628, 48.2616208564335], [7.39266249256622, 48.2615371290174], [7.39124848118662, 48.2593398962119]], [[7.3894251795534, 48.2591380368999], [7.38952444200662, 48.2592797934727], [7.38939028420658, 48.2590966192024], [7.3894251795534, 48.2591380368999]], [[7.38935545629089, 48.2590560100214], [7.38934391422921, 48.2590422007832], [7.38937023513362, 48.2590730332291], [7.38935545629089, 48.2590560100214]], [[7.38905182753323, 48.2597331481878], [7.38896412675286, 48.2595795171751], [7.38908945500758, 48.2598624162579], [7.38905182753323, 48.2597331481878]]], [[[7.38994232413777, 48.2567254629466], [7.39064276049306, 48.257746203551], [7.39107878837709, 48.2576977348776], [7.39135820307746, 48.2573796958584], [7.39163604085273, 48.257249964589], [7.39184794019961, 48.2569039753347], [7.39119035009293, 48.2568360549154], [7.39110265906432, 48.2563911734523], [7.39086506670295, 48.2563544974546], [7.39012625149768, 48.2563870048033], [7.38994232413777, 48.2567254629466]], [[7.39093892736338, 48.2563793270374], [7.39093879283482, 48.2563793320382], [7.39078115243329, 48.2563677095521], [7.39093892736338, 48.2563793270374]], [[7.39087750711671, 48.2570217861308], [7.39087737258651, 48.2570217911315], [7.39088628974669, 48.2567968934689], [7.39087750711671, 48.2570217861308]], [[7.39058455442573, 48.2565686740111], [7.39073649945485, 48.2565751015883], [7.3907365069431, 48.2565751914248], [7.39058455442573, 48.2565686740111]], [[7.39073679201602, 48.2565818493279], [7.39075323063391, 48.2570235219487], [7.39067156762096, 48.2571948918639], [7.39075309610369, 48.2570235269493], [7.39073679201602, 48.2565818493279]]], [[[7.39360811675608, 48.2578059033421], [7.39395824146206, 48.2583243782886], [7.39410801133736, 48.2588061488554], [7.39451428892114, 48.2590431771784], [7.39478154741425, 48.2593058323139], [7.39578386198737, 48.2588095830614], [7.39731137211899, 48.2583131498245], [7.39677704119372, 48.2576398734672], [7.39623851040713, 48.2577649912503], [7.3963082741339, 48.2581060939516], [7.39606426423136, 48.2578083330469], [7.39490546938821, 48.2579557150334], [7.39435629266126, 48.2574809639251], [7.39360811675608, 48.2578059033421]]], [[[7.39348709476668, 48.2577609314866], [7.39187178736503, 48.256892184792], [7.3916478513211, 48.2572588974469], [7.3910987004524, 48.2577051050204], [7.39065468477083, 48.2577662163901], [7.39083458903393, 48.2587134841845], [7.39164351744783, 48.2597529854397], [7.39229566373349, 48.2596127616668], [7.39169493195661, 48.2597869396927], [7.39181605739586, 48.2600564754465], [7.39245303265621, 48.2599479045676], [7.392789061864375, 48.259913545770864], [7.39181604270746, 48.2600579178279], [7.39294093162762, 48.2618496562234], [7.39378061273106, 48.2639944275239], [7.39482444165609, 48.263708236976], [7.39595309085253, 48.2638530534041], [7.39613169817457, 48.2630904346379], [7.39559051430883, 48.2619618786363], [7.39547655848539, 48.2613742444275], [7.39465074084968, 48.2608080475498], [7.39386948836541, 48.259696795277], [7.39472293231094, 48.2593295504304], [7.39416745505615, 48.2589120755854], [7.39331837196782, 48.259245811962], [7.39415808826312, 48.2589049444735], [7.39348709476668, 48.2577609314866]], [[7.39290810649108, 48.2599722553158], [7.392905165911897, 48.259964407729896], [7.3929112044841006, 48.25997924847386], [7.39290810649108, 48.2599722553158]], [[7.3923192225411, 48.2596509053989], [7.39231267303113, 48.2596403351507], [7.39231935707787, 48.2596509003966], [7.3923192225411, 48.2596509053989]]], [[[7.39479303022454, 48.2593156782208], [7.3955643351331, 48.2606132024098], [7.39583092905974, 48.2612930219363], [7.39856106622634, 48.2609705283887], [7.39731911826293, 48.2583234950615], [7.39479303022454, 48.2593156782208]], [[7.39614410769338, 48.2600213808845], [7.396516616328168, 48.259895344686775], [7.395450244826579, 48.260261708283814], [7.39614410769338, 48.2600213808845]], [[7.39652613829576, 48.2599127228086], [7.39675865518731, 48.2598479272362], [7.396839828336441, 48.259826495819], [7.39675895425695, 48.2598482765651], [7.39652613829576, 48.2599127228086]], [[7.39750799280656, 48.2596563859239], [7.39750765623189, 48.2596555874174], [7.397784300838664, 48.25959392052977], [7.39750799280656, 48.2596563859239]]], [[[7.39474512189174, 48.2603362996611], [7.39525165528641, 48.2601831832973], [7.3948516724299, 48.2596885548782], [7.39390758581597, 48.2597005147814], [7.39474512189174, 48.2603362996611]]], [[[7.39576053970136, 48.2613163675604], [7.39525171565659, 48.2601855240389], [7.39451583829419, 48.2604075491853], [7.395491648742, 48.2613707091664], [7.39576053970136, 48.2613163675604]]], [[[7.39930669056352, 48.2634424646827], [7.3985739850349, 48.2610040207529], [7.3955387997238, 48.2614360002343], [7.39619432486043, 48.2631292866299], [7.39612153584587, 48.2642153547122], [7.39701873036003, 48.264846742422], [7.39717941781848, 48.2656543174582], [7.39832083081044, 48.2656281407139], [7.39802207900019, 48.264602672174], [7.39888877499653, 48.2642140905538], [7.39876220465248, 48.2634823842708], [7.39930669056352, 48.2634424646827]]], [[[7.39451324973888, 48.2657208972247], [7.3962340717613, 48.2684869236853], [7.3976806969389, 48.2685298708019], [7.3968300542634, 48.2647175109606], [7.39619691995462, 48.2643536692186], [7.3959030285716, 48.2639291707213], [7.39483098814875, 48.2637333156643], [7.39379683722744, 48.2640465411414], [7.39442694903594, 48.2649745345878], [7.39451324973888, 48.2657208972247]]], [[[7.39770873163579, 48.267818183932], [7.39771380184543, 48.2670319255136], [7.39741591652309, 48.2668250258476], [7.39770873163579, 48.267818183932]]], [[[7.39660499024858, 48.2699032375727], [7.39687000166557, 48.2688044332579], [7.39797717509523, 48.2686195833079], [7.39642319073314, 48.2686617376265], [7.39631544610479, 48.2699031075403], [7.39660499024858, 48.2699032375727]]]]}}]}