{"type": "FeatureCollection", "features": [{"type": "Feature", "properties": {"id": "AOC-Alsace-Klevener-de-Heiligenstein", "name": "Alsace Klevener de Heiligenstein", "tier": "denomination"}, "geometry": {"type": "MultiPolygon", "coordinates": [[[[7.45705916894987, 48.4232879472836], [7.4624349922237, 48.4215358677552], [7.4603979973165, 48.4173020802834], [7.45696858619445, 48.419168635344], [7.45719052651602, 48.4210463433972], [7.45705916894987, 48.4232879472836]], [[7.4593487958957, 48.4195272868108], [7.45848512615505, 48.4198779575798], [7.45845770817962, 48.4198228967037], [7.4593487958957, 48.4195272868108]]], [[[7.45369539122785, 48.4206867982159], [7.45361373063282, 48.420293842596], [7.45327247680721, 48.4203786635755], [7.45150667657799, 48.4214563787063], [7.45154773022033, 48.4220411678616], [7.45188251954841, 48.4220523798811], [7.45139394261285, 48.4227421256781], [7.45189715450924, 48.4227374599927], [7.45165419021781, 48.4230045653552], [7.4520166861224, 48.4231604406198], [7.45134172012054, 48.4234195343463], [7.4523180916719, 48.4236974227694], [7.45137075955077, 48.4237285039768], [7.45139060891551, 48.4238620187732], [7.45282510756199, 48.4238332687291], [7.45289101102768, 48.4232742871115], [7.45324613789439, 48.4222994024701], [7.45293922788373, 48.4235698309659], [7.45652467213787, 48.423656180386], [7.45696762801982, 48.4234152435205], [7.45691438791322, 48.4192382099932], [7.45370179427912, 48.4202787287553], [7.4537835166752, 48.4207442189531], [7.45525782666454, 48.420697450132], [7.45526270308127, 48.4209319983438], [7.45519336129841, 48.4207322225665], [7.45388613503812, 48.4208240724593], [7.45369539122785, 48.4206867982159]]], [[[7.46147673562517, 48.4239279660939], [7.45991047072344, 48.422654309582], [7.45722909950162, 48.4232994426074], [7.46147673562517, 48.4239279660939]]], [[[7.45709133621287, 48.42439880523], [7.45683574160981, 48.4236031227409], [7.45611980861454, 48.4239296537793], [7.45709133621287, 48.42439880523]]], [[[7.46166875661451, 48.4240655410435], [7.45694494336097, 48.4235546827669], [7.45719572066344, 48.424499314516], [7.45438714658603, 48.4245418353274], [7.45441249503649, 48.4242565925398], [7.45387553053042, 48.4241412517998], [7.45396616580267, 48.4248361805264], [7.45371075039974, 48.4249612973832], [7.45348243691281, 48.424481853885], [7.45270964940677, 48.424660380025], [7.4522199347823, 48.4239527811316], [7.45128493846163, 48.4240575565973], [7.45166941060987, 48.4250952113821], [7.45101789728629, 48.425219250881], [7.4511557937139, 48.4264863892812], [7.45148650831411, 48.4263198843676], [7.45206778197836, 48.4261481113565], [7.45130916649996, 48.4265036964355], [7.45078642727279, 48.4266090206905], [7.4519098385524, 48.4270156520089], [7.45187969108844, 48.4272157416391], [7.45111884358254, 48.4269847193553], [7.45152310464038, 48.4273262712399], [7.45458928443512, 48.4281543126638], [7.45549087965164, 48.4284352586727], [7.45544839143538, 48.427781503403], [7.45580806551557, 48.427855746637], [7.45655188576805, 48.4270293356057], [7.45600151410002, 48.4260817319386], [7.45665523539516, 48.4259980404934], [7.45614267311319, 48.4261417526281], [7.45667225163452, 48.4270070582733], [7.45587541021138, 48.4278739395162], [7.45564012519252, 48.4278917958309], [7.45558805461356, 48.428465125612], [7.46095399645053, 48.4300745389655], [7.46080743458032, 48.427819248448], [7.46096190551196, 48.4267069982303], [7.46099239140748, 48.4266260150105], [7.46111534567015, 48.4265816492637], [7.46233890983986, 48.426321038838], [7.46224340742274, 48.4245810407712], [7.46166875661451, 48.4240655410435]], [[7.46009536494038, 48.4241423364869], [7.45926152698506, 48.4241612797043], [7.45917156908811, 48.4239867911528], [7.46009536494038, 48.4241423364869]], [[7.45721163623146, 48.425581362524], [7.45722895045999, 48.4255508856429], [7.45722222099457, 48.4256007881735], [7.45721163623146, 48.425581362524]], [[7.45860559737796, 48.4242856183502], [7.45807561537529, 48.4243291643415], [7.45796980778629, 48.424001456856], [7.45871508830786, 48.4239153899397], [7.45860559737796, 48.4242856183502]]], [[[7.4591391706312, 48.4302424893357], [7.45930916290212, 48.4296280469408], [7.45140973155706, 48.4273256636411], [7.45248008755658, 48.4283420571858], [7.4578229447128, 48.4299297683188], [7.4591391706312, 48.4302424893357]]], [[[7.464327338689, 48.4208312202729], [7.46401073661445, 48.4196104603258], [7.46189677428098, 48.4202396485838], [7.46251481029797, 48.4215097492498], [7.464327338689, 48.4208312202729]]], [[[7.46241516169155, 48.4239975201291], [7.46186021770076, 48.4229683375016], [7.46222691855683, 48.4228818130639], [7.46228864183171, 48.4216870840779], [7.46110248616499, 48.4221285799714], [7.46124265033581, 48.4224828358407], [7.46075863680234, 48.4226417598852], [7.46054656963603, 48.4223494111876], [7.45997561235984, 48.4226083807852], [7.46158461911591, 48.423954856816], [7.46241516169155, 48.4239975201291]]], [[[7.46233559506647, 48.4246048274072], [7.4628924578826, 48.4245430394077], [7.4628616392274, 48.424233055927], [7.46175278551976, 48.4240793629134], [7.46233559506647, 48.4246048274072]]], [[[7.46779690755236, 48.4257713743132], [7.46697687807391, 48.4244302025498], [7.46421996228833, 48.4243925250193], [7.46554819515329, 48.42576510627732], [7.46644556862275, 48.4291366299011], [7.46750125651532, 48.4295709919015], [7.46716314984292, 48.4282756336756], [7.46732727697211, 48.4258035401264], [7.465821683298331, 48.42577047640467], [7.46779690755236, 48.4257713743132]]], [[[7.46225361079264, 48.4286289896775], [7.46227580648527, 48.427646913644], [7.4620313902453, 48.4276632432913], [7.46235570756013, 48.4276415715154], [7.46210374448683, 48.4270856748308], [7.4623830603907, 48.4270506940994], [7.46229729800852, 48.4263618927481], [7.46103270558386, 48.4266415730437], [7.46102070322983, 48.4288854430044], [7.46225361079264, 48.4286289896775]]]]}}]}