{"type": "FeatureCollection", "features": [{"type": "Feature", "properties": {"id": "AOC-Alsace-Côte-de-Rouffach", "name": "Alsace Côte de Rouffach", "tier": "denomination"}, "geometry": {"type": "MultiPolygon", "coordinates": [[[[7.28110059896452, 47.9485133236429], [7.27930205371097, 47.9484123312382], [7.27931435852276, 47.9486228684086], [7.27906914955525, 47.9489105651775], [7.27927016672195, 47.9484444066574], [7.27745403593321, 47.948758697538], [7.27454730459909, 47.9495829434867], [7.2730113767913, 47.9506511390834], [7.27412938882845, 47.9514023855483], [7.27459368573901, 47.9520024862608], [7.27523637916047, 47.9521479850249], [7.27518870450609, 47.9523785501628], [7.27447178820544, 47.9519366253875], [7.27414708742119, 47.9520592990339], [7.27440284097925, 47.9530960793827], [7.27477667277405, 47.9533445571308], [7.27531303692402, 47.9531613624969], [7.2764331131093, 47.9519121704945], [7.27830777308151, 47.9508507856671], [7.27872543779847, 47.9507664408185], [7.27968862000617, 47.9510380397259], [7.28065927714262, 47.952176011927], [7.28153616632726, 47.9523040169381], [7.28267799831688, 47.9518622183706], [7.28192136201958, 47.9511917832278], [7.28056671745676, 47.9494555911736], [7.28038878848587, 47.9493604149229], [7.27977219108756, 47.9495212340662], [7.27966019069609, 47.9494782702876], [7.28154936468078, 47.9488723373064], [7.28110059896452, 47.9485133236429]]], [[[7.27437613831065, 47.9518701694843], [7.27295213266341, 47.9506684360534], [7.26677377572214, 47.9521224056117], [7.26718798753025, 47.9526013312981], [7.26775849539959, 47.9525137256168], [7.26843270339517, 47.9529340796102], [7.2706408338688, 47.9518464630747], [7.27093333817074, 47.9517686812706], [7.2683750763396, 47.9531030864141], [7.26935308677609, 47.9534940069036], [7.26938903345104, 47.9538735698585], [7.27031854063398, 47.9540702235274], [7.27124295748334, 47.9533330848162], [7.27247298815662, 47.9529439692833], [7.27440616585012, 47.9531822086704], [7.27416016583885, 47.9525441501602], [7.27409264736879, 47.9519831414998], [7.27437613831065, 47.9518701694843]]], [[[7.27832552773933, 47.9508912362801], [7.27789509436385, 47.9519425563227], [7.27805368210306, 47.9521903032893], [7.27830554328872, 47.9531745861099], [7.27842021642016, 47.9528883139041], [7.27877556012731, 47.9526998914581], [7.27955098153081, 47.9526363053603], [7.27832552773933, 47.9508912362801]]], [[[7.27807938613312, 47.9511160559987], [7.27633066464145, 47.9520524421236], [7.27539790751789, 47.9532205494739], [7.27487717261245, 47.9534212006678], [7.27446403277055, 47.953320788571], [7.2746748503624, 47.9537953773257], [7.27427881955313, 47.9532218127136], [7.27250606958031, 47.9530597487106], [7.27123078034885, 47.9534383436919], [7.2704222972895, 47.9541224183617], [7.271043540954, 47.9544710520066], [7.27193695828853, 47.955316557424], [7.27290122661131, 47.954720895616], [7.27359800993198, 47.9545335850193], [7.27400954141873, 47.9544792231003], [7.27573361679134, 47.9546742219196], [7.27669504289617, 47.9531944958587], [7.2772473978583, 47.9527224870577], [7.27800939234645, 47.9522399539679], [7.27783735696728, 47.9519419559092], [7.27807938613312, 47.9511160559987]]], [[[7.27885254567345, 47.9534240425924], [7.27975492184995, 47.9530002823489], [7.27956734947241, 47.9526645491902], [7.27850519344292, 47.9529022516369], [7.27885254567345, 47.9534240425924]]], [[[7.27851626178859, 47.9541576633506], [7.27859156075043, 47.9535316089138], [7.27826588959171, 47.9533115802258], [7.27796246914432, 47.9540817646487], [7.27851626178859, 47.9541576633506]]], [[[7.26926741579358, 47.9535413730995], [7.26874965399369, 47.9534378051564], [7.26866700648318, 47.9537109150885], [7.26913220097171, 47.9541878010547], [7.26926741579358, 47.9535413730995]]], [[[7.27674393825963, 47.9532101995448], [7.27624024678525, 47.9543518705061], [7.2757548256736, 47.9547076073534], [7.27392684024321, 47.9545400936373], [7.27277731601765, 47.9548397733965], [7.27387881216598, 47.9554450801605], [7.27393940571031, 47.9557555204799], [7.27499315975107, 47.9555657547174], [7.27535336247479, 47.9561705430572], [7.2768205811648, 47.9556925368683], [7.27824361424859, 47.9532417330236], [7.27801264810407, 47.9522885935178], [7.27674393825963, 47.9532101995448]], [[7.27531238909539, 47.9551920987077], [7.27525153440752, 47.954981617594], [7.27539555441001, 47.9554795459702], [7.27531238909539, 47.9551920987077]]], [[[7.27788561222585, 47.9543096988908], [7.27787986892339, 47.9548867135568], [7.2784341108414, 47.954828489251], [7.27830478389039, 47.9542669400021], [7.27788561222585, 47.9543096988908]]], [[[7.27752621150565, 47.9549798981184], [7.27712581388254, 47.9554830536383], [7.27823202605529, 47.9556939396492], [7.27834585689979, 47.9548886640921], [7.27752621150565, 47.9549798981184]]], [[[7.26940154947371, 47.9539739651058], [7.26925007087483, 47.9542320034127], [7.26990505001014, 47.9549261285951], [7.26940659150582, 47.9553654069119], [7.26961340568536, 47.9560488784527], [7.26911403590983, 47.9567001623494], [7.26946858453776, 47.95700739805], [7.27093031843098, 47.955996035727], [7.26952784374913, 47.9570218267244], [7.27049977983488, 47.9577026229856], [7.27195458461919, 47.9553920722305], [7.27077788655484, 47.9543577824463], [7.26940154947371, 47.9539739651058]]], [[[7.27867061830063, 47.9747692947401], [7.27636040417721, 47.9752474359901], [7.27756507682309, 47.9775467289365], [7.27758163755173, 47.977823258939], [7.27902489581305, 47.9781114634796], [7.27923875073409, 47.9774738834582], [7.27932734809361, 47.9774241520748], [7.27903464477115, 47.9781141726471], [7.2797572780724, 47.9783129825536], [7.28034803103586, 47.978605546], [7.28049553397859, 47.9778280738211], [7.2798661632424, 47.9769445283579], [7.2799202784013, 47.9762670719931], [7.27941097401787, 47.9755419154411], [7.27934189590164, 47.9750972325059], [7.27867061830063, 47.9747692947401]]], [[[7.2753299665486, 47.9754066080202], [7.27690907540924, 47.9773516991078], [7.27753905245981, 47.9776350071419], [7.27623503702121, 47.9751675526029], [7.2753299665486, 47.9754066080202]]], [[[7.27381253453414, 47.9757249832818], [7.27445438665336, 47.9770640428212], [7.27580128702936, 47.9772997340094], [7.27617479573931, 47.9774638652903], [7.27678992633655, 47.9772973654555], [7.27527785337355, 47.9754577124817], [7.27381253453414, 47.9757249832818]]], [[[7.27362177117288, 47.976729329296], [7.27380677204245, 47.9773203943233], [7.27501481147865, 47.9772558044308], [7.27441657374004, 47.9771194030641], [7.27407591056505, 47.9766968565793], [7.27362177117288, 47.976729329296]]], [[[7.27360643695355, 47.9775873299257], [7.27392000576329, 47.9783394563951], [7.2754991807435, 47.9787451484082], [7.2754193890167, 47.9783037389584], [7.27551603268337, 47.9787427326663], [7.27932477839315, 47.978249607137], [7.27778968408607, 47.9780774957563], [7.27688727059444, 47.9773925081668], [7.27630612288951, 47.9775476776131], [7.27572907014769, 47.9773246230073], [7.27491694563222, 47.9772988399807], [7.27437317010343, 47.9773682834589], [7.27425919544908, 47.9773298012155], [7.27360643695355, 47.9775873299257]], [[7.27497469488703, 47.9774871715099], [7.27498651258773, 47.9775254949857], [7.27492013129422, 47.9773117019782], [7.27497469488703, 47.9774871715099]]], [[[7.27364013936202, 47.9795055702482], [7.27534719597559, 47.9794364351213], [7.2767996865838, 47.9794911800983], [7.27735451504691, 47.9792408946574], [7.27731943168413, 47.9789510699416], [7.27776766509911, 47.9786607722193], [7.27539190100677, 47.9787730254175], [7.27347317117501, 47.9784210503465], [7.27364013936202, 47.9795055702482]]], [[[7.27799207866296, 47.978771925937], [7.27740531349023, 47.9789457803051], [7.27747779941725, 47.9792931846842], [7.27694936421535, 47.9795362012147], [7.27369970824046, 47.9795667607683], [7.27372671991984, 47.980452149458], [7.27658878401033, 47.980489954504], [7.27845861015958, 47.979871400058], [7.27906534453085, 47.9797701748555], [7.27902715521365, 47.9793523064253], [7.27930586003015, 47.9797598828286], [7.27950548995338, 47.9783199011284], [7.27778541806349, 47.9784501357335], [7.27799207866296, 47.978771925937]]], [[[7.27374653742045, 47.9810387675771], [7.27530412354172, 47.9806239477242], [7.27374503964132, 47.9805211490539], [7.27374653742045, 47.9810387675771]]], [[[7.27568342891763, 47.9811921674271], [7.27535567577614, 47.9808202550349], [7.27487962736692, 47.9809924999955], [7.27492604514027, 47.9811168948698], [7.27568342891763, 47.9811921674271]]], [[[7.27857491664265, 47.9799004206186], [7.27698873045623, 47.9804425910121], [7.27539344312611, 47.9807809384498], [7.27674747190242, 47.9820828029695], [7.27692382633107, 47.9823749653437], [7.27803953442324, 47.9822577422969], [7.27857658026398, 47.9802699604801], [7.27857491664265, 47.9799004206186]]], [[[7.27492647920402, 47.9811522077567], [7.2749812281357, 47.9815062062479], [7.27554335755038, 47.9812745010654], [7.27492647920402, 47.9811522077567]]], [[[7.27564092193534, 47.9812775297966], [7.27508202981821, 47.9815410216262], [7.2749695506277, 47.9825256647336], [7.27527422665031, 47.9825284582772], [7.27526492084898, 47.9830351141359], [7.27734023995764, 47.9831429866981], [7.27658627388735, 47.9819799804706], [7.27564092193534, 47.9812775297966]]], [[[7.27880685251399, 47.9830173083183], [7.2774577599856, 47.9831670075337], [7.27787696842006, 47.9839727775407], [7.27920579917057, 47.9831716726626], [7.2789864737359, 47.9827050653673], [7.27880685251399, 47.9830173083183]]], [[[7.27831027899681, 47.9843696799034], [7.27719692287881, 47.9854274434696], [7.27805079978446, 47.9853652660476], [7.27934476105817, 47.9854214310307], [7.27930007152483, 47.9843467047314], [7.27831027899681, 47.9843696799034]]], [[[7.27831851073935, 47.9865869749693], [7.27826155653421, 47.987126638668], [7.27860784584119, 47.9869861442878], [7.27891823512413, 47.9869513197946], [7.27923043261663, 47.9865102391419], [7.27831851073935, 47.9865869749693]]], [[[7.2805733235783, 47.9493895581465], [7.28206247790764, 47.9512015081892], [7.28266514372392, 47.9509478148664], [7.28206666624303, 47.9512068531606], [7.28271593195238, 47.9518352390169], [7.28398471583068, 47.9513211117508], [7.28165655615712, 47.9489122301137], [7.2805733235783, 47.9493895581465]]], [[[7.27931461604528, 47.9511580189404], [7.27976081425742, 47.9512475654864], [7.27860190543187, 47.9508781019705], [7.27880135108287, 47.9512347638289], [7.27931461604528, 47.9511580189404]]], [[[7.28146770737321, 47.9523650048988], [7.28225152187432, 47.9534181190122], [7.28306661819521, 47.9527779675274], [7.28333298707061, 47.9526574865613], [7.28268329947084, 47.9519477351418], [7.28146770737321, 47.9523650048988]]], [[[7.27881598241131, 47.9512614487671], [7.28090904539141, 47.9543777002575], [7.28184780744839, 47.9564913588005], [7.28388252566939, 47.9559635491559], [7.28300643638594, 47.9552022141245], [7.28225522245569, 47.9552187944213], [7.28265490562976, 47.9556702613535], [7.28234034376528, 47.9554386623803], [7.28211059350539, 47.9550528286692], [7.28292734677849, 47.9550935224556], [7.28252949221067, 47.9545401471403], [7.28239494266743, 47.9537302232128], [7.2813216577876, 47.9523573516495], [7.28061458334121, 47.9522090050676], [7.27955433786825, 47.9512142635115], [7.27881598241131, 47.9512614487671]]], [[[7.27918163065099, 47.9534071843753], [7.28010845471305, 47.9545867738246], [7.28117566751712, 47.9575964732707], [7.28317021856795, 47.9578260293053], [7.2827115041392, 47.9563390056553], [7.28120353328381, 47.9567872082612], [7.28181696500758, 47.9565430440104], [7.28086065289767, 47.9543931635122], [7.2798577843198, 47.9531459624606], [7.27918163065099, 47.9534071843753]]], [[[7.27970103184275, 47.9544062294098], [7.27850394186926, 47.9547495183532], [7.27837468794549, 47.9569989008723], [7.27904953437089, 47.9567208800971], [7.2800804112073, 47.9565252331309], [7.27977713258313, 47.9566110002215], [7.28025564460874, 47.9572727494328], [7.28045718470099, 47.9577645207795], [7.28104073052496, 47.9576268978238], [7.28007006943259, 47.9547576998249], [7.27970103184275, 47.9544062294098]]], [[[7.27896245024838, 47.9568354485976], [7.27948087981029, 47.9580480369007], [7.28041959935902, 47.9577776070367], [7.27974027699967, 47.9566198237849], [7.27896245024838, 47.9568354485976]]], [[[7.28115917691998, 47.9576663812254], [7.28015078455476, 47.9579396268551], [7.2808480693064, 47.959527013439], [7.28167524952229, 47.9593372470192], [7.28115917691998, 47.9576663812254]]], [[[7.28125103769752, 47.9576524877753], [7.2820610734331, 47.960139900569], [7.28259837962964, 47.9603761764567], [7.283329964654, 47.9602237718622], [7.28383018105473, 47.9603132280459], [7.28392029573419, 47.9601449205496], [7.28338754012419, 47.9590089377503], [7.28315008937399, 47.9578957098215], [7.28125103769752, 47.9576524877753]]], [[[7.27952507785523, 47.9600073814668], [7.28054296915418, 47.9608792945187], [7.28210017152659, 47.9602866418667], [7.28170234637808, 47.9593687044388], [7.27952507785523, 47.9600073814668]]], [[[7.28235871864745, 47.9602797384541], [7.28066636022807, 47.9609367136329], [7.2810754969435, 47.9622371849621], [7.28345509373193, 47.9619375474412], [7.28280298775067, 47.9607162405734], [7.2835572221928, 47.9619493243602], [7.28437027851046, 47.961393693766], [7.28410652864976, 47.9610807542333], [7.28391235438048, 47.9603072566047], [7.28339187563733, 47.9604103276203], [7.28332045182575, 47.9602355647866], [7.28259632546117, 47.9603856244459], [7.28235871864745, 47.9602797384541]]], [[[7.28115891475104, 47.9623013780746], [7.28179033999856, 47.9643579187912], [7.28315150812335, 47.9641378625076], [7.28293137253074, 47.96335359521], [7.28286245805405, 47.9620611819851], [7.28115891475104, 47.9623013780746]]], [[[7.28326413083701, 47.9645184117598], [7.28311339009794, 47.9642191038436], [7.28176136131606, 47.9644277409837], [7.28187693947008, 47.9647852014072], [7.28326413083701, 47.9645184117598]]], [[[7.27941209957929, 47.9751687578271], [7.27999620594291, 47.9764210328864], [7.28032034169008, 47.9763843495105], [7.2800502726613, 47.9768276888221], [7.28055203183377, 47.9778113250388], [7.28236415201337, 47.9785376647676], [7.28183963963222, 47.9754117851563], [7.28196804550413, 47.9752302799168], [7.27941209957929, 47.9751687578271]]], [[[7.28057318016403, 47.9786925147751], [7.28249610627172, 47.9789229151229], [7.28252742803797, 47.9787890196292], [7.28056103067305, 47.9779376223961], [7.28057318016403, 47.9786925147751]]], [[[7.27963982089737, 47.9783344749473], [7.27932431745951, 47.9798304990667], [7.27972081731864, 47.9800927392233], [7.27976426958441, 47.9801836242116], [7.27982771082084, 47.981126539181], [7.28143577698793, 47.9815027138198], [7.28139243160216, 47.9804434367108], [7.28081856818635, 47.9790431715094], [7.27963982089737, 47.9783344749473]]], [[[7.27863590554925, 47.9800522223581], [7.27846527959267, 47.981442837109], [7.27981889084686, 47.9812698880098], [7.27966877914435, 47.980104908937], [7.27902045402619, 47.9798458921238], [7.27863590554925, 47.9800522223581]]], [[[7.28081245556251, 47.9788496261857], [7.28147161899927, 47.9804798454534], [7.28157329782006, 47.9817525748447], [7.28278059203638, 47.9826287466727], [7.28306483955965, 47.9816966809142], [7.28290067086475, 47.9801545934828], [7.28302531060809, 47.9792607888911], [7.28081245556251, 47.9788496261857]]], [[[7.27843116981607, 47.9815706138078], [7.278153595003, 47.9822971193582], [7.27693266326482, 47.9824179033101], [7.27740868409129, 47.9831194961441], [7.27873270847697, 47.9829901771657], [7.2788652937192, 47.9826440481202], [7.27930284218434, 47.9824920254609], [7.2792744726593, 47.9831560134591], [7.28071540895618, 47.9831494895044], [7.28066635826984, 47.9824745320613], [7.28072566192753, 47.9822765310111], [7.28095158572664, 47.9820639875315], [7.27983702803567, 47.9819876995377], [7.27976561447719, 47.9819063048062], [7.28166279033983, 47.9820094131472], [7.28138971779769, 47.9815606299037], [7.28026688435645, 47.9813120594659], [7.27843116981607, 47.9815706138078]], [[7.27976644872855, 47.9819016780724], [7.27976685025556, 47.9819016634468], [7.27976561447719, 47.9819063048062], [7.27976644872855, 47.9819016780724]]], [[[7.28076644064058, 47.9823093827502], [7.28081298440001, 47.9831642298514], [7.28182046487258, 47.9830232460685], [7.28204692287718, 47.9826612545958], [7.28254145160654, 47.9826445829423], [7.28172170047179, 47.9820440372105], [7.28076644064058, 47.9823093827502]]], [[[7.28212713699679, 47.9826953724526], [7.28192576931939, 47.9830439224303], [7.28158604502882, 47.9831323673823], [7.28051942283047, 47.9832491872861], [7.28048591590863, 47.9842613331138], [7.28197417439559, 47.9841473549299], [7.28298190295981, 47.9841918290638], [7.28271922588425, 47.9827530121325], [7.28212713699679, 47.9826953724526]]], [[[7.27930730438913, 47.9831918588347], [7.27872980682007, 47.9843117750999], [7.28041438908448, 47.9842599732923], [7.2804697733991, 47.9832278340463], [7.27930730438913, 47.9831918588347]]], [[[7.27932469650693, 47.9843474301455], [7.27955513576179, 47.9854149408753], [7.28062644697621, 47.985350593311], [7.28061481829629, 47.9848811989078], [7.28069064881549, 47.9853842140348], [7.2818720742069, 47.9854248939979], [7.28183489914702, 47.9847758209594], [7.28189612492082, 47.9854268114361], [7.2822564973085, 47.9854408061775], [7.28293698863833, 47.9842971093896], [7.27932469650693, 47.9843474301455]]], [[[7.27863598209264, 47.9854999643557], [7.27876350204127, 47.9859500874694], [7.27856991475587, 47.985466500606], [7.27757601919249, 47.985414004087], [7.27762890233965, 47.9861667780469], [7.27821278552868, 47.9862437564224], [7.27826619510163, 47.9865741895005], [7.27929619057164, 47.9864933344284], [7.28153704438249, 47.9866774830444], [7.28194242331462, 47.9860924050281], [7.2815262984637, 47.9860796295116], [7.28194841118338, 47.9860834447667], [7.28228848688576, 47.9855110188795], [7.27863598209264, 47.9854999643557]]], [[[7.28213200087719, 47.9859648200808], [7.28167947475068, 47.9866790526096], [7.28202699430621, 47.9866601706842], [7.28318598145263, 47.9867666358319], [7.28366264073207, 47.9867509727378], [7.28364061323166, 47.9860371791655], [7.28213200087719, 47.9859648200808]]], [[[7.27893374132079, 47.9869920319894], [7.27773093028922, 47.9876924686076], [7.27964309902832, 47.9879071851344], [7.28062802858711, 47.9884144885229], [7.28160155729157, 47.9867481330677], [7.2793424480143, 47.9865358106709], [7.27893374132079, 47.9869920319894]]], [[[7.2818179545745, 47.9870701028717], [7.28160349447604, 47.9869065910828], [7.28082938952833, 47.988434190504], [7.28273186588787, 47.988228060595], [7.28323154446044, 47.9873814256656], [7.28369754304242, 47.9868837153738], [7.28167190476369, 47.9867066361017], [7.2818179545745, 47.9870701028717]]], [[[7.28056915871881, 47.9885764230528], [7.279382880578, 47.9899002915598], [7.2821723128722, 47.9895929252164], [7.28271475595575, 47.9883070021603], [7.28056915871881, 47.9885764230528]]], [[[7.27953379179673, 47.9885697025598], [7.27827370046486, 47.9892328448584], [7.2781576753118, 47.989754290043], [7.27884702733818, 47.9892917301102], [7.27952498470305, 47.9889009587677], [7.27994947463877, 47.988698040957], [7.28050117393731, 47.9885242843], [7.27953379179673, 47.9885697025598]]], [[[7.28050925318912, 47.9885378691149], [7.27887891308347, 47.9892958864042], [7.27818571149958, 47.9897573249425], [7.2793321866728, 47.9898777140186], [7.28050925318912, 47.9885378691149]]], [[[7.28413467459027, 47.9513954026605], [7.28270017349549, 47.9519407207613], [7.28334506071257, 47.9526425358284], [7.28509817590559, 47.9521548915055], [7.28413467459027, 47.9513954026605]]], [[[7.28444134243628, 47.9524090412447], [7.28477152540884, 47.9527161313896], [7.28545136269997, 47.953612415152], [7.28438133257381, 47.9523952783597], [7.28359985207351, 47.9526211648212], [7.28459666738813, 47.9544496022577], [7.2857213575307, 47.9548506316063], [7.28605629311576, 47.9550287545342], [7.2875353944034, 47.9545829819388], [7.2852269207297, 47.9521857932953], [7.28444134243628, 47.9524090412447]]], [[[7.28322158699702, 47.9527415820825], [7.28227788561012, 47.9535019663643], [7.28244346061799, 47.9537146645805], [7.28258291921414, 47.9545305380391], [7.28300542243139, 47.9551166312744], [7.284868214008, 47.9553604243666], [7.28584860331721, 47.9550885176612], [7.28458146275546, 47.9545303693881], [7.2837513901694, 47.9529390100894], [7.28322158699702, 47.9527415820825]]], [[[7.28321183158415, 47.9553264873117], [7.28395525626838, 47.9559404374039], [7.28515493621725, 47.9554118790645], [7.28321183158415, 47.9553264873117]]], [[[7.28722712391594, 47.9547261817327], [7.28514576165889, 47.9555439784211], [7.28551063945652, 47.9562117477611], [7.28585608047988, 47.9576178181691], [7.28635347290376, 47.9577124131444], [7.28732566415237, 47.9549126608351], [7.28722712391594, 47.9547261817327]]], [[[7.28480579268939, 47.9557632228794], [7.28523154890194, 47.9574940630632], [7.28572198973684, 47.9575890044152], [7.28512324448939, 47.9556371794584], [7.28480579268939, 47.9557632228794]]], [[[7.28472076361035, 47.9558267098111], [7.28280649679122, 47.9563655533926], [7.28321937931116, 47.9577984603187], [7.28517427674105, 47.9574876809831], [7.28472076361035, 47.9558267098111]]], [[[7.28552818842356, 47.9575949951121], [7.28576717956599, 47.959244234023], [7.28699624392227, 47.9590250724087], [7.28657893145049, 47.9583995978394], [7.2863928453452, 47.9577910983092], [7.28552818842356, 47.9575949951121]]], [[[7.28535388644764, 47.9576994127224], [7.28320670735241, 47.9579022970041], [7.2840512367174, 47.9602160303378], [7.28591999354319, 47.9597731951761], [7.28579861983106, 47.9595898017021], [7.28535388644764, 47.9576994127224]]], [[[7.28401062477456, 47.9602696946292], [7.28444807088821, 47.9613501190801], [7.28567219087713, 47.9608966461505], [7.28565927544669, 47.9604184582725], [7.28600892544023, 47.9602522142592], [7.2858462309509, 47.9599445128165], [7.28401062477456, 47.9602696946292]]], [[[7.28594559655316, 47.9609025314001], [7.28596261188087, 47.9612936881461], [7.28703775338663, 47.9611052901784], [7.28675203115633, 47.9605508090503], [7.28594559655316, 47.9609025314001]]], [[[7.28577835557215, 47.9609317966927], [7.28499310346812, 47.9616816362825], [7.28535156960833, 47.9615894269761], [7.28568490660401, 47.9615498657809], [7.28596370537943, 47.9615427564288], [7.28577835557215, 47.9609317966927]]], [[[7.28502227515062, 47.9612724818631], [7.28429083371774, 47.9614948289737], [7.2840007704205, 47.9618372528468], [7.28491804775896, 47.9616960008138], [7.28502227515062, 47.9612724818631]]], [[[7.28604458498071, 47.9617181642157], [7.28599557057457, 47.9623679583771], [7.28595311668974, 47.9624701782372], [7.2855409401286, 47.9627245927471], [7.28543045815628, 47.9634357513176], [7.28742325230815, 47.9630021603688], [7.28719772868602, 47.9615467463165], [7.28604458498071, 47.9617181642157]]], [[[7.28498282863072, 47.9616956201572], [7.28499744056904, 47.9620156648421], [7.28472095203998, 47.9627814569731], [7.2848440380531, 47.9640694606141], [7.28509251694516, 47.9641153723595], [7.28543145204603, 47.9628142973608], [7.28592600418197, 47.962375544013], [7.28597624417701, 47.9616529735429], [7.28498282863072, 47.9616956201572]]], [[[7.28490832986457, 47.9617102347397], [7.2829676611777, 47.9621060135762], [7.28327500104499, 47.9641781515598], [7.28478975996683, 47.9640437721039], [7.28466869378256, 47.9627574972683], [7.28490832986457, 47.9617102347397]]], [[[7.28324387153483, 47.9642545416816], [7.28366357541311, 47.9651684309889], [7.28545031455043, 47.964845855921], [7.28521291425302, 47.9642152553744], [7.28324387153483, 47.9642545416816]]], [[[7.28188053865078, 47.9648313947214], [7.28214941942126, 47.9665708381358], [7.28554706731289, 47.9658478585518], [7.28548063567109, 47.9649867878153], [7.28353977876857, 47.9652339608194], [7.28323366644915, 47.9646046914187], [7.28188053865078, 47.9648313947214]]], [[[7.28195398411596, 47.9754166300672], [7.28231859041442, 47.9770759686161], [7.2845200392097, 47.976922072893], [7.284434132832, 47.9759761891489], [7.28195398411596, 47.9754166300672]]], [[[7.28229957154887, 47.9772541177081], [7.28251527480277, 47.9786968143393], [7.28328855821837, 47.9791233049289], [7.28327290121388, 47.9770889462826], [7.28229957154887, 47.9772541177081]]], [[[7.28567243902402, 47.9770044130675], [7.28332577309455, 47.9770821519133], [7.2833894292866, 47.9791971347888], [7.284866094486, 47.979489189092], [7.2848324331563, 47.9789453412941], [7.28430408816168, 47.9789384726956], [7.28433997053756, 47.9783980370347], [7.28566215555059, 47.9783554020823], [7.28567243902402, 47.9770044130675]]], [[[7.28307579014982, 47.9791430481853], [7.28312702543452, 47.9814431464593], [7.28386238458584, 47.9814400403012], [7.28388267518878, 47.9794653876537], [7.28307579014982, 47.9791430481853]]], [[[7.28395455421494, 47.9795259443118], [7.28396505329229, 47.9813933074512], [7.28681008891467, 47.9810638672054], [7.28659416278597, 47.9801440892155], [7.28487766625569, 47.9802278811385], [7.28481584472666, 47.9795284235199], [7.28395455421494, 47.9795259443118]]], [[[7.28312067998246, 47.9816833797617], [7.28283651355426, 47.9826678952555], [7.28303728509404, 47.9830507262097], [7.2846641938359, 47.9832804407898], [7.28500209226021, 47.9830583083417], [7.28481981666002, 47.9826653426336], [7.28404704867697, 47.9825480596972], [7.28555797077809, 47.9824029257477], [7.28527460185505, 47.9813777272278], [7.28312067998246, 47.9816833797617]]], [[[7.28303005316014, 47.9837680208004], [7.28379652814914, 47.983867064786], [7.28379107018563, 47.9835871565581], [7.2844036528087, 47.9836059182758], [7.28455386980161, 47.983323848247], [7.28303456316547, 47.9830867851351], [7.28303005316014, 47.9837680208004]]], [[[7.28271193288455, 47.984771075771], [7.28222738201579, 47.9858411182464], [7.2836677050791, 47.9859953651555], [7.28381906546939, 47.9847033200009], [7.28271193288455, 47.984771075771]]], [[[7.28375908520866, 47.9866421014093], [7.28380970353363, 47.9870969164657], [7.28552028044533, 47.9866352921978], [7.28541794569693, 47.9864009153499], [7.28480841119834, 47.9865264260492], [7.28463036152864, 47.9861990973058], [7.28375908520866, 47.9866421014093]]], [[[7.2841515916243, 47.9870764311503], [7.28483881055474, 47.9882726502587], [7.28573419667413, 47.9880626329351], [7.2848289835814, 47.9868553512437], [7.2841515916243, 47.9870764311503]]], [[[7.28355168968303, 47.987434014449], [7.28355510726254, 47.9872040727276], [7.2827953206157, 47.9883453428326], [7.28365332930544, 47.9883702160776], [7.28417141139705, 47.9882557071491], [7.28481654650866, 47.9882729213366], [7.2841159972418, 47.9870878227991], [7.28355168968303, 47.987434014449]]], [[[7.28277687375993, 47.9883878328039], [7.28272944804108, 47.9886364115875], [7.28406846749785, 47.9886725901741], [7.28397915642602, 47.988333644055], [7.28366378077839, 47.9884081379194], [7.28277687375993, 47.9883878328039]]], [[[7.28508878860299, 47.988702350595], [7.28490466671557, 47.9883482064929], [7.28407041966336, 47.9883614999323], [7.28412690972088, 47.9887759951326], [7.28508878860299, 47.988702350595]]], [[[7.2873869661928, 47.9550119952499], [7.2876205684135, 47.9551680373049], [7.28735443227362, 47.9547292847916], [7.2873869661928, 47.9550119952499]]], [[[7.2870748274602, 47.9563727625428], [7.28650901610246, 47.9577144868487], [7.28801239673152, 47.9575595642957], [7.2870748274602, 47.9563727625428]]], [[[7.28817618831965, 47.9575325843133], [7.28793020058973, 47.9576812617947], [7.2881332764606, 47.9579307970834], [7.2878825991349, 47.9576567730404], [7.28644611756566, 47.9578027629989], [7.28705542148982, 47.9590267876753], [7.28754229959153, 47.9588834682192], [7.28750744868842, 47.9588308450597], [7.28822849556061, 47.9585618994924], [7.28919363866084, 47.9583116132197], [7.28817618831965, 47.9575325843133]]], [[[7.28937181289513, 47.9584838263602], [7.28823523575987, 47.9585705758843], [7.2875289791197, 47.9588349258564], [7.28788570522723, 47.9592852410723], [7.28937181289513, 47.9584838263602]]], [[[7.28951612594346, 47.9585725572547], [7.28876248892172, 47.9591449846272], [7.2877679547382, 47.9594551019272], [7.28826377817806, 47.9596875497308], [7.29005729891283, 47.9593303100359], [7.28951612594346, 47.9585725572547]]], [[[7.28729837521375, 47.9594772919404], [7.28787405003702, 47.9592904432936], [7.28754970863719, 47.9588921202281], [7.28706002101285, 47.9590355422688], [7.28729837521375, 47.9594772919404]]], [[[7.28579970909507, 47.9594241102385], [7.28603617906639, 47.9597813024273], [7.28724928482811, 47.9594908003756], [7.28700209838453, 47.9590344120786], [7.28579970909507, 47.9594241102385]]], [[[7.29031960278775, 47.9593565984265], [7.28824192166975, 47.9597623413941], [7.28852694747654, 47.9602168950644], [7.29059776974127, 47.9596434027946], [7.29031960278775, 47.9593565984265]]], [[[7.28593065607852, 47.9598768115394], [7.28610284086714, 47.9603283682198], [7.28572614645197, 47.9605019983212], [7.28585676554603, 47.9608909022384], [7.28700876300361, 47.9600902669148], [7.28810842822323, 47.9596779906066], [7.28761197896308, 47.9594676459368], [7.28593065607852, 47.9598768115394]]], [[[7.28700223472513, 47.9601787386703], [7.28694185178809, 47.9607309822572], [7.2876234897626, 47.9605467567735], [7.2885515693237, 47.9603602880354], [7.28809382803431, 47.9597595471374], [7.28700223472513, 47.9601787386703]]], [[[7.28853223809958, 47.9602258947496], [7.28929108217161, 47.9618309093536], [7.28998293192408, 47.9618124903143], [7.29008540216323, 47.9620985932689], [7.29163472114771, 47.96164128962], [7.29060581193404, 47.9596515808663], [7.28853223809958, 47.9602258947496]]], [[[7.2869983623111, 47.9608406758777], [7.2873133961679, 47.9615268421542], [7.28897719774081, 47.9612869246276], [7.28855714935954, 47.96036954753], [7.2869983623111, 47.9608406758777]]], [[[7.28608829326448, 47.9616082377621], [7.28711581281935, 47.9614746614461], [7.28704105154916, 47.9611145428999], [7.28596420262346, 47.9613017414343], [7.28608829326448, 47.9616082377621]]], [[[7.2872821286331, 47.9616263110451], [7.28743259913327, 47.9619486066902], [7.2890941484216, 47.961606116565], [7.28895436868125, 47.9613613012468], [7.2872821286331, 47.9616263110451]]], [[[7.28743416690289, 47.9619696389515], [7.28752874442217, 47.9629924512942], [7.2900483385077, 47.9621446496725], [7.289258119983, 47.9618646486801], [7.28903468691536, 47.9616373987603], [7.28743416690289, 47.9619696389515]]], [[[7.29000094362443, 47.9623829620457], [7.29048107402789, 47.9635960064786], [7.29194830236057, 47.9632181263601], [7.2913420099903, 47.961856030968], [7.29000094362443, 47.9623829620457]]], [[[7.29618970111621, 47.961530728403], [7.29464889859187, 47.9619155008142], [7.29483086441177, 47.9622268131579], [7.29646012646377, 47.9624760878366], [7.29679217770706, 47.9631354736414], [7.29586040842317, 47.9632982578315], [7.29629038820124, 47.9639953407924], [7.29843334082203, 47.9638584429795], [7.29729569614278, 47.9617478485439], [7.29618970111621, 47.961530728403]]], [[[7.29048557710265, 47.9636052151023], [7.29105790236168, 47.9648793294614], [7.29168816802644, 47.9646336004219], [7.29270282381856, 47.9643621935548], [7.29195723542179, 47.9632273533095], [7.29048557710265, 47.9636052151023]]], [[[7.28895259272196, 47.9626870312549], [7.28967661143256, 47.9642872758978], [7.28888193130894, 47.962742425448], [7.28769225822814, 47.9639931892095], [7.28781738415745, 47.9643868878969], [7.28755280508939, 47.9640857020313], [7.28871354367593, 47.9627410036123], [7.28546226394326, 47.9635120990499], [7.28525394945783, 47.964130301778], [7.28574028138477, 47.9657645625194], [7.28797125143073, 47.9656347416904], [7.29092204531644, 47.9647892096561], [7.2899181473345, 47.9623995051577], [7.28895259272196, 47.9626870312549]]], [[[7.29317103053326, 47.9642215176666], [7.29145674610175, 47.9649524504414], [7.29152939926582, 47.9657267730163], [7.29351718198705, 47.9651248178956], [7.29317103053326, 47.9642215176666]]], [[[7.29052730031626, 47.9656946159143], [7.29017930714311, 47.9665162976564], [7.29144577199704, 47.9657960711083], [7.29137954644879, 47.964889028335], [7.29052730031626, 47.9656946159143]]], [[[7.29092208773844, 47.9649802754091], [7.28822521828785, 47.9656471903433], [7.28864498821339, 47.9667131946319], [7.28899681470424, 47.966608239806], [7.28921841801349, 47.9669750715151], [7.29007643467382, 47.966652900618], [7.29018165777799, 47.966001772801], [7.29008495793365, 47.9660173815993], [7.28992817241567, 47.9657201945651], [7.29027488904027, 47.9659632183614], [7.29092208773844, 47.9649802754091]]], [[[7.28571939063501, 47.9660852710171], [7.2860988343809, 47.9676221281017], [7.28728033190485, 47.9674412983972], [7.28734792522991, 47.9667956939982], [7.28796047801785, 47.9660836012075], [7.2878232847297, 47.965701699279], [7.28571939063501, 47.9660852710171]]], [[[7.29089639409563, 47.9688218422121], [7.28824010462058, 47.9694072348277], [7.28824499692923, 47.9696832012493], [7.29094797625179, 47.9695928772094], [7.29089639409563, 47.9688218422121]]], [[[7.29229673617235, 47.9700349670432], [7.29237672629163, 47.9706014594293], [7.29309505678548, 47.9705208632088], [7.29375654863398, 47.9694294142276], [7.29216716809825, 47.9695770852227], [7.29229673617235, 47.9700349670432]]], [[[7.28722336302148, 47.9697720442063], [7.28750066967629, 47.9701870454074], [7.28789951884721, 47.9709031351802], [7.28791912974355, 47.9711155662839], [7.28908627465262, 47.9708941480514], [7.29235240879397, 47.9706027986275], [7.2921383642892, 47.9695810217205], [7.28722336302148, 47.9697720442063]]], [[[7.2858436850868, 47.9700651882979], [7.28665966116198, 47.9713836919222], [7.28790567417991, 47.9711201130883], [7.28713334042154, 47.9696331115631], [7.2858436850868, 47.9700651882979]]], [[[7.29309809176474, 47.9705947456577], [7.28913415204797, 47.9709252056677], [7.28828887701033, 47.9710707956001], [7.28896398884967, 47.9718586308078], [7.28883879095684, 47.9722036961203], [7.29034732222517, 47.9718107301983], [7.29078528772214, 47.9729527584812], [7.29262928621076, 47.9722342329517], [7.29255033604001, 47.9711688567005], [7.29111437799941, 47.9715875007802], [7.29028577586515, 47.9716407478498], [7.2929837097681, 47.9710149469466], [7.29309809176474, 47.9705947456577]]], [[[7.29074835370748, 47.9729971875439], [7.29192967338721, 47.9729685443243], [7.29192823688832, 47.9727951048324], [7.29074835370748, 47.9729971875439]]]]}}]}