{"type": "FeatureCollection", "features": [{"type": "Feature", "properties": {"id": "AOC-Alsace-Blienschwiller", "name": "Alsace Blienschwiller", "tier": "denomination"}, "geometry": {"type": "MultiPolygon", "coordinates": [[[[7.41952320117796, 48.3387787496885], [7.41983628355125, 48.3397748592237], [7.42115816190846, 48.3398181958822], [7.42094725716791, 48.33921304902], [7.41952320117796, 48.3387787496885]]], [[[7.41812075981096, 48.3400429440487], [7.41959036339221, 48.3403981537792], [7.41932159890749, 48.3387874516959], [7.41889411590343, 48.3395872063059], [7.41812075981096, 48.3400429440487]]], [[[7.41971021571842, 48.3404893749071], [7.42096484549105, 48.3408194374237], [7.42114166813443, 48.3398245793392], [7.41983602216911, 48.3397862230095], [7.41971021571842, 48.3404893749071]]], [[[7.4196078410444, 48.3406704477991], [7.42090329643012, 48.3410535935016], [7.42095404346462, 48.3408806661578], [7.4196078410444, 48.3406704477991]]], [[[7.41997999597254, 48.34130462567], [7.42072904068251, 48.3416079806514], [7.42076250323693, 48.3415059860533], [7.42091023039619, 48.3412196798049], [7.42082451635298, 48.341198552386], [7.42090064529403, 48.3410622531299], [7.42014905450952, 48.3408523497201], [7.41997999597254, 48.34130462567]]], [[[7.41915607052569, 48.3434379631719], [7.41946833566088, 48.3428656294641], [7.41947174244938, 48.3427710658298], [7.4195934295943, 48.3425495331579], [7.41837816623403, 48.3421430129196], [7.41867532809925, 48.3426794304969], [7.41739347714133, 48.3441432057092], [7.41880413270545, 48.3440916154083], [7.41915607052569, 48.3434379631719]]], [[[7.41886619558096, 48.3440612731905], [7.42075169911062, 48.3441269117523], [7.42081342268267, 48.3439719575531], [7.42015494810783, 48.3435307733583], [7.41987028842925, 48.3430436333887], [7.41950607671901, 48.3428917036663], [7.41886619558096, 48.3440612731905]]], [[[7.43451137262023, 48.3386034034497], [7.43061490752227, 48.3396957585765], [7.42951972160141, 48.339720275166], [7.42934065372227, 48.3402533225119], [7.4288117371811, 48.3402081514641], [7.42819768054285, 48.3400106316823], [7.4277932374723, 48.340984647124], [7.42759280891482, 48.3412433789463], [7.42729323882764, 48.3415158224385], [7.43112235318833, 48.3410260914131], [7.43486858024727, 48.339823489189], [7.43451137262023, 48.3386034034497]]], [[[7.42348728898174, 48.3404257186194], [7.42115996251504, 48.3399859159479], [7.42097800841958, 48.3408232709304], [7.42319809280237, 48.341324668569], [7.42348728898174, 48.3404257186194]]], [[[7.4263802176577, 48.3396406068196], [7.42506751841618, 48.3402718309599], [7.42366168571759, 48.3401594069261], [7.42322641025859, 48.3414283193942], [7.42656536595859, 48.3420858880196], [7.42776438631776, 48.3409839245779], [7.42811816472538, 48.3400422632424], [7.42826439043054, 48.3399729913097], [7.4292517274923, 48.340216551787], [7.42944902121383, 48.3397057106794], [7.42754718093472, 48.3395086332273], [7.42655200205353, 48.3399648899005], [7.4263802176577, 48.3396406068196]], [[7.42649486129906, 48.3399720288964], [7.42642948110715, 48.3399801970118], [7.42649486125963, 48.3399720287824], [7.42649486129906, 48.3399720288964]]], [[[7.42312827836913, 48.3415263345124], [7.42097215887134, 48.3408598043474], [7.42092958443488, 48.3412135499768], [7.4207441494283, 48.3416108403758], [7.42158713075989, 48.3417812549877], [7.42118241360996, 48.3424201539551], [7.42235547787721, 48.3428195729232], [7.42312827836913, 48.3415263345124]], [[7.421587131569, 48.3417812536208], [7.42165392800919, 48.3418050068521], [7.42158713075989, 48.3417812549877], [7.421587131569, 48.3417812536208]]], [[[7.42188543528525, 48.3442382784991], [7.42255547723377, 48.3429957444187], [7.42229945813302, 48.3429265561473], [7.42198544356611, 48.3434616577831], [7.42175969028554, 48.3434132342315], [7.42210773732452, 48.3428761404602], [7.42071939745934, 48.342601095861], [7.4194892391519, 48.3427733859737], [7.41989274184626, 48.3430470298773], [7.42016563387667, 48.343524426848], [7.420775433181, 48.3438947099313], [7.42083129388399, 48.3439739030777], [7.4207658856162, 48.3441268322866], [7.42188543528525, 48.3442382784991]]], [[[7.42236028034321, 48.3440837436679], [7.42375561768718, 48.343744040301], [7.42342061034823, 48.3441596321537], [7.42528028171582, 48.3450521249023], [7.42578827114167, 48.3445044425652], [7.42546702706117, 48.3437326691447], [7.4231171759274, 48.3434079133305], [7.42289894340921, 48.3436771231981], [7.42264109842818, 48.3435943069061], [7.42293036745949, 48.3431395163777], [7.42271296154135, 48.3430810506106], [7.42236028034321, 48.3440837436679]]]]}}]}