{
"type": "FeatureCollection",
"name": "Jasnières",
"crs": { "type": "name", "properties": { "name": "urn:ogc:def:crs:OGC:1.3:CRS84" } },
"features": [
{ "type": "Feature", "properties": { "Name": null, "id": "" }, "geometry": { "type": "MultiPolygon", "coordinates": [ [ [ [ 0.588432157574077, 47.756307864087603 ], [ 0.588402510240021, 47.756136976190803 ], [ 0.588314896304281, 47.755863232004799 ], [ 0.588259882428793, 47.755668679556699 ], [ 0.588239761166591, 47.7555616504063 ], [ 0.58821082428731, 47.755330896333199 ], [ 0.58819369041425, 47.7553229794432 ], [ 0.587972864104412, 47.7553133868713 ], [ 0.58794993672468, 47.755306611213399 ], [ 0.587926529496213, 47.755275062975201 ], [ 0.587884768253071, 47.755212430793001 ], [ 0.587870263346016, 47.755190700919897 ], [ 0.587806441323475, 47.755128694665402 ], [ 0.58771074491357, 47.755030463286303 ], [ 0.587662691879735, 47.755015335767801 ], [ 0.587639039655074, 47.754980360657697 ], [ 0.587717029310034, 47.754918305229602 ], [ 0.587701539282598, 47.754882958056697 ], [ 0.587711367565465, 47.754881179580103 ], [ 0.587801391658985, 47.755001445438303 ], [ 0.587855614525701, 47.755089637421598 ], [ 0.58795620651008, 47.755253703230203 ], [ 0.588007681345287, 47.755275834679097 ], [ 0.588119428859414, 47.755285070739802 ], [ 0.588249805820153, 47.755281003504997 ], [ 0.588363223043556, 47.755268122386497 ], [ 0.588365579965342, 47.755168940112199 ], [ 0.588368111041073, 47.755068860959099 ], [ 0.5883559482825, 47.754921745129401 ], [ 0.588352648817913, 47.754879625604303 ], [ 0.588346562851078, 47.754807643394898 ], [ 0.58835450716136, 47.754641131638998 ], [ 0.588415376389521, 47.754343882646502 ], [ 0.588497216110485, 47.753984573559201 ], [ 0.588503034436685, 47.7539150877233 ], [ 0.587815260334516, 47.753764226471503 ], [ 0.587681135673745, 47.753736159460203 ], [ 0.587608379896795, 47.753721063073698 ], [ 0.587527685246936, 47.753704362283401 ], [ 0.587409075830363, 47.753687510312602 ], [ 0.587254109967595, 47.753665586622603 ], [ 0.587207542638788, 47.753658953848401 ], [ 0.587109130767236, 47.753650171821199 ], [ 0.58695141319174, 47.753635934981098 ], [ 0.586878141016029, 47.7536292918358 ], [ 0.586759921659436, 47.753618570386301 ], [ 0.58661122786318, 47.753602628149501 ], [ 0.586406062611075, 47.753580568782503 ], [ 0.586185083880162, 47.753556832264501 ], [ 0.586044095105303, 47.753541768557596 ], [ 0.585999188828355, 47.753536790385397 ], [ 0.585844015913463, 47.7535194528975 ], [ 0.585483311055088, 47.753479326267097 ], [ 0.585233036287278, 47.753447960017397 ], [ 0.585193611875935, 47.753442824481702 ], [ 0.585106245777368, 47.753431927422398 ], [ 0.585030324961032, 47.753418925223201 ], [ 0.584938122312964, 47.7534027956115 ], [ 0.584736347718208, 47.7533678365686 ], [ 0.584207047739993, 47.7532560619874 ], [ 0.58388146951353, 47.753165779097699 ], [ 0.583322570979191, 47.752973698398499 ], [ 0.583173156011536, 47.752932523844301 ], [ 0.582212326068647, 47.752688105472501 ], [ 0.582081535089277, 47.752666133886301 ], [ 0.582125479726232, 47.752909806902601 ], [ 0.582175592142105, 47.753114707196403 ], [ 0.582266364846972, 47.753444531260797 ], [ 0.582371803839605, 47.753692535761203 ], [ 0.582457421167026, 47.753877188304401 ], [ 0.582990832026055, 47.753977889837302 ], [ 0.58319345969319, 47.754049968568303 ], [ 0.58324687216204, 47.754141117707597 ], [ 0.583277091687076, 47.7542254847327 ], [ 0.583295981374624, 47.754341764378403 ], [ 0.583308363664939, 47.754604325008103 ], [ 0.583236464170589, 47.754590954470103 ], [ 0.583235576844428, 47.7545516759469 ], [ 0.583233834870528, 47.754472399201802 ], [ 0.58323317484121, 47.7544398788446 ], [ 0.583221939608906, 47.754328529686198 ], [ 0.583198994830884, 47.754222161446201 ], [ 0.583176358758664, 47.754173699377702 ], [ 0.583138211189567, 47.754125727453101 ], [ 0.583067162129242, 47.7540759956198 ], [ 0.582945664951261, 47.754037468363698 ], [ 0.582819204728433, 47.7540053218301 ], [ 0.582746263453057, 47.753991389176399 ], [ 0.582602690667468, 47.753986173074601 ], [ 0.58249534203381, 47.753991880169998 ], [ 0.582533224300067, 47.7542132761793 ], [ 0.582540600199364, 47.754327247128899 ], [ 0.582530065306696, 47.754547463072299 ], [ 0.582511083259624, 47.754644951446103 ], [ 0.582469712411247, 47.754735584137102 ], [ 0.582385351761285, 47.754852522938201 ], [ 0.582200265191027, 47.754985120379501 ], [ 0.581768963650341, 47.755202587694598 ], [ 0.581684281769013, 47.755253065160304 ], [ 0.581658067553839, 47.755289262509301 ], [ 0.581656893950935, 47.7553327306535 ], [ 0.581683131647267, 47.755404769506903 ], [ 0.58183300479804, 47.755644687520103 ], [ 0.581902800294983, 47.7557631895382 ], [ 0.581959691560827, 47.7559070881452 ], [ 0.581959206470036, 47.756014773515403 ], [ 0.581946885353685, 47.756103754896102 ], [ 0.581925323956494, 47.756181559749898 ], [ 0.581896233223005, 47.756254616703998 ], [ 0.581804720612161, 47.7564142693642 ], [ 0.581712162983228, 47.756544004992897 ], [ 0.581607065873145, 47.756670509965801 ], [ 0.581567063448474, 47.756742711081898 ], [ 0.581558342272808, 47.756793587150902 ], [ 0.581556882282885, 47.756811025967501 ], [ 0.581809595708333, 47.756827232290298 ], [ 0.582378750749148, 47.756864831443998 ], [ 0.582660256757275, 47.756882170833201 ], [ 0.582649781725677, 47.7571040085436 ], [ 0.582892418933639, 47.7571186537226 ], [ 0.582991921537769, 47.757124129969299 ], [ 0.583129668126302, 47.757131386230903 ], [ 0.583267002266551, 47.757138903953297 ], [ 0.583364511953113, 47.757144158646 ], [ 0.583354851665047, 47.757218697567502 ], [ 0.583483924170582, 47.757161121167201 ], [ 0.583591566283196, 47.757110846236102 ], [ 0.583673551180878, 47.757072738125402 ], [ 0.583745260716512, 47.757058009971402 ], [ 0.584292109285072, 47.7569457527065 ], [ 0.584620427527291, 47.756852576212701 ], [ 0.584792607669131, 47.7568278542443 ], [ 0.585009856496807, 47.756831075652997 ], [ 0.585197036460083, 47.7565757841775 ], [ 0.585227924847292, 47.756533649425599 ], [ 0.586079796754514, 47.756797405119798 ], [ 0.586258665930795, 47.756566253129598 ], [ 0.586290405001149, 47.756537732621403 ], [ 0.586455724484351, 47.756428673646397 ], [ 0.586533387049601, 47.756394526541499 ], [ 0.586593610147024, 47.7563680339493 ], [ 0.587067324850129, 47.756472527928999 ], [ 0.587179784903113, 47.756495556573299 ], [ 0.587307275896971, 47.756487468815202 ], [ 0.587582723852175, 47.756382118790199 ], [ 0.588097788667083, 47.756717528402199 ], [ 0.588216081760483, 47.756602995785499 ], [ 0.588326826274577, 47.756478222379002 ], [ 0.588424120403186, 47.756352631502097 ], [ 0.588432157574077, 47.756307864087603 ] ] ], [ [ [ 0.592257775633542, 47.756372385779898 ], [ 0.592255557113832, 47.756341724530998 ], [ 0.592149232073378, 47.756100375526998 ], [ 0.592066121499885, 47.756007089232803 ], [ 0.591935962392398, 47.755900048505701 ], [ 0.591820705740317, 47.7558178067003 ], [ 0.591715530092105, 47.755754771871601 ], [ 0.591403144657569, 47.755608413219399 ], [ 0.591118950868161, 47.7555118889996 ], [ 0.590820405509881, 47.7554315471194 ], [ 0.590502465296621, 47.755360800350999 ], [ 0.590185321416276, 47.755304926692702 ], [ 0.58995883967847, 47.755269828455397 ], [ 0.589796135674143, 47.755244687382799 ], [ 0.589699001553994, 47.755237104516802 ], [ 0.589566080968965, 47.755220680522001 ], [ 0.589523853294543, 47.755215488760903 ], [ 0.589251823342263, 47.755112907127 ], [ 0.589213617395389, 47.755098523328002 ], [ 0.589112746408862, 47.755073213970697 ], [ 0.588835423820485, 47.7550786677144 ], [ 0.58869843822952, 47.755081248766402 ], [ 0.58849219104887, 47.755103563662701 ], [ 0.588464144821108, 47.7551213552902 ], [ 0.588430684558773, 47.755285180234601 ], [ 0.588268412177283, 47.7553301018038 ], [ 0.588251760181615, 47.755352810532898 ], [ 0.588291921948455, 47.7555774926225 ], [ 0.588287892468827, 47.755607485006102 ], [ 0.588370377030176, 47.755932539907597 ], [ 0.588405396119424, 47.756061486981402 ], [ 0.588423454575936, 47.756128583154201 ], [ 0.588477683201263, 47.756328702133203 ], [ 0.588347774241677, 47.756493331452099 ], [ 0.588128654606465, 47.756740675865402 ], [ 0.588319435060837, 47.756865358191803 ], [ 0.588420722584459, 47.756931647674399 ], [ 0.588480263655257, 47.756967361887803 ], [ 0.588521147109994, 47.756981620952203 ], [ 0.588570321349055, 47.756998572077201 ], [ 0.588620457180143, 47.757006088155798 ], [ 0.588678940850354, 47.757015036811197 ], [ 0.588721342101405, 47.7570134789676 ], [ 0.589006913340038, 47.756952906926003 ], [ 0.589112932088552, 47.756950137891401 ], [ 0.589460093090661, 47.756962599844996 ], [ 0.589566966257962, 47.756967501903297 ], [ 0.589703290628035, 47.756973730631799 ], [ 0.589809229964798, 47.756978613240598 ], [ 0.589993204475813, 47.756991225446299 ], [ 0.590172521913118, 47.757003471353499 ], [ 0.590331464222047, 47.757014487160902 ], [ 0.590491413952985, 47.757035698680603 ], [ 0.590667028941468, 47.7570589432693 ], [ 0.590841000526546, 47.757088997261697 ], [ 0.590955792857382, 47.757122515538903 ], [ 0.591077178541821, 47.757157880251299 ], [ 0.591122749137301, 47.757157107123803 ], [ 0.591140331540347, 47.757143331715703 ], [ 0.591181452837986, 47.757111040979403 ], [ 0.591678887381536, 47.756721111624898 ], [ 0.591793536386256, 47.756639727533397 ], [ 0.592174645677311, 47.756465494279297 ], [ 0.592226503693376, 47.756431983295201 ], [ 0.592246064048649, 47.756412845653898 ], [ 0.592257775633542, 47.756372385779898 ] ] ], [ [ [ 0.595444273944067, 47.756801217957801 ], [ 0.595269602717156, 47.756680210192101 ], [ 0.59522520785896, 47.756652014324203 ], [ 0.594709367114943, 47.756430348924397 ], [ 0.594488432264379, 47.756331441045198 ], [ 0.593401393215382, 47.755848783498102 ], [ 0.593182897042299, 47.755763970325702 ], [ 0.593023962958632, 47.755720361855801 ], [ 0.593001862016645, 47.755718916909103 ], [ 0.59283852463584, 47.755707724226099 ], [ 0.592798436536573, 47.755696544580601 ], [ 0.592747616678522, 47.7556657843501 ], [ 0.592568367203823, 47.755557644745899 ], [ 0.592371196012981, 47.755467865801997 ], [ 0.59236584432173, 47.755465144396801 ], [ 0.592286264537167, 47.755423707273003 ], [ 0.592186329160547, 47.755371766243101 ], [ 0.592052727900373, 47.755302474096197 ], [ 0.591946269159885, 47.755247157003701 ], [ 0.591845808960338, 47.7551950247761 ], [ 0.591739087907134, 47.755139612040701 ], [ 0.591693421380059, 47.755115980929297 ], [ 0.591594875892194, 47.755083517897702 ], [ 0.591488815930928, 47.755048919154603 ], [ 0.591319604611361, 47.754993480884501 ], [ 0.591115105329839, 47.754938846971697 ], [ 0.59097907856004, 47.754902550519603 ], [ 0.590973140447841, 47.7549009875775 ], [ 0.590907041160204, 47.754883328910203 ], [ 0.590875640780581, 47.754874938712298 ], [ 0.590772340585464, 47.7548472395967 ], [ 0.590771285556584, 47.754846947744397 ], [ 0.590741073653787, 47.7548388521083 ], [ 0.590710861760177, 47.7548307564645 ], [ 0.590719325496575, 47.754785367356703 ], [ 0.590719690027702, 47.754783213753903 ], [ 0.590720228680964, 47.754780163274198 ], [ 0.590486614167554, 47.754743388418099 ], [ 0.590407722676762, 47.754731049000704 ], [ 0.590222370739019, 47.754701840435402 ], [ 0.590174504737198, 47.754694371721499 ], [ 0.590174108594655, 47.754694273520101 ], [ 0.589899120950337, 47.754651152915997 ], [ 0.589867299278175, 47.754646175518502 ], [ 0.589620865837884, 47.754612376633403 ], [ 0.589590924102855, 47.754607167731997 ], [ 0.589508387309881, 47.754592771621397 ], [ 0.589479108546834, 47.754587666389298 ], [ 0.589196100503583, 47.754535914609903 ], [ 0.588491354267926, 47.754405778842703 ], [ 0.588413184378797, 47.754622170173 ], [ 0.588400594198126, 47.754758600850103 ], [ 0.588408282710799, 47.754848265116799 ], [ 0.588437314472642, 47.755053357997802 ], [ 0.589063395044294, 47.755013037240602 ], [ 0.589136600132228, 47.7550212083706 ], [ 0.589372010113367, 47.755092060308797 ], [ 0.589507044368327, 47.7551325703648 ], [ 0.58978582250871, 47.755174599280302 ], [ 0.589850942090567, 47.755184404397902 ], [ 0.59014114485002, 47.755227748232301 ], [ 0.59061936327765, 47.755309358950001 ], [ 0.590738563156351, 47.755339816662797 ], [ 0.590899734598604, 47.755381133154501 ], [ 0.591026849644925, 47.755413734474601 ], [ 0.591134774596698, 47.755445490526 ], [ 0.591209880267938, 47.755467746628099 ], [ 0.591329195184023, 47.755507480829003 ], [ 0.591408390948929, 47.755533782983697 ], [ 0.591477261515088, 47.755561043237698 ], [ 0.591591008538181, 47.755605795222102 ], [ 0.591684934106886, 47.755651850170501 ], [ 0.5917475094871, 47.755682492537296 ], [ 0.591787303417604, 47.755703121323897 ], [ 0.591851879135822, 47.755736776300999 ], [ 0.591918663211972, 47.755780651864299 ], [ 0.592017346035984, 47.7558455339543 ], [ 0.592095057295211, 47.755904671861899 ], [ 0.592183286111121, 47.755996982869199 ], [ 0.592262186783651, 47.756109542364797 ], [ 0.592327515539655, 47.756238751286901 ], [ 0.592370339990305, 47.756363625330899 ], [ 0.592374457396296, 47.756384780762197 ], [ 0.592370742874119, 47.756396050151601 ], [ 0.592361856790285, 47.756424231855902 ], [ 0.592328422182387, 47.756469647704201 ], [ 0.592287931051143, 47.7564939377041 ], [ 0.591868824061792, 47.756681616915202 ], [ 0.59179389105236, 47.756723387502497 ], [ 0.591487273569348, 47.756954080241599 ], [ 0.591135715453479, 47.757230581281902 ], [ 0.591212575888352, 47.757273133750402 ], [ 0.591299089081197, 47.757320747260998 ], [ 0.591374260201999, 47.757362274351301 ], [ 0.591455947350705, 47.757407357200101 ], [ 0.591481485495417, 47.757421389523699 ], [ 0.591539098099549, 47.757452560146 ], [ 0.591653280634564, 47.757514339573603 ], [ 0.591673224616911, 47.757525105157299 ], [ 0.591866920903045, 47.757629851221502 ], [ 0.592322414197872, 47.7576711866217 ], [ 0.592631092505514, 47.757699055823402 ], [ 0.59269744574336, 47.757705282805397 ], [ 0.59293667404945, 47.757742258367898 ], [ 0.593024653202909, 47.757760455698197 ], [ 0.59306580290046, 47.757768865627 ], [ 0.59322700148289, 47.757774340989499 ], [ 0.593390507045528, 47.757607695933103 ], [ 0.593475157841007, 47.757495708275897 ], [ 0.593854237749821, 47.757629294574897 ], [ 0.594776176887137, 47.757954306181801 ], [ 0.594919519572136, 47.7578082254878 ], [ 0.595087607840005, 47.757560721172702 ], [ 0.595170718066699, 47.757417724964803 ], [ 0.595225443793132, 47.757323670790399 ], [ 0.595220839405211, 47.757322135472002 ], [ 0.595198347052757, 47.757314559802197 ], [ 0.595155201681994, 47.757300076555403 ], [ 0.595152832784117, 47.757299307524399 ], [ 0.595171638987111, 47.757252509869303 ], [ 0.595222612435767, 47.757126232260099 ], [ 0.595265159539982, 47.757020942290801 ], [ 0.595290564890781, 47.756984725487598 ], [ 0.595318392628548, 47.756945136699002 ], [ 0.595369781497833, 47.7568717244365 ], [ 0.595393628248992, 47.756861138648098 ], [ 0.595435200389115, 47.756842452647099 ], [ 0.595441910404281, 47.756812154996403 ], [ 0.595443581811087, 47.756804715527103 ], [ 0.595444273944067, 47.756801217957801 ] ] ], [ [ [ 0.559873836419463, 47.759334854180999 ], [ 0.559849162780514, 47.759208904519298 ], [ 0.559828915826381, 47.759105828986897 ], [ 0.559770183314778, 47.759111088109002 ], [ 0.559687448203121, 47.759098107609603 ], [ 0.559641019629679, 47.759079670663297 ], [ 0.559569907083213, 47.759005430298899 ], [ 0.559523504223099, 47.758954396842697 ], [ 0.559508822551535, 47.758916361099303 ], [ 0.559509615638133, 47.758884501011202 ], [ 0.559441929391353, 47.758884080439998 ], [ 0.559412614559497, 47.758821516979197 ], [ 0.559369686903963, 47.758817020134998 ], [ 0.559333075305333, 47.758829133551302 ], [ 0.559307500569757, 47.7588946948188 ], [ 0.559268902578405, 47.758886056000399 ], [ 0.559268889687183, 47.758842653094902 ], [ 0.55924769570602, 47.758803941252999 ], [ 0.559097655911717, 47.758613335099099 ], [ 0.559085920924074, 47.758598412756101 ], [ 0.559059935348089, 47.758565183873998 ], [ 0.558965991718412, 47.758537471562903 ], [ 0.558958677361481, 47.758533897258197 ], [ 0.55892234075634, 47.758510897952704 ], [ 0.558929595767015, 47.758477911942499 ], [ 0.558898572276674, 47.758440976086803 ], [ 0.558657779955976, 47.758141500956697 ], [ 0.558503749509352, 47.758160260059903 ], [ 0.558276362920374, 47.758177038686703 ], [ 0.557448867593585, 47.7582545053532 ], [ 0.557138044960269, 47.7582823275403 ], [ 0.55678276137252, 47.758307059854701 ], [ 0.556583510314571, 47.758313076490097 ], [ 0.556425067969461, 47.758294101111197 ], [ 0.556378455006809, 47.758288445663602 ], [ 0.556235774920601, 47.758295552519598 ], [ 0.556119284915197, 47.758302305489103 ], [ 0.555991604767114, 47.7583084645334 ], [ 0.555849162484183, 47.7583162062149 ], [ 0.55536129034888, 47.758235872340499 ], [ 0.55523155124383, 47.758243248217603 ], [ 0.555108946112175, 47.7582523037469 ], [ 0.554789093365333, 47.758273177593402 ], [ 0.554372707096937, 47.758299507811202 ], [ 0.554252917605017, 47.758302498064602 ], [ 0.554148357761909, 47.758305356157699 ], [ 0.554026388175144, 47.758309291149601 ], [ 0.553695184945926, 47.758315607359798 ], [ 0.553346426069936, 47.758323266618298 ], [ 0.553004075016229, 47.758330968735898 ], [ 0.552690477808717, 47.758337740174802 ], [ 0.552274152279703, 47.758165239923102 ], [ 0.552214152133934, 47.758169027990803 ], [ 0.55183256117754, 47.758185000933601 ], [ 0.551486094545694, 47.758200896879401 ], [ 0.55106247523919, 47.758218959807699 ], [ 0.550645440085081, 47.758279661296498 ], [ 0.550186132107556, 47.758362258647303 ], [ 0.54998715197056, 47.758371061214902 ], [ 0.549914442714823, 47.758384037093599 ], [ 0.550024056664263, 47.758700776393198 ], [ 0.55022727043927, 47.7586812566595 ], [ 0.550306048468173, 47.758665255921599 ], [ 0.550327441511395, 47.758692537681597 ], [ 0.550393292831113, 47.759002687769801 ], [ 0.55039777127261, 47.7591084969741 ], [ 0.550356138952985, 47.759577852577102 ], [ 0.550336175910677, 47.7598084960592 ], [ 0.550719599120496, 47.759863253154599 ], [ 0.550775986292434, 47.759871276457702 ], [ 0.550894989846423, 47.759888353771302 ], [ 0.551067012222801, 47.759914104036802 ], [ 0.551423803356663, 47.759967221108298 ], [ 0.551474924446812, 47.759973603123001 ], [ 0.551907296188972, 47.760038474807203 ], [ 0.551940443421008, 47.760043670325899 ], [ 0.552337882854473, 47.760052160767998 ], [ 0.552765833442316, 47.760062188150002 ], [ 0.55303763194077, 47.760067239277497 ], [ 0.553387037606785, 47.7600748121856 ], [ 0.5536152473032, 47.760081022081003 ], [ 0.553667275661117, 47.760082199357903 ], [ 0.553748263705217, 47.760083801661203 ], [ 0.553913271183032, 47.760087879862901 ], [ 0.554038498714387, 47.7600886954258 ], [ 0.554085385848067, 47.760088414392101 ], [ 0.554368434789808, 47.760086943950398 ], [ 0.554412111652504, 47.760086775815502 ], [ 0.55453769458874, 47.760085959412301 ], [ 0.55452641265548, 47.760142291309897 ], [ 0.554457560471275, 47.7604317050302 ], [ 0.554422996783501, 47.760556148402898 ], [ 0.554440188170863, 47.7605598392704 ], [ 0.554480387607009, 47.760568513116802 ], [ 0.554983273964641, 47.760662580720698 ], [ 0.555128829677808, 47.760677326697397 ], [ 0.555186024206396, 47.760688156159802 ], [ 0.555309108573693, 47.760715309351802 ], [ 0.555435454831053, 47.760755767433501 ], [ 0.555491656012121, 47.760773689713901 ], [ 0.555570887345078, 47.760799026459097 ], [ 0.555774279094151, 47.760880443388302 ], [ 0.555924352139676, 47.7603111478142 ], [ 0.556073938983509, 47.760345697086301 ], [ 0.556142250783788, 47.760361620708302 ], [ 0.556301493155861, 47.760404025239502 ], [ 0.556370502212464, 47.760038254054301 ], [ 0.556565826095714, 47.760065563121401 ], [ 0.556614241127685, 47.760069815315902 ], [ 0.556775439749972, 47.760087046892302 ], [ 0.556909195324545, 47.760120274186001 ], [ 0.556968794154316, 47.7601660011427 ], [ 0.557055318057419, 47.760230299326501 ], [ 0.557055273903273, 47.760230388452001 ], [ 0.557055449410126, 47.760230347090904 ], [ 0.557181804757984, 47.760311927935 ], [ 0.55718177477148, 47.760311999346897 ], [ 0.55727010468327, 47.760339866022598 ], [ 0.557344185297696, 47.760361041983302 ], [ 0.557628584626836, 47.760446577158397 ], [ 0.557750327101204, 47.760482614425101 ], [ 0.558204624979334, 47.760619957537997 ], [ 0.558317374204307, 47.760654095725897 ], [ 0.558506426444115, 47.760725033466201 ], [ 0.558586378494525, 47.7607550656125 ], [ 0.558817172227277, 47.760812735953898 ], [ 0.558822966998182, 47.760811596131802 ], [ 0.559068076561751, 47.760822109781401 ], [ 0.559172987539089, 47.760666084790998 ], [ 0.559300950342089, 47.760511170628099 ], [ 0.559404186429744, 47.760377081951503 ], [ 0.559445807038403, 47.760273225102402 ], [ 0.559482862918243, 47.760027179075301 ], [ 0.559500969917006, 47.759993428775097 ], [ 0.55955246428099, 47.7598926592133 ], [ 0.559609193570372, 47.759805865978002 ], [ 0.559715699435865, 47.7596615798332 ], [ 0.55980426881612, 47.759558971625502 ], [ 0.55986122789323, 47.7594496713293 ], [ 0.559873836419463, 47.759334854180999 ] ] ], [ [ [ 0.568170392813262, 47.755980002581097 ], [ 0.567918085241542, 47.756107039538897 ], [ 0.567854725286521, 47.755900956692898 ], [ 0.567705605868444, 47.755917668634098 ], [ 0.567511928025083, 47.755939307516002 ], [ 0.567345264026419, 47.755960066719801 ], [ 0.567345237756139, 47.755960057169197 ], [ 0.566946996494235, 47.756034632578697 ], [ 0.566373967179536, 47.756163914359298 ], [ 0.565305569233166, 47.756397250947501 ], [ 0.564662898229954, 47.756541887776798 ], [ 0.564533276416017, 47.756597028161401 ], [ 0.564533218936553, 47.756597117012497 ], [ 0.564533143007531, 47.756597025385801 ], [ 0.564244384330919, 47.756726627985401 ], [ 0.564387282075644, 47.756822619691299 ], [ 0.564562454715036, 47.756872818495701 ], [ 0.56481071230893, 47.756933812241897 ], [ 0.565075533546629, 47.757015140380403 ], [ 0.565549112031687, 47.757326286712598 ], [ 0.565524525638772, 47.757344144957997 ], [ 0.565179190265107, 47.757131205691998 ], [ 0.56497515642084, 47.757028810655797 ], [ 0.564544068702919, 47.7569069239307 ], [ 0.564369029377787, 47.756856727875501 ], [ 0.563828465617877, 47.756594338566899 ], [ 0.563658705032612, 47.756615568426298 ], [ 0.563422591642937, 47.756645232065999 ], [ 0.563348180903933, 47.756654668934701 ], [ 0.563187270205152, 47.756675091814103 ], [ 0.563260900265578, 47.756781889383497 ], [ 0.562958994138691, 47.756854395593301 ], [ 0.562899452307507, 47.756868644078203 ], [ 0.562738638471662, 47.756907347901198 ], [ 0.56253916071629, 47.7568922087994 ], [ 0.562441606652744, 47.756885044802097 ], [ 0.561980604551959, 47.757124874560802 ], [ 0.562149216488864, 47.757294972931703 ], [ 0.562241329526508, 47.757391800644299 ], [ 0.562366945246123, 47.757564785234997 ], [ 0.562665759570021, 47.758119842981401 ], [ 0.562778173733132, 47.758298315133104 ], [ 0.562861270208931, 47.758399636960597 ], [ 0.562955878890792, 47.758465359729598 ], [ 0.563035170337051, 47.758501048093898 ], [ 0.563067733731718, 47.758513161918103 ], [ 0.563150700277052, 47.758515249184597 ], [ 0.563336075515287, 47.758514785600603 ], [ 0.56347198986555, 47.758509600360703 ], [ 0.563614653916347, 47.758496991506597 ], [ 0.563670425574581, 47.758492209136897 ], [ 0.563758118378623, 47.758484399137501 ], [ 0.563815636734211, 47.758479382909201 ], [ 0.563873430139931, 47.758474192283003 ], [ 0.564011399838656, 47.758462025540297 ], [ 0.564144141661897, 47.758450290136999 ], [ 0.564188790534877, 47.758446356643297 ], [ 0.564342741591666, 47.758429299327297 ], [ 0.564417501360337, 47.758421039658103 ], [ 0.564533065641142, 47.758408226055799 ], [ 0.564581244930467, 47.758403015159999 ], [ 0.56475613986764, 47.758383511523299 ], [ 0.565232244732163, 47.758365230106001 ], [ 0.565435328409096, 47.758403851628998 ], [ 0.565473726059023, 47.758411043488998 ], [ 0.565641626639681, 47.758442269499 ], [ 0.565854688124044, 47.758502168707999 ], [ 0.565925866262863, 47.758534264595198 ], [ 0.565976529947048, 47.758562332031403 ], [ 0.565995347208716, 47.758585955338603 ], [ 0.566136200449249, 47.7590101224393 ], [ 0.566149304558264, 47.7590243521202 ], [ 0.566251617464735, 47.7591348954357 ], [ 0.567250601968607, 47.758878675943301 ], [ 0.56716585238479, 47.758749048431099 ], [ 0.567298319027608, 47.758711190195299 ], [ 0.567339088813492, 47.758704473490603 ], [ 0.567650080530391, 47.758652405249599 ], [ 0.567739620628434, 47.758639227857799 ], [ 0.568004867914366, 47.758593429992601 ], [ 0.567834483476085, 47.758188083859203 ], [ 0.567757073107519, 47.757965050684099 ], [ 0.567402510799469, 47.757465758065699 ], [ 0.567370513868948, 47.757362349811999 ], [ 0.567397195995529, 47.757304463936102 ], [ 0.567483749693878, 47.757111131200702 ], [ 0.567622742219746, 47.756836855405503 ], [ 0.56773534193433, 47.756643343293 ], [ 0.567788081701762, 47.7565762736862 ], [ 0.567802252892224, 47.756558378675997 ], [ 0.567903899754948, 47.756429202369802 ], [ 0.567939614885833, 47.756384020538398 ], [ 0.567975046699133, 47.756339192997103 ], [ 0.568059767746277, 47.756185892554903 ], [ 0.568136609388866, 47.756026755409302 ], [ 0.568170392813262, 47.755980002581097 ] ] ], [ [ [ 0.549223398321964, 47.763189259473997 ], [ 0.548963391281108, 47.763110518010102 ], [ 0.549056972812186, 47.762850349998097 ], [ 0.549140010943819, 47.7626248094152 ], [ 0.549060036704028, 47.762525704177598 ], [ 0.547541177934131, 47.762313712494503 ], [ 0.547214178296342, 47.762405013479103 ], [ 0.546511726129651, 47.762601455151298 ], [ 0.546221584446088, 47.762400151929903 ], [ 0.546092983346244, 47.762281205456397 ], [ 0.545706005014751, 47.762167134928902 ], [ 0.545456954404531, 47.762588899780503 ], [ 0.545305018185505, 47.762846211949103 ], [ 0.545264198045051, 47.7629146924548 ], [ 0.545101514298548, 47.7631959206728 ], [ 0.546127986989393, 47.763474344533599 ], [ 0.546675996978696, 47.7638530417344 ], [ 0.546680536872215, 47.763850165310998 ], [ 0.546711762406611, 47.763833350483999 ], [ 0.546739019056875, 47.763818613615499 ], [ 0.547106502153004, 47.763648920522499 ], [ 0.547303810478181, 47.7638797028727 ], [ 0.547547956740356, 47.763782136617898 ], [ 0.547854540464185, 47.7636596018774 ], [ 0.547327523080472, 47.763110116374797 ], [ 0.548272178939598, 47.7640950277044 ], [ 0.548301533954514, 47.7640115384445 ], [ 0.548336941957924, 47.763924213856598 ], [ 0.548363912460764, 47.763857693545702 ], [ 0.54838727699811, 47.763823064438498 ], [ 0.548433789623091, 47.763784597786199 ], [ 0.548519153886611, 47.7637319067777 ], [ 0.548530826549327, 47.763724947425104 ], [ 0.548659792486602, 47.763647685958901 ], [ 0.54862828003392, 47.763621452770003 ], [ 0.549223398321964, 47.763189259473997 ] ] ], [ [ [ 0.582466363424569, 47.754409457084897 ], [ 0.582459011300607, 47.754271444240501 ], [ 0.582382393497836, 47.7539827039001 ], [ 0.582270127913368, 47.753705653562001 ], [ 0.58197871146585, 47.753727548467403 ], [ 0.581972953137598, 47.753689700064299 ], [ 0.580654048505445, 47.753779057846899 ], [ 0.580685557062208, 47.753911357006501 ], [ 0.580544461108295, 47.7539250993213 ], [ 0.580455936971192, 47.753933804985699 ], [ 0.580280093323488, 47.7539511509706 ], [ 0.580077150898788, 47.753971268193901 ], [ 0.580039364634141, 47.753980031945801 ], [ 0.579779141595703, 47.754041196244103 ], [ 0.579689964911191, 47.754052499191602 ], [ 0.578919313551789, 47.753998022268803 ], [ 0.577702198707747, 47.754053883956601 ], [ 0.576759949103251, 47.754099485285799 ], [ 0.576726962994224, 47.7539939881813 ], [ 0.576260057998284, 47.7540047619704 ], [ 0.575998206170517, 47.754010685655302 ], [ 0.575751049055557, 47.754016462855603 ], [ 0.575650800446305, 47.754018708870603 ], [ 0.575103761371751, 47.754059154593499 ], [ 0.574470008135416, 47.754138862265002 ], [ 0.575352090720691, 47.754912988051302 ], [ 0.575474846866009, 47.755055733218398 ], [ 0.575811399539377, 47.755579390662398 ], [ 0.575880724202579, 47.755678616843198 ], [ 0.575976726433175, 47.755778485452304 ], [ 0.576046764630537, 47.7558415275847 ], [ 0.576213986563444, 47.755943320936197 ], [ 0.57637372896344, 47.756033433219798 ], [ 0.576749276201682, 47.756240570936697 ], [ 0.576810236945877, 47.756274249594803 ], [ 0.576927870784924, 47.756262727394699 ], [ 0.577078102956371, 47.756247917760099 ], [ 0.577176961253419, 47.756238167808 ], [ 0.577230740487052, 47.756233067671097 ], [ 0.577510540822382, 47.756205631159901 ], [ 0.577803359236336, 47.756176752472797 ], [ 0.578132244197382, 47.756144657206498 ], [ 0.578154783635183, 47.756142332085702 ], [ 0.57825337063012, 47.756132665665902 ], [ 0.578360002996995, 47.756122265135701 ], [ 0.578432432119365, 47.756115209056198 ], [ 0.578545322314333, 47.756105207950597 ], [ 0.578599343544951, 47.7561006524747 ], [ 0.578725434510898, 47.7560881328167 ], [ 0.578931987527843, 47.756068092457802 ], [ 0.579076716137989, 47.7560538868252 ], [ 0.579215942219202, 47.7560402875948 ], [ 0.579285824094371, 47.756033448454097 ], [ 0.579653737554707, 47.755997563658397 ], [ 0.579757284638056, 47.755987458260002 ], [ 0.579891145432337, 47.755974377629201 ], [ 0.579961698262786, 47.7559674619135 ], [ 0.580110715819027, 47.755952893449098 ], [ 0.580273414484018, 47.755936986763501 ], [ 0.580404861419785, 47.755924125792802 ], [ 0.580425916824506, 47.755922129749301 ], [ 0.580459452740036, 47.755918770831599 ], [ 0.580535503757479, 47.755911338092098 ], [ 0.580568902162783, 47.755908066347601 ], [ 0.58065849682424, 47.755899382665 ], [ 0.580722742502291, 47.755893146557902 ], [ 0.580820390628322, 47.755883548637399 ], [ 0.580926217461398, 47.755873219188601 ], [ 0.581032177660921, 47.755862892400899 ], [ 0.581107690800642, 47.755855538224203 ], [ 0.581191257422415, 47.755847269853199 ], [ 0.581776723982582, 47.7557901203038 ], [ 0.581530630043483, 47.755340297299398 ], [ 0.58151386602164, 47.755297809250301 ], [ 0.581525813262016, 47.755246459520301 ], [ 0.581540019873634, 47.755204161104203 ], [ 0.581597236255385, 47.755161580667703 ], [ 0.581649732523465, 47.755131779319598 ], [ 0.582110937429507, 47.7549556310667 ], [ 0.582133739147033, 47.754944576113303 ], [ 0.582195189392931, 47.754914599289897 ], [ 0.582251847810528, 47.754887224853597 ], [ 0.582292985425614, 47.754837018235001 ], [ 0.582354578013466, 47.754762741462301 ], [ 0.582435681103388, 47.754644024519997 ], [ 0.582459788784994, 47.754530703807198 ], [ 0.582466363424569, 47.754409457084897 ] ] ], [ [ [ 0.575604085569879, 47.7553757340944 ], [ 0.575484841864543, 47.755205687701299 ], [ 0.575452876298991, 47.755159912286103 ], [ 0.575420155429555, 47.755113130703002 ], [ 0.575389058249931, 47.755068813997802 ], [ 0.575282528518069, 47.754953869064202 ], [ 0.575192659766326, 47.754857188420701 ], [ 0.575111323730484, 47.754769599070599 ], [ 0.57475414296571, 47.754464505185901 ], [ 0.574375679676004, 47.754131324732903 ], [ 0.573983519190709, 47.754251154048397 ], [ 0.574087420508287, 47.754640508047302 ], [ 0.574144933966069, 47.755004677978 ], [ 0.574148893233818, 47.7550086320337 ], [ 0.574244147630571, 47.755101373011499 ], [ 0.574333064136855, 47.755186688790701 ], [ 0.574348542098671, 47.755201597075498 ], [ 0.574634455924121, 47.7554765806251 ], [ 0.574827371178556, 47.755653286875102 ], [ 0.575416952209616, 47.755453170272503 ], [ 0.575604085569879, 47.7553757340944 ] ] ], [ [ [ 0.576941654685867, 47.756411679433299 ], [ 0.5768763244542, 47.7563625124575 ], [ 0.576654821434473, 47.756241587134603 ], [ 0.576606313434483, 47.756213028701502 ], [ 0.576348905701562, 47.756062454525399 ], [ 0.576295192798305, 47.756030906701099 ], [ 0.576183729861859, 47.7559655662644 ], [ 0.576016990605665, 47.755867834959901 ], [ 0.575906663163543, 47.755777574862698 ], [ 0.57579716675891, 47.755657346360699 ], [ 0.575648532902149, 47.755431853178202 ], [ 0.57535144619469, 47.755510523817001 ], [ 0.575117926114428, 47.755594922805102 ], [ 0.574878095830968, 47.755703503184797 ], [ 0.574963503973472, 47.755921564412397 ], [ 0.57504680606044, 47.756042241590102 ], [ 0.575111452519291, 47.756115167762097 ], [ 0.575165621456876, 47.7561601425219 ], [ 0.575364683582023, 47.756281146213901 ], [ 0.575510945765616, 47.756353511429801 ], [ 0.575586033063436, 47.756390724991299 ], [ 0.575704215257927, 47.756449271551404 ], [ 0.575484399573739, 47.756555206089701 ], [ 0.575223690132733, 47.756661823961402 ], [ 0.574652781247527, 47.756841615909899 ], [ 0.575276531304368, 47.757442450972803 ], [ 0.575277812142239, 47.757443648106999 ], [ 0.575332246618393, 47.757427126486597 ], [ 0.575346494307304, 47.7574456109785 ], [ 0.575551217180477, 47.757354491894702 ], [ 0.575528973466569, 47.757341514750799 ], [ 0.576941654685867, 47.756411679433299 ] ] ], [ [ [ 0.57558043477254, 47.756449139279802 ], [ 0.575158457833917, 47.756206007913001 ], [ 0.575063551228925, 47.756146592236398 ], [ 0.574997708079541, 47.756099934840698 ], [ 0.574973327821322, 47.756078178792599 ], [ 0.574917599141368, 47.755915030539001 ], [ 0.574824508268965, 47.755745435256102 ], [ 0.574782392788123, 47.755685041932203 ], [ 0.574145079278239, 47.755106973963102 ], [ 0.574098530878064, 47.755064767945598 ], [ 0.57406123649643, 47.754755045021398 ], [ 0.574023852357434, 47.754561570405599 ], [ 0.573960461132986, 47.754370348191898 ], [ 0.573907711230174, 47.7542474217584 ], [ 0.573891330146698, 47.754223039779198 ], [ 0.573874645969929, 47.754211168004197 ], [ 0.573794472387266, 47.754200681701498 ], [ 0.573558929204496, 47.754224074030397 ], [ 0.573339757962728, 47.7542603217859 ], [ 0.573005967769817, 47.754332822759402 ], [ 0.573116537059119, 47.754684136202698 ], [ 0.573055366083234, 47.754681517254902 ], [ 0.57304522869177, 47.754660776429802 ], [ 0.572936333081428, 47.7546915657623 ], [ 0.572874651712137, 47.754708926503604 ], [ 0.572782390238305, 47.754735108029301 ], [ 0.572697164149175, 47.7547592742498 ], [ 0.572598012729744, 47.754787203742801 ], [ 0.572434458128126, 47.754833607830498 ], [ 0.572339220294485, 47.754860627756401 ], [ 0.572321082921883, 47.7549303979836 ], [ 0.571938936071074, 47.755070508706901 ], [ 0.571205362658024, 47.755259696349199 ], [ 0.571111375517326, 47.755130510171597 ], [ 0.570340953312533, 47.7553487333468 ], [ 0.570356276179889, 47.7553699422335 ], [ 0.570261266089425, 47.755403628689599 ], [ 0.570126278950937, 47.755453053843198 ], [ 0.570042893428873, 47.755483649696799 ], [ 0.569467407104859, 47.754684422908099 ], [ 0.569421347732372, 47.754687158452597 ], [ 0.56935547884485, 47.754690923390903 ], [ 0.569257736565956, 47.754696727832801 ], [ 0.569174730324889, 47.754701487504398 ], [ 0.569083272259481, 47.754710033658903 ], [ 0.569018509463808, 47.754715892455899 ], [ 0.568906400307255, 47.754726350815702 ], [ 0.568789209426677, 47.7547369736645 ], [ 0.568685020327668, 47.754746515747598 ], [ 0.568608981647682, 47.754753670910802 ], [ 0.568443910606852, 47.754768881788898 ], [ 0.568401908860089, 47.754767559066799 ], [ 0.568400753302195, 47.754848397129997 ], [ 0.568386800975442, 47.755209375202597 ], [ 0.568374917346579, 47.7556478364314 ], [ 0.568350290508218, 47.755804006297303 ], [ 0.568326681394375, 47.755885278357297 ], [ 0.568291317202579, 47.7559432542403 ], [ 0.568255737027979, 47.755970879856797 ], [ 0.568174880829172, 47.756027910664102 ], [ 0.568046194617807, 47.756333917625597 ], [ 0.567822270609489, 47.756620026395602 ], [ 0.567766054370154, 47.756713497535202 ], [ 0.567551759311288, 47.757092734116 ], [ 0.567459524947957, 47.757281806703702 ], [ 0.5674507312451, 47.757383646942301 ], [ 0.56747558929479, 47.757465025466999 ], [ 0.567549789216918, 47.757574173147802 ], [ 0.567770616089905, 47.757890773389299 ], [ 0.567808775704019, 47.757961622565396 ], [ 0.567885781855157, 47.758152590680702 ], [ 0.568053104966056, 47.758523817493803 ], [ 0.568083527216583, 47.758562359139198 ], [ 0.568110584846942, 47.758575167578996 ], [ 0.568152103036902, 47.758578371275398 ], [ 0.568384975535216, 47.758543768170298 ], [ 0.568663142843839, 47.758505693063 ], [ 0.568784923561747, 47.758488321966702 ], [ 0.569058953231359, 47.758429719411602 ], [ 0.569221679834514, 47.758395909177302 ], [ 0.569863873109239, 47.758270120129097 ], [ 0.570024576861798, 47.7582425700678 ], [ 0.570144322597893, 47.758220022678699 ], [ 0.57017512486081, 47.758203463120402 ], [ 0.570243954448464, 47.758152484619302 ], [ 0.570309130573935, 47.758093776288497 ], [ 0.570373923000319, 47.758017140682497 ], [ 0.570451988896694, 47.757927633713997 ], [ 0.570532675447322, 47.757847996163399 ], [ 0.570614430778467, 47.757800527381903 ], [ 0.570768591654339, 47.757743665443897 ], [ 0.570796957082046, 47.757736600100898 ], [ 0.571236792786726, 47.757708176947403 ], [ 0.571718580753514, 47.7576734186609 ], [ 0.572021307929857, 47.757673484621797 ], [ 0.572207218024567, 47.757678781130501 ], [ 0.572269363211104, 47.757680610231098 ], [ 0.572373521930005, 47.757645491014401 ], [ 0.572475646518107, 47.757611049898202 ], [ 0.572575736983255, 47.757577286887802 ], [ 0.572697117490108, 47.7575364013341 ], [ 0.572829209582024, 47.757491955795601 ], [ 0.57306329791815, 47.757410004251099 ], [ 0.57309072251476, 47.757394274386897 ], [ 0.573749783281662, 47.757120597486796 ], [ 0.574060924380432, 47.757006293436397 ], [ 0.574259388949064, 47.7569353073537 ], [ 0.574358811485076, 47.756892704455502 ], [ 0.574609111550592, 47.756815318007398 ], [ 0.575011592553054, 47.756692098340203 ], [ 0.57531109590604, 47.756586914802703 ], [ 0.575445704993087, 47.756531082610898 ], [ 0.57558043477254, 47.756449139279802 ] ] ] ] } },
{ "type": "Feature", "properties": { "Name": null, "id": "" }, "geometry": { "type": "MultiPolygon", "coordinates": [ [ [ [ 0.598036029486136, 47.756890264317299 ], [ 0.598031070388572, 47.7568610777994 ], [ 0.597836838995086, 47.756608205881498 ], [ 0.59772908959465, 47.756513247655 ], [ 0.597602751987179, 47.756439608864802 ], [ 0.597482560837349, 47.756380683487599 ], [ 0.59739776867014, 47.756339233037203 ], [ 0.597297708235977, 47.756292876804302 ], [ 0.597204912392322, 47.756248290418398 ], [ 0.597019644236601, 47.756160834924302 ], [ 0.596905331861306, 47.756104821016102 ], [ 0.596821793441413, 47.756065196777598 ], [ 0.59668919012578, 47.756000252792603 ], [ 0.596502781147734, 47.7559055693471 ], [ 0.596332247756794, 47.755814183083402 ], [ 0.596011075991915, 47.7556166906352 ], [ 0.595723996528374, 47.755427191177802 ], [ 0.595597396768503, 47.755356516199001 ], [ 0.595456075807159, 47.755295443727398 ], [ 0.595164242503016, 47.755187606808498 ], [ 0.595065023670034, 47.755155222957598 ], [ 0.594927013608502, 47.755115468672201 ], [ 0.594806377618298, 47.755081293868201 ], [ 0.594555586234957, 47.755010857296 ], [ 0.594071970325152, 47.754918616397902 ], [ 0.593944731048201, 47.754894660246201 ], [ 0.593822060210425, 47.754870077492598 ], [ 0.593663347164028, 47.754839350940898 ], [ 0.592396080024121, 47.754589978915597 ], [ 0.592269310800941, 47.754567471311702 ], [ 0.592150925839557, 47.754545586261997 ], [ 0.592038426173979, 47.7545264334913 ], [ 0.591859023459421, 47.754501492015699 ], [ 0.591571492681934, 47.7544670318577 ], [ 0.591378893707265, 47.754447491026298 ], [ 0.591176391313743, 47.754425494928299 ], [ 0.591062066549204, 47.754414227702803 ], [ 0.590809383779699, 47.754379852470798 ], [ 0.590619433883751, 47.754346047570401 ], [ 0.590437731826831, 47.754309980890703 ], [ 0.590369412488525, 47.754297138685899 ], [ 0.59018997049014, 47.754261298229899 ], [ 0.589803632504677, 47.754182567877002 ], [ 0.589379111731861, 47.754097827224001 ], [ 0.588843310968129, 47.753984769519803 ], [ 0.588779841707161, 47.753976888765898 ], [ 0.588688785877868, 47.754003197528597 ], [ 0.588649558641833, 47.754032014643997 ], [ 0.588491354267926, 47.754405778842703 ], [ 0.589196100503583, 47.754535914609903 ], [ 0.589479108546834, 47.754587666389298 ], [ 0.589508387309881, 47.754592771621397 ], [ 0.589590924102855, 47.754607167731997 ], [ 0.589620865837884, 47.754612376633403 ], [ 0.589894501755767, 47.754670597814702 ], [ 0.589898996794244, 47.754671590824699 ], [ 0.590013144658436, 47.754680874521704 ], [ 0.59017384178456, 47.754694268027301 ], [ 0.590174108594655, 47.754694273520101 ], [ 0.590215746271951, 47.754697742033798 ], [ 0.590293962498636, 47.754710247774099 ], [ 0.590475752312086, 47.754741453961103 ], [ 0.590486614167554, 47.754743388418099 ], [ 0.590548203735883, 47.754754471187503 ], [ 0.590719325496575, 47.754785367356703 ], [ 0.590755351155709, 47.7547918717814 ], [ 0.59079190637344, 47.75479847714 ], [ 0.590771285556584, 47.754846947744397 ], [ 0.590771273341767, 47.754847217631102 ], [ 0.590770982101204, 47.754847751913303 ], [ 0.590772037130099, 47.754848043765698 ], [ 0.590875337326618, 47.754875742881602 ], [ 0.590906883326367, 47.754883865938197 ], [ 0.590973136376572, 47.754901077539799 ], [ 0.59097907856004, 47.754902550519603 ], [ 0.591178073157816, 47.754951938776799 ], [ 0.591346720785543, 47.754999171470502 ], [ 0.591579981498872, 47.755061510361401 ], [ 0.591747955562377, 47.755105937175202 ], [ 0.5918473337634, 47.755152464383002 ], [ 0.591948901831924, 47.755203718942496 ], [ 0.592044466801259, 47.755254849921599 ], [ 0.592187127612833, 47.755351162135803 ], [ 0.59228886961236, 47.755404491015398 ], [ 0.592511628240402, 47.755516047202804 ], [ 0.592576466935571, 47.755549797233499 ], [ 0.59282344410263, 47.755683912123096 ], [ 0.59290837429419, 47.755692682156003 ], [ 0.593071851528509, 47.755709640558102 ], [ 0.59318662199815, 47.755728838953402 ], [ 0.593316137364704, 47.755758605618396 ], [ 0.593390643247425, 47.755791203240001 ], [ 0.5934684429443, 47.755827740500997 ], [ 0.593786453973847, 47.755976820449902 ], [ 0.593967139450584, 47.756050319932299 ], [ 0.594054391611197, 47.756087501295703 ], [ 0.594143434363256, 47.756126430263201 ], [ 0.59421217038686, 47.756150804621797 ], [ 0.59445123949028, 47.7562502658024 ], [ 0.594692082982851, 47.756354805497899 ], [ 0.594915427812711, 47.756453582404497 ], [ 0.59511337153859, 47.756541211622903 ], [ 0.59526635669294, 47.7566279169382 ], [ 0.595408620490765, 47.756750960407501 ], [ 0.595552319345355, 47.7568599860139 ], [ 0.595697915669598, 47.756965448565502 ], [ 0.59577438793231, 47.757022577422603 ], [ 0.595858225055412, 47.757067431161801 ], [ 0.595871690123266, 47.7570738308087 ], [ 0.595975555374165, 47.757118735593899 ], [ 0.595972932565214, 47.7571324587337 ], [ 0.596194385776565, 47.757181578984699 ], [ 0.596272848853615, 47.757197597463502 ], [ 0.596405406132445, 47.757225171896202 ], [ 0.596372520237104, 47.7573265184921 ], [ 0.596357871149669, 47.757372951445703 ], [ 0.596425004368346, 47.757361903549402 ], [ 0.596481921750714, 47.757405573765503 ], [ 0.596541942996283, 47.757454440283801 ], [ 0.596564628295174, 47.757487322500999 ], [ 0.596433142272174, 47.7576252743144 ], [ 0.59656053530289, 47.7576844386018 ], [ 0.596806773447622, 47.757793946871502 ], [ 0.597165913397457, 47.757662468579397 ], [ 0.597282139463402, 47.757608125367199 ], [ 0.597354110560844, 47.757563859326602 ], [ 0.597403036546753, 47.757524252876003 ], [ 0.597598266417217, 47.757346727458199 ], [ 0.597802646376368, 47.757155792588499 ], [ 0.598001962257438, 47.756970516387597 ], [ 0.598032612110854, 47.756918648640401 ], [ 0.598036029486136, 47.756890264317299 ] ] ], [ [ [ 0.609681977837782, 47.759497463501503 ], [ 0.609308407755306, 47.7593530566689 ], [ 0.609096142554373, 47.7592713729045 ], [ 0.608708202887336, 47.759119917207698 ], [ 0.608605172074371, 47.759079903553697 ], [ 0.60829999440242, 47.759000552409297 ], [ 0.608227662203758, 47.758981695899003 ], [ 0.608116780694036, 47.758952957151003 ], [ 0.608002349613271, 47.758922975179402 ], [ 0.607953377645874, 47.758910268656201 ], [ 0.607904935324847, 47.758897662979898 ], [ 0.607520696595386, 47.758797694673497 ], [ 0.607448235575857, 47.758778744990501 ], [ 0.607438071711976, 47.758776106043499 ], [ 0.607376688301493, 47.758760264163001 ], [ 0.607237964277785, 47.758724112066297 ], [ 0.607102935645292, 47.758688935789202 ], [ 0.606989815646819, 47.758656548376301 ], [ 0.60686036255763, 47.758619144605298 ], [ 0.606726535248765, 47.758581020944199 ], [ 0.606565022576184, 47.758534947381101 ], [ 0.606411426106446, 47.758491016444303 ], [ 0.606275630577153, 47.758452131646102 ], [ 0.606209440987323, 47.758433309409902 ], [ 0.606172521673147, 47.758422829572901 ], [ 0.606139560324007, 47.758413421158401 ], [ 0.605558164903612, 47.758139678911803 ], [ 0.605507807755483, 47.758122170596003 ], [ 0.605446141713055, 47.758213565945098 ], [ 0.604888649945641, 47.758566124710597 ], [ 0.604872368523417, 47.758577767637 ], [ 0.604833997648642, 47.758572840491098 ], [ 0.604770294204462, 47.758564063340103 ], [ 0.604896033188972, 47.758479201877599 ], [ 0.605272653220259, 47.758228926673297 ], [ 0.604031998034195, 47.758097467361502 ], [ 0.601678948428529, 47.757822792415901 ], [ 0.601675658663242, 47.757864983386497 ], [ 0.601621480940772, 47.757861172059101 ], [ 0.601364616712751, 47.757845013722999 ], [ 0.601286186153524, 47.757840074981303 ], [ 0.601231167461726, 47.757837146695799 ], [ 0.601190132866214, 47.757835045211401 ], [ 0.600949674303005, 47.757822283681698 ], [ 0.600912274330334, 47.757819536220602 ], [ 0.60057312003051, 47.757792234894602 ], [ 0.600540094351205, 47.757790207291002 ], [ 0.60056989840118, 47.757700772602099 ], [ 0.600431244137055, 47.7576810019956 ], [ 0.600279914672606, 47.757977931842802 ], [ 0.600193342742137, 47.758132836465599 ], [ 0.599850305605577, 47.758612139912302 ], [ 0.599943609751151, 47.758571551339799 ], [ 0.599982815840451, 47.758584601320401 ], [ 0.600113627257075, 47.758671745783602 ], [ 0.600289627971181, 47.758722177383 ], [ 0.600546599007174, 47.758783452987103 ], [ 0.600859991858567, 47.758858040466002 ], [ 0.600921559570645, 47.7588727189843 ], [ 0.601055635221015, 47.758902300109803 ], [ 0.601121451324244, 47.7589234588091 ], [ 0.601213838949838, 47.758998018646402 ], [ 0.601243794960891, 47.759014840649698 ], [ 0.601280535331968, 47.759029280383601 ], [ 0.601344206324918, 47.759038779130101 ], [ 0.601458757326824, 47.759051211266097 ], [ 0.601550170561661, 47.759064429886401 ], [ 0.601650708517819, 47.759079636281399 ], [ 0.601789956947408, 47.759101128380401 ], [ 0.601850555479514, 47.759110653951602 ], [ 0.601908837311329, 47.759121212579501 ], [ 0.601983347376827, 47.759133184144503 ], [ 0.602030446565356, 47.759142973371702 ], [ 0.602126318298384, 47.759166908224898 ], [ 0.602212478730595, 47.759192985271902 ], [ 0.602302782965352, 47.759221938532697 ], [ 0.602386578226971, 47.759250128096099 ], [ 0.602472459625893, 47.759279440866102 ], [ 0.602559036569822, 47.759308137496902 ], [ 0.602741769876029, 47.759351499545602 ], [ 0.602958237846351, 47.759396002271799 ], [ 0.603054927706307, 47.759413649916603 ], [ 0.603151865276987, 47.759419866785599 ], [ 0.603249414552062, 47.759412499242003 ], [ 0.603344534953283, 47.7593938262184 ], [ 0.603442391744844, 47.759382592858998 ], [ 0.603573501114839, 47.759380234246301 ], [ 0.603672407784085, 47.759384239858001 ], [ 0.603804368690298, 47.759401528310597 ], [ 0.603825136820194, 47.759408886892999 ], [ 0.603951650014836, 47.759452266876202 ], [ 0.604005173269188, 47.759473622538202 ], [ 0.604165222186461, 47.759531465581297 ], [ 0.604282226625456, 47.7595784324986 ], [ 0.604363096595288, 47.759603409157997 ], [ 0.604494083087204, 47.759633463314799 ], [ 0.604626776745944, 47.759649325088702 ], [ 0.604896438919412, 47.759660245122497 ], [ 0.60500027037676, 47.759667591986897 ], [ 0.605067367306074, 47.759675177767399 ], [ 0.605103551525323, 47.759684202169197 ], [ 0.60516070999773, 47.7597078827852 ], [ 0.605209855319261, 47.759731579543903 ], [ 0.605271044777333, 47.759754712244899 ], [ 0.605332780394866, 47.759771642958 ], [ 0.605480336314607, 47.759795551656303 ], [ 0.605560831731058, 47.759808093554902 ], [ 0.60561545988952, 47.7598256891524 ], [ 0.605721481643398, 47.759867477467402 ], [ 0.605828748728769, 47.759911272146297 ], [ 0.605929765862558, 47.7599455742019 ], [ 0.606063171288035, 47.759990173318897 ], [ 0.606234843704088, 47.760045009495997 ], [ 0.606225334141642, 47.760057511432699 ], [ 0.606189004018576, 47.760045783047097 ], [ 0.6060882088587, 47.760012476261402 ], [ 0.605983330434587, 47.759977915296297 ], [ 0.605909388832769, 47.7599532615653 ], [ 0.605801454264298, 47.759915396302503 ], [ 0.605702208384908, 47.759874376961498 ], [ 0.605603504297322, 47.759836160017699 ], [ 0.60555878135794, 47.759821018141302 ], [ 0.60541602421508, 47.759800269241097 ], [ 0.60532519114566, 47.759783013518003 ], [ 0.605236262873407, 47.759756071793703 ], [ 0.605176662460959, 47.759730270221098 ], [ 0.605104690943118, 47.7596974621407 ], [ 0.605045583210706, 47.759684457012902 ], [ 0.604978842000017, 47.7596778689961 ], [ 0.604873369024845, 47.759671388982397 ], [ 0.604634340362538, 47.759662266287798 ], [ 0.604547626984752, 47.759654368914298 ], [ 0.604465644388579, 47.759639274607302 ], [ 0.604372163982841, 47.759618542236602 ], [ 0.604264113555641, 47.759586255954702 ], [ 0.604114281063873, 47.759526911278698 ], [ 0.604088273535325, 47.759514312935103 ], [ 0.603970072256532, 47.759473174269502 ], [ 0.603866878277944, 47.759436844916699 ], [ 0.60382321968791, 47.759418842689897 ], [ 0.603791955885104, 47.759413250275699 ], [ 0.60373366121004, 47.759402962474198 ], [ 0.603661037992998, 47.759396523432102 ], [ 0.603576985198796, 47.759391831376597 ], [ 0.603496279513176, 47.759392880638899 ], [ 0.603283403100688, 47.759419858448098 ], [ 0.603225341369057, 47.7594281245131 ], [ 0.603168294828539, 47.759431638928298 ], [ 0.603119848041249, 47.759431007209898 ], [ 0.603020121113026, 47.759421491567899 ], [ 0.602910753096334, 47.759397731345203 ], [ 0.602773460707205, 47.759371328163901 ], [ 0.602630718898548, 47.759341391496797 ], [ 0.602495882195104, 47.759301981684402 ], [ 0.602250148085659, 47.759219419763902 ], [ 0.6020189994413, 47.7591569660744 ], [ 0.601959783964024, 47.759143416877599 ], [ 0.60190629260609, 47.759136198043898 ], [ 0.601792667469949, 47.759120993909796 ], [ 0.60154235288361, 47.7590867810882 ], [ 0.601439559024497, 47.759071258242898 ], [ 0.601238924487204, 47.759036982087302 ], [ 0.601084584234015, 47.758920722340399 ], [ 0.60083349359448, 47.758865241327896 ], [ 0.600492455685065, 47.758787745959303 ], [ 0.6001006216136, 47.758696601871698 ], [ 0.600090199647619, 47.7587470838589 ], [ 0.600042844491971, 47.7588051829267 ], [ 0.599986306093823, 47.758874439446402 ], [ 0.599891809887179, 47.759148761826502 ], [ 0.599833915984514, 47.759328026112399 ], [ 0.600262882295038, 47.759380582255503 ], [ 0.600513925773773, 47.759410490550998 ], [ 0.600615992917285, 47.759421406983499 ], [ 0.600827173730914, 47.759446895763098 ], [ 0.601133282815958, 47.759478741616199 ], [ 0.601095017449409, 47.759720359900101 ], [ 0.601112349271956, 47.759723956688703 ], [ 0.60122528333503, 47.759745630567899 ], [ 0.601292140626708, 47.7597585262914 ], [ 0.601506721271375, 47.759800471738501 ], [ 0.601614690797678, 47.759822673839899 ], [ 0.601663711084114, 47.759831331966502 ], [ 0.60172054633125, 47.759841410805898 ], [ 0.601893310558504, 47.7599934348288 ], [ 0.602061018652144, 47.760139141866198 ], [ 0.60187122207608, 47.760397736466999 ], [ 0.601704020145946, 47.760623116656497 ], [ 0.601628373928563, 47.760731152198296 ], [ 0.601787948822302, 47.760772870591097 ], [ 0.60200375773009, 47.760826185889997 ], [ 0.602149967095026, 47.760865198781197 ], [ 0.602287501501234, 47.7608922378732 ], [ 0.602373993674293, 47.760905084844701 ], [ 0.602419121857421, 47.760911231691999 ], [ 0.602469805116816, 47.760918572829503 ], [ 0.602515750059109, 47.7609243761842 ], [ 0.602655404221002, 47.760942903938698 ], [ 0.602799877571201, 47.760964141518699 ], [ 0.602852525789947, 47.760972333131399 ], [ 0.602905841132163, 47.760980538379698 ], [ 0.603009532816098, 47.760994007177203 ], [ 0.603165711082801, 47.761016294359599 ], [ 0.60334250476223, 47.761043415585 ], [ 0.603514928109704, 47.761069726715498 ], [ 0.603586813332612, 47.761080743 ], [ 0.603799994455038, 47.761118333246202 ], [ 0.603905853109053, 47.761140039713297 ], [ 0.603979363428665, 47.761156491730603 ], [ 0.604043772967319, 47.761170416270303 ], [ 0.604107305279273, 47.761183062187399 ], [ 0.604207608844712, 47.761206545641201 ], [ 0.604286945381407, 47.7612241071878 ], [ 0.604403599494926, 47.761246304243699 ], [ 0.604448485456757, 47.761254876562901 ], [ 0.604528675503436, 47.761268313324699 ], [ 0.604625155256909, 47.761281813193399 ], [ 0.6047658311239, 47.761280639387401 ], [ 0.604823303923709, 47.761279564101898 ], [ 0.604933013493968, 47.761280998183103 ], [ 0.604996679407718, 47.761296617836102 ], [ 0.605088501215396, 47.761318666372901 ], [ 0.60517944581041, 47.761339436258503 ], [ 0.605269581846006, 47.761360369622999 ], [ 0.605321139025393, 47.7613720495549 ], [ 0.605361690959081, 47.7613819735909 ], [ 0.605417323570372, 47.761395087517897 ], [ 0.605515953921862, 47.761426099403202 ], [ 0.605436544685175, 47.761564495540497 ], [ 0.60558218808328, 47.761613217344099 ], [ 0.605606636512319, 47.761621911482202 ], [ 0.605679928986037, 47.761655106355697 ], [ 0.605798577405554, 47.761689408828602 ], [ 0.605832098579194, 47.761701259950399 ], [ 0.605945251449357, 47.761765705068598 ], [ 0.606101851363946, 47.761855890942698 ], [ 0.606406813100324, 47.762026458756203 ], [ 0.606627683988366, 47.762148573238399 ], [ 0.606847443273365, 47.762108313171701 ], [ 0.607093812731241, 47.761912818503902 ], [ 0.60734437749796, 47.761686343499498 ], [ 0.607689974192501, 47.761336196948498 ], [ 0.607648896586053, 47.761263681602998 ], [ 0.607585246320011, 47.761215017152999 ], [ 0.607529981413401, 47.7611848031951 ], [ 0.607649650474954, 47.760908198701202 ], [ 0.607668564201061, 47.760864733200698 ], [ 0.60767360605311, 47.760835751638098 ], [ 0.607664097073071, 47.760770994931903 ], [ 0.607629440269383, 47.760707165047698 ], [ 0.607593044827279, 47.760676076067497 ], [ 0.60727624072862, 47.7605194962401 ], [ 0.607288895600816, 47.760508319141998 ], [ 0.607340331010967, 47.760528640049102 ], [ 0.60750281643502, 47.760606698277698 ], [ 0.607559358322914, 47.760638198999501 ], [ 0.607612120030241, 47.760667641448798 ], [ 0.607645115303964, 47.760691187190403 ], [ 0.607689653340095, 47.760760981881603 ], [ 0.607704818534007, 47.760842512524697 ], [ 0.607677317138305, 47.760931455447 ], [ 0.607600720143149, 47.761072791872301 ], [ 0.607573125549103, 47.761148946447001 ], [ 0.607586237098537, 47.7611810903744 ], [ 0.60777256298957, 47.761266568814001 ], [ 0.608049777773923, 47.760984808902997 ], [ 0.608151210324515, 47.760911873661698 ], [ 0.608461546693523, 47.760698323360401 ], [ 0.608851268279341, 47.7603971589689 ], [ 0.609168429945848, 47.760114771666402 ], [ 0.609276121186919, 47.760012428484401 ], [ 0.609512672353407, 47.759699129389098 ], [ 0.609681977837782, 47.759497463501503 ] ] ], [ [ [ 0.61075692077351, 47.761367042030798 ], [ 0.610279327053755, 47.761248879983498 ], [ 0.610110675640949, 47.761212840981798 ], [ 0.609936994805881, 47.761175798604199 ], [ 0.609838835327407, 47.761143179283003 ], [ 0.609747650381631, 47.761112863357198 ], [ 0.609740409124951, 47.7611105544308 ], [ 0.609632663131005, 47.761059460048003 ], [ 0.60983826217656, 47.760831791648897 ], [ 0.609743831211825, 47.760802399928501 ], [ 0.609662309991104, 47.7607769635678 ], [ 0.609588167510698, 47.760753748848302 ], [ 0.609523243365485, 47.760733423662998 ], [ 0.609503884998508, 47.7607273555411 ], [ 0.609450552476609, 47.760710598673903 ], [ 0.60930489596238, 47.760665123035402 ], [ 0.609067562045438, 47.760933293063502 ], [ 0.608973850679768, 47.760887887382403 ], [ 0.608609826122868, 47.760712157745203 ], [ 0.608547214918038, 47.760681974288801 ], [ 0.608305801066798, 47.760862535622103 ], [ 0.608117285127531, 47.760986278202701 ], [ 0.607844186581373, 47.7612626296198 ], [ 0.607821872625742, 47.761295580424097 ], [ 0.608367928357501, 47.761527617549298 ], [ 0.608474489384027, 47.761572385724001 ], [ 0.608614337826294, 47.7616282789755 ], [ 0.60869906214112, 47.761662695927498 ], [ 0.608769502162156, 47.761697001149102 ], [ 0.608807730447052, 47.761722994582797 ], [ 0.608871406529448, 47.761762204112401 ], [ 0.609030550732358, 47.761864233839198 ], [ 0.609096596516948, 47.761907183480197 ], [ 0.609179074069447, 47.761961904365698 ], [ 0.609328115408176, 47.762056973958401 ], [ 0.6094595165898, 47.762140427522198 ], [ 0.609478875638406, 47.762152438623403 ], [ 0.609570240904755, 47.762208511271503 ], [ 0.609596627172087, 47.762224627814902 ], [ 0.609605465726275, 47.762230030890201 ], [ 0.609705803258751, 47.762291509228902 ], [ 0.609766108589529, 47.762328488331597 ], [ 0.609855585939763, 47.762263051455399 ], [ 0.609890008721312, 47.7622399823221 ], [ 0.61004055252474, 47.762141034598798 ], [ 0.610215366907672, 47.762042852249699 ], [ 0.610297363384845, 47.761977442432702 ], [ 0.61060319865799, 47.761629087388499 ], [ 0.61069310237201, 47.7614856795919 ], [ 0.61075692077351, 47.761367042030798 ] ] ], [ [ [ 0.60972605789684, 47.762360897254901 ], [ 0.609708303561874, 47.762339914458799 ], [ 0.609661838301199, 47.762309971279301 ], [ 0.609161956044336, 47.761992170112698 ], [ 0.608745910763324, 47.761716779437997 ], [ 0.608543421337416, 47.761631332641798 ], [ 0.608364124032241, 47.7615587854879 ], [ 0.608171804304296, 47.761481829920498 ], [ 0.607777099189767, 47.761323119813902 ], [ 0.607265235355082, 47.761830779250403 ], [ 0.606920672528603, 47.762139975170598 ], [ 0.606906872770133, 47.762161754151997 ], [ 0.607229539218318, 47.762384187406496 ], [ 0.607472977799639, 47.762595545899899 ], [ 0.607526752055971, 47.762644098568302 ], [ 0.607743439422555, 47.762731638043398 ], [ 0.608251349380176, 47.762942095376097 ], [ 0.608384477370555, 47.763007936543502 ], [ 0.608633138789642, 47.763189414097603 ], [ 0.608696484842888, 47.7632211431794 ], [ 0.608868579279139, 47.763305518512098 ], [ 0.609303337393364, 47.763565982706197 ], [ 0.60935963659767, 47.763588112787602 ], [ 0.609400708193899, 47.763586520216798 ], [ 0.609423947881927, 47.763547825177596 ], [ 0.609434604549143, 47.7634978877186 ], [ 0.609408435651425, 47.763322305928497 ], [ 0.6093837944261, 47.763115689780101 ], [ 0.609373437303567, 47.763028134640599 ], [ 0.609372699301264, 47.762949420233198 ], [ 0.609390051308121, 47.762893136236798 ], [ 0.609436908706533, 47.762765688829603 ], [ 0.609450897157394, 47.762727795369798 ], [ 0.609503197406581, 47.762633775725398 ], [ 0.609649272854824, 47.762458919342201 ], [ 0.609721227405982, 47.762394115292899 ], [ 0.60972605789684, 47.762360897254901 ] ] ] ] } }
]
}
