{
"type": "FeatureCollection",
"name": "Touraine-CHENONCEAUX",
"crs": { "type": "name", "properties": { "name": "urn:ogc:def:crs:OGC:1.3:CRS84" } },
"features": [
{ "type": "Feature", "properties": { "Name": null, "id": "" }, "geometry": { "type": "MultiPolygon", "coordinates": [ [ [ [ 1.06543182032259, 47.330815785136402 ], [ 1.06504643882713, 47.330847644286699 ], [ 1.06466042148078, 47.330879491567899 ], [ 1.06440487453232, 47.330900932449197 ], [ 1.06415253054214, 47.330935654494098 ], [ 1.06390971162719, 47.3309673830611 ], [ 1.06378746121919, 47.330987830180298 ], [ 1.06372265548318, 47.331001310659403 ], [ 1.06353747506724, 47.3310346388906 ], [ 1.06342093293192, 47.3310550907701 ], [ 1.06317985336576, 47.331100255262498 ], [ 1.06299399091321, 47.331134111560701 ], [ 1.06293561289789, 47.3311452764828 ], [ 1.06277816942222, 47.331173041862698 ], [ 1.06278414101376, 47.331194384256399 ], [ 1.06155683349413, 47.331427303654799 ], [ 1.06130858665548, 47.331473515315402 ], [ 1.06136885473109, 47.331777485455603 ], [ 1.0614045050798, 47.331950760335097 ], [ 1.06146933973417, 47.332253014585497 ], [ 1.06231799539665, 47.332245521554803 ], [ 1.0631607354212, 47.332244479289699 ], [ 1.06332964495864, 47.332243721425399 ], [ 1.06347528131867, 47.332231598132303 ], [ 1.06420125799971, 47.332187286227203 ], [ 1.06419455412644, 47.332138853736602 ], [ 1.06419756727184, 47.332096076267902 ], [ 1.06421436029991, 47.332052808110703 ], [ 1.06424030579076, 47.332012484064997 ], [ 1.06425486751638, 47.331990682605799 ], [ 1.06431646314981, 47.331952753809297 ], [ 1.06439349138534, 47.331934614027702 ], [ 1.0645247302189, 47.331903347991201 ], [ 1.06460060961731, 47.331902370432701 ], [ 1.06466600363721, 47.331913005596498 ], [ 1.06485182790872, 47.331661666643498 ], [ 1.06509696712508, 47.331340419517304 ], [ 1.06524861291144, 47.331133580368899 ], [ 1.06536743754483, 47.330981439792097 ], [ 1.06535169305153, 47.330973973494899 ], [ 1.06543182032259, 47.330815785136402 ] ] ], [ [ [ 1.06916571156735, 47.333672839183698 ], [ 1.06915506957407, 47.333429987480997 ], [ 1.06914883411165, 47.333277096575998 ], [ 1.06914565180992, 47.333218646467998 ], [ 1.06913914490317, 47.333149884424401 ], [ 1.06913917223415, 47.333134765542503 ], [ 1.06912073617126, 47.333135809745897 ], [ 1.06911187027687, 47.3331359324782 ], [ 1.06873057399448, 47.3331425860436 ], [ 1.06872849280168, 47.333126801745998 ], [ 1.06843978594624, 47.333131590271499 ], [ 1.06843717059118, 47.333203892674 ], [ 1.06842215420046, 47.333373071346898 ], [ 1.06839941772026, 47.333718844039197 ], [ 1.06875729826746, 47.333697493197803 ], [ 1.06916571156735, 47.333672839183698 ] ] ], [ [ [ 1.07262701053564, 47.334220828572001 ], [ 1.07260946646944, 47.334160879592503 ], [ 1.07260254425255, 47.334140071325798 ], [ 1.07254516008315, 47.333908132875798 ], [ 1.07224584537814, 47.333949639148102 ], [ 1.07219547175652, 47.333739779937702 ], [ 1.07214464968762, 47.333545734941602 ], [ 1.07193093716243, 47.333562763191502 ], [ 1.07181246684908, 47.333640147839198 ], [ 1.07183252021225, 47.333970530414803 ], [ 1.07204259558962, 47.333958925954803 ], [ 1.07206381645706, 47.334158764992701 ], [ 1.07232361752543, 47.334356657284303 ], [ 1.07244608613658, 47.3342752952667 ], [ 1.07248084077097, 47.3342477226523 ], [ 1.07262701053564, 47.334220828572001 ] ] ], [ [ [ 1.07812864955656, 47.340827970059003 ], [ 1.0780637777721, 47.340846770424697 ], [ 1.07765060214162, 47.340788865655597 ], [ 1.07725661886015, 47.340727756207798 ], [ 1.07724188324704, 47.340765215833102 ], [ 1.07701652817194, 47.340730417912702 ], [ 1.07681049445414, 47.341123880013498 ], [ 1.07657953012419, 47.341053346940001 ], [ 1.07631416218366, 47.340968024815801 ], [ 1.07622474841097, 47.3409404385798 ], [ 1.076030059745, 47.340895349800199 ], [ 1.07527222600314, 47.342224192789402 ], [ 1.07533613688964, 47.342250726768697 ], [ 1.07543312539428, 47.342292117620801 ], [ 1.07581654115757, 47.3424594059857 ], [ 1.07600482994239, 47.34253867068 ], [ 1.07644074815602, 47.342725277657102 ], [ 1.07685412307495, 47.342906647022502 ], [ 1.0769398848057, 47.342885041458402 ], [ 1.07715008593152, 47.342522958381302 ], [ 1.07727961387675, 47.342293694574998 ], [ 1.07748029409905, 47.341945410880697 ], [ 1.07807497605892, 47.340918049500701 ], [ 1.07809251766965, 47.340890262462999 ], [ 1.07811020730065, 47.3408550128011 ], [ 1.07812864955656, 47.340827970059003 ] ] ], [ [ [ 1.07686366651727, 47.343023328521298 ], [ 1.07682668711768, 47.342958736371799 ], [ 1.07631629640535, 47.342740749069101 ], [ 1.07586652763417, 47.342545087357998 ], [ 1.07539844530467, 47.342343366235099 ], [ 1.07539805390758, 47.342343197661101 ], [ 1.07529981618782, 47.342486224697097 ], [ 1.07491079382288, 47.342360777561602 ], [ 1.07484825565527, 47.342450339438798 ], [ 1.07475718965035, 47.3425414995437 ], [ 1.07444885311764, 47.342834982136402 ], [ 1.07407720643188, 47.343187702062302 ], [ 1.07384456024374, 47.343412632037698 ], [ 1.07372791759547, 47.343507590507699 ], [ 1.07361055169368, 47.343568435264402 ], [ 1.07351437933486, 47.343581040917996 ], [ 1.07340130494949, 47.343574743976802 ], [ 1.07436955675152, 47.344185241570003 ], [ 1.07462416245842, 47.344041754805602 ], [ 1.0751175878569, 47.343744153385401 ], [ 1.0752914191829, 47.343637822528301 ], [ 1.07544386918924, 47.343562087007399 ], [ 1.07554057615796, 47.343516458621998 ], [ 1.07567687071117, 47.343467091641401 ], [ 1.07589062964061, 47.343416576462701 ], [ 1.0761605104065, 47.343377084982102 ], [ 1.0764280631386, 47.343340435895399 ], [ 1.07664907625384, 47.343272678018799 ], [ 1.07672041776148, 47.343217992929802 ], [ 1.07678586513091, 47.343154394400003 ], [ 1.07686366651727, 47.343023328521298 ] ] ], [ [ [ 1.0726045352547, 47.340871386097099 ], [ 1.07263644028913, 47.341225728062 ], [ 1.07266118773602, 47.341800391685901 ], [ 1.0726640801222, 47.341870353896198 ], [ 1.07269193164025, 47.341934787025501 ], [ 1.07271342794183, 47.341969974764503 ], [ 1.07310870858118, 47.342423420349803 ], [ 1.07326026955574, 47.342646951352201 ], [ 1.07327524659981, 47.342763363228201 ], [ 1.074072953997, 47.341475319741797 ], [ 1.07442140236934, 47.340907438810298 ], [ 1.07423728832736, 47.340902918393603 ], [ 1.0726045352547, 47.340871386097099 ] ] ], [ [ [ 1.07232471085455, 47.338172718661603 ], [ 1.072316474801, 47.338107710391398 ], [ 1.07229853940014, 47.338040190836303 ], [ 1.07227357196026, 47.3379290967233 ], [ 1.07220146630245, 47.337595419490903 ], [ 1.07215540936343, 47.337419815050303 ], [ 1.07209026099333, 47.337051070835798 ], [ 1.07203307332214, 47.336802575606498 ], [ 1.07199384858562, 47.336807768634301 ], [ 1.0718654882762, 47.336850518235899 ], [ 1.0717510252125, 47.336889905469498 ], [ 1.07167196765533, 47.336916472116002 ], [ 1.07155482419194, 47.336956715148403 ], [ 1.07106573499515, 47.337051555249602 ], [ 1.07065401934535, 47.337140852989897 ], [ 1.0706115996722, 47.337160841634599 ], [ 1.07059365256775, 47.337177724910099 ], [ 1.07058791253055, 47.337215423304798 ], [ 1.07059609485184, 47.337278179630403 ], [ 1.07062253436515, 47.3375129275353 ], [ 1.07065228166676, 47.337787955439197 ], [ 1.07064437603929, 47.337936738844299 ], [ 1.07061732069737, 47.338117054589503 ], [ 1.07065268656115, 47.338138164375003 ], [ 1.07068067864807, 47.338144032357 ], [ 1.07133280292681, 47.338156655805797 ], [ 1.07137796349404, 47.338155883930298 ], [ 1.07201724250795, 47.338168389272703 ], [ 1.07232471085455, 47.338172718661603 ] ] ], [ [ [ 1.07722892794838, 47.334764803814203 ], [ 1.07719135027687, 47.334342894650902 ], [ 1.0771834191448, 47.334276622060301 ], [ 1.07717583576619, 47.334197316073698 ], [ 1.07717166821026, 47.334118426839296 ], [ 1.07714591418311, 47.334010202281803 ], [ 1.0771312415453, 47.333947239927802 ], [ 1.07710970485971, 47.333832961823497 ], [ 1.07709214788487, 47.333615372884402 ], [ 1.07681830078326, 47.333615385553301 ], [ 1.07658394379215, 47.333614178625901 ], [ 1.07649826647066, 47.333618684781598 ], [ 1.07635765034803, 47.333638561771501 ], [ 1.07622166665012, 47.333643756231297 ], [ 1.07602828244396, 47.333644307526498 ], [ 1.07571667817042, 47.333641530858898 ], [ 1.07540691118998, 47.3336429260793 ], [ 1.07518518811295, 47.333643636652603 ], [ 1.07504443208112, 47.333645238705799 ], [ 1.0749133298693, 47.333650971804801 ], [ 1.07461644355984, 47.333566914373598 ], [ 1.07463979336731, 47.333704347809302 ], [ 1.07471770716503, 47.334152221876998 ], [ 1.07437957965041, 47.334165733134498 ], [ 1.07439024860142, 47.334222055884403 ], [ 1.07443482547431, 47.334413195606402 ], [ 1.07443535530605, 47.334449746460002 ], [ 1.07445806863347, 47.334546214839499 ], [ 1.07448527695381, 47.334683171929598 ], [ 1.07453535469049, 47.334934780915702 ], [ 1.07499394422361, 47.334825742469498 ], [ 1.07536289566978, 47.334736252238301 ], [ 1.07544509971054, 47.3347178397308 ], [ 1.07560587739061, 47.334725735956297 ], [ 1.075863942476, 47.334745257423499 ], [ 1.07616447276149, 47.334761519633602 ], [ 1.07642916675005, 47.334780519307898 ], [ 1.07652006367541, 47.334781592639899 ], [ 1.07683359504002, 47.334774763671 ], [ 1.07693472726464, 47.334771143512398 ], [ 1.07705040844842, 47.3347677641761 ], [ 1.07722892794838, 47.334764803814203 ] ] ], [ [ [ 1.06626189041418, 47.333156515209801 ], [ 1.06617362100973, 47.333156116908803 ], [ 1.06608133217558, 47.333157353543001 ], [ 1.066060513542, 47.333158348578699 ], [ 1.06605876059327, 47.333129800633998 ], [ 1.0659918715464, 47.333131199050598 ], [ 1.06592044327219, 47.3331299103859 ], [ 1.06517852308221, 47.333124557265499 ], [ 1.0651731377443, 47.332912391334503 ], [ 1.0651731727684, 47.332831320108603 ], [ 1.06517200426004, 47.332702799609699 ], [ 1.06516861058503, 47.3325775828758 ], [ 1.06516555016914, 47.332385068475098 ], [ 1.06516222519169, 47.332236268826698 ], [ 1.06516253913318, 47.332209556282798 ], [ 1.06502856705193, 47.332228449680898 ], [ 1.06459812741984, 47.332272776002704 ], [ 1.06422113990181, 47.332303331678801 ], [ 1.06332849496877, 47.332366260085401 ], [ 1.0629586918181, 47.3323702047065 ], [ 1.06279696168428, 47.332373513151602 ], [ 1.06152987525532, 47.332375061185701 ], [ 1.06160610229479, 47.332706294402399 ], [ 1.0619356043536, 47.334020596487903 ], [ 1.06296671474332, 47.333983328950403 ], [ 1.06296539982638, 47.334005081056802 ], [ 1.06298542300648, 47.334029440327299 ], [ 1.0629430707455, 47.334032867172802 ], [ 1.06244502341769, 47.334050672978002 ], [ 1.06209834955848, 47.334065987028701 ], [ 1.06182835936185, 47.3340764745356 ], [ 1.06142844610123, 47.334092599963597 ], [ 1.06142791770196, 47.334259417451598 ], [ 1.06142627835316, 47.334602578942601 ], [ 1.06141894449626, 47.335000341571401 ], [ 1.06141430385503, 47.3352516651101 ], [ 1.06140473738867, 47.335739467146396 ], [ 1.06134383305465, 47.335732777319599 ], [ 1.06133365020458, 47.335787312565998 ], [ 1.06129942968896, 47.335949155054799 ], [ 1.06126077396985, 47.336134759654797 ], [ 1.06103963447861, 47.336417083757198 ], [ 1.06088065996759, 47.336624245345497 ], [ 1.06063943025885, 47.336931240057403 ], [ 1.06058764100481, 47.337001091270103 ], [ 1.06026558862214, 47.337022943713301 ], [ 1.0595921272908, 47.337066299522 ], [ 1.05916393109118, 47.337094993169202 ], [ 1.05884622468357, 47.337113852631902 ], [ 1.05882195103293, 47.337133410942997 ], [ 1.05886493939244, 47.337628133541202 ], [ 1.05787437563552, 47.337713202962199 ], [ 1.05759743868893, 47.3377390353251 ], [ 1.05751630320685, 47.337742622027697 ], [ 1.05776919725238, 47.338615012502501 ], [ 1.05788516175396, 47.338992099016899 ], [ 1.05800196890252, 47.3389729175653 ], [ 1.05823727380549, 47.338944938298503 ], [ 1.05839146021815, 47.338945652048302 ], [ 1.05866119719802, 47.338986811413598 ], [ 1.05890378852744, 47.339034990575698 ], [ 1.05908626802663, 47.3391094227011 ], [ 1.06030441615203, 47.339648937156298 ], [ 1.06038714532549, 47.339634316983101 ], [ 1.06060174121165, 47.338954351736 ], [ 1.06065740767976, 47.338828950611898 ], [ 1.06089489269463, 47.338526837174001 ], [ 1.06123734949524, 47.338097371439801 ], [ 1.06146163665335, 47.337874028119003 ], [ 1.0619988330753, 47.337458364410203 ], [ 1.06215550898678, 47.337346723768903 ], [ 1.06228206187845, 47.337281280090899 ], [ 1.0624455579862, 47.337287807995097 ], [ 1.06278317153608, 47.337376537923298 ], [ 1.06289313611198, 47.337395571631198 ], [ 1.06301768640951, 47.337395866035401 ], [ 1.06310994868198, 47.337388597944901 ], [ 1.06320633299881, 47.337369520975301 ], [ 1.06331493624441, 47.337331575174098 ], [ 1.06340376713268, 47.337283934401597 ], [ 1.06363331641051, 47.337137622193403 ], [ 1.06413249511967, 47.336809032362503 ], [ 1.06422744012138, 47.336742780575896 ], [ 1.06430263202135, 47.336662259790202 ], [ 1.06439729096428, 47.336545161067001 ], [ 1.06447486728784, 47.336417610958499 ], [ 1.06454167014839, 47.3361380935402 ], [ 1.06390916792327, 47.336001940329801 ], [ 1.06408539886742, 47.335836368224001 ], [ 1.06415480690721, 47.3357766156171 ], [ 1.06425611785866, 47.335666030402798 ], [ 1.06414012714618, 47.3355034663103 ], [ 1.06432329908532, 47.335198270420399 ], [ 1.06441665909406, 47.335051370562901 ], [ 1.06450643842963, 47.334900899013498 ], [ 1.0646291836709, 47.3347064472079 ], [ 1.06470799948336, 47.3345811687973 ], [ 1.064693568381, 47.334450194116698 ], [ 1.06467613586313, 47.334326049205998 ], [ 1.06462016346391, 47.3343247832141 ], [ 1.06450006704288, 47.334322763646298 ], [ 1.06443782257043, 47.334323518204698 ], [ 1.06428434015333, 47.334322022551 ], [ 1.06423149805495, 47.334322843673597 ], [ 1.0642248106162, 47.3342882701631 ], [ 1.06397013065648, 47.334299909359402 ], [ 1.06392961691404, 47.333947229427302 ], [ 1.0641880599283, 47.333937715213899 ], [ 1.06457804586562, 47.333921324816203 ], [ 1.0646278307496, 47.333917480949999 ], [ 1.06489353148577, 47.333908356275998 ], [ 1.06524498781919, 47.333895905132003 ], [ 1.06618873348906, 47.333862349363201 ], [ 1.06624480877618, 47.333338707533201 ], [ 1.06625681721445, 47.333212396637698 ], [ 1.06626051280677, 47.333172692216301 ], [ 1.06626189041418, 47.333156515209801 ] ] ], [ [ [ 1.07910926984019, 47.337162992355303 ], [ 1.07910887139124, 47.337151918715897 ], [ 1.07902553957357, 47.337029685310497 ], [ 1.07891664198026, 47.336888947046099 ], [ 1.07888303478682, 47.336848247168803 ], [ 1.07884584345959, 47.336811459161602 ], [ 1.07876820813486, 47.336754740546098 ], [ 1.07861947037562, 47.336643473358102 ], [ 1.07837268525658, 47.336432583041798 ], [ 1.07813600174765, 47.336223750354101 ], [ 1.07793262471789, 47.336035180170398 ], [ 1.07784373746877, 47.3359601837535 ], [ 1.07779608135782, 47.335905311361302 ], [ 1.07772255912095, 47.335815188735701 ], [ 1.07771007460583, 47.335790956930403 ], [ 1.07768061014039, 47.335734494562899 ], [ 1.07764550739882, 47.335672724999199 ], [ 1.0775589498153, 47.335518667573297 ], [ 1.07753040867762, 47.335465651320199 ], [ 1.07749757570874, 47.335389340286497 ], [ 1.07740473359559, 47.335163733527096 ], [ 1.07731112921216, 47.334936871357499 ], [ 1.07724480795201, 47.334779285532399 ], [ 1.07697736144579, 47.334789039930598 ], [ 1.07675054583883, 47.334795333347401 ], [ 1.07644913524331, 47.334803254348401 ], [ 1.07611177336274, 47.334780529501501 ], [ 1.07544131287411, 47.334734418105697 ], [ 1.07516451749632, 47.334801329854301 ], [ 1.07464515948642, 47.334928695101901 ], [ 1.0747588438731, 47.335123159535001 ], [ 1.07481100817393, 47.335218053909998 ], [ 1.07487483203768, 47.3353309713195 ], [ 1.0753819073066, 47.335195297007203 ], [ 1.07542487560102, 47.335255216580101 ], [ 1.07551461657377, 47.335397892203702 ], [ 1.07555918686149, 47.335464862115998 ], [ 1.07558983711313, 47.3355177427418 ], [ 1.07559616265291, 47.335522350030303 ], [ 1.07562966696253, 47.335572846603903 ], [ 1.07565982338019, 47.335628420504797 ], [ 1.07567267149737, 47.3356391601721 ], [ 1.07575807422146, 47.335773929382697 ], [ 1.07584874024562, 47.335909695219499 ], [ 1.07585191415335, 47.335916861705599 ], [ 1.07587424315507, 47.335950982159801 ], [ 1.07594144777644, 47.336058362845101 ], [ 1.07593508415231, 47.336069594627702 ], [ 1.07596938002187, 47.336113179400201 ], [ 1.07602756185082, 47.336191801861602 ], [ 1.07608123868569, 47.3362556806199 ], [ 1.07611686275315, 47.336379728414997 ], [ 1.07612804973148, 47.336418337788203 ], [ 1.07614558878667, 47.336478556166298 ], [ 1.07620620593536, 47.336687331121603 ], [ 1.07702055578163, 47.3365909669823 ], [ 1.0770461594092, 47.336713767923101 ], [ 1.07707681161309, 47.336855013492197 ], [ 1.07708024847784, 47.3368733323939 ], [ 1.07710000798403, 47.336945554911303 ], [ 1.0771614686796, 47.337091713952397 ], [ 1.07722300237254, 47.337238063258503 ], [ 1.07726837557073, 47.337374419647901 ], [ 1.07728035526296, 47.337423838907 ], [ 1.07732919368692, 47.337563314300503 ], [ 1.07732992051863, 47.337568909387102 ], [ 1.07740095607991, 47.337757333780701 ], [ 1.07741389429445, 47.337805517197999 ], [ 1.07744493143576, 47.338192315193098 ], [ 1.07747077262353, 47.338594002280303 ], [ 1.0775219567868, 47.339389128465399 ], [ 1.07752726633408, 47.339471665380103 ], [ 1.07764373664261, 47.339563768484702 ], [ 1.07768026188368, 47.339659491974103 ], [ 1.07770517409467, 47.3397321507491 ], [ 1.07774878756584, 47.339869648264099 ], [ 1.07854871550699, 47.340031186937601 ], [ 1.07862681145435, 47.339998206230703 ], [ 1.07865885249186, 47.339921005886097 ], [ 1.07868486362108, 47.339860517952197 ], [ 1.0787479868679, 47.339710315655701 ], [ 1.07877924674618, 47.339633093347103 ], [ 1.07883894358974, 47.339486076084199 ], [ 1.07891078152572, 47.339270777240898 ], [ 1.07895383305406, 47.339038811359799 ], [ 1.07897361489151, 47.3389528534668 ], [ 1.0789780420006, 47.338675971498297 ], [ 1.07898110479922, 47.3385030737265 ], [ 1.0789804439845, 47.338455291710197 ], [ 1.07900048654577, 47.3381751560566 ], [ 1.07904101431705, 47.337814927263899 ], [ 1.07906664178415, 47.3375597194796 ], [ 1.07909082482748, 47.3373626235472 ], [ 1.07910926984019, 47.337162992355303 ] ] ], [ [ [ 1.07226835303599, 47.334417549903101 ], [ 1.07207265673695, 47.334287682580097 ], [ 1.07191993617787, 47.334184975982701 ], [ 1.07181182343022, 47.334114869368001 ], [ 1.07180272491432, 47.334095285606601 ], [ 1.07178207668686, 47.334015212898301 ], [ 1.07177886488624, 47.333971881758004 ], [ 1.07175045192752, 47.333550482344599 ], [ 1.07142064188815, 47.3334623580268 ], [ 1.07124377900406, 47.333474242814901 ], [ 1.07089346547824, 47.333498518518901 ], [ 1.07095800997945, 47.333657069422699 ], [ 1.07098617406521, 47.333738428798704 ], [ 1.07100609101357, 47.333827755633102 ], [ 1.07101066339871, 47.333972154029397 ], [ 1.07101031075179, 47.334273850220598 ], [ 1.07101035049214, 47.334473967998697 ], [ 1.07102983487438, 47.334571653213303 ], [ 1.07109658330066, 47.334727899259903 ], [ 1.0711322125608, 47.3348109133874 ], [ 1.07133228205177, 47.335221962473 ], [ 1.07147951038859, 47.335209936538298 ], [ 1.07174841950496, 47.335192753931203 ], [ 1.07192145232656, 47.335181074850901 ], [ 1.07202709037008, 47.335132815177502 ], [ 1.07195097509869, 47.334760457508501 ], [ 1.07193721817085, 47.334712727991601 ], [ 1.0722148569619, 47.334483784773802 ], [ 1.07224650271801, 47.3344579526049 ], [ 1.07226835303599, 47.334417549903101 ] ] ], [ [ [ 1.07259734819678, 47.335072978932999 ], [ 1.07254695846949, 47.334929522240998 ], [ 1.07248968181201, 47.334804114189197 ], [ 1.07240254269065, 47.334584820087898 ], [ 1.07232949018922, 47.334542031637 ], [ 1.07215305294925, 47.334713816834501 ], [ 1.07213725407061, 47.3347295653628 ], [ 1.0721254035753, 47.334764460926401 ], [ 1.07211512597316, 47.3347891259615 ], [ 1.07214192622875, 47.334856522675402 ], [ 1.0722142718956, 47.335106701494503 ], [ 1.07230860033081, 47.335155345186401 ], [ 1.07256222150727, 47.335126020403202 ], [ 1.07258505881917, 47.335116412946199 ], [ 1.07259466806368, 47.335095969108401 ], [ 1.07259734819678, 47.335072978932999 ] ] ], [ [ [ 1.07202698341332, 47.336689642568601 ], [ 1.07199097915683, 47.336503056738401 ], [ 1.07193809494582, 47.336333543166397 ], [ 1.0718976486854, 47.336251439947397 ], [ 1.07178941922522, 47.3360561627509 ], [ 1.07168170556994, 47.335898165466602 ], [ 1.0712854493585, 47.335360374208797 ], [ 1.07118763821078, 47.335210357130599 ], [ 1.0711346857875, 47.335119139961698 ], [ 1.07107470571373, 47.335010066277398 ], [ 1.07102558690294, 47.334915391784001 ], [ 1.07090158263017, 47.334684858272396 ], [ 1.07086803306971, 47.334598906975003 ], [ 1.07084913959361, 47.334495477379399 ], [ 1.0708509496254, 47.334252022453803 ], [ 1.07085743584065, 47.333784502790301 ], [ 1.07081780729018, 47.333628896150799 ], [ 1.07060639348746, 47.333633542324499 ], [ 1.07037644960264, 47.333641842395103 ], [ 1.07024647745932, 47.333645598916 ], [ 1.0701324706739, 47.333650350014601 ], [ 1.06987890258392, 47.333661039035 ], [ 1.06985331164652, 47.333662135532599 ], [ 1.06964476730348, 47.3336713301332 ], [ 1.06934258310537, 47.333690205804302 ], [ 1.06922040440147, 47.333697872832197 ], [ 1.06940990703744, 47.334319304028199 ], [ 1.0694145610054, 47.334344217076897 ], [ 1.06921485179279, 47.334354809516398 ], [ 1.06913379343428, 47.334356424431697 ], [ 1.06899925666367, 47.334361454434799 ], [ 1.06888952295948, 47.334368886830397 ], [ 1.06909070889958, 47.334631674068802 ], [ 1.06923820419763, 47.334827597936503 ], [ 1.06926678511607, 47.334875223074498 ], [ 1.06932066951475, 47.335057532794401 ], [ 1.0693714460872, 47.3352268236657 ], [ 1.06942269602884, 47.335371917045798 ], [ 1.06945175097436, 47.3354759750504 ], [ 1.06953788481905, 47.335725133185598 ], [ 1.06960139604109, 47.335912006127103 ], [ 1.06963325763856, 47.336015390308503 ], [ 1.06965612034228, 47.336078390770297 ], [ 1.06969080762943, 47.3361728259461 ], [ 1.0697221393498, 47.336243441265303 ], [ 1.06975218968505, 47.336301806550999 ], [ 1.06978794018181, 47.336349010377802 ], [ 1.06979739928683, 47.336369239628802 ], [ 1.06987591059943, 47.336456208592999 ], [ 1.07004571703, 47.336628305656703 ], [ 1.07043724146256, 47.337030506850603 ], [ 1.07050340209536, 47.337097027010003 ], [ 1.07053252278589, 47.337107596362301 ], [ 1.07057418535755, 47.337108297538698 ], [ 1.07064031432152, 47.3371064335307 ], [ 1.07110281751795, 47.337010883488801 ], [ 1.0714208918237, 47.336948808981901 ], [ 1.07157360518464, 47.3369059239525 ], [ 1.0716596764671, 47.336879554874997 ], [ 1.07179818522085, 47.336834191466103 ], [ 1.07196887714054, 47.336773882695901 ], [ 1.07201697938442, 47.336724748852802 ], [ 1.07202698341332, 47.336689642568601 ] ] ], [ [ [ 1.07056344172024, 47.337499978241702 ], [ 1.07055132065054, 47.337432554956003 ], [ 1.07049924242144, 47.337167772795702 ], [ 1.07049548770245, 47.337150619026701 ], [ 1.07044723980347, 47.337116066876703 ], [ 1.07012461280074, 47.336774227212302 ], [ 1.07006349028167, 47.336711293462599 ], [ 1.06985113249195, 47.336493230361903 ], [ 1.06983054691958, 47.336469664461099 ], [ 1.0697265129989, 47.336360128080202 ], [ 1.06964208653608, 47.336184244844397 ], [ 1.06960489046505, 47.336085904827002 ], [ 1.06957690528411, 47.335999595432703 ], [ 1.06944842270994, 47.335640674377998 ], [ 1.06939250402065, 47.335492792925301 ], [ 1.06936499501138, 47.3353973153135 ], [ 1.06934208716213, 47.335306497705503 ], [ 1.06932071812169, 47.335224089285497 ], [ 1.06930184428584, 47.335156643554399 ], [ 1.06925956429126, 47.335015922554703 ], [ 1.06922276333056, 47.334881235894002 ], [ 1.06911732481337, 47.334740905524299 ], [ 1.06907108061867, 47.334680199610197 ], [ 1.06903833392331, 47.334685409286102 ], [ 1.06888350469989, 47.334483870152802 ], [ 1.06878469515849, 47.334357778447298 ], [ 1.06875196808034, 47.334253118828997 ], [ 1.06838761467335, 47.334295955946502 ], [ 1.06824695856996, 47.334313121036999 ], [ 1.06811020592922, 47.3343285589077 ], [ 1.06804120972383, 47.3343369383403 ], [ 1.0676700388736, 47.334381460800202 ], [ 1.06779010848339, 47.334829420428903 ], [ 1.06780597820294, 47.3348959970142 ], [ 1.06781469707793, 47.334943382109998 ], [ 1.06784101849474, 47.334944090192202 ], [ 1.06790965437559, 47.335182701952 ], [ 1.06794890600113, 47.335319140776399 ], [ 1.06799006511443, 47.3354691997936 ], [ 1.06803117691064, 47.335609172441998 ], [ 1.06805562962444, 47.3356974946431 ], [ 1.06808241649566, 47.335794941666698 ], [ 1.06811021367915, 47.3358933960305 ], [ 1.06815316778803, 47.336048077326403 ], [ 1.06822834754376, 47.336296333842398 ], [ 1.06825730914939, 47.336384902059699 ], [ 1.06828844728073, 47.336464159324898 ], [ 1.06835622500869, 47.336631401073703 ], [ 1.06864164656292, 47.336572293965901 ], [ 1.06870924096016, 47.336708222211499 ], [ 1.06871356111877, 47.336713327823198 ], [ 1.06872759727032, 47.3367458710091 ], [ 1.06884528753916, 47.336979093258201 ], [ 1.06887042704155, 47.337030713439297 ], [ 1.06833082354325, 47.33714574671 ], [ 1.06841316958274, 47.3371964364528 ], [ 1.06879130078527, 47.337456340385202 ], [ 1.06889383948945, 47.337498099450798 ], [ 1.0689805344293, 47.3375273572615 ], [ 1.06902854800022, 47.337539321717202 ], [ 1.06910313334634, 47.337544704080997 ], [ 1.06936494638819, 47.337556107589499 ], [ 1.06958738486821, 47.337568747070698 ], [ 1.06968752780089, 47.3375743827769 ], [ 1.06988639568276, 47.3375801463512 ], [ 1.07007084012202, 47.337582157971198 ], [ 1.07047172842633, 47.337587063177303 ], [ 1.07051021451634, 47.3375806967437 ], [ 1.07053960586487, 47.337558690696298 ], [ 1.07055973658125, 47.337533027866598 ], [ 1.07056344172024, 47.337499978241702 ] ] ], [ [ [ 1.06319850658218, 47.338607158652998 ], [ 1.06316603542334, 47.338473613863997 ], [ 1.06314059174254, 47.338383572160602 ], [ 1.06301502151195, 47.338185755073702 ], [ 1.06292402496689, 47.338038275914897 ], [ 1.06271184008593, 47.337768729992902 ], [ 1.06257300986468, 47.337597408868703 ], [ 1.06251024127628, 47.3375362535728 ], [ 1.06227846556668, 47.337354466498297 ], [ 1.06224878729493, 47.337358644892603 ], [ 1.06221432021195, 47.337367777152998 ], [ 1.06217155368505, 47.337393241007199 ], [ 1.06209733073894, 47.337436171879901 ], [ 1.06202263652446, 47.337491782842598 ], [ 1.06190691366297, 47.337583413327103 ], [ 1.06160637156565, 47.337832652758003 ], [ 1.06129984514814, 47.338118756928097 ], [ 1.06117992287426, 47.338263851139303 ], [ 1.06100155365316, 47.3384840974309 ], [ 1.06073851939618, 47.338807729571201 ], [ 1.06068958718007, 47.338886453374997 ], [ 1.06099915628455, 47.338938718163398 ], [ 1.0611441837538, 47.339187434164103 ], [ 1.06160284821509, 47.339056494875898 ], [ 1.06319850658218, 47.338607158652998 ] ] ], [ [ [ 1.0726045352547, 47.340871386097099 ], [ 1.07403600897429, 47.340899031543302 ], [ 1.07418064062445, 47.339892941448099 ], [ 1.07421136690102, 47.339350877122399 ], [ 1.07421982766381, 47.339193737351899 ], [ 1.07424203636407, 47.338733593557201 ], [ 1.07505900728481, 47.338753854925898 ], [ 1.07502970143135, 47.338623202969004 ], [ 1.07501609790144, 47.338562599452601 ], [ 1.07499085592026, 47.338450132745997 ], [ 1.07497841822764, 47.338394699362297 ], [ 1.07496514645401, 47.3383355601296 ], [ 1.0749337962411, 47.338334662277397 ], [ 1.07450174278931, 47.3371195602491 ], [ 1.0744959596232, 47.337103894833099 ], [ 1.07445317462076, 47.337027778131201 ], [ 1.07421903881761, 47.3366102270925 ], [ 1.07414579245151, 47.336479701563 ], [ 1.07403499057428, 47.336282411880902 ], [ 1.07401828678946, 47.336249924195201 ], [ 1.07392857733405, 47.336084663557003 ], [ 1.07390717597505, 47.336043183049902 ], [ 1.07387418611102, 47.335989092523498 ], [ 1.07382500999485, 47.335932392237602 ], [ 1.07367916053623, 47.335617366522499 ], [ 1.07357235961508, 47.335415730211402 ], [ 1.07356749061625, 47.3354041321195 ], [ 1.07349844508882, 47.335271433515103 ], [ 1.07343079469327, 47.335143422562801 ], [ 1.0733855912934, 47.335057638945898 ], [ 1.0733487115433, 47.334982790329001 ], [ 1.07334134065027, 47.334967458688801 ], [ 1.07329019957258, 47.334869969138097 ], [ 1.07326816311958, 47.334827757543103 ], [ 1.07306795194283, 47.334855628788802 ], [ 1.07262947387027, 47.334916862031598 ], [ 1.07259742839011, 47.334921363948901 ], [ 1.07257001572236, 47.334925222352702 ], [ 1.0725571069162, 47.334927259340802 ], [ 1.07260076172564, 47.335037312957397 ], [ 1.07262135450939, 47.335086515577103 ], [ 1.07263926401839, 47.335129289150899 ], [ 1.0725571649708, 47.335137723956201 ], [ 1.07142104105567, 47.3352526936009 ], [ 1.07137372117084, 47.335298508376297 ], [ 1.07146730040926, 47.335433605842098 ], [ 1.0715953539045, 47.335600225685198 ], [ 1.07166601045715, 47.3356920247343 ], [ 1.0716765946012, 47.335703447659697 ], [ 1.07188168293514, 47.335986807670402 ], [ 1.07198238642401, 47.3361777185102 ], [ 1.07206881541867, 47.336360386870602 ], [ 1.07210301264605, 47.336501773888997 ], [ 1.07210883012191, 47.3365422756454 ], [ 1.07214727011461, 47.336818528057798 ], [ 1.07218919351246, 47.336991182358702 ], [ 1.07221083874901, 47.3370771066161 ], [ 1.07229450198927, 47.337460746070199 ], [ 1.07240141366478, 47.337936990819998 ], [ 1.07243207019796, 47.338077427359799 ], [ 1.072486108309, 47.338226707576197 ], [ 1.07253179268053, 47.338386916177797 ], [ 1.07254322157456, 47.338498767052101 ], [ 1.07254821258175, 47.3385586066318 ], [ 1.07255285859284, 47.338613298666402 ], [ 1.07254996408008, 47.338693151412301 ], [ 1.07254417029, 47.338750821911098 ], [ 1.07247268725411, 47.339061764562999 ], [ 1.07242224163287, 47.3392955868702 ], [ 1.07240433149219, 47.339413965616103 ], [ 1.0723976703103, 47.339550360819402 ], [ 1.07240676460593, 47.339675941444099 ], [ 1.0724284715295, 47.339807764693298 ], [ 1.0726045352547, 47.340871386097099 ] ] ], [ [ [ 1.07241886053999, 47.338606734372398 ], [ 1.07238894862982, 47.338351146099498 ], [ 1.07233666369136, 47.338219076362101 ], [ 1.07168380581155, 47.338205095644497 ], [ 1.07138898227594, 47.338202775532302 ], [ 1.07115259040994, 47.338201965429597 ], [ 1.07087504520752, 47.338197319540903 ], [ 1.07067500902818, 47.338194509922999 ], [ 1.07062720534672, 47.338227898539401 ], [ 1.07057335093802, 47.338377260307396 ], [ 1.07055842123761, 47.338413005025899 ], [ 1.07054965000852, 47.338435893945402 ], [ 1.07053348969661, 47.338480073855202 ], [ 1.07002261620429, 47.339069702531297 ], [ 1.06989045980315, 47.339321301543997 ], [ 1.07126151824836, 47.3393240337425 ], [ 1.07228132440824, 47.339352887656503 ], [ 1.0722916167092, 47.339288006856002 ], [ 1.0723209683466, 47.339149836076103 ], [ 1.07238731523553, 47.3388458231098 ], [ 1.07241219024805, 47.338740067792202 ], [ 1.07241886053999, 47.338606734372398 ] ] ], [ [ [ 1.06952598329574, 47.337612255905 ], [ 1.06944565970044, 47.337608039120198 ], [ 1.0693391010876, 47.3376043586848 ], [ 1.06928520383206, 47.337601652687098 ], [ 1.06913108856677, 47.337595029261799 ], [ 1.06903983265931, 47.337585758758898 ], [ 1.06890314744294, 47.3375516085448 ], [ 1.06882622642609, 47.337522783350998 ], [ 1.06876313175093, 47.337492215940401 ], [ 1.06859991770288, 47.337382856107197 ], [ 1.06840893427044, 47.337254853170201 ], [ 1.06836637393647, 47.3372286702837 ], [ 1.06827157440524, 47.337293946248899 ], [ 1.06801394443796, 47.337543186129302 ], [ 1.0679716217457, 47.337586201102198 ], [ 1.06794605718066, 47.337622939245499 ], [ 1.06777155828672, 47.337894002778903 ], [ 1.06772842216377, 47.337959228349298 ], [ 1.06765505344675, 47.338047705944099 ], [ 1.06752367740128, 47.338206393421103 ], [ 1.06730153399966, 47.338444083553298 ], [ 1.06731465673384, 47.338501978635399 ], [ 1.06721987048035, 47.338600626329701 ], [ 1.06714146912048, 47.3385801500106 ], [ 1.06708295534761, 47.3386382846614 ], [ 1.06694399896371, 47.338790712963799 ], [ 1.06661674426851, 47.339138034484598 ], [ 1.06630045194887, 47.339478432718103 ], [ 1.06615969517074, 47.339632541065299 ], [ 1.06609226832806, 47.339707086918096 ], [ 1.066154822414, 47.339919951899198 ], [ 1.06620038878344, 47.340013839767302 ], [ 1.06626133023439, 47.340121851221099 ], [ 1.06637508149538, 47.340303267693997 ], [ 1.06667051353564, 47.340693876630702 ], [ 1.06687201873991, 47.340959193488601 ], [ 1.06692609430722, 47.3409570408474 ], [ 1.06725950396212, 47.340378754182801 ], [ 1.06752130313996, 47.3399273973736 ], [ 1.06756325771602, 47.339851256263103 ], [ 1.06779422147683, 47.339454450992001 ], [ 1.06801080762871, 47.339074227318598 ], [ 1.06810644567663, 47.338908110114701 ], [ 1.06814160346478, 47.3388440934512 ], [ 1.06822540947237, 47.338712241261298 ], [ 1.06825396247871, 47.3386624145582 ], [ 1.06842684761852, 47.338519734088401 ], [ 1.06853672306147, 47.338432043271403 ], [ 1.06876930944496, 47.3382382525431 ], [ 1.06884845994564, 47.338179748831003 ], [ 1.06895270430264, 47.338112297165701 ], [ 1.06909360346715, 47.338044833497499 ], [ 1.0691389690295, 47.338027685904301 ], [ 1.06916116242131, 47.338017618148697 ], [ 1.06922030744125, 47.337986039560697 ], [ 1.06929068034079, 47.337935836267398 ], [ 1.06932011091225, 47.337912759583702 ], [ 1.06935830698621, 47.3378632820273 ], [ 1.06941652141733, 47.337787230451603 ], [ 1.06950639318429, 47.337656018487699 ], [ 1.06951519640601, 47.337643296750798 ], [ 1.06952598329574, 47.337612255905 ] ] ], [ [ [ 1.07059809895887, 47.337862453694903 ], [ 1.07058694168857, 47.337691579637401 ], [ 1.07054952584266, 47.337668544726696 ], [ 1.07046741199205, 47.337637112982399 ], [ 1.07016958224693, 47.337629697006598 ], [ 1.06997421425315, 47.337626063221499 ], [ 1.06983424490604, 47.337623538937699 ], [ 1.06971895814292, 47.337619812845801 ], [ 1.06962503061405, 47.337625887854401 ], [ 1.06959254984662, 47.337638387130902 ], [ 1.06956768234332, 47.337656145766502 ], [ 1.06942328427641, 47.337856635934898 ], [ 1.06933469273378, 47.337959611594002 ], [ 1.069266005029, 47.338010473275197 ], [ 1.0692376756403, 47.3380287145864 ], [ 1.06919367931537, 47.338048307312 ], [ 1.06919934678589, 47.338050211528603 ], [ 1.06904063900528, 47.338118540868201 ], [ 1.06889668402747, 47.338197290890903 ], [ 1.06880899262501, 47.338249808403397 ], [ 1.06867316759429, 47.338363245323301 ], [ 1.06854039431134, 47.338469168686203 ], [ 1.06846848031948, 47.338543010905397 ], [ 1.0683256479294, 47.338682157073599 ], [ 1.06820782929952, 47.338861313883903 ], [ 1.06783440824256, 47.339506861973703 ], [ 1.06765235797902, 47.339821527601202 ], [ 1.0674516375319, 47.340168993450597 ], [ 1.06718176836956, 47.340634704739301 ], [ 1.06698560031637, 47.340969998803303 ], [ 1.06753429057996, 47.341199750505297 ], [ 1.06766654885853, 47.341254062580703 ], [ 1.0680961966857, 47.341430520781302 ], [ 1.06850995717034, 47.341599779329002 ], [ 1.06864860726153, 47.341656546826997 ], [ 1.06880549971531, 47.341225198857302 ], [ 1.06920445902038, 47.340474075563201 ], [ 1.0695008151397, 47.339905333378297 ], [ 1.06967651153106, 47.339568506340903 ], [ 1.06980977580362, 47.339321140295297 ], [ 1.06995499144329, 47.339047155991203 ], [ 1.07010462382182, 47.338870597304698 ], [ 1.07034395273217, 47.338596393384002 ], [ 1.07045735736505, 47.338458727988503 ], [ 1.07048174244765, 47.338402807216902 ], [ 1.07049022920004, 47.3383845151005 ], [ 1.07052888843132, 47.338292658617199 ], [ 1.07054871069164, 47.338187891260702 ], [ 1.07055579362657, 47.338153006723402 ], [ 1.07055855640139, 47.338113376848 ], [ 1.07058942510463, 47.337933484662798 ], [ 1.07059809895887, 47.337862453694903 ] ] ] ] } }
]
}
