{"type":"FeatureCollection","crs":{"type":"name","properties":{"name":"urn:ogc:def:crs:EPSG::4326"}},"features":[{"type":"Feature","properties":{"region_id":3,"name":"Bükk","name_hu":"Bükki borvidék","region_group":"Észak-Magyarország","area_ha_approx":800,"notable_grapes":"Olaszrizling, Leányka, Kékfrankos","notes":"Smallest northern region; Bükk Mountains, cool microclimate"},"geometry":{"type":"Polygon","coordinates":[[[20.5525051,47.7328743],[20.5524942,47.7324902],[20.5491709,47.7348203],[20.5451356,47.7318233],[20.5434786,47.7329913],[20.5331722,47.7277878],[20.5249186,47.7351323],[20.5128198,47.7265287],[20.5122386,47.7257738],[20.5110986,47.7254039],[20.5105173,47.724649],[20.5049445,47.7273842],[20.5038573,47.7289225],[20.4977655,47.7331886],[20.4955994,47.736265],[20.4956204,47.737027],[20.4962013,47.7377759],[20.4968232,47.7396769],[20.4962852,47.740824],[20.4890825,47.7458658],[20.4776689,47.7410554],[20.4765083,47.7399294],[20.4753682,47.7395592],[20.4730781,47.7384471],[20.4702793,47.7392438],[20.4680201,47.7392715],[20.4624219,47.7408585],[20.4623811,47.7393406],[20.4612412,47.7389702],[20.4600709,47.7374661],[20.4577505,47.7352075],[20.4582995,47.7344385],[20.4582791,47.7336765],[20.4593576,47.7317606],[20.4517874,47.7230955],[20.4517772,47.7227114],[20.4439017,47.723569],[20.426079,47.7250315],[20.4208236,47.7257477],[20.4168755,47.7257944],[20.4146267,47.7262053],[20.4106786,47.7262518],[20.4078695,47.7266629],[20.3943457,47.7275833],[20.390977,47.7283848],[20.379132,47.7285216],[20.3717471,47.7263194],[20.3694598,47.7252052],[20.3643538,47.7241231],[20.3592385,47.7226566],[20.3529942,47.7212026],[20.350251,47.7242827],[20.3430834,47.7312175],[20.3436527,47.7312111],[20.3403389,47.7342911],[20.3353907,47.739676],[20.3243708,47.7508418],[20.3232594,47.7516163],[20.3215875,47.752397],[20.3143482,47.7566658],[20.3054262,47.7613304],[20.3026689,47.7640252],[20.3010235,47.7659456],[20.2999747,47.769384],[20.2951636,47.7808637],[20.3077726,47.7883375],[20.3079004,47.7936719],[20.3064089,47.8024448],[20.3064362,47.8035848],[20.3053416,47.8051212],[20.3048261,47.8070294],[20.3026002,47.808578],[20.3015052,47.8101082],[20.3009805,47.8116383],[20.3010258,47.8135404],[20.3004829,47.8146927],[20.2988177,47.815851],[20.2976955,47.8162473],[20.2977226,47.8173873],[20.298311,47.8181432],[20.3006008,47.819643],[20.3051718,47.8214961],[20.3063215,47.8222458],[20.3063396,47.8230017],[20.3074802,47.8233735],[20.3074985,47.8241356],[20.3086482,47.8248854],[20.3086756,47.8260253],[20.309807,47.8263911],[20.3104049,47.827531],[20.3104322,47.828671],[20.3110208,47.8298049],[20.3110574,47.831329],[20.3105236,47.8324751],[20.3077721,47.835554],[20.3078176,47.837456],[20.3089586,47.8378278],[20.3095473,47.8389617],[20.3106974,47.8397114],[20.3118383,47.840077],[20.3140836,47.8392903],[20.3129793,47.8404488],[20.3113318,47.8427473],[20.3080001,47.8450703],[20.3063159,47.8458508],[20.3063341,47.8466129],[20.3096934,47.8450519],[20.3108254,47.8450396],[20.3130709,47.8442529],[20.3158961,47.844222],[20.3164483,47.843838],[20.317028,47.8442096],[20.3181508,47.8438193],[20.3187121,47.8438132],[20.3192734,47.8434228],[20.3226877,47.8445318],[20.3255128,47.8445007],[20.3260741,47.8441103],[20.3281872,47.845343],[20.3272884,47.8461752],[20.327823,47.8463778],[20.3279649,47.847219],[20.3293724,47.8476395],[20.329993,47.8481479],[20.3300776,47.8492828],[20.3322866,47.8496647],[20.3328876,47.8499422],[20.3326521,47.8509625],[20.3320528,47.8512689],[20.3317258,47.8526341],[20.3325868,47.8524663],[20.3378199,47.8502516],[20.3389197,47.850257],[20.3395548,47.8505314],[20.3394158,47.8512746],[20.3381509,47.8523552],[20.336898,47.8528886],[20.337213,47.8533529],[20.3380698,47.8533714],[20.3393304,47.853069],[20.3400278,47.8533174],[20.340988,47.8534074],[20.3406286,47.8551136],[20.340119,47.8558695],[20.3428011,47.8572549],[20.344476,47.8564739],[20.3495473,47.8556549],[20.3501181,47.8560265],[20.3495755,47.8567948],[20.3512787,47.8571599],[20.3518399,47.8567694],[20.3535241,47.8563725],[20.3546563,47.8563597],[20.3563877,47.8578585],[20.361478,47.857801],[20.3646603,47.8573032],[20.3609544,47.8626495],[20.3611467,47.8645317],[20.3621197,47.8645927],[20.3620193,47.8651245],[20.3597336,47.8655614],[20.3559551,47.865306],[20.3492687,47.8674574],[20.3463953,47.865587],[20.3441682,47.8671364],[20.3459183,47.8690194],[20.3470978,47.8709087],[20.3459937,47.8720675],[20.3465835,47.8732012],[20.3471638,47.8735789],[20.3477442,47.8743285],[20.350571,47.8742968],[20.352855,47.8750333],[20.3540065,47.8757826],[20.3542528,47.8764178],[20.3520837,47.8776915],[20.3512961,47.8784647],[20.3502383,47.8789066],[20.3482641,47.88034],[20.3462996,47.8832666],[20.3462852,47.8838635],[20.345733,47.8846319],[20.3440385,47.8846509],[20.3423158,47.8835298],[20.3406121,47.8835488],[20.3406214,47.8839267],[20.3389268,47.8839456],[20.3383745,47.8843359],[20.3361182,47.884739],[20.3361369,47.8855011],[20.3350415,47.8870377],[20.3344704,47.887044],[20.3322419,47.8882089],[20.331109,47.8882215],[20.3305287,47.8878499],[20.3293957,47.8874782],[20.3288619,47.8890085],[20.3283094,47.8893988],[20.3283186,47.8897768],[20.3277384,47.8894051],[20.3266147,47.8897955],[20.3243489,47.8894425],[20.3214936,47.8887116],[20.320941,47.8890957],[20.3204161,47.8906259],[20.3209779,47.8906197],[20.3210055,47.8917597],[20.3221385,47.8917472],[20.3227282,47.8928872],[20.3227465,47.8936431],[20.3207659,47.893705],[20.321632,47.8944175],[20.3228113,47.8963133],[20.3228482,47.8978311],[20.3240368,47.9001048],[20.3240553,47.9008668],[20.3235025,47.9012509],[20.3235119,47.901635],[20.3245764,47.9021373],[20.3240924,47.9023908],[20.3223972,47.9024095],[20.3223879,47.9020253],[20.3227214,47.9017843],[20.322697,47.9015494],[20.3217891,47.9008917],[20.3217706,47.9001296],[20.3206558,47.9005199],[20.3178184,47.9005509],[20.3175477,47.9008918],[20.3172657,47.9009412],[20.3156441,47.9040016],[20.3145385,47.9051602],[20.3134603,47.9074524],[20.3129074,47.9082206],[20.3112396,47.9093708],[20.3129532,47.9101082],[20.3146671,47.9104737],[20.3192004,47.9108022],[20.3197532,47.910034],[20.3259727,47.9099657],[20.326121,47.9160557],[20.3267109,47.9168114],[20.3261952,47.9191038],[20.3273659,47.9206153],[20.3302044,47.920584],[20.331928,47.9217052],[20.3319466,47.9224673],[20.3325088,47.922461],[20.3319559,47.9228452],[20.3291265,47.9228764],[20.3280486,47.925175],[20.3280764,47.9263149],[20.3270077,47.9289914],[20.3270356,47.9301375],[20.3264827,47.9309058],[20.3276628,47.9327953],[20.3282436,47.9331669],[20.3282622,47.9339289],[20.3271469,47.9347034],[20.3260779,47.9373798],[20.3249626,47.9381543],[20.3233773,47.9427388],[20.3206114,47.9454338],[20.320086,47.9473482],[20.3201413,47.9496281],[20.316923,47.9569012],[20.316969,47.9588031],[20.3164341,47.9603334],[20.3142296,47.9630221],[20.3154007,47.9645275],[20.3154744,47.9675756],[20.3132512,47.9695022],[20.3115997,47.9714226],[20.3110646,47.9725748],[20.3105935,47.976769],[20.3100581,47.977915],[20.3094952,47.9782991],[20.3084246,47.9805973],[20.3067451,47.9817557],[20.3067543,47.9821398],[20.3073354,47.9825115],[20.3079166,47.9832674],[20.3079257,47.9836453],[20.308507,47.9840232],[20.3085161,47.9844011],[20.3090882,47.9847791],[20.3096694,47.985535],[20.3102506,47.9859067],[20.3102689,47.9866687],[20.3131477,47.9885399],[20.313729,47.9892957],[20.3143011,47.9892895],[20.3143104,47.9896736],[20.3160451,47.9911729],[20.3183246,47.9915322],[20.3183615,47.9930562],[20.3177892,47.9926783],[20.3160912,47.993081],[20.3161004,47.9934589],[20.3155466,47.993843],[20.3138392,47.9938615],[20.3138577,47.9946235],[20.313304,47.9950138],[20.3127594,47.9957819],[20.3116424,47.99655],[20.3116608,47.997312],[20.3110978,47.9977023],[20.3088549,47.9984889],[20.3066118,47.9996534],[20.3066209,48.0000313],[20.3071932,48.0004093],[20.3044234,48.0031038],[20.3033246,48.0046401],[20.3039333,48.0061517],[20.3028436,48.008072],[20.3022803,48.0084561],[20.3000003,48.0081027],[20.2971845,48.0088951],[20.2966304,48.0092791],[20.2960762,48.0100472],[20.2932239,48.0093156],[20.292697,48.0108456],[20.2938959,48.0134973],[20.2928236,48.0161734],[20.2933958,48.0165452],[20.2934411,48.0184533],[20.2940226,48.0188251],[20.2951493,48.018435],[20.299719,48.0199042],[20.300873,48.0206539],[20.3014362,48.0206479],[20.3014454,48.021032],[20.3020269,48.0214037],[20.3014636,48.021794],[20.3020361,48.0217878],[20.3026267,48.0229216],[20.3026357,48.0232995],[20.3032082,48.0232933],[20.3032175,48.0236774],[20.3037807,48.0236713],[20.3055072,48.0247929],[20.307788,48.0251524],[20.3089329,48.025518],[20.3129681,48.0281388],[20.315249,48.028492],[20.3169482,48.0284735],[20.3198018,48.0292046],[20.3203652,48.0288205],[20.3203559,48.0284363],[20.3225907,48.0268936],[20.3230142,48.0263026],[20.3231261,48.0257414],[20.3240085,48.0249382],[20.3242342,48.0245891],[20.324225,48.0242112],[20.3247697,48.023443],[20.3248166,48.0222844],[20.325305,48.0219127],[20.3255626,48.021082],[20.3273311,48.0196593],[20.3280746,48.0192177],[20.328513,48.0193139],[20.3286471,48.0195894],[20.3285018,48.0201035],[20.3292476,48.0207292],[20.3292663,48.0214912],[20.3298574,48.0226249],[20.3287868,48.0234829],[20.3259426,48.0249545],[20.3259518,48.0253324],[20.3254071,48.0261006],[20.326608,48.0287521],[20.3266266,48.029514],[20.3250666,48.0356225],[20.3234413,48.0386829],[20.3234784,48.0402068],[20.3240604,48.0405846],[20.3240696,48.0409625],[20.3251966,48.0409502],[20.3252337,48.0424741],[20.3258157,48.0428457],[20.325243,48.042852],[20.3252709,48.0439981],[20.3247166,48.0443822],[20.3247538,48.0459061],[20.3253173,48.0459],[20.3247724,48.0466681],[20.3253359,48.0466619],[20.3253451,48.0470398],[20.324791,48.0474301],[20.3259273,48.0474176],[20.3259457,48.0481734],[20.3253729,48.0481797],[20.3253823,48.0485638],[20.3259551,48.0485575],[20.3253915,48.0489417],[20.3242644,48.048954],[20.3242738,48.0493381],[20.3237102,48.0497223],[20.3237288,48.0504843],[20.3231744,48.0508683],[20.3231838,48.0512524],[20.322611,48.0512587],[20.3220659,48.0520268],[20.3220845,48.0527888],[20.3226666,48.0535446],[20.3226758,48.0539225],[20.326113,48.055025],[20.3277666,48.0531045],[20.3305814,48.0546112],[20.3301047,48.0557576],[20.3301141,48.0561417],[20.332415,48.0572565],[20.3329412,48.0557264],[20.3335235,48.0561041],[20.3347255,48.0591334],[20.334763,48.0606573],[20.3353452,48.0610289],[20.3353639,48.0617909],[20.3343397,48.0663753],[20.3349034,48.066369],[20.3360307,48.0659724],[20.3388678,48.065941],[20.3429168,48.0685606],[20.3440443,48.068548],[20.3451906,48.0689195],[20.3452471,48.0711992],[20.3464123,48.0723326],[20.34645,48.0738503],[20.3458957,48.0742407],[20.3459051,48.0746186],[20.3447966,48.0757773],[20.3431241,48.076936],[20.3409067,48.0792472],[20.3420812,48.0807523],[20.3415269,48.0815206],[20.3421377,48.0830382],[20.3416116,48.0849464],[20.339967,48.0872511],[20.339422,48.0883974],[20.3400233,48.0895308],[20.3405873,48.0895246],[20.3411794,48.0902802],[20.3423261,48.0906516],[20.3463112,48.0909853],[20.348022,48.0913504],[20.3492065,48.0932395],[20.3532489,48.0958588],[20.3543768,48.0954682],[20.3549312,48.0950778],[20.3543387,48.0939443],[20.3548931,48.0935539],[20.3554379,48.0924076],[20.3565561,48.0916329],[20.3588214,48.0916074],[20.3607238,48.0922931],[20.3613956,48.0922939],[20.3622075,48.0927438],[20.3622609,48.0930911],[20.3657216,48.0945783],[20.3724879,48.0925931],[20.3736061,48.0918244],[20.373577,48.0906784],[20.3746949,48.0899035],[20.3746853,48.0895256],[20.3758128,48.0891286],[20.3763576,48.0883664],[20.3763285,48.0872203],[20.3774366,48.0860675],[20.3791279,48.085664],[20.3796915,48.0852796],[20.380236,48.0845112],[20.3801972,48.0829873],[20.3807413,48.0818409],[20.3807219,48.0810789],[20.3846483,48.0791316],[20.3857565,48.0783567],[20.3863005,48.0772103],[20.3868643,48.0772038],[20.3879914,48.0768066],[20.3879622,48.0756668],[20.3890699,48.0745139],[20.3913142,48.0733416],[20.3912948,48.0725859],[20.3918096,48.0706714],[20.3912166,48.069538],[20.3917608,48.0687696],[20.3928779,48.0679945],[20.3934313,48.0672259],[20.3945583,48.0668349],[20.3961999,48.0645293],[20.3984143,48.0622233],[20.3994729,48.0595465],[20.4005701,48.0580093],[20.4017066,48.0579961],[20.4022498,48.0568434],[20.4033667,48.0560744],[20.4033371,48.0549284],[20.4038809,48.0541599],[20.4055711,48.0537622],[20.4072804,48.0537423],[20.4117871,48.0525494],[20.4140002,48.0502368],[20.4162629,48.0498261],[20.4190692,48.0486529],[20.4196229,48.0482684],[20.4196128,48.04787],[20.4201956,48.0482616],[20.4230317,48.0482281],[20.4241881,48.0489767],[20.4270242,48.0489431],[20.4270342,48.049321],[20.430413,48.0481408],[20.4304431,48.0492806],[20.4310066,48.0492739],[20.4310367,48.0504138],[20.4327366,48.0503936],[20.4344559,48.0507573],[20.4345063,48.0526591],[20.4373527,48.0530032],[20.4390526,48.0529829],[20.4396154,48.0525982],[20.4418789,48.0525711],[20.442995,48.0517955],[20.4430762,48.0548434],[20.4453592,48.055194],[20.4459431,48.0559492],[20.4493525,48.0559082],[20.4499354,48.0562792],[20.4510627,48.0562656],[20.4516254,48.0558808],[20.4533153,48.0554825],[20.4538778,48.0550915],[20.4555778,48.0550709],[20.4561313,48.0546862],[20.4567041,48.0546793],[20.4567143,48.0550572],[20.4572984,48.0558123],[20.4584246,48.0554207],[20.4595611,48.0554069],[20.4601451,48.0561559],[20.4607283,48.056533],[20.4612815,48.0561421],[20.4618647,48.0565192],[20.4624592,48.0576522],[20.4630424,48.0580293],[20.4630834,48.059547],[20.4642406,48.0602952],[20.4648042,48.0602883],[20.4659512,48.0606585],[20.4676514,48.0606378],[20.4693411,48.060233],[20.4710506,48.0602122],[20.4783827,48.0586041],[20.4932215,48.0610856],[20.5000525,48.0617566],[20.5018374,48.0647832],[20.5024739,48.0670619],[20.5024844,48.0674398],[20.5008156,48.0686008],[20.5110475,48.0688569],[20.5212594,48.0687283],[20.5224176,48.0694758],[20.5235435,48.0690774],[20.5241165,48.0690701],[20.5241273,48.0694542],[20.5247017,48.0698249],[20.5258385,48.0698105],[20.5281228,48.0701657],[20.5286972,48.0705364],[20.5315454,48.0708844],[20.5326821,48.0708699],[20.5332658,48.0712404],[20.5338296,48.0712333],[20.5389838,48.0726918],[20.5412682,48.0730406],[20.5463791,48.072975],[20.5486746,48.0737076],[20.5492383,48.0737004],[20.5498459,48.075217],[20.5504298,48.0755875],[20.5515666,48.0755728],[20.5521195,48.0751876],[20.5538091,48.0747816],[20.5543713,48.0743963],[20.5543822,48.0747742],[20.554957,48.075151],[20.554979,48.0759129],[20.5555629,48.0762834],[20.5561487,48.077038],[20.5572856,48.0770233],[20.5589972,48.0773791],[20.5595922,48.0781336],[20.5601341,48.0773644],[20.5607071,48.0773569],[20.5618221,48.0765864],[20.5629386,48.0761877],[20.5635008,48.0758024],[20.5640646,48.0757951],[20.5657412,48.0746268],[20.5680056,48.0745973],[20.5691536,48.0749665],[20.5691315,48.0742046],[20.5702461,48.0734278],[20.5702351,48.0730499],[20.5725419,48.07416],[20.5742425,48.0741377],[20.5748043,48.0737462],[20.5776417,48.073709],[20.5787898,48.0740781],[20.5799266,48.0740631],[20.5799376,48.074441],[20.582764,48.0740258],[20.5839231,48.0747728],[20.5851047,48.0762816],[20.5862323,48.0762667],[20.5884836,48.0754748],[20.5890791,48.0762291],[20.5902271,48.0765919],[20.5913996,48.0781008],[20.5919614,48.0777092],[20.5936509,48.0773088],[20.5947878,48.0772937],[20.5965222,48.0784109],[20.5982322,48.0783882],[20.5987848,48.0780028],[20.6004741,48.0775961],[20.6010246,48.0768265],[20.6027367,48.0771879],[20.6044692,48.077927],[20.6055969,48.0779119],[20.6055855,48.0775279],[20.6084096,48.0767279],[20.6129705,48.0774289],[20.6141074,48.0774137],[20.614694,48.078168],[20.6147168,48.0789299],[20.6158766,48.0796765],[20.6170248,48.0800391],[20.6209994,48.0799855],[20.6221479,48.0803542],[20.6233078,48.0811008],[20.6244561,48.0814632],[20.6255587,48.0803081],[20.6255357,48.0795462],[20.6260766,48.0787766],[20.6300972,48.0802466],[20.6312572,48.080993],[20.6318533,48.0817472],[20.6335425,48.08134],[20.6346564,48.0805626],[20.6346218,48.0794228],[20.6351742,48.0790373],[20.6351394,48.0778913],[20.6362648,48.077498],[20.6374017,48.0774825],[20.6385269,48.0770829],[20.6396406,48.0763055],[20.6407659,48.0759121],[20.6423969,48.0736031],[20.6429491,48.0732175],[20.6429374,48.0728334],[20.6423622,48.0724633],[20.6423507,48.0720854],[20.6456911,48.069753],[20.646772,48.0682137],[20.6479204,48.0685821],[20.6490453,48.0681825],[20.6524553,48.0681355],[20.6529957,48.0673659],[20.6569226,48.0657934],[20.6557274,48.0639012],[20.6556808,48.0623836],[20.6562419,48.0619916],[20.6573668,48.0615981],[20.657907,48.0608284],[20.6584681,48.0604364],[20.6601566,48.060035],[20.662958,48.058856],[20.6646319,48.0576863],[20.6657238,48.0565309],[20.6668486,48.0561372],[20.6679614,48.0553595],[20.6679378,48.0545976],[20.6696022,48.053428],[20.6695316,48.0511484],[20.6700808,48.0503785],[20.6712288,48.0507405],[20.6718042,48.0511167],[20.6749904,48.0508935],[20.675887,48.0504267],[20.6780254,48.0502676],[20.6791497,48.0498676],[20.6802624,48.049096],[20.6825111,48.0483022],[20.6841988,48.0478943],[20.6858747,48.0471085],[20.6864235,48.0463385],[20.6863879,48.0451987],[20.6874883,48.044043],[20.6880518,48.044035],[20.6919758,48.0424552],[20.6925153,48.0416853],[20.6936274,48.0409074],[20.6953121,48.0401213],[20.7162693,48.0386826],[20.7190926,48.0382641],[20.720792,48.0382397],[20.724739,48.0374207],[20.7292095,48.0350695],[20.7323969,48.0281692],[20.7350847,48.0235629],[20.73566,48.0239326],[20.7396795,48.0253988],[20.7414001,48.025758],[20.7431235,48.026489],[20.7459829,48.0272096],[20.7482668,48.0275605],[20.7517111,48.0286504],[20.7544963,48.0270851],[20.7550596,48.0270768],[20.7550473,48.026699],[20.7578199,48.0247557],[20.7600787,48.0243383],[20.7606388,48.023952],[20.762375,48.0250668],[20.7646464,48.0250333],[20.7652222,48.025409],[20.7657947,48.0254006],[20.765807,48.0257784],[20.7663827,48.026148],[20.766495,48.0295734],[20.7676809,48.0310805],[20.7705659,48.0325624],[20.7711385,48.0325539],[20.7723026,48.033677],[20.7741114,48.0366993],[20.7774849,48.0358869],[20.7786208,48.03587],[20.7791807,48.0354775],[20.7820158,48.0354353],[20.7825667,48.0350491],[20.7847376,48.0319738],[20.7869587,48.0304161],[20.7869459,48.030032],[20.7874588,48.028506],[20.788006,48.0277356],[20.7902429,48.0269398],[20.7908533,48.028071],[20.7902808,48.0280796],[20.7914673,48.0295864],[20.7920524,48.0299557],[20.7920777,48.0307176],[20.792641,48.0307091],[20.7938022,48.031454],[20.793815,48.031838],[20.7949634,48.0321989],[20.7955522,48.0329523],[20.7961247,48.0329437],[20.7967134,48.0336971],[20.8012569,48.0336288],[20.8072943,48.0365191],[20.8173589,48.0398553],[20.8179573,48.0406085],[20.8213561,48.0405568],[20.8236411,48.0409062],[20.8260292,48.0442907],[20.8260423,48.0446748],[20.8290072,48.0484347],[20.8301824,48.0495632],[20.8301953,48.049941],[20.8342193,48.051404],[20.8358802,48.0502382],[20.8386769,48.0490487],[20.8392496,48.0490399],[20.8415481,48.0497668],[20.8438244,48.0501159],[20.8460575,48.048935],[20.8517291,48.0488473],[20.8523281,48.0496003],[20.8517816,48.050371],[20.8517946,48.0507489],[20.8524068,48.0518859],[20.8524199,48.0522637],[20.8512836,48.0522813],[20.8512968,48.0526654],[20.8518734,48.0530345],[20.8518866,48.0534185],[20.8524724,48.0537875],[20.8507087,48.0564594],[20.8495914,48.0599726],[20.8487949,48.0608865],[20.8487773,48.0619545],[20.8481424,48.0627714],[20.8480452,48.0633828],[20.8473855,48.0643952],[20.8475854,48.0647341],[20.8499988,48.0659239],[20.8519706,48.0660805],[20.8551653,48.0659298],[20.8554274,48.0654556],[20.8557817,48.0651923],[20.859909,48.0645831],[20.8613169,48.0634725],[20.8629781,48.0627413],[20.8641401,48.0623302],[20.8667795,48.0618016],[20.8674965,48.061354],[20.8670811,48.059174],[20.8668471,48.0588937],[20.8671139,48.0586078],[20.8713304,48.0570188],[20.8769408,48.0562805],[20.879209,48.0552728],[20.8808782,48.0541063],[20.880292,48.0537312],[20.8808647,48.0537222],[20.882538,48.0529398],[20.8830841,48.0521689],[20.883004,48.0498833],[20.8835275,48.0487347],[20.8840775,48.0483418],[20.8852004,48.047946],[20.8891723,48.0478833],[20.8897315,48.0474902],[20.8902681,48.0467194],[20.8908275,48.0463325],[20.8942668,48.0474184],[20.8954029,48.0474004],[20.8965659,48.0481442],[20.8982791,48.0485013],[20.8994422,48.0492451],[20.9000416,48.0499917],[20.9000552,48.0503757],[20.9052175,48.0518181],[20.9127245,48.0555034],[20.9145151,48.0577616],[20.9151871,48.0607938],[20.9157736,48.0611687],[20.9158686,48.0638321],[20.9175822,48.0641826],[20.9187052,48.0637866],[20.9198552,48.0641461],[20.9209917,48.0641279],[20.9215691,48.0645028],[20.9244192,48.064835],[20.9288969,48.0628602],[20.9304738,48.0594075],[20.9310099,48.0586365],[20.9304328,48.0582678],[20.9315005,48.0563417],[20.9262144,48.0514814],[20.9238465,48.0488546],[20.9214925,48.0466056],[20.9236555,48.0435216],[20.923642,48.0431437],[20.9230648,48.0427688],[20.9213427,48.0424184],[20.9235466,48.0404803],[20.9290351,48.0350618],[20.9284626,48.0350711],[20.9273129,48.0347054],[20.9267361,48.0343367],[20.9267223,48.0339526],[20.9272583,48.0331817],[20.9272038,48.0316641],[20.9266405,48.0316732],[20.9260543,48.0312984],[20.9237647,48.030573],[20.9237511,48.0301952],[20.9220157,48.0294608],[20.9214661,48.0298539],[20.9186314,48.0298995],[20.9180452,48.0295247],[20.9174819,48.0295337],[20.9169232,48.029927],[20.9163462,48.029552],[20.9146472,48.0295792],[20.9146609,48.0299632],[20.9135386,48.0303593],[20.9135521,48.0307371],[20.9129796,48.0307463],[20.9129255,48.0292288],[20.9106633,48.029265],[20.9064944,48.0239955],[20.9047956,48.0240226],[20.9019075,48.0225502],[20.9040977,48.0202284],[20.9034983,48.0194756],[20.9016651,48.0156995],[20.8955051,48.0180782],[20.8949555,48.0184711],[20.8926978,48.018885],[20.8920853,48.0177543],[20.8915089,48.0173854],[20.8914821,48.0166235],[20.8908787,48.0154865],[20.8903064,48.0154956],[20.8872854,48.0102134],[20.8867223,48.0102223],[20.8855203,48.0083387],[20.8799768,48.0122314],[20.8776397,48.0103655],[20.876527,48.0107672],[20.8759679,48.0111541],[20.8753782,48.010401],[20.8747928,48.0100322],[20.8747794,48.0096481],[20.8742163,48.009657],[20.8731209,48.0108207],[20.8707972,48.0093325],[20.8735247,48.0062405],[20.8762348,48.0023927],[20.8739379,48.0016664],[20.8749934,47.999363],[20.8761019,47.9985832],[20.8749405,47.9978454],[20.8748477,47.9951819],[20.8742755,47.9951908],[20.8748343,47.9947978],[20.87823,47.9947444],[20.878789,47.9943576],[20.8793252,47.9935868],[20.8793118,47.9932028],[20.8798573,47.9924319],[20.8798309,47.9916762],[20.8803537,47.9905214],[20.8809257,47.9905124],[20.8809125,47.9901346],[20.8820115,47.9893549],[20.8819582,47.9878311],[20.8830798,47.9874354],[20.8830664,47.9870514],[20.8847066,47.9851228],[20.8852562,47.9847361],[20.887499,47.9839383],[20.8782839,47.979894],[20.875988,47.9791678],[20.878151,47.9760846],[20.8809032,47.9737605],[20.8837215,47.9733318],[20.8848827,47.9740758],[20.8859905,47.9732959],[20.8871118,47.9729001],[20.8882463,47.9728822],[20.8887957,47.9724954],[20.8893676,47.9724864],[20.8893273,47.9713405],[20.88989,47.9713315],[20.8909576,47.9694119],[20.8920653,47.9686321],[20.8925878,47.9674834],[20.8931328,47.9667124],[20.893106,47.9659505],[20.8925209,47.9655817],[20.8930792,47.9651886],[20.8936418,47.9651797],[20.8941599,47.9636468],[20.8947092,47.96326],[20.8946823,47.9624981],[20.8932555,47.9611525],[20.8952047,47.9613495],[20.9041618,47.9581575],[20.9047257,47.9580043],[20.9053102,47.9581011],[20.9051883,47.955098],[20.9017951,47.9551522],[20.9017816,47.9547681],[20.8955485,47.9548674],[20.8954278,47.9514419],[20.8942805,47.9510821],[20.8942537,47.9503202],[20.8930796,47.9491984],[20.8930528,47.9484365],[20.8946955,47.9468858],[20.8980168,47.944546],[20.898909,47.937677],[20.8999757,47.9357573],[20.8968156,47.9343023],[20.8948384,47.9346986],[20.8969984,47.931615],[20.8975742,47.9319901],[20.8986541,47.9304482],[20.8980827,47.9304573],[20.8986408,47.9300703],[20.8997339,47.9289063],[20.9029641,47.924287],[20.9029507,47.9239091],[20.903522,47.9239],[20.9035085,47.923516],[20.9062162,47.9200453],[20.9061892,47.9192834],[20.9067605,47.9192742],[20.9067472,47.9188964],[20.9116981,47.9150053],[20.9160553,47.9099894],[20.9165359,47.9076947],[20.9170936,47.9073076],[20.9182131,47.9069053],[20.9192647,47.9046014],[20.9197588,47.9026906],[20.9213859,47.9007616],[20.9260985,47.890025],[20.9260848,47.8896409],[20.9271495,47.8877209],[20.9304385,47.8846244],[20.9320917,47.883451],[20.9239554,47.8774901],[20.9182752,47.8768194],[20.9160103,47.8768559],[20.9143029,47.8765053],[20.9142353,47.8746035],[20.9136104,47.8730889],[20.912424,47.8715832],[20.9129272,47.8696724],[20.9324306,47.8769747],[20.9335265,47.8761946],[20.9340699,47.8754234],[20.935723,47.8742561],[20.9356956,47.8734942],[20.9362526,47.8731008],[20.9367868,47.8723298],[20.9367322,47.8708122],[20.9361159,47.8692975],[20.9303318,47.8659639],[20.9303183,47.865586],[20.9291588,47.8648425],[20.9286109,47.8652294],[20.9268765,47.8641171],[20.9285564,47.8637056],[20.9341261,47.8613343],[20.9363765,47.8609134],[20.9463911,47.856182],[20.9519866,47.8545656],[20.953091,47.8537851],[20.9553135,47.8526082],[20.9558748,47.8525989],[20.956404,47.8514498],[20.9557919,47.8503132],[20.9540297,47.8484393],[20.9534684,47.8484485],[20.9528703,47.847696],[20.9522953,47.8473273],[20.9511496,47.8469619],[20.9476856,47.8451158],[20.9476719,47.8447379],[20.9470968,47.8443631],[20.9465263,47.8443724],[20.9453901,47.8440129],[20.9447786,47.8428824],[20.9452254,47.8394476],[20.9451979,47.8386856],[20.9462103,47.8356196],[20.946767,47.8352324],[20.9470793,47.8339873],[20.9505025,47.8290784],[20.9510084,47.8275453],[20.9526688,47.8263776],[20.954306,47.8248259],[20.9565409,47.8240268],[20.9593645,47.8239803],[20.9650395,47.824649],[20.9655958,47.8242555],[20.965582,47.8238777],[20.964984,47.8231252],[20.9649284,47.8216013],[20.9670799,47.8185224],[20.976007,47.8146712],[20.9809819,47.8121986],[20.9747924,47.7974505],[20.9666079,47.805582],[20.9638408,47.8071526],[20.9582781,47.8095253],[20.9543427,47.8103525],[20.9487108,47.8108293],[20.9403148,47.8132475],[20.940178,47.8094441],[20.9378432,47.807195],[20.9325131,47.8004266],[20.9324996,47.8000487],[20.938076,47.798055],[20.9434063,47.804817],[20.9439901,47.8051918],[20.9496078,47.8043374],[20.9431048,47.7964482],[20.9487033,47.7948317],[20.9438242,47.785013],[20.9499957,47.7837652],[20.9425784,47.765986],[20.9292718,47.7730582],[20.9270251,47.7734789],[20.9242448,47.7746645],[20.9226083,47.7762157],[20.9220385,47.776225],[20.9163152,47.7740302],[20.9134672,47.7733137],[20.9094624,47.7718596],[20.9014665,47.7693226],[20.8917849,47.7671899],[20.8815171,47.7643034],[20.867883,47.7618532],[20.8610768,47.7611975],[20.8644144,47.7596267],[20.8660651,47.7584541],[20.8671426,47.7569186],[20.8681935,47.754615],[20.8681278,47.7527132],[20.8675279,47.7515759],[20.8675148,47.751198],[20.8669584,47.7515849],[20.8663587,47.7504538],[20.8651764,47.7489476],[20.8651501,47.7481857],[20.8628122,47.7459414],[20.8616563,47.7451971],[20.8610699,47.7444439],[20.8593447,47.7437085],[20.8536016,47.7407549],[20.8530544,47.7411415],[20.8473677,47.7400896],[20.8451086,47.7401247],[20.8423023,47.7405463],[20.8224301,47.7370469],[20.8145201,47.7367836],[20.8105461,47.7360818],[20.8043387,47.7361761],[20.8053921,47.7338792],[20.8069418,47.7296657],[20.8079441,47.7258448],[20.8112298,47.7227453],[20.8117516,47.7215969],[20.8111533,47.7204594],[20.8094169,47.7193453],[20.8082878,47.7193625],[20.8066116,47.7197723],[20.8054825,47.7197894],[20.8049097,47.7194139],[20.8032115,47.7194396],[20.8021044,47.7198407],[20.799884,47.7210148],[20.7993149,47.7210234],[20.798173,47.7206564],[20.797028,47.7199175],[20.7953297,47.7199432],[20.7936531,47.7203466],[20.7914326,47.7215205],[20.7903287,47.7222995],[20.7903539,47.7230615],[20.7921152,47.7249378],[20.7944024,47.7260499],[20.795582,47.7275507],[20.7956453,47.7294587],[20.794541,47.7302316],[20.7934208,47.7302485],[20.7928391,47.7298792],[20.7928138,47.7291172],[20.7933706,47.7287307],[20.7933074,47.7268226],[20.7915712,47.7257083],[20.7898946,47.7261179],[20.7887903,47.7268907],[20.7882555,47.7276611],[20.7882681,47.7280452],[20.7894386,47.7295523],[20.7699441,47.7199394],[20.7688399,47.7207182],[20.7659876,47.7199982],[20.7637756,47.7211714],[20.7620403,47.7200567],[20.7575329,47.7201234],[20.7535363,47.7186576],[20.749155,47.722912],[20.7474413,47.7221748],[20.7441273,47.7245105],[20.7367402,47.7227157],[20.7361831,47.7231019],[20.7327803,47.7223892],[20.7328778,47.7254372],[20.7317363,47.7250695],[20.7317729,47.7262156],[20.731228,47.7269859],[20.7227357,47.7259624],[20.7159303,47.7428201],[20.7222353,47.7457723],[20.7177527,47.7469774],[20.7132671,47.7478044],[20.7086763,47.7455894],[20.7061293,47.736484],[20.7052458,47.7262142],[20.6994416,47.7209669],[20.6885651,47.7161694],[20.6886351,47.7165628],[20.6865174,47.7226753],[20.6819769,47.7219771],[20.6808477,47.7219931],[20.6780177,47.7216549],[20.6564651,47.7181447],[20.6558586,47.7166285],[20.6514004,47.7185993],[20.6447038,47.7209727],[20.6395006,47.7168546],[20.6343327,47.7138824],[20.6325979,47.7123815],[20.63026,47.7097484],[20.6307148,47.7059366],[20.6143147,47.7046352],[20.6080993,47.7043349],[20.6047128,47.7043805],[20.5996265,47.7040707],[20.5979266,47.7037093],[20.5962379,47.7043223],[20.5957136,47.7052636],[20.5946184,47.7064248],[20.590694,47.7072333],[20.5890388,47.708402],[20.5896543,47.7102965],[20.5891277,47.7114439],[20.5840963,47.7130355],[20.5835253,47.712665],[20.5835141,47.7122809],[20.581816,47.7123034],[20.581805,47.7119255],[20.5812339,47.7115488],[20.5806649,47.7115564],[20.580094,47.7111859],[20.5795341,47.7111933],[20.5789871,47.7119628],[20.577847,47.7115937],[20.5767512,47.7127547],[20.5761913,47.7127621],[20.5734284,47.7147013],[20.5734504,47.7154633],[20.5706543,47.7162625],[20.5689999,47.7178027],[20.569011,47.7181868],[20.569591,47.7185573],[20.5707202,47.7185424],[20.5712913,47.7189192],[20.574778,47.7223006],[20.5776405,47.7237812],[20.5782339,47.72492],[20.578267,47.7260599],[20.577729,47.7268294],[20.5812075,47.7302107],[20.5817768,47.7302032],[20.5835107,47.7317048],[20.5881063,47.7343088],[20.5898182,47.7350484],[20.5909922,47.7365512],[20.5944703,47.7395541],[20.5961824,47.7402935],[20.5889225,47.7430554],[20.5855982,47.7450023],[20.5761881,47.7516035],[20.5739283,47.7516333],[20.573379,47.7520186],[20.5569465,47.7301453],[20.5525051,47.7328743]]]}}]}