{"type": "FeatureCollection", "features": [{"type": "Feature", "properties": {"id": "AOC-Alsace-Grand-Cru-Wineck-Schlossberg", "name": "Wineck-Schlossberg", "commune": "Katzenthal & Ammerschwihr", "family": "花崗岩", "familyColor": "#636e72", "lessonId": "AL2M3L1"}, "geometry": {"type": "MultiPolygon", "coordinates": [[[[7.285018, 48.110233], [7.284952, 48.110189], [7.284912, 48.110156], [7.284896, 48.110162], [7.28441, 48.110343], [7.284118, 48.110453], [7.284037, 48.110483], [7.283932, 48.110352], [7.283814, 48.110259], [7.283686, 48.110179], [7.283576, 48.110111], [7.283273, 48.109959], [7.283197, 48.109921], [7.283029, 48.109842], [7.282832, 48.109763], [7.28276, 48.109737], [7.282635, 48.109691], [7.282613, 48.10969], [7.282533, 48.109689], [7.282123, 48.109812], [7.282056, 48.109822], [7.282021, 48.109922], [7.281936, 48.109898], [7.281855, 48.110061], [7.28176, 48.110252], [7.281723, 48.110328], [7.281721, 48.110331], [7.28169, 48.110388], [7.281665, 48.110441], [7.281638, 48.110507], [7.281635, 48.11054], [7.281633, 48.110648], [7.281634, 48.110653], [7.28165, 48.110718], [7.281667, 48.110793], [7.281674, 48.11082], [7.281697, 48.110866], [7.28172, 48.110915], [7.281722, 48.110917], [7.281751, 48.110975], [7.281806, 48.111047], [7.281869, 48.111132], [7.281936, 48.111226], [7.282024, 48.111346], [7.28205, 48.111367], [7.282289, 48.111567], [7.282358, 48.111525], [7.283085, 48.111392], [7.283139, 48.11139], [7.283354, 48.111454], [7.283517, 48.111537], [7.283578, 48.111565], [7.283796, 48.111669], [7.28387, 48.111609], [7.283925, 48.111623], [7.284042, 48.111642], [7.284664, 48.111745], [7.284702, 48.111751], [7.284754, 48.11176], [7.284739, 48.111836], [7.284652, 48.111903], [7.284616, 48.112012], [7.284605, 48.112045], [7.284592, 48.112083], [7.284574, 48.112125], [7.284547, 48.112189], [7.284526, 48.112239], [7.284483, 48.11234], [7.284479, 48.112351], [7.284475, 48.112574], [7.285272, 48.11261], [7.285794, 48.112636], [7.285818, 48.112637], [7.285881, 48.112419], [7.285892, 48.112382], [7.285918, 48.112313], [7.285938, 48.112251], [7.285955, 48.112203], [7.28596, 48.11219], [7.285967, 48.11215], [7.285972, 48.112116], [7.285976, 48.112098], [7.285972, 48.111947], [7.285972, 48.111808], [7.285947, 48.111675], [7.285942, 48.111674], [7.285918, 48.111581], [7.285918, 48.111575], [7.285895, 48.111493], [7.285867, 48.111375], [7.285843, 48.111284], [7.285816, 48.111179], [7.285741, 48.11102], [7.285712, 48.110958], [7.285588, 48.110798], [7.285576, 48.110782], [7.285518, 48.110698], [7.285455, 48.110612], [7.285419, 48.110564], [7.285377, 48.110512], [7.285364, 48.110494], [7.285335, 48.110458], [7.285323, 48.110451], [7.285229, 48.11038], [7.285166, 48.110334], [7.285131, 48.110306], [7.285123, 48.110305], [7.285123, 48.110303], [7.285018, 48.110233]]], [[[7.280173, 48.112518], [7.28019, 48.112434], [7.280177, 48.112301], [7.280149, 48.112286], [7.279747, 48.112346], [7.279323, 48.112363], [7.279319, 48.112441], [7.279313, 48.112573], [7.279313, 48.112574], [7.279311, 48.11258], [7.279307, 48.11269], [7.280017, 48.112792], [7.280074, 48.112689], [7.280173, 48.112518]]], [[[7.28151, 48.112509], [7.281634, 48.112449], [7.281619, 48.112426], [7.281178, 48.112305], [7.280659, 48.112212], [7.280231, 48.112274], [7.280209, 48.112299], [7.280215, 48.11237], [7.280221, 48.112442], [7.281391, 48.112567], [7.28151, 48.112509]]], [[[7.282902, 48.109261], [7.28281, 48.109199], [7.282634, 48.109082], [7.282565, 48.10903], [7.282516, 48.109052], [7.28228, 48.10923], [7.282202, 48.109328], [7.282128, 48.10945], [7.282042, 48.109642], [7.282055, 48.109647], [7.281995, 48.10977], [7.282056, 48.109791], [7.282059, 48.109793], [7.282336, 48.109716], [7.282407, 48.109697], [7.282559, 48.109656], [7.282597, 48.109656], [7.28264, 48.109656], [7.282732, 48.109687], [7.282831, 48.109721], [7.282892, 48.109746], [7.283124, 48.109842], [7.283236, 48.109896], [7.283314, 48.109936], [7.283398, 48.109978], [7.283561, 48.110057], [7.283643, 48.110106], [7.283722, 48.110152], [7.28381, 48.110203], [7.283906, 48.110266], [7.28399, 48.110342], [7.284039, 48.11038], [7.284086, 48.110424], [7.284118, 48.110453], [7.28441, 48.110342], [7.284896, 48.11016], [7.284912, 48.110154], [7.284964, 48.11013], [7.284943, 48.110104], [7.284984, 48.110151], [7.285119, 48.110249], [7.285199, 48.110311], [7.285362, 48.110437], [7.285382, 48.110416], [7.285502, 48.110336], [7.28552, 48.110218], [7.28551, 48.110197], [7.285468, 48.110114], [7.285459, 48.110096], [7.285396, 48.110017], [7.28536, 48.109972], [7.285307, 48.109882], [7.285213, 48.109759], [7.28517, 48.109795], [7.28504, 48.109713], [7.284894, 48.109634], [7.285184, 48.109302], [7.285192, 48.109295], [7.285192, 48.109293], [7.285009, 48.109231], [7.284987, 48.109225], [7.284979, 48.109231], [7.284825, 48.10942], [7.284636, 48.109647], [7.284603, 48.109668], [7.284563, 48.10961], [7.284456, 48.109515], [7.284341, 48.109427], [7.284004, 48.109322], [7.283782, 48.109561], [7.283633, 48.109521], [7.283476, 48.109478], [7.283372, 48.109449], [7.283455, 48.109317], [7.283536, 48.109191], [7.283553, 48.109165], [7.283421, 48.1091], [7.283401, 48.109086], [7.283372, 48.109051], [7.28337, 48.109026], [7.283239, 48.109178], [7.283061, 48.109367], [7.28298, 48.109332], [7.282921, 48.109305], [7.282933, 48.109289], [7.282902, 48.109261]]], [[[7.277789, 48.108807], [7.277864, 48.108999], [7.277921, 48.109], [7.27815, 48.109005], [7.278204, 48.109041], [7.278221, 48.109053], [7.27824, 48.109063], [7.278249, 48.109068], [7.278255, 48.109073], [7.278266, 48.109078], [7.278317, 48.109114], [7.27834, 48.109126], [7.278408, 48.109167], [7.27841, 48.109226], [7.278406, 48.109278], [7.278408, 48.109341], [7.278404, 48.109388], [7.278405, 48.109432], [7.278421, 48.109494], [7.278424, 48.109505], [7.278357, 48.109509], [7.278301, 48.109513], [7.278162, 48.109525], [7.27782, 48.109557], [7.277955, 48.109729], [7.278041, 48.109892], [7.278495, 48.109881], [7.278565, 48.109882], [7.278578, 48.109836], [7.278553, 48.109935], [7.278532, 48.110034], [7.27852, 48.110056], [7.278472, 48.110127], [7.27841, 48.110188], [7.278031, 48.110036], [7.277931, 48.109995], [7.277833, 48.109979], [7.277756, 48.109963], [7.277664, 48.109947], [7.277538, 48.109961], [7.277438, 48.109948], [7.277373, 48.10992], [7.277307, 48.109893], [7.277242, 48.109861], [7.2772, 48.109839], [7.277044, 48.109744], [7.276896, 48.109578], [7.276773, 48.109482], [7.276711, 48.109421], [7.276503, 48.109302], [7.276311, 48.109192], [7.276215, 48.109138], [7.276212, 48.109136], [7.276171, 48.109132], [7.276138, 48.109116], [7.276059, 48.109079], [7.276074, 48.109062], [7.276038, 48.109049], [7.275979, 48.10902], [7.275921, 48.108996], [7.275845, 48.108962], [7.275781, 48.108932], [7.275695, 48.108896], [7.275644, 48.108872], [7.275586, 48.108847], [7.275522, 48.108787], [7.275422, 48.108691], [7.27532, 48.10859], [7.275308, 48.108639], [7.27518, 48.109223], [7.27504, 48.109354], [7.274998, 48.1094], [7.274944, 48.109462], [7.274719, 48.109643], [7.274805, 48.109671], [7.274929, 48.109709], [7.274807, 48.109672], [7.2748, 48.109685], [7.274613, 48.110128], [7.27454, 48.110457], [7.274502, 48.110651], [7.274428, 48.111003], [7.274444, 48.111106], [7.274446, 48.111156], [7.274448, 48.111156], [7.274576, 48.111173], [7.274647, 48.111183], [7.274778, 48.1112], [7.274903, 48.111217], [7.275039, 48.111235], [7.275161, 48.111251], [7.27527, 48.111265], [7.275276, 48.111268], [7.275359, 48.111301], [7.27569, 48.111434], [7.27579, 48.111473], [7.276121, 48.111605], [7.276185, 48.111632], [7.276252, 48.111658], [7.276333, 48.111691], [7.276441, 48.111734], [7.276538, 48.111772], [7.276614, 48.111804], [7.276814, 48.111881], [7.277086, 48.11199], [7.277398, 48.112114], [7.27779, 48.112273], [7.277804, 48.112218], [7.277971, 48.112216], [7.278078, 48.112273], [7.27827, 48.112286], [7.278981, 48.112322], [7.279097, 48.11233], [7.279207, 48.112328], [7.279514, 48.11232], [7.279605, 48.112315], [7.279734, 48.112312], [7.27988, 48.112292], [7.280657, 48.112178], [7.281195, 48.112274], [7.281258, 48.112293], [7.281643, 48.112394], [7.281771, 48.112418], [7.282135, 48.112484], [7.282231, 48.112476], [7.28253, 48.112447], [7.282589, 48.112412], [7.282641, 48.112351], [7.282654, 48.112213], [7.282604, 48.112001], [7.282552, 48.11192], [7.282507, 48.11186], [7.282459, 48.111808], [7.282424, 48.111769], [7.282243, 48.111623], [7.282147, 48.111543], [7.282032, 48.111448], [7.28194, 48.111372], [7.281889, 48.111313], [7.281836, 48.111254], [7.281733, 48.111111], [7.281637, 48.110989], [7.281582, 48.110872], [7.281538, 48.110733], [7.281528, 48.110582], [7.281552, 48.11048], [7.281619, 48.110376], [7.28174, 48.110134], [7.28186, 48.10989], [7.281871, 48.109857], [7.281938, 48.109693], [7.281945, 48.109673], [7.281951, 48.109658], [7.281982, 48.109576], [7.282037, 48.109485], [7.282072, 48.109417], [7.282103, 48.109364], [7.282117, 48.109342], [7.282161, 48.109283], [7.282217, 48.109217], [7.282277, 48.109161], [7.282066, 48.10914], [7.282087, 48.109073], [7.281877, 48.109035], [7.281565, 48.109043], [7.281564, 48.109032], [7.281574, 48.108949], [7.281475, 48.108864], [7.281384, 48.108837], [7.281277, 48.108805], [7.281043, 48.108716], [7.280988, 48.108694], [7.280869, 48.108654], [7.280811, 48.108634], [7.280724, 48.108598], [7.280678, 48.108583], [7.280685, 48.108577], [7.280633, 48.108559], [7.280569, 48.108538], [7.2805, 48.108514], [7.280431, 48.108491], [7.280364, 48.108467], [7.280298, 48.108444], [7.280223, 48.108418], [7.280139, 48.108376], [7.279828, 48.108234], [7.279722, 48.108212], [7.279492, 48.108167], [7.279485, 48.108176], [7.279327, 48.108153], [7.279196, 48.108134], [7.279203, 48.108125], [7.279111, 48.10811], [7.278977, 48.10809], [7.27883, 48.10807], [7.278681, 48.10805], [7.278671, 48.108065], [7.278539, 48.108266], [7.277985, 48.1082], [7.278002, 48.108114], [7.277734, 48.108129], [7.277277, 48.108261], [7.277188, 48.108427], [7.277544, 48.108836], [7.277721, 48.108734], [7.277895, 48.10869], [7.277761, 48.108725], [7.277789, 48.108807]]]]}}]}