{"type": "FeatureCollection", "features": [{"type": "Feature", "properties": {"id": "AOC-Alsace-Grand-Cru-Winzenberg", "name": "Winzenberg", "commune": "Blienschwiller", "family": "花崗岩", "familyColor": "#16a085", "lessonId": "AL2M3L2"}, "geometry": {"type": "MultiPolygon", "coordinates": [[[[7.411578, 48.34559], [7.411328, 48.345646], [7.410976, 48.345804], [7.41118, 48.345964], [7.411207, 48.345973], [7.41134, 48.34602], [7.411388, 48.34606], [7.411426, 48.346089], [7.411503, 48.346151], [7.411565, 48.346179], [7.411632, 48.346207], [7.411679, 48.346228], [7.411758, 48.346262], [7.411899, 48.346312], [7.411996, 48.346347], [7.412076, 48.346377], [7.412151, 48.346404], [7.412204, 48.346424], [7.412292, 48.346454], [7.412394, 48.346488], [7.412565, 48.346536], [7.412671, 48.346567], [7.412735, 48.346585], [7.412821, 48.34661], [7.413013, 48.346664], [7.413102, 48.346689], [7.413173, 48.346709], [7.413177, 48.346709], [7.413183, 48.34671], [7.413202, 48.346712], [7.413371, 48.346731], [7.413433, 48.346644], [7.413539, 48.34649], [7.413595, 48.346485], [7.413657, 48.346733], [7.4137, 48.346745], [7.413775, 48.346764], [7.413878, 48.346791], [7.41403, 48.346832], [7.414083, 48.346845], [7.414105, 48.346852], [7.413811, 48.347061], [7.413883, 48.34715], [7.413936, 48.347216], [7.413967, 48.347255], [7.414012, 48.347311], [7.414034, 48.347338], [7.414115, 48.347437], [7.414126, 48.347452], [7.414183, 48.347524], [7.41422, 48.347557], [7.414292, 48.347622], [7.414316, 48.347643], [7.414338, 48.347661], [7.414372, 48.347691], [7.41446, 48.347773], [7.414519, 48.347827], [7.41462, 48.347919], [7.414636, 48.347985], [7.414647, 48.348033], [7.414797, 48.348293], [7.414821, 48.348342], [7.41556, 48.348234], [7.415954, 48.348153], [7.415951, 48.348134], [7.416638, 48.348057], [7.416558, 48.347928], [7.416491, 48.347822], [7.416554, 48.347809], [7.416893, 48.347748], [7.417366, 48.347711], [7.417405, 48.347643], [7.417406, 48.347638], [7.417313, 48.34753], [7.41728, 48.347491], [7.417031, 48.347509], [7.416423, 48.34763], [7.416256, 48.34758], [7.416173, 48.347526], [7.415935, 48.347374], [7.415861, 48.347287], [7.41593, 48.347263], [7.416293, 48.347051], [7.416615, 48.34693], [7.416713, 48.346898], [7.416732, 48.346976], [7.417486, 48.346964], [7.417589, 48.346948], [7.417733, 48.346928], [7.418152, 48.346823], [7.418156, 48.346595], [7.418136, 48.346467], [7.418071, 48.346345], [7.417875, 48.346177], [7.417753, 48.346083], [7.417562, 48.345938], [7.417457, 48.345862], [7.417179, 48.345867], [7.4171, 48.345856], [7.416859, 48.345835], [7.416706, 48.345821], [7.416622, 48.345813], [7.416544, 48.345805], [7.416455, 48.345788], [7.416427, 48.345783], [7.416403, 48.345777], [7.416114, 48.345721], [7.416068, 48.345712], [7.416012, 48.345703], [7.415929, 48.345694], [7.415896, 48.345691], [7.41571, 48.34588], [7.41549, 48.345849], [7.415439, 48.345861], [7.415383, 48.345853], [7.415336, 48.345839], [7.415314, 48.345804], [7.415264, 48.345785], [7.415026, 48.345865], [7.414676, 48.345876], [7.414688, 48.345959], [7.414738, 48.346043], [7.414786, 48.346088], [7.414714, 48.346122], [7.414645, 48.346155], [7.414543, 48.346144], [7.414483, 48.346213], [7.414348, 48.346197], [7.414238, 48.346182], [7.414293, 48.346029], [7.414066, 48.346015], [7.414055, 48.346014], [7.413854, 48.346001], [7.41368, 48.345991], [7.413511, 48.34598], [7.413504, 48.345796], [7.413449, 48.345768], [7.413334, 48.345743], [7.413309, 48.345739], [7.413257, 48.345729], [7.413135, 48.345707], [7.413082, 48.345676], [7.413022, 48.345643], [7.412973, 48.345594], [7.412899, 48.345521], [7.412848, 48.345476], [7.412836, 48.345458], [7.412807, 48.34541], [7.41274, 48.345305], [7.412684, 48.345295], [7.412644, 48.345306], [7.412544, 48.345335], [7.412521, 48.345342], [7.412414, 48.345368], [7.412132, 48.345432], [7.412035, 48.345463], [7.411938, 48.345494], [7.411794, 48.34554], [7.411578, 48.34559]], [[7.413595, 48.346485], [7.413544, 48.346282], [7.413595, 48.346485], [7.413595, 48.346485]]], [[[7.41748, 48.342058], [7.417289, 48.342], [7.417236, 48.341976], [7.417136, 48.341939], [7.417023, 48.342148], [7.416992, 48.342206], [7.416981, 48.342195], [7.416846, 48.342168], [7.416741, 48.34215], [7.416665, 48.342138], [7.41653, 48.342124], [7.416519, 48.342167], [7.416505, 48.342213], [7.416496, 48.342254], [7.41646, 48.342486], [7.416565, 48.342494], [7.416659, 48.3425], [7.416659, 48.342502], [7.41664, 48.342596], [7.416637, 48.342608], [7.416624, 48.342667], [7.416732, 48.342675], [7.416745, 48.342677], [7.416895, 48.342704], [7.417225, 48.342764], [7.417378, 48.342542], [7.41758, 48.342251], [7.417666, 48.34212], [7.417591, 48.34209], [7.41748, 48.342058]]], [[[7.4153, 48.341314], [7.414968, 48.341227], [7.414828, 48.341357], [7.414416, 48.341375], [7.414389, 48.34137], [7.414191, 48.341335], [7.414193, 48.341387], [7.414081, 48.341353], [7.414035, 48.341349], [7.413943, 48.341341], [7.413831, 48.341342], [7.413772, 48.341342], [7.413776, 48.341564], [7.413696, 48.341802], [7.413684, 48.3418], [7.413534, 48.341774], [7.413384, 48.342122], [7.413494, 48.342135], [7.413555, 48.342143], [7.41342, 48.342345], [7.413356, 48.342441], [7.413178, 48.342748], [7.413134, 48.342806], [7.413098, 48.34287], [7.41302, 48.343026], [7.412775, 48.343507], [7.412877, 48.343518], [7.412888, 48.343519], [7.412937, 48.343532], [7.412861, 48.344183], [7.412751, 48.344487], [7.412803, 48.344479], [7.412831, 48.344476], [7.412916, 48.344465], [7.413109, 48.344439], [7.413199, 48.344426], [7.413301, 48.344412], [7.413421, 48.344395], [7.41358, 48.344374], [7.413612, 48.344369], [7.413629, 48.344366], [7.413651, 48.344364], [7.4137, 48.344357], [7.413756, 48.344349], [7.413827, 48.344339], [7.413665, 48.344476], [7.413676, 48.344522], [7.413689, 48.344577], [7.413737, 48.344604], [7.413759, 48.344619], [7.413905, 48.344705], [7.413958, 48.344742], [7.414071, 48.344827], [7.414379, 48.344713], [7.414435, 48.344679], [7.41479, 48.344709], [7.414871, 48.344727], [7.415058, 48.344686], [7.41525, 48.344625], [7.415744, 48.344442], [7.415907, 48.344385], [7.416085, 48.344331], [7.41629, 48.344283], [7.416435, 48.344251], [7.416629, 48.344209], [7.416852, 48.344159], [7.417296, 48.344147], [7.417393, 48.344143], [7.417461, 48.344016], [7.417566, 48.343852], [7.417578, 48.343833], [7.417637, 48.343749], [7.417731, 48.343749], [7.417785, 48.343618], [7.417848, 48.343463], [7.417855, 48.343438], [7.417956, 48.343472], [7.418675, 48.342679], [7.418613, 48.342646], [7.418473, 48.342575], [7.418555, 48.342488], [7.418456, 48.342445], [7.41855, 48.342334], [7.418595, 48.342278], [7.418338, 48.342203], [7.418378, 48.342143], [7.418263, 48.342123], [7.418162, 48.342123], [7.418096, 48.342125], [7.417675, 48.342133], [7.417592, 48.342254], [7.417236, 48.342763], [7.417544, 48.342828], [7.417402, 48.343111], [7.417395, 48.343108], [7.41753, 48.342834], [7.417227, 48.342771], [7.417014, 48.342731], [7.416728, 48.342678], [7.416564, 48.34267], [7.416496, 48.342692], [7.416443, 48.342722], [7.416378, 48.342778], [7.416187, 48.342874], [7.41611, 48.342911], [7.415924, 48.343021], [7.415849, 48.343074], [7.415744, 48.343072], [7.415628, 48.343008], [7.415588, 48.342983], [7.415531, 48.34296], [7.41539, 48.342898], [7.415314, 48.342867], [7.415255, 48.342858], [7.415183, 48.342847], [7.415107, 48.342835], [7.415005, 48.34276], [7.415053, 48.342771], [7.415174, 48.342799], [7.415255, 48.342819], [7.415319, 48.342834], [7.415414, 48.342874], [7.415616, 48.342959], [7.415771, 48.343039], [7.415828, 48.343034], [7.416343, 48.342728], [7.416376, 48.342662], [7.416269, 48.342605], [7.416274, 48.342578], [7.416302, 48.342438], [7.416314, 48.342376], [7.416332, 48.342293], [7.416335, 48.342278], [7.416364, 48.34219], [7.416367, 48.342178], [7.416377, 48.342147], [7.416081, 48.341989], [7.416069, 48.341883], [7.416063, 48.341838], [7.416038, 48.341792], [7.416018, 48.341755], [7.416011, 48.341743], [7.415989, 48.341716], [7.415944, 48.341658], [7.415917, 48.341622], [7.41604, 48.341557], [7.416048, 48.341514], [7.415566, 48.341417], [7.415597, 48.341349], [7.415314, 48.341292], [7.4153, 48.341314]]]]}}]}