{"type": "FeatureCollection", "features": [{"type": "Feature", "properties": {"id": "AOC-Alsace-Grand-Cru-Frankstein", "name": "Frankstein", "commune": "Dambach-la-Ville", "family": "花崗岩", "familyColor": "#27ae60", "lessonId": "AL2M3L2"}, "geometry": {"type": "MultiPolygon", "coordinates": [[[[7.415626, 48.309382], [7.415037, 48.309327], [7.415035, 48.309326], [7.414777, 48.30939], [7.414776, 48.309391], [7.414774, 48.309409], [7.414639, 48.309675], [7.414917, 48.310002], [7.414951, 48.310039], [7.415098, 48.310012], [7.415125, 48.310051], [7.415191, 48.310028], [7.415256, 48.310005], [7.415364, 48.309978], [7.415479, 48.309951], [7.415508, 48.309986], [7.415538, 48.31002], [7.415604, 48.310007], [7.415851, 48.30994], [7.416382, 48.309602], [7.416383, 48.309602], [7.416309, 48.309564], [7.416231, 48.309525], [7.416179, 48.309498], [7.415981, 48.309435], [7.415887, 48.309418], [7.415873, 48.309415], [7.415853, 48.309412], [7.415626, 48.309382]]], [[[7.417755, 48.310342], [7.417643, 48.310279], [7.417736, 48.310234], [7.417784, 48.310164], [7.417749, 48.310153], [7.417743, 48.310151], [7.417615, 48.310115], [7.41761, 48.310113], [7.417609, 48.310112], [7.417539, 48.310071], [7.417466, 48.310028], [7.417451, 48.310042], [7.417371, 48.310091], [7.417271, 48.310058], [7.417207, 48.310046], [7.417147, 48.310034], [7.417013, 48.310104], [7.416895, 48.310166], [7.416535, 48.310316], [7.416472, 48.310336], [7.416443, 48.310275], [7.416428, 48.310247], [7.41632, 48.310278], [7.416258, 48.310127], [7.416181, 48.309995], [7.416157, 48.309954], [7.416078, 48.30987], [7.415735, 48.309983], [7.415496, 48.310062], [7.4155, 48.310137], [7.415502, 48.310183], [7.415577, 48.310301], [7.415612, 48.310354], [7.415673, 48.310467], [7.415703, 48.31051], [7.415753, 48.310579], [7.415779, 48.310615], [7.415819, 48.310646], [7.415892, 48.310704], [7.415969, 48.310764], [7.416012, 48.310798], [7.416045, 48.310824], [7.416094, 48.31086], [7.416118, 48.31088], [7.416168, 48.310921], [7.416208, 48.310966], [7.41637, 48.311139], [7.416526, 48.311305], [7.416624, 48.311408], [7.416673, 48.311458], [7.41671, 48.311507], [7.416759, 48.311573], [7.416837, 48.311674], [7.416881, 48.31173], [7.416945, 48.311816], [7.416984, 48.311866], [7.417045, 48.311947], [7.41707, 48.31198], [7.417111, 48.312023], [7.417146, 48.31206], [7.417188, 48.312084], [7.417263, 48.312124], [7.417342, 48.31211], [7.417388, 48.312158], [7.417411, 48.312185], [7.417437, 48.312213], [7.417481, 48.312267], [7.417526, 48.312319], [7.417594, 48.312398], [7.417625, 48.312434], [7.417626, 48.312443], [7.417647, 48.312602], [7.417671, 48.312782], [7.417678, 48.312836], [7.417707, 48.312884], [7.417739, 48.312938], [7.417762, 48.312976], [7.417804, 48.313051], [7.417809, 48.31309], [7.417821, 48.313169], [7.41867, 48.313018], [7.419362, 48.312881], [7.419423, 48.312874], [7.419434, 48.312909], [7.41945, 48.312953], [7.41947, 48.313008], [7.419486, 48.313053], [7.419498, 48.313088], [7.419525, 48.313139], [7.419554, 48.313191], [7.419581, 48.313187], [7.419609, 48.313265], [7.419642, 48.313356], [7.419651, 48.313382], [7.419622, 48.313384], [7.419641, 48.313456], [7.419657, 48.313518], [7.419672, 48.313581], [7.419687, 48.313725], [7.420657, 48.313603], [7.421253, 48.313529], [7.421155, 48.313404], [7.421106, 48.313339], [7.421045, 48.31326], [7.42099, 48.313174], [7.420929, 48.313077], [7.420874, 48.312991], [7.420825, 48.312916], [7.420769, 48.312826], [7.420727, 48.312757], [7.4207, 48.312708], [7.420671, 48.312656], [7.42064, 48.312603], [7.420608, 48.312551], [7.420547, 48.312444], [7.420461, 48.312335], [7.420365, 48.312247], [7.420323, 48.312207], [7.420233, 48.312123], [7.42013, 48.312025], [7.41996, 48.311865], [7.41993, 48.311836], [7.419843, 48.311755], [7.419801, 48.311717], [7.419766, 48.311685], [7.419698, 48.311621], [7.419635, 48.311563], [7.419605, 48.311534], [7.419574, 48.311505], [7.419511, 48.311444], [7.419478, 48.311409], [7.419411, 48.311317], [7.419379, 48.311274], [7.419354, 48.311239], [7.419319, 48.311187], [7.419216, 48.31105], [7.419164, 48.310976], [7.419006, 48.310836], [7.41885, 48.3107], [7.418798, 48.310652], [7.418785, 48.310659], [7.41877, 48.310644], [7.41878, 48.310638], [7.418701, 48.310567], [7.418661, 48.31055], [7.418591, 48.310522], [7.418514, 48.310468], [7.418443, 48.310418], [7.41839, 48.310397], [7.418296, 48.3104], [7.418231, 48.310415], [7.418091, 48.310459], [7.417955, 48.310431], [7.417872, 48.310414], [7.417783, 48.310395], [7.417675, 48.310394], [7.417755, 48.310342]]], [[[7.417477, 48.32131], [7.417465, 48.32125], [7.417228, 48.32126], [7.417014, 48.321245], [7.416933, 48.32124], [7.416746, 48.321228], [7.416473, 48.32123], [7.416309, 48.32123], [7.4162, 48.321233], [7.41607, 48.321235], [7.416054, 48.321235], [7.41596, 48.321233], [7.415914, 48.321234], [7.415791, 48.32123], [7.415758, 48.321228], [7.415729, 48.321226], [7.41554, 48.321221], [7.415365, 48.321216], [7.415284, 48.321213], [7.415204, 48.321211], [7.415218, 48.321038], [7.415121, 48.321042], [7.41497, 48.321047], [7.414877, 48.32105], [7.414808, 48.321053], [7.414748, 48.321055], [7.414378, 48.321035], [7.414373, 48.321092], [7.414276, 48.321088], [7.414067, 48.32108], [7.414058, 48.321286], [7.413895, 48.321258], [7.413798, 48.321243], [7.413754, 48.321236], [7.413618, 48.321195], [7.413504, 48.321142], [7.413339, 48.321261], [7.412978, 48.321529], [7.412959, 48.32156], [7.412867, 48.3215], [7.412796, 48.32143], [7.412714, 48.321482], [7.411886, 48.322018], [7.411867, 48.322031], [7.411833, 48.322009], [7.411317, 48.322299], [7.411263, 48.322329], [7.411648, 48.322526], [7.411779, 48.322595], [7.411892, 48.322653], [7.412263, 48.322845], [7.412428, 48.322972], [7.412468, 48.323023], [7.412671, 48.323279], [7.412721, 48.323343], [7.412831, 48.323481], [7.413003, 48.323699], [7.413071, 48.323851], [7.413089, 48.323891], [7.41311, 48.323911], [7.41319, 48.323986], [7.413239, 48.324032], [7.413354, 48.32411], [7.413457, 48.324184], [7.413544, 48.324246], [7.413562, 48.324259], [7.413659, 48.324374], [7.413766, 48.324522], [7.413797, 48.324565], [7.413892, 48.324642], [7.41395, 48.324689], [7.414081, 48.324744], [7.414407, 48.324836], [7.414418, 48.324839], [7.414475, 48.324834], [7.415212, 48.324772], [7.415612, 48.324755], [7.415617, 48.32473], [7.415659, 48.324733], [7.41567, 48.324869], [7.415672, 48.324905], [7.415676, 48.324957], [7.415683, 48.325059], [7.415682, 48.32511], [7.41568, 48.325157], [7.415678, 48.325217], [7.415674, 48.325254], [7.416206, 48.325264], [7.41708, 48.325283], [7.417083, 48.325252], [7.417486, 48.325238], [7.417869, 48.325244], [7.418666, 48.3253], [7.41874, 48.325156], [7.418834, 48.324971], [7.418862, 48.324919], [7.418898, 48.324927], [7.418949, 48.324901], [7.41899, 48.324867], [7.418999, 48.324849], [7.419036, 48.324778], [7.419041, 48.324758], [7.419053, 48.324715], [7.419077, 48.324636], [7.419098, 48.324565], [7.419162, 48.324593], [7.420319, 48.324834], [7.42035, 48.324767], [7.420396, 48.324777], [7.421032, 48.324859], [7.421257, 48.324865], [7.421865, 48.324837], [7.42188, 48.324837], [7.421884, 48.32477], [7.421886, 48.324734], [7.42189, 48.324639], [7.421892, 48.324597], [7.421898, 48.324458], [7.421901, 48.324418], [7.421903, 48.324367], [7.421911, 48.324185], [7.421914, 48.324098], [7.421929, 48.323772], [7.421874, 48.323571], [7.421828, 48.323483], [7.421803, 48.323437], [7.421774, 48.323377], [7.421736, 48.32331], [7.421659, 48.323192], [7.421533, 48.323], [7.421297, 48.322853], [7.421223, 48.322818], [7.42112, 48.322781], [7.420901, 48.322737], [7.420873, 48.322754], [7.420789, 48.322765], [7.420695, 48.322806], [7.4204, 48.32293], [7.42029, 48.322967], [7.420219, 48.322991], [7.420188, 48.322999], [7.420098, 48.323021], [7.419904, 48.323066], [7.419844, 48.32308], [7.419776, 48.323097], [7.419752, 48.323102], [7.41955, 48.323158], [7.419301, 48.323228], [7.419191, 48.323259], [7.419009, 48.323294], [7.418666, 48.323337], [7.418529, 48.323359], [7.418409, 48.32339], [7.418211, 48.323441], [7.418193, 48.323444], [7.418002, 48.323482], [7.41793, 48.323495], [7.417833, 48.323514], [7.41778, 48.323524], [7.417747, 48.323531], [7.417684, 48.323536], [7.417612, 48.323542], [7.417493, 48.323553], [7.417409, 48.323559], [7.417375, 48.323559], [7.417314, 48.323556], [7.417263, 48.323555], [7.417212, 48.323552], [7.417158, 48.323551], [7.41698, 48.323544], [7.416887, 48.323541], [7.416771, 48.323536], [7.416752, 48.323534], [7.416633, 48.323515], [7.416523, 48.323499], [7.416383, 48.323477], [7.416306, 48.32346], [7.416108, 48.323417], [7.41612, 48.323372], [7.41564, 48.323299], [7.415726, 48.323312], [7.415732, 48.323278], [7.415779, 48.323151], [7.415812, 48.323002], [7.415849, 48.322819], [7.415857, 48.322681], [7.415839, 48.322638], [7.415929, 48.322601], [7.415923, 48.32262], [7.415915, 48.322665], [7.415906, 48.32271], [7.4159, 48.322754], [7.415888, 48.322818], [7.415882, 48.322878], [7.415879, 48.322952], [7.415873, 48.32301], [7.415865, 48.323108], [7.41589, 48.323138], [7.416016, 48.323146], [7.416021, 48.323183], [7.416165, 48.323199], [7.416164, 48.323216], [7.416295, 48.323238], [7.417147, 48.323314], [7.417195, 48.32332], [7.417358, 48.323328], [7.417584, 48.32332], [7.417877, 48.323262], [7.418408, 48.323115], [7.418389, 48.323037], [7.418463, 48.323028], [7.418926, 48.322929], [7.419376, 48.322833], [7.419489, 48.322862], [7.419644, 48.322866], [7.419804, 48.322837], [7.419911, 48.322813], [7.420034, 48.322773], [7.420452, 48.322634], [7.42056, 48.322591], [7.420608, 48.322579], [7.420565, 48.322506], [7.42054, 48.3224], [7.420522, 48.32233], [7.420506, 48.322271], [7.420491, 48.322205], [7.420479, 48.322153], [7.420448, 48.322027], [7.420418, 48.322013], [7.420395, 48.321844], [7.420392, 48.321805], [7.420378, 48.321691], [7.420372, 48.321648], [7.420384, 48.321597], [7.420427, 48.321409], [7.420013, 48.321319], [7.419996, 48.321315], [7.419702, 48.321287], [7.419462, 48.321265], [7.41923, 48.321258], [7.418975, 48.321269], [7.418988, 48.321291], [7.417526, 48.321304], [7.417477, 48.32131]], [[7.42035, 48.324767], [7.42035, 48.324767], [7.420421, 48.324621], [7.42035, 48.324767]], [[7.415988, 48.322318], [7.416124, 48.322302], [7.416117, 48.322358], [7.415988, 48.322318]]], [[[7.423147, 48.329946], [7.423112, 48.32989], [7.423075, 48.329831], [7.423024, 48.329743], [7.422975, 48.329666], [7.422972, 48.32966], [7.422919, 48.329561], [7.42287, 48.329472], [7.422835, 48.329405], [7.422792, 48.329306], [7.42276, 48.32923], [7.42273, 48.329141], [7.422713, 48.329085], [7.422701, 48.329041], [7.4227, 48.329036], [7.422678, 48.328918], [7.422676, 48.328905], [7.422674, 48.328808], [7.42267, 48.328734], [7.422663, 48.328532], [7.422664, 48.32852], [7.422669, 48.328418], [7.422676, 48.328308], [7.422663, 48.328232], [7.422659, 48.328206], [7.422639, 48.328083], [7.422071, 48.328094], [7.421918, 48.328089], [7.42184, 48.328086], [7.421763, 48.328082], [7.421658, 48.328093], [7.421515, 48.328106], [7.421428, 48.328113], [7.421361, 48.328136], [7.421216, 48.328181], [7.420933, 48.328271], [7.420841, 48.32829], [7.420649, 48.328328], [7.420537, 48.328325], [7.420333, 48.32833], [7.419966, 48.328284], [7.419824, 48.328262], [7.419548, 48.328218], [7.419439, 48.328345], [7.419362, 48.328454], [7.41929, 48.328592], [7.419145, 48.329037], [7.41924, 48.329055], [7.419127, 48.329188], [7.418911, 48.329388], [7.418864, 48.329422], [7.41876, 48.329492], [7.418637, 48.329467], [7.418409, 48.329542], [7.418316, 48.329581], [7.418225, 48.329623], [7.418129, 48.329663], [7.41813, 48.330075], [7.418143, 48.330133], [7.418168, 48.330271], [7.418207, 48.330489], [7.418262, 48.330484], [7.418315, 48.330479], [7.418336, 48.330477], [7.418371, 48.33048], [7.418515, 48.330487], [7.418622, 48.330494], [7.418672, 48.330495], [7.418686, 48.330495], [7.418774, 48.3305], [7.418792, 48.330502], [7.418979, 48.330511], [7.418976, 48.330526], [7.419966, 48.330626], [7.419976, 48.330581], [7.420157, 48.330593], [7.420182, 48.330587], [7.420199, 48.330588], [7.420358, 48.330585], [7.42035, 48.330621], [7.420585, 48.330645], [7.420877, 48.330623], [7.420867, 48.330672], [7.42085, 48.330742], [7.421711, 48.330642], [7.421748, 48.330611], [7.421785, 48.330651], [7.421841, 48.330715], [7.421902, 48.330786], [7.422078, 48.330735], [7.422452, 48.330618], [7.422447, 48.330611], [7.422767, 48.33049], [7.423373, 48.330313], [7.423333, 48.330251], [7.423283, 48.33017], [7.423235, 48.33009], [7.423216, 48.33006], [7.423185, 48.33001], [7.423147, 48.329946]]], [[[7.418825, 48.315672], [7.418924, 48.315828], [7.41893, 48.315837], [7.418992, 48.315892], [7.419081, 48.316009], [7.419125, 48.316065], [7.419247, 48.316222], [7.419333, 48.316186], [7.419674, 48.316059], [7.420229, 48.315923], [7.420122, 48.315794], [7.420084, 48.315749], [7.42008, 48.315744], [7.420064, 48.315726], [7.420007, 48.315658], [7.419989, 48.315637], [7.419963, 48.315609], [7.419881, 48.315511], [7.419752, 48.315557], [7.419471, 48.315588], [7.419348, 48.315602], [7.418946, 48.315649], [7.418825, 48.315672]]], [[[7.422536, 48.316736], [7.422384, 48.316703], [7.422165, 48.316653], [7.421975, 48.31659], [7.421942, 48.316571], [7.421868, 48.31653], [7.42178, 48.316482], [7.4217, 48.316437], [7.42153, 48.316317], [7.421451, 48.316262], [7.421352, 48.316253], [7.421303, 48.316247], [7.421277, 48.316183], [7.421316, 48.316145], [7.421322, 48.316098], [7.421317, 48.316011], [7.421311, 48.315919], [7.420692, 48.315896], [7.420236, 48.315929], [7.419687, 48.316064], [7.419333, 48.316186], [7.419178, 48.316253], [7.419174, 48.316248], [7.419058, 48.316092], [7.418934, 48.315931], [7.418908, 48.315893], [7.418836, 48.315828], [7.418789, 48.315786], [7.418756, 48.315761], [7.418663, 48.315744], [7.418417, 48.315795], [7.417961, 48.316044], [7.417903, 48.316067], [7.417655, 48.316119], [7.416873, 48.316382], [7.416755, 48.316634], [7.416744, 48.316707], [7.416595, 48.316631], [7.416504, 48.316584], [7.415499, 48.317394], [7.415581, 48.317438], [7.415722, 48.317514], [7.415732, 48.317523], [7.415786, 48.317586], [7.415884, 48.317694], [7.416064, 48.317898], [7.416126, 48.317968], [7.41624, 48.318096], [7.416264, 48.318122], [7.416317, 48.318181], [7.416347, 48.31822], [7.41639, 48.318264], [7.416403, 48.318284], [7.416414, 48.318297], [7.416416, 48.3183], [7.416419, 48.318304], [7.416422, 48.31832], [7.416515, 48.318334], [7.416919, 48.318391], [7.41701, 48.318402], [7.417138, 48.31842], [7.4172, 48.318428], [7.417466, 48.318514], [7.417513, 48.31853], [7.417556, 48.318544], [7.417724, 48.318598], [7.418285, 48.318723], [7.418401, 48.318752], [7.418557, 48.318766], [7.419119, 48.318767], [7.419193, 48.318766], [7.419194, 48.318814], [7.419193, 48.318854], [7.419192, 48.318915], [7.419731, 48.318914], [7.420048, 48.318896], [7.420475, 48.31887], [7.420546, 48.318883], [7.420552, 48.319018], [7.421074, 48.31902], [7.421655, 48.319008], [7.421685, 48.31884], [7.421694, 48.318795], [7.421692, 48.318688], [7.421748, 48.318686], [7.422464, 48.318614], [7.422959, 48.318569], [7.423392, 48.318531], [7.423334, 48.318479], [7.423278, 48.318424], [7.423192, 48.31833], [7.423148, 48.318265], [7.423085, 48.318103], [7.423063, 48.318001], [7.423052, 48.31795], [7.423042, 48.317893], [7.423031, 48.317833], [7.423017, 48.31776], [7.422989, 48.317595], [7.42298, 48.317543], [7.422958, 48.317427], [7.422952, 48.317398], [7.422889, 48.317096], [7.422829, 48.316878], [7.42274, 48.316782], [7.422536, 48.316736]]]]}}]}