{"type": "FeatureCollection", "features": [{"type": "Feature", "properties": {"id": "AOC-Alsace-Grand-Cru-Brand", "name": "Brand", "commune": "Turckheim", "family": "花崗岩", "familyColor": "#c0392b", "lessonId": "AL2M3L2"}, "geometry": {"type": "MultiPolygon", "coordinates": [[[[7.276471, 48.090261], [7.276496, 48.090153], [7.276468, 48.090034], [7.276462, 48.090016], [7.276382, 48.089873], [7.276381, 48.089871], [7.276373, 48.089859], [7.27626, 48.089657], [7.276134, 48.089578], [7.276043, 48.08952], [7.275999, 48.089479], [7.275976, 48.08946], [7.275959, 48.089427], [7.275944, 48.0894], [7.275942, 48.089336], [7.276001, 48.089272], [7.275713, 48.089195], [7.275754, 48.089152], [7.275736, 48.089147], [7.275781, 48.08916], [7.275902, 48.089198], [7.276051, 48.089242], [7.2762, 48.089155], [7.276292, 48.08914], [7.276416, 48.089167], [7.276469, 48.089178], [7.27657, 48.089245], [7.27658, 48.089254], [7.276758, 48.089431], [7.276837, 48.089469], [7.276891, 48.089495], [7.27725, 48.089585], [7.277258, 48.089572], [7.27731, 48.089505], [7.277347, 48.089459], [7.277321, 48.089449], [7.277302, 48.089442], [7.277229, 48.089413], [7.277219, 48.089409], [7.27718, 48.089394], [7.277172, 48.08939], [7.277025, 48.089298], [7.276934, 48.089224], [7.2768, 48.089116], [7.276789, 48.089108], [7.276776, 48.089097], [7.276664, 48.089031], [7.276405, 48.088877], [7.276396, 48.088872], [7.276281, 48.088809], [7.27625, 48.088792], [7.276046, 48.088692], [7.275876, 48.088594], [7.275778, 48.088538], [7.275656, 48.088475], [7.275634, 48.088464], [7.275571, 48.088435], [7.275388, 48.088353], [7.275217, 48.088275], [7.275194, 48.088265], [7.275044, 48.088197], [7.274821, 48.088083], [7.274677, 48.088009], [7.274476, 48.087907], [7.274371, 48.087854], [7.2743, 48.087819], [7.274221, 48.087777], [7.274149, 48.08774], [7.274026, 48.087678], [7.273898, 48.087613], [7.273741, 48.087535], [7.273683, 48.087506], [7.273434, 48.087383], [7.273363, 48.087348], [7.273198, 48.087266], [7.27315, 48.087244], [7.273039, 48.087191], [7.273023, 48.087183], [7.272926, 48.08714], [7.272851, 48.087107], [7.272652, 48.087027], [7.272531, 48.086979], [7.272511, 48.086972], [7.272438, 48.086915], [7.272351, 48.086864], [7.272156, 48.08675], [7.272061, 48.086697], [7.272017, 48.086676], [7.27199, 48.086663], [7.271969, 48.086663], [7.271914, 48.086691], [7.271825, 48.086655], [7.271769, 48.086632], [7.271624, 48.086549], [7.271593, 48.086481], [7.271501, 48.086417], [7.271352, 48.086337], [7.27129, 48.086306], [7.271322, 48.086234], [7.271124, 48.086222], [7.270824, 48.086224], [7.270768, 48.086232], [7.270721, 48.08625], [7.270712, 48.086295], [7.270766, 48.086378], [7.270849, 48.086429], [7.270874, 48.08644], [7.270861, 48.08645], [7.270861, 48.08645], [7.270628, 48.086467], [7.270617, 48.086401], [7.27042, 48.086404], [7.270418, 48.086362], [7.270367, 48.086336], [7.270298, 48.086317], [7.27034, 48.086234], [7.270364, 48.086154], [7.270119, 48.086126], [7.269747, 48.08608], [7.269202, 48.086067], [7.268921, 48.086046], [7.268689, 48.086036], [7.268675, 48.086172], [7.268668, 48.08625], [7.268667, 48.086261], [7.268763, 48.086281], [7.268821, 48.086364], [7.268904, 48.086361], [7.269011, 48.086352], [7.269146, 48.086344], [7.26917, 48.086391], [7.269175, 48.0864], [7.269147, 48.086457], [7.269135, 48.086467], [7.269028, 48.086464], [7.269005, 48.08672], [7.269167, 48.08672], [7.269246, 48.086719], [7.269262, 48.086719], [7.269212, 48.086779], [7.269301, 48.086779], [7.269212, 48.086779], [7.269061, 48.087006], [7.269054, 48.087155], [7.269173, 48.08718], [7.269197, 48.087185], [7.269217, 48.087189], [7.269293, 48.087197], [7.269317, 48.087199], [7.269388, 48.087208], [7.269424, 48.087211], [7.269487, 48.087215], [7.269595, 48.087222], [7.269618, 48.087479], [7.269639, 48.08775], [7.269698, 48.087748], [7.269688, 48.087822], [7.269742, 48.08783], [7.269649, 48.088021], [7.269622, 48.088076], [7.2697, 48.088068], [7.270036, 48.088153], [7.27018, 48.088186], [7.270194, 48.088189], [7.270224, 48.088196], [7.270241, 48.0882], [7.270623, 48.088287], [7.270838, 48.088363], [7.270928, 48.088408], [7.271145, 48.088454], [7.271233, 48.088427], [7.271352, 48.088389], [7.271435, 48.088424], [7.271465, 48.088437], [7.271545, 48.088496], [7.271599, 48.088548], [7.271638, 48.088584], [7.27166, 48.088606], [7.271728, 48.088676], [7.271751, 48.088698], [7.271846, 48.08879], [7.271922, 48.088864], [7.271941, 48.088877], [7.272008, 48.088919], [7.27207, 48.088957], [7.27216, 48.089014], [7.27227, 48.089057], [7.272303, 48.089069], [7.272332, 48.08907], [7.272377, 48.089046], [7.272427, 48.08906], [7.272516, 48.089087], [7.272533, 48.089092], [7.272612, 48.089123], [7.272674, 48.089153], [7.272702, 48.089181], [7.272782, 48.089257], [7.272823, 48.089297], [7.272946, 48.089421], [7.273013, 48.08949], [7.273062, 48.089528], [7.273122, 48.089577], [7.27324, 48.089671], [7.273292, 48.089711], [7.273381, 48.089817], [7.273447, 48.089895], [7.273513, 48.089984], [7.273556, 48.090042], [7.27359, 48.090087], [7.273653, 48.090182], [7.273655, 48.090187], [7.273674, 48.090262], [7.273681, 48.090289], [7.273693, 48.090343], [7.273713, 48.090426], [7.27373, 48.090497], [7.273733, 48.090504], [7.273773, 48.090597], [7.273805, 48.090663], [7.273918, 48.090626], [7.274042, 48.090573], [7.274163, 48.090494], [7.27426, 48.090446], [7.274349, 48.090418], [7.274508, 48.090387], [7.274529, 48.090405], [7.274551, 48.090423], [7.274585, 48.090452], [7.274609, 48.090518], [7.274648, 48.090626], [7.274658, 48.090652], [7.274673, 48.09067], [7.274893, 48.090707], [7.274989, 48.09072], [7.275156, 48.090713], [7.275167, 48.090724], [7.275169, 48.090743], [7.275186, 48.090831], [7.275187, 48.090886], [7.275173, 48.090921], [7.27516, 48.090955], [7.275118, 48.091021], [7.275108, 48.091027], [7.274949, 48.091108], [7.274929, 48.091122], [7.274879, 48.091159], [7.274837, 48.091206], [7.274772, 48.091291], [7.274728, 48.091402], [7.274715, 48.091422], [7.274686, 48.091465], [7.27462, 48.091598], [7.274566, 48.091706], [7.274553, 48.091733], [7.274508, 48.091787], [7.274303, 48.091936], [7.274289, 48.091947], [7.274179, 48.092061], [7.274105, 48.092151], [7.274008, 48.092237], [7.274002, 48.092243], [7.273989, 48.092272], [7.273988, 48.092434], [7.273959, 48.092468], [7.273898, 48.092504], [7.273923, 48.09254], [7.273934, 48.092622], [7.27394, 48.092656], [7.273944, 48.092694], [7.273883, 48.092773], [7.273801, 48.092819], [7.273831, 48.092929], [7.273905, 48.092973], [7.274009, 48.092999], [7.274243, 48.093066], [7.274488, 48.093134], [7.274616, 48.09321], [7.274661, 48.093247], [7.274709, 48.093321], [7.274892, 48.093241], [7.274955, 48.093236], [7.275214, 48.093267], [7.275409, 48.093296], [7.275418, 48.093268], [7.275466, 48.093144], [7.275495, 48.093063], [7.275555, 48.09296], [7.275625, 48.092874], [7.275677, 48.092817], [7.275813, 48.092709], [7.275863, 48.092671], [7.275933, 48.092619], [7.275984, 48.092582], [7.276091, 48.092503], [7.276102, 48.092494], [7.276212, 48.092417], [7.276305, 48.092361], [7.276327, 48.092354], [7.276465, 48.092308], [7.276561, 48.092277], [7.276699, 48.092233], [7.276713, 48.092228], [7.276795, 48.092194], [7.276826, 48.092166], [7.276868, 48.092101], [7.276874, 48.092051], [7.27687, 48.092023], [7.276635, 48.091969], [7.276459, 48.091918], [7.276359, 48.091888], [7.276244, 48.091841], [7.276066, 48.091692], [7.276036, 48.091666], [7.276064, 48.091549], [7.276106, 48.091451], [7.276272, 48.091288], [7.275878, 48.091295], [7.275383, 48.091304], [7.275373, 48.091296], [7.275381, 48.091285], [7.276292, 48.09127], [7.276316, 48.091244], [7.276367, 48.091137], [7.276393, 48.09097], [7.276403, 48.090908], [7.276435, 48.090702], [7.276436, 48.090675], [7.276439, 48.090503], [7.276441, 48.090501], [7.27644, 48.090491], [7.27644, 48.090384], [7.276464, 48.090291], [7.276471, 48.090266], [7.276471, 48.090261]], [[7.276471, 48.090261], [7.27647, 48.090267], [7.276471, 48.09026], [7.276471, 48.090261]], [[7.27399, 48.088285], [7.273931, 48.088253], [7.273872, 48.088219], [7.273808, 48.088183], [7.273853, 48.088208], [7.273896, 48.088171], [7.274036, 48.088251], [7.27399, 48.088285]]], [[[7.280308, 48.092584], [7.280337, 48.092617], [7.28034, 48.092621], [7.280383, 48.092694], [7.280437, 48.092752], [7.280459, 48.092775], [7.280538, 48.092792], [7.280583, 48.092797], [7.280741, 48.092812], [7.280868, 48.092823], [7.281078, 48.092901], [7.281179, 48.092953], [7.281333, 48.093034], [7.281553, 48.093173], [7.281668, 48.093224], [7.281787, 48.093272], [7.28204, 48.093366], [7.282112, 48.093414], [7.28219, 48.093465], [7.282287, 48.093529], [7.282364, 48.093578], [7.282428, 48.093618], [7.282436, 48.093622], [7.28246, 48.093637], [7.282504, 48.093673], [7.282536, 48.093699], [7.282573, 48.093728], [7.282611, 48.093768], [7.282658, 48.093816], [7.282746, 48.093907], [7.282868, 48.093979], [7.282992, 48.094062], [7.283011, 48.094075], [7.28308, 48.094132], [7.28334, 48.093976], [7.28349, 48.093902], [7.283998, 48.093612], [7.284235, 48.09349], [7.284377, 48.093413], [7.284401, 48.093397], [7.284351, 48.093335], [7.284246, 48.09318], [7.284202, 48.093109], [7.284183, 48.093127], [7.284149, 48.093165], [7.284066, 48.093105], [7.283917, 48.093039], [7.283831, 48.093008], [7.283786, 48.093012], [7.28372, 48.093], [7.283744, 48.092845], [7.283747, 48.092705], [7.283748, 48.092695], [7.283729, 48.092643], [7.283712, 48.092583], [7.283784, 48.092587], [7.283818, 48.092582], [7.283869, 48.092574], [7.283819, 48.092506], [7.283788, 48.092407], [7.28381, 48.092331], [7.283787, 48.092314], [7.283688, 48.092302], [7.283657, 48.092284], [7.283661, 48.092197], [7.283636, 48.092135], [7.283586, 48.092094], [7.283467, 48.092086], [7.283486, 48.092], [7.283528, 48.091945], [7.283538, 48.09192], [7.283533, 48.091801], [7.28354, 48.09175], [7.283636, 48.091557], [7.28366, 48.091485], [7.283578, 48.091463], [7.283513, 48.091447], [7.283504, 48.091443], [7.283316, 48.091379], [7.283306, 48.091376], [7.283123, 48.091324], [7.283089, 48.091314], [7.283085, 48.091313], [7.282873, 48.091243], [7.282869, 48.091226], [7.282688, 48.091159], [7.282682, 48.091157], [7.282604, 48.091122], [7.282402, 48.091028], [7.282386, 48.090979], [7.282326, 48.090927], [7.282279, 48.090871], [7.282268, 48.090846], [7.282218, 48.090716], [7.282161, 48.090663], [7.282109, 48.090614], [7.282102, 48.090608], [7.281986, 48.090542], [7.281979, 48.090538], [7.281795, 48.090434], [7.281723, 48.090392], [7.281636, 48.09034], [7.28143, 48.090204], [7.281353, 48.090154], [7.281188, 48.090036], [7.281173, 48.090028], [7.280938, 48.089892], [7.280741, 48.089778], [7.280695, 48.089754], [7.280692, 48.089757], [7.280634, 48.089806], [7.280485, 48.089933], [7.280246, 48.089811], [7.280251, 48.089806], [7.280296, 48.089758], [7.280294, 48.089757], [7.280191, 48.089738], [7.280215, 48.089685], [7.280274, 48.089556], [7.2801, 48.089518], [7.279716, 48.089454], [7.279545, 48.089422], [7.279464, 48.089538], [7.27941, 48.089612], [7.279408, 48.089611], [7.279213, 48.089558], [7.279215, 48.089557], [7.279221, 48.089549], [7.279335, 48.089385], [7.278801, 48.089297], [7.278452, 48.089527], [7.278346, 48.089596], [7.278327, 48.089608], [7.27825, 48.089659], [7.278309, 48.08962], [7.278203, 48.08963], [7.278132, 48.089647], [7.278084, 48.089678], [7.278052, 48.08972], [7.278044, 48.089732], [7.278007, 48.089833], [7.277975, 48.089991], [7.277969, 48.090165], [7.277967, 48.090262], [7.277954, 48.090345], [7.277911, 48.090533], [7.277886, 48.090594], [7.277853, 48.090585], [7.277814, 48.090673], [7.277795, 48.090713], [7.277769, 48.090754], [7.27773, 48.090817], [7.277664, 48.0909], [7.277627, 48.090965], [7.27765, 48.090973], [7.277632, 48.090976], [7.277557, 48.090983], [7.27729, 48.091115], [7.277193, 48.09115], [7.276992, 48.091224], [7.276737, 48.091324], [7.276675, 48.091349], [7.276545, 48.091415], [7.276457, 48.091462], [7.27641, 48.09153], [7.276427, 48.091602], [7.276458, 48.091639], [7.276515, 48.091683], [7.276666, 48.091779], [7.276773, 48.091862], [7.276973, 48.091931], [7.277033, 48.091942], [7.277153, 48.091963], [7.27717, 48.091965], [7.27719, 48.09197], [7.27767, 48.092057], [7.277748, 48.092068], [7.27787, 48.092086], [7.27796, 48.092091], [7.278021, 48.092096], [7.278203, 48.092109], [7.278619, 48.092137], [7.27862, 48.09213], [7.278623, 48.092071], [7.278607, 48.092015], [7.278534, 48.091821], [7.278564, 48.091708], [7.278602, 48.091551], [7.278615, 48.091552], [7.278603, 48.091598], [7.278566, 48.091759], [7.278564, 48.091768], [7.278551, 48.091822], [7.278592, 48.091933], [7.278619, 48.092011], [7.278635, 48.092069], [7.278634, 48.09213], [7.278631, 48.092141], [7.278744, 48.092122], [7.278956, 48.092052], [7.279146, 48.09201], [7.279252, 48.092052], [7.279348, 48.0921], [7.279404, 48.092133], [7.279457, 48.092206], [7.279445, 48.092284], [7.2794, 48.09235], [7.279307, 48.092409], [7.279039, 48.092446], [7.27886, 48.092458], [7.278673, 48.092504], [7.278691, 48.092562], [7.278692, 48.092649], [7.27866, 48.092793], [7.278509, 48.09284], [7.278718, 48.092851], [7.278511, 48.09284], [7.278498, 48.092843], [7.278479, 48.092886], [7.278524, 48.092888], [7.278478, 48.092886], [7.278453, 48.092952], [7.278371, 48.093089], [7.278325, 48.093227], [7.278212, 48.093357], [7.278151, 48.093463], [7.278129, 48.093539], [7.278223, 48.09372], [7.278333, 48.093862], [7.278345, 48.094005], [7.278396, 48.094142], [7.278552, 48.094134], [7.278933, 48.09415], [7.278946, 48.094151], [7.279161, 48.094173], [7.27933, 48.094187], [7.279327, 48.094174], [7.279448, 48.094157], [7.279452, 48.094169], [7.279522, 48.094131], [7.279551, 48.094111], [7.279634, 48.094047], [7.279682, 48.094033], [7.279832, 48.094012], [7.279867, 48.094009], [7.279957, 48.094005], [7.280059, 48.094006], [7.28016, 48.094007], [7.28033, 48.094021], [7.280414, 48.094027], [7.280435, 48.094029], [7.280504, 48.094039], [7.280515, 48.094041], [7.280584, 48.094063], [7.280603, 48.094069], [7.280649, 48.094079], [7.280688, 48.094087], [7.280706, 48.094088], [7.280808, 48.094097], [7.280807, 48.09406], [7.280967, 48.094052], [7.280982, 48.094051], [7.28102, 48.093995], [7.281314, 48.093959], [7.281522, 48.093943], [7.281672, 48.093908], [7.281908, 48.093818], [7.282099, 48.09373], [7.28224, 48.093682], [7.282317, 48.093642], [7.282363, 48.093617], [7.282255, 48.09355], [7.282144, 48.093476], [7.282091, 48.09344], [7.282015, 48.093391], [7.281848, 48.093327], [7.281752, 48.09329], [7.28166, 48.093255], [7.281644, 48.093249], [7.281526, 48.093197], [7.281434, 48.093143], [7.281295, 48.093061], [7.281243, 48.093033], [7.281156, 48.092988], [7.281071, 48.092942], [7.281048, 48.09293], [7.280972, 48.092903], [7.280903, 48.092878], [7.280852, 48.092861], [7.280796, 48.092857], [7.280685, 48.092849], [7.280447, 48.092865], [7.280449, 48.092786], [7.28037, 48.092702], [7.280326, 48.092625], [7.280296, 48.092593], [7.280308, 48.092584]], [[7.280296, 48.092593], [7.280296, 48.092593], [7.280261, 48.092556], [7.280296, 48.092593]], [[7.279888, 48.093035], [7.279812, 48.093026], [7.279809, 48.092987], [7.279812, 48.093026], [7.279888, 48.093035]], [[7.282418, 48.092395], [7.282374, 48.092365], [7.282423, 48.092392], [7.282418, 48.092395]], [[7.280741, 48.091442], [7.280649, 48.091377], [7.280673, 48.091355], [7.280771, 48.091424], [7.280741, 48.091442]]], [[[7.273128, 48.092723], [7.273238, 48.092734], [7.273238, 48.092738], [7.273238, 48.092743], [7.273214, 48.092781], [7.273193, 48.092825], [7.273225, 48.092828], [7.273178, 48.092855], [7.273186, 48.092859], [7.273192, 48.092863], [7.273171, 48.092878], [7.273141, 48.092899], [7.273066, 48.092994], [7.273062, 48.093025], [7.273105, 48.093098], [7.273156, 48.093186], [7.273241, 48.093271], [7.273429, 48.093459], [7.27346, 48.093488], [7.273491, 48.093517], [7.273559, 48.093579], [7.273615, 48.09363], [7.273675, 48.093672], [7.273737, 48.093715], [7.27388, 48.093823], [7.273966, 48.093929], [7.274068, 48.094019], [7.274133, 48.094125], [7.274159, 48.094231], [7.274055, 48.094434], [7.274066, 48.094493], [7.274111, 48.094493], [7.274294, 48.094478], [7.274452, 48.094448], [7.27446, 48.094448], [7.274517, 48.094539], [7.274515, 48.094548], [7.274508, 48.094547], [7.274455, 48.094456], [7.274303, 48.094483], [7.274231, 48.094488], [7.274114, 48.094499], [7.274091, 48.094499], [7.27407, 48.094499], [7.273951, 48.094496], [7.273962, 48.094325], [7.274021, 48.094256], [7.27402, 48.094253], [7.274039, 48.094155], [7.274042, 48.094136], [7.274009, 48.09407], [7.273995, 48.094045], [7.273915, 48.093952], [7.273904, 48.093943], [7.273803, 48.093859], [7.273642, 48.093745], [7.273583, 48.093702], [7.273526, 48.093662], [7.27342, 48.093564], [7.273372, 48.093518], [7.273359, 48.093508], [7.273302, 48.093464], [7.273259, 48.093428], [7.273233, 48.0934], [7.273201, 48.093366], [7.273196, 48.093362], [7.273042, 48.093219], [7.27302, 48.093189], [7.272995, 48.093156], [7.272973, 48.093124], [7.272957, 48.093095], [7.272945, 48.093067], [7.272937, 48.093009], [7.272968, 48.092946], [7.273017, 48.09289], [7.273074, 48.092823], [7.273115, 48.092776], [7.273127, 48.092732], [7.273115, 48.092731], [7.273006, 48.09273], [7.272845, 48.092712], [7.272734, 48.092706], [7.272634, 48.09272], [7.27239, 48.092727], [7.272117, 48.092745], [7.271986, 48.092763], [7.27178, 48.092778], [7.271636, 48.092783], [7.271589, 48.092887], [7.271538, 48.093], [7.271483, 48.093124], [7.271426, 48.093252], [7.271406, 48.093297], [7.271038, 48.093617], [7.270843, 48.093823], [7.270893, 48.093844], [7.270946, 48.093867], [7.270992, 48.093886], [7.271228, 48.093744], [7.271241, 48.093775], [7.271251, 48.0938], [7.271264, 48.093832], [7.271276, 48.093859], [7.27129, 48.093895], [7.271305, 48.093932], [7.271337, 48.094006], [7.271348, 48.094031], [7.271348, 48.09404], [7.271348, 48.09407], [7.271348, 48.094094], [7.271347, 48.094138], [7.271347, 48.094192], [7.271347, 48.094255], [7.271347, 48.094313], [7.271345, 48.094391], [7.271346, 48.094496], [7.271344, 48.094554], [7.271344, 48.094588], [7.271343, 48.094702], [7.271342, 48.094818], [7.271341, 48.094929], [7.27134, 48.094947], [7.271334, 48.095015], [7.271422, 48.095019], [7.271573, 48.095025], [7.271677, 48.095031], [7.271733, 48.095032], [7.271784, 48.095035], [7.271857, 48.09504], [7.272157, 48.095058], [7.272312, 48.095069], [7.272384, 48.095073], [7.272465, 48.095078], [7.273136, 48.094981], [7.273152, 48.094979], [7.273455, 48.094937], [7.27365, 48.094905], [7.273693, 48.09491], [7.273821, 48.0949], [7.273908, 48.094885], [7.273956, 48.094882], [7.274107, 48.094872], [7.274265, 48.094861], [7.274283, 48.094863], [7.274339, 48.094868], [7.274455, 48.094881], [7.274515, 48.094894], [7.274541, 48.094909], [7.274546, 48.095017], [7.274548, 48.095049], [7.274658, 48.095035], [7.274672, 48.095033], [7.274921, 48.09504], [7.275005, 48.095042], [7.275054, 48.095041], [7.275306, 48.095034], [7.275419, 48.095026], [7.275626, 48.095011], [7.275781, 48.095003], [7.275835, 48.095002], [7.275815, 48.094858], [7.275787, 48.094779], [7.275755, 48.094746], [7.275683, 48.094675], [7.275569, 48.094558], [7.27552, 48.094508], [7.275424, 48.094411], [7.275388, 48.094358], [7.27536, 48.094297], [7.275363, 48.094287], [7.275342, 48.094182], [7.275335, 48.094149], [7.275272, 48.093938], [7.275253, 48.093849], [7.275249, 48.093834], [7.275254, 48.093745], [7.275257, 48.093716], [7.275263, 48.093664], [7.275264, 48.09366], [7.275278, 48.09361], [7.275288, 48.093571], [7.27534, 48.093454], [7.275393, 48.093332], [7.275352, 48.093303], [7.27521, 48.093277], [7.274954, 48.093247], [7.274896, 48.093248], [7.274703, 48.093333], [7.274698, 48.093327], [7.27465, 48.093251], [7.274614, 48.093221], [7.274606, 48.093214], [7.274496, 48.09315], [7.274479, 48.093141], [7.274323, 48.093097], [7.274142, 48.093046], [7.274061, 48.093023], [7.274006, 48.093008], [7.273899, 48.092981], [7.273817, 48.092934], [7.273787, 48.092814], [7.273877, 48.092766], [7.273931, 48.09269], [7.273929, 48.092658], [7.273919, 48.092623], [7.273911, 48.092542], [7.273885, 48.092505], [7.273586, 48.092551], [7.273532, 48.09257], [7.273501, 48.092574], [7.273523, 48.092561], [7.273533, 48.092557], [7.273579, 48.092544], [7.27375, 48.092516], [7.273888, 48.092491], [7.273945, 48.092461], [7.273972, 48.09243], [7.273972, 48.092358], [7.273973, 48.092273], [7.273988, 48.092237], [7.274093, 48.092146], [7.2741, 48.092137], [7.274167, 48.092057], [7.274229, 48.091992], [7.274278, 48.091941], [7.274429, 48.09183], [7.274461, 48.091807], [7.274496, 48.091781], [7.27454, 48.09173], [7.274559, 48.091692], [7.274616, 48.091576], [7.274672, 48.091464], [7.274701, 48.09142], [7.274713, 48.0914], [7.274722, 48.091374], [7.274753, 48.091287], [7.274807, 48.091221], [7.274828, 48.091195], [7.274864, 48.091152], [7.274933, 48.091098], [7.274981, 48.091075], [7.275095, 48.091017], [7.275101, 48.091014], [7.27514, 48.090952], [7.275164, 48.090886], [7.275165, 48.090831], [7.275147, 48.090723], [7.274986, 48.09073], [7.274885, 48.090719], [7.27466, 48.09068], [7.274649, 48.090667], [7.274639, 48.090654], [7.274619, 48.090597], [7.274567, 48.090456], [7.274512, 48.090412], [7.274455, 48.090406], [7.274349, 48.090428], [7.274265, 48.090456], [7.274168, 48.090501], [7.274048, 48.090582], [7.273923, 48.090636], [7.273812, 48.090672], [7.273754, 48.09069], [7.273649, 48.090721], [7.273571, 48.090737], [7.273261, 48.090797], [7.273179, 48.090804], [7.273125, 48.090803], [7.272999, 48.090804], [7.272859, 48.090811], [7.272603, 48.09084], [7.272397, 48.090858], [7.272353, 48.090948], [7.272325, 48.090965], [7.272002, 48.090926], [7.271883, 48.090936], [7.271763, 48.090949], [7.271654, 48.090947], [7.271613, 48.091048], [7.27161, 48.091077], [7.271603, 48.09114], [7.271602, 48.091152], [7.271605, 48.091205], [7.271615, 48.091252], [7.271629, 48.09129], [7.27168, 48.091427], [7.271673, 48.091468], [7.27167, 48.091479], [7.271641, 48.09156], [7.271605, 48.091622], [7.271566, 48.091693], [7.271549, 48.091722], [7.271539, 48.091741], [7.27148, 48.091852], [7.271471, 48.091864], [7.271431, 48.091918], [7.271415, 48.091939], [7.271543, 48.091951], [7.271614, 48.091958], [7.271629, 48.092022], [7.271631, 48.092086], [7.271617, 48.092159], [7.271599, 48.092251], [7.271642, 48.09225], [7.271641, 48.092274], [7.27164, 48.092725], [7.27164, 48.092773], [7.27178, 48.092769], [7.271806, 48.092766], [7.271981, 48.092753], [7.272116, 48.092735], [7.272388, 48.092718], [7.272629, 48.09271], [7.27273, 48.092698], [7.272844, 48.092704], [7.273005, 48.09272], [7.273113, 48.09272], [7.273128, 48.092723]], [[7.272999, 48.090804], [7.272999, 48.090804], [7.273, 48.090969], [7.272999, 48.090804]], [[7.273128, 48.092723], [7.273128, 48.092722], [7.273125, 48.092608], [7.273128, 48.092723]]], [[[7.277612, 48.093061], [7.277557, 48.093065], [7.277503, 48.093068], [7.277446, 48.093072], [7.27739, 48.093076], [7.27721, 48.093087], [7.277135, 48.093113], [7.276797, 48.093228], [7.276652, 48.093277], [7.276327, 48.093387], [7.276115, 48.093451], [7.275991, 48.093489], [7.275869, 48.093525], [7.275817, 48.093558], [7.275711, 48.093625], [7.275701, 48.093638], [7.275662, 48.093695], [7.275626, 48.093792], [7.275581, 48.093997], [7.275568, 48.094056], [7.275559, 48.094094], [7.275551, 48.094185], [7.275569, 48.094273], [7.275614, 48.094337], [7.275696, 48.094405], [7.275794, 48.094466], [7.275906, 48.094522], [7.275968, 48.094493], [7.275997, 48.09446], [7.276021, 48.094353], [7.276029, 48.094314], [7.276079, 48.094204], [7.276252, 48.093995], [7.27628, 48.093959], [7.276294, 48.093961], [7.276762, 48.094001], [7.276811, 48.094005], [7.277046, 48.094021], [7.277267, 48.09403], [7.277343, 48.094033], [7.277555, 48.094041], [7.277647, 48.094051], [7.277734, 48.09406], [7.277757, 48.094064], [7.278166, 48.094144], [7.278374, 48.094144], [7.278357, 48.094089], [7.278331, 48.094007], [7.278328, 48.093948], [7.27832, 48.093864], [7.278211, 48.093725], [7.278113, 48.09354], [7.278137, 48.093459], [7.278198, 48.093353], [7.278313, 48.093224], [7.278354, 48.093086], [7.278438, 48.092948], [7.278462, 48.092885], [7.278333, 48.092891], [7.278183, 48.092928], [7.278095, 48.092957], [7.277956, 48.093003], [7.277791, 48.093038], [7.277735, 48.093049], [7.27771, 48.093055], [7.277668, 48.093057], [7.277612, 48.093061]], [[7.27628, 48.093959], [7.27628, 48.093959], [7.276281, 48.093959], [7.27628, 48.093959]]], [[[7.278436, 48.089234], [7.278425, 48.089253], [7.27839, 48.089246], [7.278313, 48.089301], [7.27827, 48.089333], [7.278199, 48.089386], [7.27818, 48.089396], [7.278178, 48.089401], [7.278174, 48.089403], [7.278144, 48.089404], [7.278145, 48.089397], [7.278142, 48.089396], [7.278119, 48.089396], [7.278019, 48.089395], [7.278014, 48.089396], [7.278012, 48.089396], [7.277933, 48.089396], [7.277758, 48.089397], [7.277889, 48.089533], [7.278138, 48.089544], [7.2782, 48.089536], [7.278308, 48.0895], [7.278381, 48.089455], [7.278529, 48.089328], [7.278553, 48.089296], [7.278543, 48.089261], [7.278436, 48.089234]]], [[[7.272397, 48.090846], [7.272603, 48.090827], [7.272809, 48.090804], [7.272861, 48.090798], [7.273003, 48.09079], [7.273219, 48.090786], [7.273259, 48.090783], [7.273646, 48.090709], [7.273786, 48.090666], [7.273755, 48.090598], [7.273752, 48.090594], [7.273715, 48.090505], [7.273713, 48.090498], [7.27369, 48.090399], [7.273666, 48.090296], [7.273664, 48.090289], [7.273632, 48.090185], [7.27363, 48.09018], [7.273574, 48.09009], [7.273436, 48.089907], [7.273423, 48.089892], [7.273319, 48.089768], [7.273274, 48.089717], [7.273148, 48.089617], [7.272998, 48.089498], [7.272822, 48.089329], [7.27276, 48.089265], [7.272662, 48.089161], [7.272597, 48.089133], [7.27254, 48.089112], [7.272521, 48.089105], [7.272379, 48.089062], [7.272345, 48.089084], [7.272226, 48.089118], [7.272066, 48.089002], [7.271869, 48.088865], [7.271844, 48.088813], [7.271805, 48.088775], [7.27176, 48.088731], [7.271719, 48.088691], [7.271712, 48.088685], [7.271647, 48.088614], [7.271639, 48.088607], [7.271544, 48.088518], [7.271528, 48.088504], [7.271458, 48.088449], [7.271454, 48.088447], [7.27135, 48.088405], [7.27116, 48.088465], [7.270999, 48.088519], [7.271178, 48.088609], [7.270956, 48.088497], [7.270798, 48.088439], [7.270793, 48.088437], [7.270625, 48.088389], [7.270497, 48.088352], [7.270455, 48.08834], [7.270375, 48.088318], [7.270293, 48.088295], [7.270278, 48.088291], [7.270199, 48.088266], [7.270111, 48.088244], [7.26996, 48.088209], [7.26977, 48.088167], [7.269576, 48.088152], [7.269483, 48.088269], [7.269365, 48.088416], [7.269215, 48.088622], [7.269381, 48.088664], [7.269562, 48.088717], [7.269428, 48.088891], [7.269355, 48.088984], [7.269524, 48.089031], [7.269599, 48.089051], [7.269686, 48.089075], [7.269698, 48.089079], [7.269807, 48.089107], [7.269825, 48.089111], [7.26987, 48.089123], [7.27001, 48.089159], [7.270072, 48.089175], [7.270163, 48.089204], [7.270173, 48.089207], [7.270313, 48.089242], [7.270411, 48.089261], [7.270515, 48.089283], [7.270556, 48.089293], [7.270622, 48.089309], [7.270744, 48.089339], [7.270798, 48.089353], [7.270819, 48.089357], [7.270932, 48.08938], [7.271028, 48.089405], [7.271087, 48.089328], [7.271144, 48.089252], [7.271209, 48.089302], [7.271315, 48.089378], [7.271501, 48.089514], [7.271312, 48.089601], [7.271161, 48.089671], [7.271238, 48.089717], [7.2713, 48.089753], [7.27122, 48.089798], [7.271267, 48.089839], [7.271168, 48.089886], [7.271208, 48.089924], [7.271276, 48.089899], [7.271448, 48.090028], [7.271605, 48.090169], [7.27175, 48.090316], [7.271536, 48.090362], [7.27146, 48.090382], [7.271489, 48.090402], [7.271497, 48.090436], [7.271507, 48.090477], [7.271519, 48.090526], [7.271553, 48.090548], [7.271563, 48.090623], [7.271606, 48.090634], [7.271581, 48.090757], [7.271579, 48.09077], [7.271579, 48.090838], [7.271575, 48.090896], [7.271608, 48.090921], [7.271643, 48.090938], [7.271761, 48.090939], [7.271882, 48.090925], [7.272001, 48.090916], [7.272312, 48.090954], [7.272338, 48.090943], [7.272368, 48.090877], [7.272382, 48.090848], [7.272397, 48.090846]], [[7.271686, 48.08886], [7.271754, 48.0888], [7.271754, 48.0888], [7.271754, 48.0888], [7.271686, 48.08886]], [[7.271754, 48.0888], [7.271684, 48.088764], [7.271754, 48.0888], [7.271754, 48.0888]]], [[[7.27656, 48.090702], [7.27656, 48.09074], [7.276565, 48.090928], [7.276568, 48.091048], [7.27657, 48.091115], [7.276597, 48.091189], [7.276626, 48.091223], [7.276722, 48.091247], [7.276953, 48.091174], [7.277238, 48.091057], [7.27728, 48.091037], [7.277496, 48.090931], [7.27757, 48.090888], [7.277695, 48.09074], [7.277763, 48.090593], [7.27779, 48.090604], [7.277851, 48.090468], [7.277868, 48.090472], [7.277891, 48.090411], [7.277928, 48.090286], [7.277939, 48.089993], [7.27798, 48.089766], [7.277977, 48.089733], [7.27796, 48.089711], [7.277894, 48.089669], [7.277814, 48.089676], [7.277594, 48.089694], [7.27745, 48.089745], [7.277412, 48.089766], [7.277384, 48.089788], [7.277349, 48.089826], [7.277331, 48.08986], [7.27731, 48.089966], [7.277271, 48.09007], [7.27719, 48.090186], [7.27711, 48.090224], [7.276954, 48.090294], [7.276644, 48.090434], [7.276601, 48.090468], [7.276581, 48.090493], [7.276564, 48.090578], [7.276562, 48.090587], [7.27656, 48.090702]]], [[[7.278624, 48.092347], [7.278636, 48.09239], [7.278822, 48.092353], [7.279079, 48.092333], [7.279016, 48.092188], [7.278757, 48.09225], [7.278624, 48.092254], [7.278624, 48.092347]]], [[[7.27765, 48.092909], [7.277605, 48.09293], [7.277564, 48.09295], [7.277464, 48.092982], [7.277485, 48.093039], [7.277598, 48.093021], [7.277594, 48.093013], [7.277594, 48.093013], [7.277646, 48.093009], [7.277694, 48.093006], [7.277926, 48.092958], [7.278158, 48.092886], [7.278316, 48.092848], [7.2785, 48.092833], [7.27862, 48.092791], [7.278647, 48.092778], [7.278673, 48.092664], [7.278676, 48.09265], [7.278676, 48.092561], [7.278657, 48.092507], [7.278508, 48.09256], [7.278388, 48.092602], [7.278137, 48.09269], [7.278047, 48.092721], [7.27794, 48.092772], [7.277833, 48.092823], [7.27765, 48.092909]]], [[[7.275853, 48.092727], [7.275844, 48.092725], [7.275714, 48.092833], [7.275662, 48.092886], [7.275621, 48.092953], [7.275522, 48.093108], [7.275428, 48.09334], [7.275371, 48.093463], [7.275345, 48.093521], [7.275338, 48.093534], [7.275321, 48.093574], [7.275305, 48.093675], [7.275293, 48.093748], [7.275292, 48.093771], [7.275288, 48.093832], [7.27531, 48.09393], [7.275332, 48.093997], [7.275423, 48.093997], [7.275428, 48.09378], [7.275503, 48.093642], [7.275513, 48.093631], [7.275609, 48.093534], [7.275793, 48.093433], [7.275868, 48.093407], [7.275997, 48.093362], [7.276167, 48.093302], [7.276255, 48.093271], [7.276826, 48.093091], [7.277162, 48.092985], [7.27721, 48.09297], [7.27737, 48.092919], [7.277427, 48.092893], [7.277612, 48.092809], [7.277777, 48.092733], [7.277975, 48.092642], [7.278111, 48.092591], [7.27837, 48.092492], [7.278494, 48.092444], [7.278622, 48.092396], [7.278607, 48.09235], [7.278609, 48.092253], [7.278456, 48.092239], [7.278298, 48.092224], [7.278247, 48.092219], [7.278198, 48.092215], [7.27802, 48.092199], [7.278028, 48.0922], [7.277879, 48.092187], [7.27765, 48.092151], [7.27751, 48.092124], [7.277176, 48.092064], [7.277117, 48.092054], [7.276983, 48.092029], [7.276938, 48.092023], [7.276902, 48.092149], [7.276848, 48.092219], [7.276748, 48.092269], [7.276534, 48.092322], [7.276481, 48.092335], [7.276429, 48.092355], [7.27632, 48.092397], [7.276186, 48.092469], [7.276112, 48.092527], [7.275853, 48.092727]]], [[[7.27578, 48.094571], [7.275714, 48.094547], [7.275614, 48.094481], [7.275465, 48.094398], [7.275608, 48.094542], [7.27572, 48.094661], [7.275775, 48.094716], [7.275781, 48.094722], [7.275869, 48.094601], [7.27578, 48.094571]]]]}}]}