{"type": "FeatureCollection", "features": [{"type": "Feature", "properties": {"id": "AOC-Alsace-Grand-Cru-Sommerberg", "name": "Sommerberg", "commune": "Niedermorschwihr & Katzenthal", "family": "花崗岩", "familyColor": "#7f8c8d", "lessonId": "AL2M3L1"}, "geometry": {"type": "MultiPolygon", "coordinates": [[[[7.285732, 48.100965], [7.285519, 48.100652], [7.285224, 48.100633], [7.285091, 48.100618], [7.285037, 48.100611], [7.285017, 48.100605], [7.284913, 48.100578], [7.284866, 48.100564], [7.284654, 48.100508], [7.284629, 48.100502], [7.284627, 48.1005], [7.284625, 48.10052], [7.284583, 48.100626], [7.284473, 48.100895], [7.284347, 48.101206], [7.284343, 48.101215], [7.284197, 48.101576], [7.284145, 48.1017], [7.284136, 48.101713], [7.284083, 48.10176], [7.283872, 48.101942], [7.283827, 48.101984], [7.283236, 48.102497], [7.283113, 48.102604], [7.28304, 48.102668], [7.283005, 48.102699], [7.282982, 48.102719], [7.28298, 48.102723], [7.28296, 48.10274], [7.28293, 48.102768], [7.282927, 48.10277], [7.282922, 48.102774], [7.282919, 48.102776], [7.282912, 48.102783], [7.283108, 48.102783], [7.283358, 48.102779], [7.283431, 48.10278], [7.283484, 48.102764], [7.28376, 48.102689], [7.283852, 48.102666], [7.283875, 48.102779], [7.284006, 48.102803], [7.284016, 48.102754], [7.284572, 48.102645], [7.284552, 48.102631], [7.284523, 48.102613], [7.284483, 48.102578], [7.284451, 48.102489], [7.284448, 48.102475], [7.2845, 48.102457], [7.284598, 48.102432], [7.284665, 48.102402], [7.284763, 48.102352], [7.285086, 48.102181], [7.284991, 48.102138], [7.284857, 48.102078], [7.284806, 48.102054], [7.284781, 48.102045], [7.28586, 48.101115], [7.285826, 48.101091], [7.285793, 48.101051], [7.285732, 48.100965]]], [[[7.273748, 48.101015], [7.273648, 48.101002], [7.273505, 48.100996], [7.273381, 48.100983], [7.273324, 48.100982], [7.273306, 48.100981], [7.273256, 48.100966], [7.273219, 48.100955], [7.273106, 48.100919], [7.273061, 48.100906], [7.27294, 48.100876], [7.272906, 48.100923], [7.2726, 48.100889], [7.272626, 48.100844], [7.272595, 48.100842], [7.272541, 48.100832], [7.272458, 48.100802], [7.272406, 48.100781], [7.272161, 48.100764], [7.272001, 48.100753], [7.271862, 48.100753], [7.2718, 48.100753], [7.271759, 48.100747], [7.27164, 48.100733], [7.271558, 48.10076], [7.271397, 48.100846], [7.27125, 48.100876], [7.271214, 48.100883], [7.271216, 48.100973], [7.271199, 48.101028], [7.27115, 48.101116], [7.27108, 48.101144], [7.271563, 48.101789], [7.271593, 48.10184], [7.271516, 48.10188], [7.27149, 48.101894], [7.271653, 48.102089], [7.271636, 48.102179], [7.271627, 48.102228], [7.271583, 48.102225], [7.271246, 48.102197], [7.271179, 48.102635], [7.27123, 48.10291], [7.271531, 48.102984], [7.271711, 48.103099], [7.271977, 48.103218], [7.272176, 48.103266], [7.272257, 48.103285], [7.272357, 48.103309], [7.272572, 48.10336], [7.272607, 48.103379], [7.272909, 48.103541], [7.273, 48.103563], [7.273131, 48.103595], [7.273383, 48.103566], [7.273411, 48.103548], [7.273601, 48.103441], [7.273679, 48.103374], [7.273791, 48.103279], [7.273877, 48.103208], [7.273916, 48.103179], [7.273953, 48.103152], [7.27399, 48.103125], [7.274025, 48.103099], [7.274174, 48.103001], [7.274213, 48.102976], [7.274285, 48.102929], [7.274358, 48.102881], [7.274423, 48.102872], [7.274454, 48.102868], [7.274526, 48.102871], [7.27458, 48.102872], [7.274643, 48.102875], [7.274692, 48.102876], [7.274693, 48.10291], [7.27468, 48.103249], [7.274682, 48.103281], [7.274684, 48.103316], [7.274687, 48.10335], [7.274693, 48.10344], [7.274714, 48.103782], [7.274799, 48.103794], [7.274813, 48.103796], [7.274865, 48.103807], [7.274965, 48.103832], [7.274998, 48.10384], [7.27505, 48.103853], [7.275211, 48.103846], [7.275254, 48.103844], [7.275257, 48.103844], [7.27538, 48.103847], [7.27567, 48.103854], [7.275733, 48.103833], [7.275857, 48.103792], [7.275983, 48.103781], [7.275998, 48.10378], [7.276088, 48.103738], [7.276171, 48.103701], [7.276213, 48.103681], [7.276298, 48.103643], [7.276362, 48.103291], [7.276369, 48.103255], [7.276554, 48.103232], [7.276645, 48.103216], [7.276731, 48.103201], [7.276802, 48.103189], [7.276874, 48.103177], [7.277006, 48.103154], [7.277157, 48.103149], [7.277308, 48.103145], [7.277477, 48.103106], [7.277583, 48.103082], [7.277624, 48.103036], [7.277653, 48.103003], [7.277666, 48.102982], [7.277701, 48.102927], [7.277699, 48.102879], [7.277692, 48.102741], [7.277689, 48.102681], [7.277659, 48.102476], [7.277644, 48.102343], [7.277627, 48.102204], [7.277624, 48.102141], [7.277624, 48.102141], [7.277706, 48.102186], [7.277762, 48.102711], [7.277795, 48.102789], [7.277808, 48.102794], [7.277859, 48.102817], [7.277936, 48.102829], [7.278044, 48.102846], [7.278411, 48.102906], [7.278648, 48.103025], [7.278739, 48.103053], [7.278778, 48.103064], [7.278779, 48.103064], [7.278788, 48.103065], [7.278883, 48.103069], [7.279068, 48.103047], [7.279229, 48.103041], [7.279389, 48.103082], [7.279603, 48.103137], [7.279658, 48.103151], [7.279733, 48.10316], [7.279795, 48.103167], [7.279999, 48.103191], [7.280441, 48.103243], [7.280802, 48.1033], [7.280809, 48.103332], [7.280818, 48.10337], [7.280818, 48.103373], [7.281193, 48.103465], [7.281197, 48.103465], [7.281361, 48.103507], [7.28157, 48.10353], [7.281626, 48.10353], [7.281746, 48.103531], [7.281787, 48.103531], [7.281908, 48.103531], [7.282013, 48.103532], [7.28219, 48.103439], [7.282212, 48.103419], [7.282216, 48.103415], [7.282261, 48.103375], [7.282379, 48.103269], [7.282449, 48.103207], [7.282502, 48.103159], [7.282522, 48.103142], [7.282531, 48.103133], [7.282551, 48.103116], [7.282585, 48.103084], [7.282616, 48.103055], [7.282912, 48.102782], [7.28292, 48.102775], [7.282922, 48.102774], [7.282926, 48.10277], [7.282929, 48.102768], [7.282945, 48.102751], [7.282983, 48.102719], [7.283006, 48.102699], [7.283041, 48.102668], [7.283114, 48.102604], [7.283237, 48.102497], [7.283825, 48.101984], [7.283826, 48.101983], [7.283872, 48.101943], [7.283871, 48.101941], [7.283873, 48.101942], [7.284084, 48.10176], [7.284083, 48.10176], [7.284084, 48.101759], [7.284134, 48.101714], [7.284134, 48.101712], [7.284135, 48.101713], [7.284146, 48.101699], [7.284197, 48.101575], [7.284343, 48.101215], [7.284347, 48.101207], [7.284357, 48.101182], [7.284473, 48.100896], [7.284582, 48.100627], [7.284393, 48.100663], [7.284258, 48.100668], [7.284076, 48.100674], [7.283929, 48.100661], [7.283687, 48.100605], [7.283592, 48.100635], [7.283463, 48.100658], [7.283286, 48.10069], [7.283082, 48.100724], [7.282898, 48.100773], [7.282804, 48.100787], [7.282591, 48.100819], [7.282307, 48.100862], [7.28222, 48.100875], [7.282038, 48.100903], [7.281866, 48.100918], [7.281828, 48.100922], [7.281708, 48.100933], [7.281528, 48.100951], [7.281451, 48.100958], [7.281369, 48.100966], [7.281278, 48.100975], [7.281142, 48.100964], [7.281007, 48.100953], [7.280811, 48.100944], [7.280709, 48.10094], [7.280623, 48.100937], [7.280568, 48.100936], [7.280493, 48.100933], [7.280425, 48.10094], [7.28036, 48.100947], [7.280265, 48.100956], [7.280137, 48.100968], [7.279976, 48.100961], [7.279886, 48.10095], [7.279798, 48.10094], [7.279745, 48.100931], [7.279667, 48.100918], [7.279562, 48.100891], [7.27945, 48.100863], [7.279229, 48.100808], [7.279047, 48.100763], [7.278985, 48.100748], [7.278975, 48.100745], [7.278917, 48.100743], [7.278844, 48.10074], [7.278674, 48.100734], [7.278654, 48.10073], [7.278473, 48.100683], [7.278473, 48.100683], [7.278256, 48.100652], [7.278208, 48.100632], [7.278014, 48.10059], [7.27789, 48.100563], [7.277876, 48.100564], [7.277741, 48.100556], [7.277308, 48.100527], [7.276941, 48.100486], [7.276729, 48.100462], [7.276581, 48.100447], [7.276627, 48.100722], [7.276547, 48.10083], [7.276497, 48.100911], [7.276471, 48.100894], [7.276509, 48.100818], [7.276583, 48.100719], [7.276545, 48.100462], [7.276538, 48.100451], [7.276352, 48.100506], [7.276374, 48.100645], [7.276376, 48.100657], [7.276375, 48.100657], [7.276221, 48.100699], [7.276185, 48.100568], [7.276176, 48.100535], [7.276121, 48.100546], [7.276037, 48.100566], [7.276004, 48.10057], [7.275948, 48.100576], [7.275912, 48.100581], [7.275851, 48.100588], [7.275546, 48.100748], [7.275469, 48.100769], [7.275461, 48.100765], [7.275395, 48.100788], [7.275373, 48.100796], [7.275308, 48.100815], [7.275211, 48.100842], [7.275098, 48.100875], [7.274988, 48.100906], [7.27484, 48.100931], [7.274529, 48.100968], [7.274374, 48.100993], [7.274311, 48.101004], [7.274188, 48.101024], [7.274096, 48.101039], [7.273972, 48.101043], [7.273783, 48.101028], [7.273748, 48.101015]], [[7.27711, 48.101493], [7.277124, 48.101495], [7.277247, 48.101534], [7.277494, 48.101611], [7.277576, 48.101637], [7.277579, 48.10172], [7.277566, 48.101789], [7.277539, 48.101732], [7.277564, 48.101725], [7.27756, 48.101648], [7.27712, 48.101506], [7.27713, 48.101509], [7.27711, 48.101493]]]]}}]}