{"type": "FeatureCollection", "features": [{"type": "Feature", "properties": {"id": "AOC-Alsace-Grand-Cru-Schlossberg", "name": "Schlossberg", "commune": "Kientzheim", "family": "花崗岩", "familyColor": "#2d3436", "lessonId": "AL2M3L1"}, "geometry": {"type": "MultiPolygon", "coordinates": [[[[7.264536, 48.139283], [7.264294, 48.139287], [7.264089, 48.13929], [7.26403, 48.139293], [7.263976, 48.139291], [7.263747, 48.139283], [7.263706, 48.13931], [7.263677, 48.139327], [7.263639, 48.139355], [7.263411, 48.139522], [7.263301, 48.139569], [7.263114, 48.139647], [7.262983, 48.139702], [7.262859, 48.13973], [7.262862, 48.139735], [7.262863, 48.13974], [7.262808, 48.139764], [7.262803, 48.139766], [7.262792, 48.13977], [7.262533, 48.139922], [7.262541, 48.140055], [7.26256, 48.140126], [7.262569, 48.140209], [7.262543, 48.140388], [7.262542, 48.140469], [7.262545, 48.140471], [7.262581, 48.140486], [7.26262, 48.140504], [7.262571, 48.140766], [7.262754, 48.140757], [7.26273, 48.140902], [7.26272, 48.140975], [7.262759, 48.141089], [7.26277, 48.141128], [7.262809, 48.14124], [7.262858, 48.141381], [7.262854, 48.141429], [7.262874, 48.141477], [7.26295, 48.141795], [7.263123, 48.141769], [7.263365, 48.141789], [7.263449, 48.141795], [7.263665, 48.141807], [7.263655, 48.141977], [7.263731, 48.142061], [7.263788, 48.142264], [7.263842, 48.142325], [7.263893, 48.142401], [7.264249, 48.142468], [7.264396, 48.142495], [7.264661, 48.14257], [7.264994, 48.142664], [7.265341, 48.142781], [7.265521, 48.142845], [7.265571, 48.142861], [7.266005, 48.143008], [7.266134, 48.143072], [7.266364, 48.143184], [7.266846, 48.143347], [7.26704, 48.143414], [7.267306, 48.143478], [7.267611, 48.143552], [7.267987, 48.143644], [7.268441, 48.143754], [7.268688, 48.143814], [7.26928, 48.143981], [7.269518, 48.144052], [7.269923, 48.144171], [7.269978, 48.144189], [7.270091, 48.14422], [7.270392, 48.144311], [7.270662, 48.14442], [7.271016, 48.144499], [7.271337, 48.144538], [7.271739, 48.14461], [7.271845, 48.14466], [7.271862, 48.14467], [7.27195, 48.14453], [7.27202, 48.144425], [7.272113, 48.144272], [7.272298, 48.144005], [7.272494, 48.143861], [7.272529, 48.143828], [7.272504, 48.143816], [7.272378, 48.143754], [7.272406, 48.143767], [7.27243, 48.143741], [7.272548, 48.143798], [7.272635, 48.143708], [7.272708, 48.143745], [7.2729, 48.143648], [7.273096, 48.143547], [7.27315, 48.143518], [7.273187, 48.143541], [7.273253, 48.143625], [7.273264, 48.143657], [7.273824, 48.143662], [7.273782, 48.143539], [7.273749, 48.143491], [7.273746, 48.143428], [7.273754, 48.143293], [7.273775, 48.14328], [7.273863, 48.143235], [7.273792, 48.143093], [7.273733, 48.142971], [7.274021, 48.142764], [7.27414, 48.142738], [7.274083, 48.142528], [7.274099, 48.142531], [7.27433, 48.142553], [7.274341, 48.142554], [7.274389, 48.142556], [7.275024, 48.142643], [7.275108, 48.142649], [7.275058, 48.142739], [7.275007, 48.142833], [7.274914, 48.142955], [7.274902, 48.142968], [7.27482, 48.14302], [7.2747, 48.143203], [7.274696, 48.143214], [7.274448, 48.143448], [7.274343, 48.143547], [7.274267, 48.143703], [7.274184, 48.143816], [7.274168, 48.143981], [7.274171, 48.144022], [7.274296, 48.144034], [7.274163, 48.144022], [7.274147, 48.144122], [7.274141, 48.144178], [7.274277, 48.144491], [7.27428, 48.144593], [7.274246, 48.144708], [7.274249, 48.14485], [7.274256, 48.144897], [7.2743, 48.14494], [7.274344, 48.145261], [7.274525, 48.145296], [7.274884, 48.145238], [7.275046, 48.145211], [7.275134, 48.145207], [7.275226, 48.145204], [7.275319, 48.145229], [7.275479, 48.145272], [7.275515, 48.145282], [7.275674, 48.145325], [7.275898, 48.145385], [7.276192, 48.145468], [7.27628, 48.145458], [7.276545, 48.145436], [7.276649, 48.14539], [7.277071, 48.145314], [7.277134, 48.145119], [7.277204, 48.144821], [7.276867, 48.14462], [7.276804, 48.14457], [7.276538, 48.144345], [7.276463, 48.144316], [7.276337, 48.144264], [7.276323, 48.144254], [7.276153, 48.144055], [7.275978, 48.143879], [7.275999, 48.143774], [7.275913, 48.143579], [7.27576, 48.143326], [7.275687, 48.143252], [7.275708, 48.143182], [7.275734, 48.143138], [7.275845, 48.142936], [7.275913, 48.142813], [7.276055, 48.142609], [7.276065, 48.142596], [7.276064, 48.142551], [7.276075, 48.142524], [7.276136, 48.142372], [7.276147, 48.142285], [7.276155, 48.142245], [7.276169, 48.141991], [7.276119, 48.141873], [7.276095, 48.141743], [7.276124, 48.141599], [7.276156, 48.141591], [7.276146, 48.141743], [7.276189, 48.141875], [7.276207, 48.141989], [7.27619, 48.142249], [7.276166, 48.142378], [7.276229, 48.142396], [7.27627, 48.142405], [7.276503, 48.14246], [7.276805, 48.142355], [7.276992, 48.142646], [7.277074, 48.142655], [7.277166, 48.142666], [7.277335, 48.142687], [7.277498, 48.142707], [7.277471, 48.143003], [7.277561, 48.143014], [7.277879, 48.143057], [7.278174, 48.143142], [7.278205, 48.143149], [7.278321, 48.143183], [7.278418, 48.143158], [7.278767, 48.142979], [7.278961, 48.143149], [7.279069, 48.143109], [7.279121, 48.143089], [7.279205, 48.143169], [7.279357, 48.143108], [7.279449, 48.143191], [7.27945, 48.143193], [7.279518, 48.143167], [7.279574, 48.143228], [7.279618, 48.143215], [7.2796, 48.143221], [7.279606, 48.14323], [7.279641, 48.143328], [7.279658, 48.143372], [7.279679, 48.143428], [7.279704, 48.143477], [7.279767, 48.143592], [7.279783, 48.143622], [7.279786, 48.143624], [7.279908, 48.143594], [7.280171, 48.143525], [7.28021, 48.143567], [7.280278, 48.143644], [7.280618, 48.143556], [7.280698, 48.143544], [7.28086, 48.143511], [7.280949, 48.143484], [7.281296, 48.143416], [7.281314, 48.143402], [7.281366, 48.143512], [7.28144, 48.143499], [7.281882, 48.1434], [7.282209, 48.14331], [7.282248, 48.143295], [7.282524, 48.143216], [7.282694, 48.143257], [7.283037, 48.143199], [7.283707, 48.143088], [7.283771, 48.143079], [7.283777, 48.143062], [7.283845, 48.142963], [7.283893, 48.142889], [7.283945, 48.142802], [7.283963, 48.142731], [7.283967, 48.142681], [7.283962, 48.142614], [7.283956, 48.142577], [7.283947, 48.142559], [7.283937, 48.142539], [7.28388, 48.142437], [7.283859, 48.142403], [7.283799, 48.142305], [7.28375, 48.142227], [7.28371, 48.14216], [7.283682, 48.142116], [7.283626, 48.142023], [7.28362, 48.142016], [7.283452, 48.141778], [7.283446, 48.141771], [7.283349, 48.141634], [7.283312, 48.14158], [7.283306, 48.141571], [7.283269, 48.141511], [7.283266, 48.141506], [7.283225, 48.141426], [7.283212, 48.141405], [7.283172, 48.141345], [7.283173, 48.141327], [7.283122, 48.141228], [7.283081, 48.141183], [7.283045, 48.141134], [7.28299, 48.141094], [7.282822, 48.140981], [7.28271, 48.140897], [7.282589, 48.14079], [7.282472, 48.140682], [7.282463, 48.140668], [7.28236, 48.140492], [7.282211, 48.140183], [7.282101, 48.139991], [7.282098, 48.139984], [7.28201, 48.139832], [7.281998, 48.139822], [7.281819, 48.139666], [7.281785, 48.139674], [7.281713, 48.139587], [7.281593, 48.139303], [7.281577, 48.139305], [7.281219, 48.139338], [7.281051, 48.13936], [7.280869, 48.139381], [7.280805, 48.139386], [7.280679, 48.139394], [7.28016, 48.139431], [7.279897, 48.139449], [7.279887, 48.13945], [7.279891, 48.139466], [7.279749, 48.139478], [7.279741, 48.139478], [7.279773, 48.139569], [7.27961, 48.139586], [7.279607, 48.139555], [7.279422, 48.139557], [7.279338, 48.139551], [7.278954, 48.139498], [7.278543, 48.139443], [7.278015, 48.139417], [7.277859, 48.13941], [7.277864, 48.139381], [7.277882, 48.139263], [7.277916, 48.139018], [7.277904, 48.138905], [7.27786, 48.138799], [7.277659, 48.13884], [7.277391, 48.138983], [7.277134, 48.139173], [7.276987, 48.139259], [7.276709, 48.139374], [7.276381, 48.139555], [7.276361, 48.139601], [7.27631, 48.139834], [7.276326, 48.1399], [7.276458, 48.140005], [7.276638, 48.140036], [7.276595, 48.140029], [7.276505, 48.14025], [7.276484, 48.140328], [7.276499, 48.140339], [7.276466, 48.140367], [7.276384, 48.140487], [7.276397, 48.140508], [7.276295, 48.140555], [7.276263, 48.140592], [7.276266, 48.140853], [7.276138, 48.140869], [7.276105, 48.140901], [7.276082, 48.140884], [7.27601, 48.140955], [7.276112, 48.140854], [7.276227, 48.140804], [7.27623, 48.140583], [7.276292, 48.140508], [7.276439, 48.140364], [7.276518, 48.140075], [7.276497, 48.140052], [7.276364, 48.140001], [7.276327, 48.139988], [7.276257, 48.139985], [7.276313, 48.139577], [7.276319, 48.139516], [7.276291, 48.139531], [7.276653, 48.139316], [7.276716, 48.139294], [7.27682, 48.139256], [7.276956, 48.139206], [7.277074, 48.139132], [7.277224, 48.139025], [7.277326, 48.138955], [7.277488, 48.138859], [7.277584, 48.138807], [7.277568, 48.138752], [7.276629, 48.13873], [7.276442, 48.13874], [7.276316, 48.138747], [7.276159, 48.138741], [7.27611, 48.138738], [7.275981, 48.13873], [7.275948, 48.138733], [7.275769, 48.138745], [7.275606, 48.138756], [7.275484, 48.138748], [7.275278, 48.138732], [7.275268, 48.13897], [7.275043, 48.138957], [7.274694, 48.138939], [7.274308, 48.138919], [7.274014, 48.138917], [7.273809, 48.138915], [7.273804, 48.138791], [7.27348, 48.138808], [7.273271, 48.138823], [7.2731, 48.138834], [7.272936, 48.138846], [7.272899, 48.138849], [7.272916, 48.138956], [7.272846, 48.138955], [7.272763, 48.138962], [7.272685, 48.138967], [7.272532, 48.138976], [7.272179, 48.138998], [7.272031, 48.139008], [7.271889, 48.139017], [7.271884, 48.139017], [7.271868, 48.139014], [7.27167, 48.139005], [7.271465, 48.138995], [7.271251, 48.139013], [7.271123, 48.139034], [7.270804, 48.139083], [7.270655, 48.139109], [7.270591, 48.139116], [7.270514, 48.139128], [7.2702, 48.139174], [7.2701, 48.139172], [7.2701, 48.13917], [7.269731, 48.13916], [7.269445, 48.139152], [7.269299, 48.139151], [7.26917, 48.139148], [7.269099, 48.139145], [7.268983, 48.139144], [7.268973, 48.139143], [7.268779, 48.139144], [7.268685, 48.139144], [7.268523, 48.13911], [7.268332, 48.13911], [7.268318, 48.13911], [7.26836, 48.139595], [7.268378, 48.139618], [7.268404, 48.139634], [7.268442, 48.139643], [7.268526, 48.139647], [7.268729, 48.139654], [7.268767, 48.139662], [7.26885, 48.139686], [7.268902, 48.139733], [7.269016, 48.139909], [7.269071, 48.139957], [7.269209, 48.140064], [7.269284, 48.140095], [7.269415, 48.140091], [7.269517, 48.140085], [7.269708, 48.140075], [7.269796, 48.14007], [7.270077, 48.140016], [7.270248, 48.140003], [7.270551, 48.139977], [7.270725, 48.139964], [7.270723, 48.13995], [7.270722, 48.13993], [7.271313, 48.139885], [7.271439, 48.139938], [7.271412, 48.139937], [7.271277, 48.139937], [7.271191, 48.13994], [7.271148, 48.139943], [7.270747, 48.140003], [7.270404, 48.140026], [7.270063, 48.140067], [7.269942, 48.140081], [7.269765, 48.140114], [7.269525, 48.140141], [7.269307, 48.140145], [7.269157, 48.140154], [7.26913, 48.140087], [7.269117, 48.140069], [7.269016, 48.139983], [7.268956, 48.139934], [7.268931, 48.139897], [7.268909, 48.13986], [7.268882, 48.139818], [7.268866, 48.139793], [7.268822, 48.139741], [7.26879, 48.139717], [7.26876, 48.139705], [7.26868, 48.139688], [7.268562, 48.139693], [7.268517, 48.139698], [7.268413, 48.139711], [7.268332, 48.139708], [7.268221, 48.139707], [7.268106, 48.139713], [7.267929, 48.139725], [7.267668, 48.139756], [7.267037, 48.13978], [7.266832, 48.139779], [7.26604, 48.139638], [7.265618, 48.139581], [7.265619, 48.13956], [7.265696, 48.139512], [7.265698, 48.139512], [7.26559, 48.139497], [7.265584, 48.139496], [7.265549, 48.139492], [7.265546, 48.13949], [7.265464, 48.139471], [7.265419, 48.139379], [7.265405, 48.139351], [7.265362, 48.139307], [7.265345, 48.139297], [7.265339, 48.139294], [7.265295, 48.139286], [7.265268, 48.139287], [7.265023, 48.139284], [7.264972, 48.139284], [7.264797, 48.139281], [7.264536, 48.139283]], [[7.27047, 48.143342], [7.270526, 48.143338], [7.270109, 48.143373], [7.27047, 48.143342]], [[7.271579, 48.141004], [7.271568, 48.140964], [7.271551, 48.140963], [7.27157, 48.140964], [7.271579, 48.141004]], [[7.272081, 48.140857], [7.272088, 48.140801], [7.272105, 48.140813], [7.272098, 48.140859], [7.272081, 48.140857]]], [[[7.282891, 48.14492], [7.282812, 48.144939], [7.282758, 48.144967], [7.282732, 48.145014], [7.282628, 48.145128], [7.282474, 48.145256], [7.282325, 48.145413], [7.282274, 48.145579], [7.28226, 48.145598], [7.282043, 48.145811], [7.281861, 48.145963], [7.281711, 48.146106], [7.281692, 48.146134], [7.28168, 48.146156], [7.281666, 48.146178], [7.281671, 48.146316], [7.281688, 48.146384], [7.281668, 48.14641], [7.281484, 48.146792], [7.281457, 48.146827], [7.281267, 48.147005], [7.281227, 48.147044], [7.281216, 48.147038], [7.281072, 48.147196], [7.280981, 48.147333], [7.280981, 48.147432], [7.280962, 48.147501], [7.280857, 48.147636], [7.280443, 48.148066], [7.280459, 48.148071], [7.280774, 48.148162], [7.28082, 48.148198], [7.280981, 48.148331], [7.281148, 48.148466], [7.281349, 48.148577], [7.28156, 48.148694], [7.281769, 48.148809], [7.281744, 48.14914], [7.281765, 48.149157], [7.281875, 48.149358], [7.281891, 48.14939], [7.281948, 48.149423], [7.28208, 48.149497], [7.282121, 48.149465], [7.282549, 48.149664], [7.282796, 48.149421], [7.283332, 48.149096], [7.28349, 48.149249], [7.283141, 48.149491], [7.283329, 48.149655], [7.283964, 48.149445], [7.284061, 48.149411], [7.284221, 48.149358], [7.284305, 48.149461], [7.284399, 48.149564], [7.284517, 48.149526], [7.284635, 48.149487], [7.284722, 48.149457], [7.284714, 48.149362], [7.284713, 48.149349], [7.284677, 48.149298], [7.284658, 48.149268], [7.284624, 48.149219], [7.2846, 48.149184], [7.284597, 48.149177], [7.284375, 48.149268], [7.284518, 48.149207], [7.284599, 48.149175], [7.284641, 48.149162], [7.284647, 48.14916], [7.284467, 48.148938], [7.284464, 48.148938], [7.284015, 48.148807], [7.283951, 48.148723], [7.283869, 48.148634], [7.283797, 48.148577], [7.283768, 48.148553], [7.283736, 48.148523], [7.28365, 48.148461], [7.283604, 48.148425], [7.283566, 48.148389], [7.283528, 48.14835], [7.283513, 48.148306], [7.283455, 48.148218], [7.283426, 48.148188], [7.283432, 48.148194], [7.283422, 48.148179], [7.283525, 48.148145], [7.283647, 48.148096], [7.283719, 48.148048], [7.283818, 48.148006], [7.283857, 48.147964], [7.283775, 48.147907], [7.28374, 48.147883], [7.283709, 48.147863], [7.283602, 48.147769], [7.283513, 48.14767], [7.283451, 48.147607], [7.283357, 48.147511], [7.283304, 48.147313], [7.283251, 48.147198], [7.283193, 48.147081], [7.283278, 48.147058], [7.283231, 48.146921], [7.283171, 48.146743], [7.283051, 48.146724], [7.28307, 48.146727], [7.283069, 48.146718], [7.283168, 48.146734], [7.283469, 48.146667], [7.283437, 48.146532], [7.283355, 48.14625], [7.283353, 48.146192], [7.283336, 48.145948], [7.28327, 48.145674], [7.283262, 48.145637], [7.283251, 48.145535], [7.283247, 48.145526], [7.283238, 48.145475], [7.283208, 48.145376], [7.283186, 48.145301], [7.283137, 48.145157], [7.283108, 48.145069], [7.283088, 48.144989], [7.283055, 48.144947], [7.282997, 48.144935], [7.28289, 48.144933], [7.282891, 48.14492]]]]}}]}