{"type": "FeatureCollection", "features": [{"type": "Feature", "properties": {"id": "AOC-Alsace-Grand-Cru-Praelatenberg", "name": "Praelatenberg", "commune": "Kintzheim", "family": "花崗岩", "familyColor": "#95a5a6", "lessonId": "AL2M3L2"}, "geometry": {"type": "MultiPolygon", "coordinates": [[[[7.377201, 48.244201], [7.377074, 48.244256], [7.377016, 48.244345], [7.377149, 48.244396], [7.377275, 48.24444], [7.377393, 48.244525], [7.377481, 48.244532], [7.377609, 48.244642], [7.377673, 48.244662], [7.377716, 48.244675], [7.377783, 48.244745], [7.37781, 48.244772], [7.377863, 48.244828], [7.377923, 48.24489], [7.378019, 48.24499], [7.378055, 48.245026], [7.378134, 48.245109], [7.378236, 48.245214], [7.378269, 48.245248], [7.378327, 48.245314], [7.378368, 48.245361], [7.378476, 48.245484], [7.378584, 48.245636], [7.378701, 48.245808], [7.378759, 48.245886], [7.378801, 48.245943], [7.378861, 48.246025], [7.378957, 48.246155], [7.378997, 48.24621], [7.379064, 48.246301], [7.379071, 48.24631], [7.37907, 48.246334], [7.379066, 48.246367], [7.379061, 48.246426], [7.379073, 48.246492], [7.379086, 48.246572], [7.37911, 48.246733], [7.379171, 48.246795], [7.379209, 48.246835], [7.37952, 48.246981], [7.379622, 48.24703], [7.379947, 48.246925], [7.380005, 48.246989], [7.380033, 48.247022], [7.380138, 48.247], [7.380312, 48.246964], [7.380506, 48.246923], [7.380529, 48.246969], [7.380557, 48.24702], [7.380727, 48.246997], [7.380756, 48.247052], [7.381008, 48.247022], [7.381706, 48.246889], [7.381757, 48.246936], [7.381811, 48.246991], [7.381879, 48.247058], [7.381901, 48.247079], [7.38196, 48.247121], [7.382147, 48.247263], [7.382148, 48.24725], [7.382169, 48.247264], [7.382172, 48.24734], [7.382151, 48.247378], [7.382111, 48.247447], [7.382134, 48.247478], [7.38255, 48.247463], [7.38287, 48.247425], [7.382842, 48.247471], [7.382678, 48.247645], [7.382579, 48.247649], [7.382099, 48.248126], [7.382597, 48.248436], [7.382606, 48.248442], [7.382765, 48.24854], [7.382871, 48.24858], [7.382975, 48.248626], [7.382989, 48.248632], [7.383123, 48.248691], [7.383206, 48.248727], [7.383274, 48.248803], [7.383309, 48.248843], [7.383322, 48.248949], [7.383335, 48.248963], [7.38336, 48.248986], [7.383379, 48.249006], [7.383399, 48.249027], [7.383425, 48.249054], [7.383447, 48.249077], [7.383498, 48.24913], [7.383308, 48.249211], [7.38343, 48.249304], [7.383693, 48.249227], [7.383793, 48.249297], [7.383806, 48.249341], [7.383818, 48.249379], [7.383827, 48.249412], [7.383907, 48.249397], [7.383966, 48.249485], [7.38397, 48.249506], [7.385013, 48.249413], [7.385632, 48.24934], [7.386061, 48.249276], [7.386048, 48.249257], [7.385879, 48.24903], [7.38582, 48.248966], [7.385725, 48.248864], [7.385613, 48.248745], [7.385407, 48.248521], [7.385285, 48.248388], [7.38527, 48.248372], [7.385233, 48.248332], [7.385196, 48.248291], [7.385149, 48.248261], [7.3851, 48.24823], [7.38505, 48.248198], [7.385037, 48.24819], [7.384937, 48.24813], [7.384882, 48.248097], [7.384548, 48.2479], [7.384274, 48.247709], [7.3842, 48.247617], [7.384221, 48.247605], [7.384189, 48.24751], [7.383921, 48.247462], [7.384255, 48.247522], [7.384358, 48.247519], [7.384492, 48.247492], [7.384744, 48.247398], [7.384829, 48.247338], [7.38481, 48.24729], [7.384752, 48.247196], [7.384685, 48.247087], [7.384635, 48.24701], [7.384596, 48.246959], [7.384562, 48.246915], [7.384374, 48.246747], [7.384263, 48.246652], [7.384196, 48.246591], [7.384162, 48.246559], [7.383971, 48.246365], [7.383386, 48.245974], [7.383289, 48.245907], [7.383238, 48.245874], [7.383229, 48.245869], [7.382979, 48.245748], [7.382968, 48.245741], [7.382795, 48.245642], [7.382777, 48.245576], [7.382723, 48.245418], [7.382681, 48.245296], [7.382663, 48.245265], [7.382633, 48.245212], [7.382554, 48.245066], [7.382462, 48.244907], [7.382419, 48.244832], [7.382391, 48.24478], [7.382367, 48.244736], [7.382358, 48.244719], [7.382322, 48.244646], [7.382283, 48.244559], [7.382191, 48.244363], [7.382176, 48.24433], [7.382134, 48.244269], [7.382083, 48.244186], [7.382063, 48.244155], [7.382016, 48.244098], [7.381928, 48.243988], [7.381843, 48.243886], [7.381767, 48.243791], [7.381742, 48.243757], [7.381678, 48.243697], [7.381585, 48.243608], [7.381543, 48.243566], [7.381481, 48.243527], [7.381445, 48.2435], [7.381357, 48.243454], [7.381313, 48.243431], [7.381233, 48.243394], [7.381169, 48.243361], [7.381115, 48.243331], [7.381063, 48.2433], [7.381003, 48.243265], [7.380944, 48.24323], [7.380908, 48.243205], [7.380832, 48.243151], [7.380747, 48.24309], [7.3807, 48.242997], [7.380658, 48.242883], [7.380643, 48.242852], [7.380598, 48.242753], [7.380575, 48.242704], [7.380573, 48.2427], [7.380461, 48.242732], [7.380416, 48.242744], [7.380412, 48.242745], [7.380006, 48.242865], [7.379947, 48.242883], [7.379858, 48.242912], [7.379667, 48.242937], [7.379454, 48.242973], [7.379349, 48.242947], [7.379248, 48.242949], [7.379126, 48.242926], [7.379044, 48.242909], [7.379012, 48.242909], [7.378897, 48.242903], [7.378798, 48.242916], [7.378698, 48.242927], [7.37866, 48.242932], [7.378511, 48.242935], [7.378271, 48.242954], [7.378157, 48.242965], [7.37789, 48.243048], [7.377927, 48.243088], [7.377991, 48.24316], [7.377995, 48.24317], [7.378079, 48.243382], [7.378112, 48.243506], [7.378146, 48.243818], [7.378143, 48.243793], [7.378123, 48.243797], [7.378079, 48.243815], [7.37796, 48.243892], [7.377905, 48.24393], [7.377827, 48.243984], [7.377767, 48.243997], [7.377707, 48.244012], [7.377568, 48.244045], [7.377489, 48.244076], [7.377386, 48.244121], [7.377244, 48.244182], [7.377201, 48.244201]]]]}}]}