{"type": "FeatureCollection", "features": [{"type": "Feature", "properties": {"id": "AOC-Alsace-Grand-Cru-Gloeckelberg", "name": "Gloeckelberg", "commune": "Rodern & Saint-Hippolyte", "family": "花崗岩", "familyColor": "#8d6e63", "lessonId": "AL2M3L2"}, "geometry": {"type": "MultiPolygon", "coordinates": [[[[7.344625, 48.227913], [7.344414, 48.227937], [7.344236, 48.227969], [7.343944, 48.228023], [7.343816, 48.228045], [7.343053, 48.228185], [7.342736, 48.22826], [7.342513, 48.228302], [7.342328, 48.22845], [7.342366, 48.228517], [7.342637, 48.228988], [7.342674, 48.229216], [7.342805, 48.22913], [7.34303, 48.229019], [7.343091, 48.228971], [7.343325, 48.228891], [7.343493, 48.228845], [7.343762, 48.228729], [7.34391, 48.228702], [7.34401, 48.228664], [7.344043, 48.228772], [7.343923, 48.228788], [7.343902, 48.228801], [7.343975, 48.229287], [7.344333, 48.22931], [7.344696, 48.229332], [7.344702, 48.229332], [7.344756, 48.229336], [7.34478, 48.229336], [7.345129, 48.229345], [7.345342, 48.22935], [7.345346, 48.229229], [7.34554, 48.229258], [7.345553, 48.229261], [7.345802, 48.229299], [7.346061, 48.228904], [7.346175, 48.228948], [7.346178, 48.228948], [7.346264, 48.228984], [7.346332, 48.229014], [7.346522, 48.229096], [7.346614, 48.229132], [7.346658, 48.229148], [7.346701, 48.229107], [7.347182, 48.229317], [7.347345, 48.229174], [7.347561, 48.229299], [7.347809, 48.229432], [7.3482, 48.229598], [7.348203, 48.229598], [7.348313, 48.229655], [7.348522, 48.229763], [7.348643, 48.229825], [7.348781, 48.229896], [7.348854, 48.22994], [7.348871, 48.22995], [7.348906, 48.22997], [7.349032, 48.230038], [7.349149, 48.230111], [7.349165, 48.230103], [7.349314, 48.230218], [7.349626, 48.230461], [7.349998, 48.230393], [7.350468, 48.230306], [7.350514, 48.230272], [7.350693, 48.230126], [7.350754, 48.230043], [7.350664, 48.229999], [7.350607, 48.229895], [7.350632, 48.229835], [7.350667, 48.22981], [7.350806, 48.229884], [7.350986, 48.229712], [7.351299, 48.229423], [7.351317, 48.229409], [7.351462, 48.229276], [7.351677, 48.229164], [7.351892, 48.228966], [7.351818, 48.228883], [7.351732, 48.228785], [7.351649, 48.228696], [7.351593, 48.228635], [7.351554, 48.228591], [7.351421, 48.22845], [7.351304, 48.228309], [7.351198, 48.228204], [7.351192, 48.228197], [7.351091, 48.228086], [7.351082, 48.228073], [7.350986, 48.228111], [7.350787, 48.228219], [7.350769, 48.228199], [7.350911, 48.228123], [7.350937, 48.228109], [7.350965, 48.228094], [7.351044, 48.228041], [7.351101, 48.228008], [7.351178, 48.227994], [7.351206, 48.2281], [7.351236, 48.228143], [7.35126, 48.228173], [7.351372, 48.228281], [7.351381, 48.228293], [7.351393, 48.228304], [7.351503, 48.228433], [7.351933, 48.228931], [7.351974, 48.228978], [7.351788, 48.229141], [7.351774, 48.229198], [7.351786, 48.229242], [7.351647, 48.229327], [7.351546, 48.229253], [7.351485, 48.229288], [7.351319, 48.229434], [7.351073, 48.229662], [7.350785, 48.229934], [7.350807, 48.229998], [7.350794, 48.230043], [7.350949, 48.230119], [7.350986, 48.230137], [7.351036, 48.230162], [7.351049, 48.230149], [7.351195, 48.230219], [7.351277, 48.230209], [7.351483, 48.230187], [7.351692, 48.230163], [7.35196, 48.230141], [7.352129, 48.230035], [7.352383, 48.229916], [7.352394, 48.229912], [7.352444, 48.229894], [7.352716, 48.22979], [7.353043, 48.229708], [7.353394, 48.22961], [7.354058, 48.229424], [7.354087, 48.229415], [7.354158, 48.229391], [7.354173, 48.229412], [7.354472, 48.229625], [7.354549, 48.229678], [7.354566, 48.229691], [7.354598, 48.229714], [7.354663, 48.22976], [7.354904, 48.229636], [7.354969, 48.229669], [7.355475, 48.229433], [7.355886, 48.229241], [7.35595, 48.229238], [7.356139, 48.229235], [7.35641, 48.22925], [7.356423, 48.229252], [7.356437, 48.229253], [7.356543, 48.228932], [7.356451, 48.22838], [7.356421, 48.228378], [7.356174, 48.228351], [7.356081, 48.228341], [7.356013, 48.228333], [7.355754, 48.228337], [7.355539, 48.22834], [7.355428, 48.228342], [7.355309, 48.228329], [7.355208, 48.228318], [7.355125, 48.228297], [7.355087, 48.228288], [7.355048, 48.228273], [7.354981, 48.228247], [7.354783, 48.228169], [7.35474, 48.22814], [7.354689, 48.228104], [7.354577, 48.22799], [7.35455, 48.227964], [7.354534, 48.227935], [7.354494, 48.227876], [7.354445, 48.227798], [7.354399, 48.22774], [7.354351, 48.227677], [7.354297, 48.227612], [7.354276, 48.227588], [7.354181, 48.22748], [7.35413, 48.227422], [7.35408, 48.227365], [7.353952, 48.227221], [7.353908, 48.227207], [7.353673, 48.227138], [7.353582, 48.227152], [7.353373, 48.227295], [7.353329, 48.227351], [7.353245, 48.227377], [7.35312, 48.227375], [7.353077, 48.227367], [7.352811, 48.227321], [7.352767, 48.227314], [7.352694, 48.227302], [7.352601, 48.227286], [7.35245, 48.227262], [7.352342, 48.227257], [7.352218, 48.227253], [7.351682, 48.227235], [7.351563, 48.227228], [7.351465, 48.227223], [7.351286, 48.227213], [7.351142, 48.227201], [7.350887, 48.227176], [7.350862, 48.227197], [7.350769, 48.227193], [7.350724, 48.227162], [7.350542, 48.227154], [7.35019, 48.227135], [7.349971, 48.227121], [7.349789, 48.22711], [7.34974, 48.227106], [7.349662, 48.227111], [7.349638, 48.227114], [7.349255, 48.227142], [7.349156, 48.227153], [7.34911, 48.227158], [7.349036, 48.227167], [7.348862, 48.227187], [7.348745, 48.22721], [7.348615, 48.227233], [7.348511, 48.227253], [7.348464, 48.227262], [7.348339, 48.227288], [7.348257, 48.227305], [7.348233, 48.22731], [7.348116, 48.227327], [7.3481, 48.227329], [7.348017, 48.227343], [7.347876, 48.227366], [7.347607, 48.227408], [7.347495, 48.227427], [7.347447, 48.227434], [7.347338, 48.227453], [7.347274, 48.227462], [7.347078, 48.227496], [7.34654, 48.227588], [7.346532, 48.22759], [7.346497, 48.22775], [7.34653, 48.227592], [7.346463, 48.227597], [7.346237, 48.227645], [7.346163, 48.22766], [7.345972, 48.227696], [7.345895, 48.227711], [7.345563, 48.227776], [7.34546, 48.227803], [7.345381, 48.227826], [7.345371, 48.227828], [7.345357, 48.227828], [7.345242, 48.227843], [7.345029, 48.227867], [7.344919, 48.227879], [7.344807, 48.227892], [7.344719, 48.227902], [7.344625, 48.227913]]], [[[7.351277, 48.230209], [7.351195, 48.230219], [7.351239, 48.230239], [7.351338, 48.230286], [7.351433, 48.230335], [7.351574, 48.2304], [7.351805, 48.230255], [7.351865, 48.230207], [7.351916, 48.230168], [7.35196, 48.230141], [7.351692, 48.230163], [7.351483, 48.230187], [7.351277, 48.230209]]], [[[7.350035, 48.230423], [7.350325, 48.23037], [7.350468, 48.230306], [7.349998, 48.230393], [7.349626, 48.230461], [7.349799, 48.230595], [7.350035, 48.230423]]]]}}]}