{"type":"FeatureCollection","crs":{"type":"name","properties":{"name":"urn:ogc:def:crs:EPSG::4326"}},"features":[{"type":"Feature","properties":{"region_id":9,"name":"Badacsony","name_hu":"Badacsonyi borvidék","region_group":"Dunántúl (Transdanubia)","area_ha_approx":2000,"notable_grapes":"Szürkebarát (Pinot Gris), Kéknyelű, Olaszrizling","notes":"Lake Balaton N shore; basalt volcanic soils; iconic flat-top hill"},"geometry":{"type":"Polygon","coordinates":[[[17.3501574,46.7316119],[17.3407753,46.7321946],[17.3106733,46.7331155],[17.2985616,46.7350475],[17.2977816,46.7592317],[17.2976233,46.7596482],[17.298723,46.7601642],[17.2987107,46.7605422],[17.2997824,46.7617055],[17.3008668,46.7624785],[17.3017846,46.7627382],[17.3023682,46.7624611],[17.3050687,46.7644768],[17.3055681,46.7656779],[17.3040487,46.7659432],[17.3056218,46.7683104],[17.3064681,46.7778024],[17.307006,46.7781888],[17.3069566,46.7797131],[17.307417,46.7827702],[17.3068331,46.7835238],[17.3083661,46.787738],[17.3083292,46.7888781],[17.309989,46.7889035],[17.310527,46.7892899],[17.3104899,46.7904362],[17.3110248,46.7912006],[17.3110123,46.7915848],[17.3115504,46.7919712],[17.3120851,46.7927419],[17.3125983,46.7938966],[17.3125861,46.7942745],[17.3136711,46.7950536],[17.314744,46.7962106],[17.3152943,46.796219],[17.3174646,46.797777],[17.3174524,46.798155],[17.3196719,46.7981887],[17.3196595,46.7985729],[17.3201732,46.7997213],[17.3200629,46.8031479],[17.3188919,46.8050333],[17.3177574,46.8057786],[17.31717,46.8069166],[17.3166074,46.8072862],[17.3165952,46.8076641],[17.3148888,46.8087851],[17.3148766,46.809163],[17.3143262,46.8091547],[17.3131916,46.8098999],[17.3126411,46.8098915],[17.3120692,46.8102672],[17.3115311,46.8098746],[17.3087764,46.8090701],[17.3088011,46.8083079],[17.3077124,46.8079131],[17.3071777,46.8071424],[17.3071899,46.8067645],[17.306043,46.8078876],[17.3036839,46.8124204],[17.30305,46.8146983],[17.3019524,46.8142971],[17.2991818,46.8142546],[17.2980592,46.8146217],[17.2968995,46.8161289],[17.2941288,46.8160863],[17.2930312,46.815685],[17.2925056,46.8149144],[17.2719451,46.8157426],[17.270272,46.8160946],[17.2710546,46.8260073],[17.2714918,46.8294424],[17.2683415,46.8408249],[17.2699489,46.8427532],[17.2715978,46.8431571],[17.2781521,46.8463092],[17.2797851,46.8474752],[17.2802984,46.8486239],[17.2824698,46.8501826],[17.2841188,46.8505925],[17.2852296,46.8506096],[17.286328,46.8510048],[17.2918357,46.8522305],[17.2940325,46.8530268],[17.2951185,46.853806],[17.2978537,46.8549949],[17.3155241,46.8579306],[17.3194325,46.8572274],[17.3221932,46.8576474],[17.3211435,46.8557283],[17.326187,46.8542795],[17.3262115,46.8535174],[17.330655,46.8535844],[17.3306306,46.8543466],[17.332828,46.8551422],[17.3339146,46.855921],[17.3355035,46.8582324],[17.3343925,46.8582157],[17.3326576,46.860471],[17.3326453,46.8608551],[17.3320732,46.8612247],[17.3320367,46.8623648],[17.3325968,46.8623732],[17.3336835,46.8631521],[17.3336712,46.8635363],[17.3331112,46.8635278],[17.3325237,46.8646597],[17.3325114,46.8650438],[17.3319392,46.8654134],[17.3319148,46.8661755],[17.3313273,46.8673074],[17.3307672,46.8672989],[17.3296193,46.8684285],[17.328505,46.8687899],[17.3273573,46.8699132],[17.3229124,46.869846],[17.3195141,46.8720821],[17.3194774,46.8732222],[17.3188926,46.8739759],[17.3177076,46.8762454],[17.3182556,46.8766319],[17.3182432,46.8770161],[17.3187821,46.8774024],[17.3215315,46.8782066],[17.3231664,46.879372],[17.3253557,46.8801676],[17.3264427,46.8809465],[17.3264182,46.8817087],[17.326954,46.8824793],[17.3269296,46.8832414],[17.3274442,46.8843898],[17.3268685,46.8851436],[17.326783,46.887808],[17.3262105,46.8881776],[17.3261982,46.8885617],[17.3250621,46.8893071],[17.3250376,46.8900692],[17.3244741,46.8904389],[17.3221651,46.8930696],[17.3221527,46.8934538],[17.3182295,46.8945351],[17.3165664,46.8945098],[17.3159938,46.8948793],[17.3154425,46.8948709],[17.3154547,46.894493],[17.3104071,46.8959412],[17.3098557,46.8959328],[17.309831,46.896695],[17.3081218,46.8978096],[17.3081096,46.8981875],[17.3064464,46.8981622],[17.3053221,46.8985294],[17.3047584,46.8988989],[17.3047336,46.899661],[17.3041361,46.9007926],[17.3041113,46.9015547],[17.3046718,46.9015633],[17.3040865,46.9023168],[17.3040617,46.903079],[17.3034855,46.9038327],[17.305087,46.9057603],[17.3050745,46.9061445],[17.3039131,46.9076456],[17.3027886,46.9080128],[17.301627,46.90952],[17.3005117,46.9098811],[17.2999139,46.9110126],[17.29764,46.9125028],[17.2976151,46.9132649],[17.2964781,46.91401],[17.2936774,46.9147295],[17.2902876,46.9165805],[17.2840373,46.9206748],[17.2823644,46.920649],[17.2854758,46.9275535],[17.2860114,46.9283243],[17.2859866,46.9290802],[17.2870272,46.9310057],[17.2870022,46.9317678],[17.2885755,46.9348359],[17.2890648,46.9367466],[17.2867394,46.9397608],[17.2905667,46.941723],[17.2847114,46.9507767],[17.2599106,46.9439128],[17.2593207,46.9450442],[17.2587598,46.9450354],[17.2576687,46.9446401],[17.2603317,46.9481101],[17.2596691,46.9511436],[17.2587472,46.9514691],[17.2581582,46.9520339],[17.2537438,46.9620979],[17.2482257,46.9608704],[17.2458202,46.9661639],[17.2435553,46.9672689],[17.245182,46.9684414],[17.246244,46.9699832],[17.2428363,46.9722108],[17.2410589,46.9752328],[17.2370637,46.9782134],[17.2348755,46.977038],[17.2302886,46.9811559],[17.2313376,46.9830758],[17.2306858,46.9857312],[17.2317994,46.9857489],[17.2323479,46.9861358],[17.2311954,46.9872643],[17.2295036,46.988],[17.2289034,46.9891311],[17.2288647,46.9902712],[17.2282993,46.9906465],[17.2254717,46.9917421],[17.2254458,46.9925043],[17.2243282,46.9928646],[17.2220227,46.9951154],[17.2214484,46.9954843],[17.2225491,46.9958863],[17.2281181,46.9959751],[17.2314246,46.9967902],[17.2319732,46.9971771],[17.2340367,47.001785],[17.2345982,47.0017939],[17.2351379,47.0021806],[17.2493925,47.0088779],[17.2505576,47.0073774],[17.250009,47.0069844],[17.2483424,47.0069582],[17.2477936,47.0065714],[17.2489589,47.0050647],[17.2495331,47.0046956],[17.2495588,47.0039334],[17.2506857,47.0035668],[17.2518252,47.0028222],[17.2529428,47.0024616],[17.2551833,47.0021186],[17.2569008,47.0006205],[17.2580275,47.0002538],[17.2586016,46.9998846],[17.2624703,47.0007076],[17.2624577,47.0010856],[17.2635462,47.0018651],[17.2651872,47.0026532],[17.2663011,47.0026706],[17.266841,47.0030572],[17.2701701,47.0034933],[17.2757562,47.0028176],[17.275229,47.0020469],[17.2786465,46.9998123],[17.2803377,46.9990822],[17.2826158,46.9975923],[17.2853835,46.9980132],[17.2859861,46.9964975],[17.2871123,46.9961367],[17.2882262,46.9961538],[17.2893775,46.9950309],[17.2904789,46.995426],[17.2916051,46.9950652],[17.2910813,46.9939102],[17.2916801,46.9927788],[17.2928063,46.9924179],[17.2928439,46.9912716],[17.2933962,46.9912801],[17.2934212,46.990518],[17.2939859,46.9901485],[17.2939983,46.9897705],[17.295686,46.9894121],[17.2957109,46.98865],[17.2962756,46.9882805],[17.2962882,46.9878963],[17.2980128,46.9864039],[17.2980254,46.9860197],[17.29913,46.9860367],[17.2991174,46.9864208],[17.3002436,46.9860537],[17.3028988,46.9899068],[17.3051511,46.9891787],[17.3096678,46.9873381],[17.3220348,46.9833411],[17.3237342,46.9826042],[17.326526,46.982262],[17.3276395,46.9822787],[17.333796,46.9812306],[17.3377009,46.980911],[17.3399433,46.980182],[17.3410568,46.9801986],[17.3466001,46.9810438],[17.3566491,46.9800462],[17.3617633,46.9766936],[17.3657275,46.9744708],[17.3674409,46.972971],[17.3686021,46.9714631],[17.370363,46.9684452],[17.3720999,46.9661832],[17.3704942,46.9642565],[17.3660984,46.9626669],[17.3628428,46.9599532],[17.3612017,46.9591665],[17.3589996,46.9583715],[17.3551685,46.9564116],[17.3652725,46.9535109],[17.3669613,46.9527733],[17.3681219,46.9512716],[17.3681579,46.9501253],[17.3693183,46.9486235],[17.3732922,46.9460163],[17.378954,46.942671],[17.3812151,46.9415572],[17.3834642,46.9408275],[17.3866044,46.946967],[17.3950284,46.9444236],[17.3950048,46.9451858],[17.3926498,46.9493423],[17.3931636,46.9508747],[17.3942295,46.9524151],[17.3935981,46.9546872],[17.395777,46.9562438],[17.3973715,46.9585543],[17.4000912,46.9604967],[17.4011927,46.9608907],[17.4033837,46.9620691],[17.4060688,46.9651515],[17.4065482,46.967824],[17.4087891,46.9670937],[17.4115767,46.9671336],[17.4177323,46.9657029],[17.4227144,46.9665301],[17.4282807,46.9666092],[17.4310477,46.9670327],[17.4327246,46.9666721],[17.4360644,46.9667193],[17.4389116,46.9644782],[17.4400819,46.9625916],[17.441218,46.9618451],[17.4429402,46.9599662],[17.4441105,46.9580733],[17.4452577,46.9569488],[17.4463935,46.9562022],[17.449744,46.955871],[17.4508367,46.9562645],[17.4525108,46.9562879],[17.4530061,46.9581979],[17.4545805,46.9612698],[17.464342,46.9697865],[17.4653654,46.9728444],[17.4658254,46.9762788],[17.4668376,46.9797209],[17.4684359,46.9820304],[17.470607,46.9839634],[17.4716533,46.9862653],[17.4732522,46.9885686],[17.4748848,46.9897316],[17.4765061,46.9912789],[17.4781142,46.9935884],[17.479343,46.9963781],[17.4834852,47.0001337],[17.4845769,47.0009111],[17.4856131,47.0035908],[17.4860988,47.0058849],[17.4877078,47.0081942],[17.4898716,47.0101268],[17.4904,47.0112746],[17.4965567,47.0102177],[17.4928608,47.0033115],[17.5050329,47.0008973],[17.506244,47.0023522],[17.5081212,47.0024206],[17.5123885,47.0016724],[17.513545,47.0010165],[17.5146384,47.0009402],[17.5163376,46.9998161],[17.5180041,46.9998385],[17.5191288,46.9994754],[17.5230015,47.0002896],[17.524677,47.0003119],[17.5257802,47.0007047],[17.5268851,47.0007194],[17.5280208,46.9999721],[17.529707,46.9996163],[17.5308335,46.9988688],[17.5314166,46.9981141],[17.5319798,46.9977435],[17.5319907,46.9973593],[17.5342615,46.9958707],[17.5342723,46.9954865],[17.5337306,46.9951012],[17.5337631,46.9939548],[17.5321632,46.9912681],[17.5327462,46.9905134],[17.5327892,46.9889952],[17.5333524,46.9886183],[17.533374,46.9878562],[17.5340215,46.9848211],[17.5363258,46.9818018],[17.5363365,46.9814238],[17.5369194,46.980669],[17.5386282,46.9791667],[17.5397632,46.9784192],[17.5397739,46.9780412],[17.5308424,46.9790636],[17.5255436,46.969856],[17.5239228,46.9697709],[17.522594,46.9561047],[17.5248419,46.9553722],[17.5309159,46.956978],[17.5342461,46.9570222],[17.5364508,46.9578138],[17.5380838,46.958976],[17.5430455,46.9605664],[17.5468623,46.9632821],[17.5485261,46.9636821],[17.5501914,46.9637039],[17.5507648,46.962949],[17.5553132,46.9595806],[17.5636993,46.9581711],[17.5647929,46.9585635],[17.565354,46.9585707],[17.5675592,46.9593618],[17.569766,46.9597685],[17.5703165,46.9601599],[17.5730739,46.960958],[17.5735422,46.9640077],[17.5746554,46.9640221],[17.575206,46.9644135],[17.5774025,46.9652042],[17.5779429,46.9659674],[17.5790562,46.9659818],[17.5812619,46.9667726],[17.5812514,46.9671567],[17.5828856,46.9683183],[17.5805441,46.9724786],[17.5882461,46.9756209],[17.5876731,46.976376],[17.5970314,46.9799231],[17.6031002,46.9819031],[17.6075238,46.9831057],[17.6086375,46.9831197],[17.6103137,46.9827565],[17.6164546,46.9820711],[17.6181103,46.9824762],[17.6181206,46.982092],[17.6192342,46.9821059],[17.6197966,46.9817348],[17.6198066,46.9813568],[17.620368,46.9813638],[17.6209406,46.9806085],[17.6209508,46.9802243],[17.6215222,46.9798533],[17.6215325,46.9794691],[17.6198779,46.978686],[17.618876,46.9744894],[17.6161376,46.9729302],[17.6155549,46.9740635],[17.6102739,46.9633353],[17.6097832,46.9610418],[17.6098037,46.9602796],[17.6092822,46.9591324],[17.6092924,46.9587544],[17.6148288,46.9595803],[17.6154215,46.958069],[17.6148898,46.9572999],[17.6160029,46.9573138],[17.6159928,46.9576918],[17.6181885,46.9588661],[17.6181987,46.9584819],[17.6187405,46.958873],[17.6198537,46.9588869],[17.6199046,46.9569784],[17.621109,46.9535655],[17.6212509,46.9482364],[17.6258553,46.9422004],[17.6261545,46.9408801],[17.6285793,46.9386986],[17.6290946,46.9376166],[17.6305737,46.9365186],[17.631276,46.9355824],[17.6313243,46.9343655],[17.6315828,46.933272],[17.6319803,46.9325834],[17.6320726,46.9314532],[17.6326273,46.9306082],[17.6321801,46.9285547],[17.6364798,46.9260801],[17.6383433,46.9236668],[17.6387049,46.9228065],[17.6385121,46.9194134],[17.6359219,46.9190924],[17.6336972,46.9190649],[17.6325949,46.9186731],[17.632605,46.9182889],[17.6320534,46.918282],[17.6320634,46.917904],[17.6315027,46.9178971],[17.629869,46.9167362],[17.6298791,46.916352],[17.6293185,46.9163451],[17.6287769,46.9159602],[17.6287971,46.915198],[17.6282656,46.9144289],[17.6300201,46.9110228],[17.6305617,46.9114077],[17.6311524,46.9102744],[17.6294999,46.9094915],[17.6294897,46.9098757],[17.6284068,46.9090998],[17.6278462,46.9090928],[17.6278564,46.9087086],[17.6272947,46.9090859],[17.6273553,46.9067993],[17.6262533,46.9064075],[17.6268352,46.9052679],[17.6262937,46.9048831],[17.6263037,46.9045051],[17.6235384,46.9040863],[17.6235484,46.9037083],[17.6240999,46.9037151],[17.6246919,46.9021976],[17.6247526,46.899911],[17.6253231,46.89954],[17.6247626,46.899533],[17.6248031,46.8980086],[17.6242617,46.8976238],[17.6242719,46.8972396],[17.62316,46.8972257],[17.6229367,46.8956057],[17.6230949,46.8949551],[17.6250288,46.894024],[17.6278424,46.8931423],[17.6325766,46.8925189],[17.635376,46.8926096],[17.6399696,46.891228],[17.6416462,46.8903596],[17.6423138,46.8896726],[17.6440397,46.8853381],[17.6462056,46.8844463],[17.6485567,46.8840243],[17.6495831,46.8841016],[17.6499358,46.8832217],[17.6511899,46.8811277],[17.6522577,46.8786529],[17.6500671,46.8778997],[17.6464256,46.8757735],[17.6450166,46.874381],[17.6427823,46.8713518],[17.6402718,46.8684362],[17.6366454,46.8613795],[17.6360393,46.8587054],[17.6378256,46.8555507],[17.6380509,46.8510604],[17.6386268,46.8486311],[17.6393665,46.8472886],[17.6382038,46.8464411],[17.6378489,46.8457839],[17.6369709,46.845441],[17.6363289,46.8448012],[17.6363266,46.8444471],[17.6342241,46.843983],[17.6321192,46.8430546],[17.6274079,46.8416466],[17.6271062,46.841897],[17.6239599,46.8400779],[17.6261298,46.8392944],[17.6223023,46.8367037],[17.621436,46.8374138],[17.6182735,46.8367608],[17.6175769,46.837165],[17.6158756,46.8365909],[17.6166148,46.8359352],[17.6142571,46.8344768],[17.6126517,46.8337223],[17.6118937,46.8345175],[17.6106699,46.8335668],[17.6068515,46.8299615],[17.6069161,46.8298521],[17.6033213,46.828808],[17.6050785,46.8256765],[17.6401207,46.8053136],[17.6249306,46.8015868],[17.6039798,46.7942758],[17.6193597,46.7670917],[17.6189349,46.7669723],[17.6195398,46.7661449],[17.6204554,46.7653502],[17.6216318,46.7637138],[17.6035821,46.7579639],[17.6042547,46.7534039],[17.5960134,46.7510117],[17.597785,46.74685],[17.5933604,46.7464092],[17.5928208,46.7460241],[17.5913272,46.7399115],[17.5896702,46.7395059],[17.5937106,46.7334641],[17.5990326,46.7209669],[17.6001922,46.7190724],[17.6003253,46.7141273],[17.6014847,46.7122328],[17.598181,46.7114345],[17.5976315,46.7114275],[17.5855455,46.7078446],[17.5855559,46.7074604],[17.5884955,46.7014047],[17.575242,46.7000931],[17.5637427,46.7155588],[17.5146021,46.7107162],[17.5088533,46.7182571],[17.5170381,46.7209117],[17.5135189,46.7250493],[17.5091832,46.7589944],[17.4918651,46.7530279],[17.4850162,46.7518965],[17.4783316,46.7520162],[17.4747956,46.752965],[17.4649645,46.7529006],[17.4536726,46.7487065],[17.4454774,46.7477886],[17.4364311,46.7487717],[17.4379199,46.7063414],[17.4384181,46.7051014],[17.4388071,46.7030178],[17.4230116,46.7011866],[17.4118471,46.7001158],[17.4118404,46.7002938],[17.4116617,46.7002805],[17.4119505,46.7011291],[17.391021,46.701697],[17.3913063,46.7003047],[17.3704616,46.7040034],[17.370605,46.7048366],[17.3687253,46.7048178],[17.3652383,46.7052312],[17.3585285,46.7074192],[17.3722287,46.734195],[17.3614537,46.7316558],[17.3501574,46.7316119]]]}}]}