{"type": "FeatureCollection", "features": [{"type": "Feature", "properties": {"id": "AOC-Alsace-Grand-Cru-Altenberg-de-Bergheim", "name": "Altenberg de Bergheim", "commune": "Bergheim", "family": "泥灰石灰砂岩", "familyColor": "#e74c3c", "lessonId": "AL2M5L2"}, "geometry": {"type": "MultiPolygon", "coordinates": [[[[7.349981, 48.208617], [7.349777, 48.208759], [7.34976, 48.208789], [7.349686, 48.208869], [7.34961, 48.20896], [7.349595, 48.209037], [7.349533, 48.209071], [7.349492, 48.209093], [7.349448, 48.209118], [7.349445, 48.209112], [7.349317, 48.209166], [7.349323, 48.209176], [7.349222, 48.209229], [7.34911, 48.209307], [7.349087, 48.209324], [7.348989, 48.209443], [7.349056, 48.209529], [7.348864, 48.209491], [7.348839, 48.209522], [7.348905, 48.209437], [7.348886, 48.209373], [7.348878, 48.209299], [7.348871, 48.209245], [7.348863, 48.209182], [7.348856, 48.209136], [7.348604, 48.209217], [7.348432, 48.209252], [7.348024, 48.209248], [7.347461, 48.209384], [7.347482, 48.209545], [7.347539, 48.209676], [7.34757, 48.209755], [7.347614, 48.209861], [7.347624, 48.209893], [7.347628, 48.209909], [7.347639, 48.209945], [7.34766, 48.210029], [7.347669, 48.210047], [7.347691, 48.210078], [7.347697, 48.210087], [7.347723, 48.210108], [7.347816, 48.210192], [7.347868, 48.210232], [7.348133, 48.210433], [7.348228, 48.210505], [7.348266, 48.210517], [7.348343, 48.210532], [7.348609, 48.210581], [7.34872, 48.210597], [7.348742, 48.210593], [7.348821, 48.21057], [7.348959, 48.210511], [7.348974, 48.210503], [7.349148, 48.210425], [7.349208, 48.210397], [7.349265, 48.21037], [7.349442, 48.210291], [7.349525, 48.210252], [7.349699, 48.210174], [7.349814, 48.210119], [7.349824, 48.210117], [7.349941, 48.210062], [7.349964, 48.210052], [7.350076, 48.210001], [7.350178, 48.209956], [7.350392, 48.209872], [7.350522, 48.209756], [7.350665, 48.209594], [7.350961, 48.209482], [7.351094, 48.209432], [7.351126, 48.20942], [7.351204, 48.20939], [7.351311, 48.20935], [7.351641, 48.209224], [7.351777, 48.209214], [7.351914, 48.2092], [7.351917, 48.20914], [7.351944, 48.209137], [7.352222, 48.209149], [7.352616, 48.209154], [7.353238, 48.209138], [7.353395, 48.20908], [7.353497, 48.209042], [7.353753, 48.209011], [7.353778, 48.209016], [7.353986, 48.209048], [7.354101, 48.209047], [7.354743, 48.209011], [7.354919, 48.208984], [7.355624, 48.20851], [7.355724, 48.208479], [7.355887, 48.208466], [7.35597, 48.208459], [7.356316, 48.208437], [7.356662, 48.208414], [7.356691, 48.208411], [7.357381, 48.208367], [7.357566, 48.208357], [7.357598, 48.208356], [7.35795, 48.208312], [7.358172, 48.208284], [7.35826, 48.20827], [7.358294, 48.208261], [7.358222, 48.207938], [7.358203, 48.207939], [7.357926, 48.207947], [7.357531, 48.207962], [7.357353, 48.207968], [7.356641, 48.207994], [7.356619, 48.207995], [7.356279, 48.20802], [7.355978, 48.207974], [7.355874, 48.207951], [7.35563, 48.207898], [7.354821, 48.207966], [7.354164, 48.208008], [7.354049, 48.208014], [7.353941, 48.208022], [7.353824, 48.208039], [7.35382, 48.207996], [7.353757, 48.207712], [7.353736, 48.207624], [7.353727, 48.207587], [7.353727, 48.207578], [7.35372, 48.207533], [7.353717, 48.207495], [7.353729, 48.20744], [7.353727, 48.207414], [7.35371, 48.207407], [7.353595, 48.20739], [7.353475, 48.207374], [7.353434, 48.20737], [7.35338, 48.207363], [7.353271, 48.207344], [7.353208, 48.207335], [7.353053, 48.207319], [7.352993, 48.207314], [7.352887, 48.207309], [7.352793, 48.207306], [7.352744, 48.207304], [7.352698, 48.207302], [7.352676, 48.207299], [7.352663, 48.2073], [7.352636, 48.207299], [7.352607, 48.207303], [7.352596, 48.207304], [7.352521, 48.207316], [7.352433, 48.20733], [7.352361, 48.207361], [7.35232, 48.207393], [7.352175, 48.207496], [7.352114, 48.20754], [7.351999, 48.207584], [7.351821, 48.207651], [7.351797, 48.207659], [7.351717, 48.207699], [7.351603, 48.207751], [7.351448, 48.20784], [7.351311, 48.207914], [7.3511, 48.207959], [7.350861, 48.208008], [7.350834, 48.208014], [7.350716, 48.208044], [7.350679, 48.208056], [7.350642, 48.208066], [7.350618, 48.208072], [7.350552, 48.208125], [7.350328, 48.208379], [7.350301, 48.208409], [7.350061, 48.208506], [7.349966, 48.208596], [7.349981, 48.208617]]], [[[7.356619, 48.208485], [7.356617, 48.208455], [7.355981, 48.208496], [7.355746, 48.208525], [7.355662, 48.208551], [7.355555, 48.20862], [7.355395, 48.208743], [7.355271, 48.208811], [7.355016, 48.209024], [7.354977, 48.20904], [7.354958, 48.209041], [7.354867, 48.209048], [7.354757, 48.209055], [7.354736, 48.209056], [7.354529, 48.209067], [7.354094, 48.209089], [7.353812, 48.209101], [7.353559, 48.209112], [7.353512, 48.209126], [7.353504, 48.209125], [7.353485, 48.209129], [7.353425, 48.209144], [7.35329, 48.209178], [7.353255, 48.209185], [7.352992, 48.209191], [7.352862, 48.209194], [7.352618, 48.209201], [7.352446, 48.209207], [7.352222, 48.209214], [7.352057, 48.209232], [7.351908, 48.209256], [7.351895, 48.209458], [7.351905, 48.209288], [7.351886, 48.209291], [7.351658, 48.209299], [7.35144, 48.209374], [7.351388, 48.209392], [7.351267, 48.209434], [7.351089, 48.209493], [7.350974, 48.209541], [7.35076, 48.209632], [7.350723, 48.209671], [7.350596, 48.2098], [7.350472, 48.209898], [7.350219, 48.210003], [7.349858, 48.210171], [7.349736, 48.210224], [7.349476, 48.21034], [7.349349, 48.210399], [7.349372, 48.21042], [7.349163, 48.21053], [7.349121, 48.210554], [7.348984, 48.210625], [7.348938, 48.210586], [7.348706, 48.210686], [7.348222, 48.210963], [7.348244, 48.210966], [7.348208, 48.210985], [7.348297, 48.211089], [7.348285, 48.211103], [7.348122, 48.21132], [7.348081, 48.211379], [7.348055, 48.211422], [7.348022, 48.211441], [7.347948, 48.211657], [7.348261, 48.211895], [7.348208, 48.211968], [7.348259, 48.212261], [7.348456, 48.212168], [7.34859, 48.212384], [7.34872, 48.212517], [7.34875, 48.212494], [7.348943, 48.212352], [7.349283, 48.212182], [7.349391, 48.212128], [7.349638, 48.212007], [7.350106, 48.212392], [7.350486, 48.212251], [7.350895, 48.212085], [7.350908, 48.212038], [7.350957, 48.212021], [7.350447, 48.21159], [7.351021, 48.212075], [7.351461, 48.211853], [7.351603, 48.211641], [7.35137, 48.211464], [7.351338, 48.21144], [7.351074, 48.21124], [7.351066, 48.211181], [7.351329, 48.211006], [7.351395, 48.210956], [7.351497, 48.210915], [7.35176, 48.210871], [7.351949, 48.210839], [7.351959, 48.210887], [7.351998, 48.210999], [7.35221, 48.211052], [7.352314, 48.211079], [7.352375, 48.211095], [7.352471, 48.21112], [7.352387, 48.211179], [7.352559, 48.211296], [7.3525, 48.21137], [7.352703, 48.211415], [7.352802, 48.211436], [7.352762, 48.211602], [7.352917, 48.211623], [7.353073, 48.211644], [7.353092, 48.211649], [7.353288, 48.211676], [7.353253, 48.211775], [7.353573, 48.211826], [7.353614, 48.211833], [7.353405, 48.212048], [7.353963, 48.212237], [7.35436, 48.211887], [7.354556, 48.211943], [7.354636, 48.211864], [7.354606, 48.211858], [7.354746, 48.211727], [7.354956, 48.211524], [7.355004, 48.211481], [7.355403, 48.211515], [7.355559, 48.211509], [7.355831, 48.211479], [7.356029, 48.211459], [7.356051, 48.21146], [7.356187, 48.211446], [7.356239, 48.211351], [7.356389, 48.211405], [7.356444, 48.211424], [7.356857, 48.211629], [7.357442, 48.211688], [7.357474, 48.211621], [7.357533, 48.211613], [7.357597, 48.211667], [7.35788, 48.211699], [7.358027, 48.211723], [7.358164, 48.211743], [7.358579, 48.211702], [7.358885, 48.211729], [7.359008, 48.211748], [7.359074, 48.211758], [7.359202, 48.211777], [7.359199, 48.211276], [7.359189, 48.211067], [7.359178, 48.210702], [7.359305, 48.210475], [7.359434, 48.210279], [7.359557, 48.210104], [7.359641, 48.209873], [7.35982, 48.209559], [7.359829, 48.209447], [7.359695, 48.208765], [7.359543, 48.208561], [7.359388, 48.208473], [7.359076, 48.208364], [7.358837, 48.208339], [7.35878, 48.208332], [7.358412, 48.208317], [7.358301, 48.208312], [7.358214, 48.208331], [7.358187, 48.208336], [7.358145, 48.208346], [7.357799, 48.208377], [7.357607, 48.208395], [7.357443, 48.208406], [7.357159, 48.208426], [7.356942, 48.208441], [7.356869, 48.208446], [7.356796, 48.208475], [7.356745, 48.208477], [7.356646, 48.208484], [7.356619, 48.208485]]]]}}]}