{"type": "FeatureCollection", "features": [{"type": "Feature", "properties": {"id": "AOC-Alsace-Grand-Cru-Engelberg", "name": "Engelberg", "commune": "Dahlenheim & Scharrachbergheim", "family": "泥灰石灰砂岩", "familyColor": "#e74c3c", "lessonId": "AL2M5L2"}, "geometry": {"type": "MultiPolygon", "coordinates": [[[[7.492717, 48.581843], [7.492708, 48.581479], [7.492708, 48.581418], [7.492669, 48.581417], [7.492434, 48.581414], [7.492315, 48.581412], [7.492199, 48.58141], [7.492094, 48.581409], [7.4918, 48.581404], [7.491443, 48.581399], [7.491255, 48.581397], [7.491248, 48.581347], [7.49124, 48.581284], [7.491304, 48.581286], [7.491304, 48.581225], [7.4913, 48.581136], [7.4913, 48.581109], [7.491299, 48.58105], [7.491299, 48.581017], [7.491298, 48.580995], [7.491298, 48.58093], [7.491296, 48.580732], [7.490756, 48.580725], [7.490505, 48.580765], [7.490573, 48.580912], [7.490661, 48.581051], [7.490741, 48.581179], [7.490786, 48.581252], [7.490829, 48.581318], [7.490937, 48.581311], [7.490989, 48.581595], [7.491103, 48.581782], [7.491169, 48.581842], [7.491244, 48.581862], [7.491321, 48.581859], [7.491491, 48.581853], [7.49172, 48.581844], [7.491834, 48.581844], [7.492123, 48.581844], [7.492152, 48.581884], [7.49232, 48.582566], [7.492351, 48.582571], [7.492484, 48.582584], [7.492601, 48.582596], [7.492668, 48.582597], [7.492908, 48.582599], [7.492926, 48.582636], [7.49297, 48.582742], [7.49334, 48.582734], [7.493349, 48.582797], [7.49335, 48.582802], [7.493355, 48.582836], [7.493364, 48.582903], [7.493372, 48.582952], [7.493333, 48.582962], [7.493338, 48.582978], [7.493365, 48.583068], [7.49338, 48.583118], [7.49339, 48.583152], [7.493391, 48.583156], [7.493423, 48.583267], [7.493431, 48.583294], [7.493963, 48.583312], [7.494551, 48.583368], [7.494982, 48.583426], [7.495432, 48.583514], [7.495612, 48.583249], [7.495642, 48.583204], [7.495728, 48.583079], [7.495766, 48.583023], [7.495392, 48.582969], [7.495267, 48.582966], [7.495234, 48.582851], [7.495243, 48.582708], [7.495244, 48.582701], [7.495254, 48.582524], [7.495501, 48.582501], [7.495476, 48.582331], [7.495388, 48.581731], [7.495124, 48.581762], [7.495036, 48.581772], [7.494725, 48.581809], [7.494549, 48.581829], [7.494352, 48.581843], [7.494111, 48.58186], [7.493988, 48.581868], [7.493927, 48.581872], [7.493791, 48.581873], [7.493391, 48.581876], [7.493212, 48.581879], [7.493078, 48.581881], [7.492927, 48.581883], [7.492768, 48.581886], [7.492706, 48.581886], [7.492717, 48.581843]]], [[[7.497814, 48.581504], [7.497801, 48.581505], [7.497612, 48.581535], [7.497414, 48.581566], [7.497214, 48.581597], [7.497108, 48.581614], [7.497005, 48.581624], [7.49685, 48.58164], [7.496698, 48.581655], [7.496587, 48.581666], [7.49653, 48.581667], [7.496508, 48.581667], [7.496424, 48.581669], [7.496316, 48.58167], [7.496098, 48.581674], [7.495843, 48.581678], [7.495581, 48.581709], [7.495651, 48.582088], [7.495789, 48.582091], [7.495804, 48.582149], [7.495891, 48.582143], [7.495898, 48.582212], [7.495907, 48.582303], [7.495904, 48.582357], [7.495902, 48.582375], [7.495901, 48.582393], [7.4959, 48.582415], [7.495897, 48.582447], [7.495896, 48.582464], [7.495893, 48.582519], [7.495889, 48.582573], [7.49588, 48.582712], [7.495872, 48.582832], [7.496113, 48.582875], [7.496496, 48.582968], [7.49839, 48.583387], [7.498476, 48.583382], [7.498519, 48.583271], [7.498578, 48.583269], [7.498683, 48.583263], [7.498774, 48.583257], [7.498871, 48.583252], [7.498957, 48.583246], [7.499081, 48.583239], [7.49915, 48.583234], [7.499282, 48.583232], [7.499418, 48.58323], [7.499461, 48.583229], [7.499558, 48.583228], [7.499618, 48.583227], [7.499741, 48.583225], [7.499785, 48.583225], [7.499818, 48.583218], [7.499814, 48.582982], [7.499729, 48.581881], [7.499704, 48.58147], [7.499702, 48.581439], [7.499661, 48.581438], [7.499552, 48.581437], [7.499505, 48.581436], [7.499421, 48.581435], [7.499388, 48.581435], [7.499265, 48.581434], [7.499136, 48.581432], [7.499011, 48.58143], [7.498863, 48.581428], [7.498789, 48.581431], [7.498576, 48.581439], [7.498519, 48.581441], [7.498423, 48.58145], [7.498313, 48.581459], [7.498261, 48.581463], [7.498203, 48.581468], [7.498058, 48.58148], [7.497988, 48.581486], [7.497885, 48.581495], [7.497814, 48.581504]]], [[[7.493727, 48.584382], [7.49386, 48.58448], [7.493926, 48.584528], [7.493901, 48.584567], [7.494004, 48.584608], [7.494072, 48.584635], [7.494154, 48.584668], [7.49428, 48.584719], [7.494349, 48.584747], [7.494443, 48.584784], [7.494461, 48.584792], [7.494589, 48.584843], [7.494488, 48.58497], [7.494536, 48.58499], [7.494601, 48.585016], [7.494824, 48.585105], [7.494936, 48.585151], [7.494994, 48.585174], [7.495222, 48.585265], [7.49536, 48.585321], [7.49608, 48.584473], [7.495947, 48.584422], [7.495845, 48.584382], [7.495725, 48.584335], [7.495668, 48.584314], [7.495558, 48.584271], [7.495406, 48.584212], [7.495307, 48.584174], [7.495227, 48.584143], [7.495043, 48.584072], [7.495119, 48.58398], [7.495297, 48.583763], [7.495259, 48.583753], [7.495432, 48.583514], [7.494982, 48.583426], [7.494551, 48.583368], [7.493963, 48.583312], [7.493431, 48.583294], [7.493423, 48.583267], [7.493391, 48.583156], [7.493389, 48.583152], [7.49338, 48.583118], [7.493365, 48.583068], [7.493338, 48.582978], [7.493333, 48.582962], [7.493371, 48.582952], [7.493365, 48.58291], [7.493364, 48.582903], [7.493355, 48.582836], [7.49335, 48.582802], [7.49335, 48.582801], [7.493349, 48.582797], [7.49334, 48.582734], [7.49297, 48.582742], [7.492926, 48.582637], [7.492908, 48.582599], [7.492668, 48.582596], [7.492601, 48.582596], [7.492484, 48.582584], [7.492351, 48.582571], [7.49232, 48.582566], [7.492152, 48.581884], [7.492094, 48.581883], [7.491984, 48.58188], [7.491873, 48.581878], [7.491724, 48.581875], [7.491159, 48.58192], [7.491101, 48.581934], [7.491323, 48.582522], [7.491179, 48.582528], [7.491195, 48.582595], [7.491221, 48.58271], [7.491231, 48.582755], [7.491238, 48.582786], [7.491254, 48.582854], [7.491264, 48.582898], [7.491277, 48.582956], [7.491291, 48.583099], [7.491296, 48.583357], [7.491325, 48.583477], [7.491573, 48.583466], [7.491631, 48.583471], [7.491729, 48.583478], [7.491733, 48.583479], [7.49183, 48.583486], [7.49192, 48.583493], [7.492029, 48.583501], [7.492136, 48.583509], [7.492155, 48.583511], [7.492245, 48.583518], [7.492341, 48.583525], [7.492585, 48.583537], [7.492714, 48.583543], [7.492862, 48.583551], [7.492787, 48.584014], [7.492778, 48.584071], [7.492954, 48.584084], [7.492923, 48.58419], [7.493536, 48.584337], [7.493619, 48.584357], [7.49365, 48.584364], [7.493727, 48.584382]]]]}}]}