{"type": "FeatureCollection", "features": [{"type": "Feature", "properties": {"id": "AOC-Alsace-Grand-Cru-Zotzenberg", "name": "Zotzenberg", "commune": "Mittelbergheim", "family": "泥灰石灰砂岩", "familyColor": "#f39c12", "lessonId": "AL2M5L2"}, "geometry": {"type": "MultiPolygon", "coordinates": [[[[7.445487, 48.396879], [7.445482, 48.396867], [7.445434, 48.396767], [7.445337, 48.396563], [7.445332, 48.396554], [7.445315, 48.3965], [7.445253, 48.396309], [7.445154, 48.396325], [7.444787, 48.396407], [7.444792, 48.396416], [7.444824, 48.396479], [7.444865, 48.396623], [7.444873, 48.396651], [7.444881, 48.396678], [7.444895, 48.39673], [7.44455, 48.396911], [7.444376, 48.397002], [7.444411, 48.397049], [7.444187, 48.397135], [7.444285, 48.397225], [7.444343, 48.39728], [7.444373, 48.397316], [7.443976, 48.397558], [7.443958, 48.397569], [7.444026, 48.397622], [7.444088, 48.39767], [7.444142, 48.397716], [7.444204, 48.397759], [7.444397, 48.397893], [7.444488, 48.397977], [7.444647, 48.398124], [7.444748, 48.398298], [7.444903, 48.398574], [7.444992, 48.398692], [7.445087, 48.398818], [7.445098, 48.398829], [7.445173, 48.398991], [7.445243, 48.399142], [7.445275, 48.399209], [7.445603, 48.399517], [7.445626, 48.399538], [7.445723, 48.399632], [7.445809, 48.399695], [7.445872, 48.399742], [7.445934, 48.399787], [7.446524, 48.399586], [7.446711, 48.399518], [7.446688, 48.399494], [7.44734, 48.399275], [7.447359, 48.399311], [7.448059, 48.399087], [7.44805, 48.399078], [7.447929, 48.398939], [7.447714, 48.398692], [7.447648, 48.398623], [7.447572, 48.398542], [7.447505, 48.398468], [7.447484, 48.398445], [7.447496, 48.39844], [7.447324, 48.398218], [7.447243, 48.398112], [7.447103, 48.397933], [7.447076, 48.397912], [7.447002, 48.397852], [7.446941, 48.397803], [7.446923, 48.397792], [7.446831, 48.397736], [7.446693, 48.397654], [7.4463, 48.397471], [7.44621, 48.397424], [7.446005, 48.397307], [7.445853, 48.397221], [7.445791, 48.397181], [7.44574, 48.39715], [7.445647, 48.397077], [7.445578, 48.397005], [7.445534, 48.396954], [7.445516, 48.396927], [7.4455, 48.396905], [7.445487, 48.396879]]], [[[7.436117, 48.400429], [7.436207, 48.400382], [7.436205, 48.400332], [7.436258, 48.400315], [7.436259, 48.400121], [7.436254, 48.400025], [7.436218, 48.399849], [7.436215, 48.399725], [7.43621, 48.399284], [7.43612, 48.399294], [7.435957, 48.399309], [7.435835, 48.399322], [7.435603, 48.399327], [7.435505, 48.399328], [7.435495, 48.399287], [7.435387, 48.399297], [7.435307, 48.399307], [7.435309, 48.399316], [7.435149, 48.399327], [7.435081, 48.39911], [7.434875, 48.399144], [7.434842, 48.399173], [7.434769, 48.39919], [7.434651, 48.399217], [7.434576, 48.399231], [7.434681, 48.399506], [7.434583, 48.399486], [7.434471, 48.399498], [7.434362, 48.399513], [7.43435, 48.399507], [7.434336, 48.399507], [7.434292, 48.399512], [7.434248, 48.399518], [7.434167, 48.399532], [7.434183, 48.399635], [7.434194, 48.399703], [7.434204, 48.399769], [7.433279, 48.399906], [7.432856, 48.399967], [7.432346, 48.400039], [7.432368, 48.400101], [7.432381, 48.400135], [7.432346, 48.400142], [7.431721, 48.400241], [7.431527, 48.400272], [7.431108, 48.400338], [7.431153, 48.400449], [7.431171, 48.400496], [7.431297, 48.400733], [7.431371, 48.401167], [7.43152, 48.401169], [7.431601, 48.40117], [7.431842, 48.40117], [7.431972, 48.401181], [7.432246, 48.401203], [7.432464, 48.401222], [7.432544, 48.401229], [7.432625, 48.401236], [7.432683, 48.40124], [7.432817, 48.401252], [7.43307, 48.401273], [7.433216, 48.401285], [7.433428, 48.401302], [7.433704, 48.401331], [7.433874, 48.401348], [7.434229, 48.401384], [7.434245, 48.401386], [7.434248, 48.401359], [7.434304, 48.401365], [7.434415, 48.401376], [7.434505, 48.401384], [7.4345, 48.401411], [7.434697, 48.401431], [7.434875, 48.401449], [7.434942, 48.401455], [7.435071, 48.401471], [7.435609, 48.401541], [7.435231, 48.401492], [7.435231, 48.401523], [7.43523, 48.401549], [7.435202, 48.401977], [7.435195, 48.402083], [7.43557, 48.402097], [7.435574, 48.402039], [7.435964, 48.402062], [7.435966, 48.402026], [7.436305, 48.40206], [7.436319, 48.402024], [7.436424, 48.402039], [7.43656, 48.402059], [7.436511, 48.402189], [7.43667, 48.402192], [7.436717, 48.402193], [7.436987, 48.402197], [7.437217, 48.402202], [7.437444, 48.402187], [7.437788, 48.402163], [7.437747, 48.402028], [7.437728, 48.401816], [7.437724, 48.401774], [7.437706, 48.401722], [7.437822, 48.401726], [7.437965, 48.401732], [7.438234, 48.401748], [7.43853, 48.401759], [7.438664, 48.401757], [7.438789, 48.401753], [7.439417, 48.401734], [7.439503, 48.401731], [7.439675, 48.401726], [7.43989, 48.40172], [7.440167, 48.401636], [7.440028, 48.401249], [7.43998, 48.401208], [7.43993, 48.401116], [7.440005, 48.400743], [7.44012, 48.40076], [7.440359, 48.400755], [7.440391, 48.40075], [7.440658, 48.400712], [7.440687, 48.400834], [7.440741, 48.401054], [7.440936, 48.401023], [7.441046, 48.401301], [7.441382, 48.401264], [7.441807, 48.401227], [7.441927, 48.401208], [7.442377, 48.401122], [7.442434, 48.40111], [7.442467, 48.401104], [7.442532, 48.401097], [7.442836, 48.401063], [7.442908, 48.401058], [7.443028, 48.40105], [7.443103, 48.401044], [7.443654, 48.401016], [7.443756, 48.401007], [7.445089, 48.400932], [7.445219, 48.400916], [7.44547, 48.40087], [7.445211, 48.400699], [7.445096, 48.400623], [7.44496, 48.400534], [7.444545, 48.40026], [7.444385, 48.400159], [7.444116, 48.399989], [7.444059, 48.399955], [7.444163, 48.399903], [7.444194, 48.399887], [7.444715, 48.399649], [7.444773, 48.399623], [7.444782, 48.39963], [7.444788, 48.399636], [7.444822, 48.399624], [7.44544, 48.399419], [7.445351, 48.399334], [7.44531, 48.399296], [7.445273, 48.399261], [7.445204, 48.399203], [7.445166, 48.399109], [7.445143, 48.399058], [7.445121, 48.399006], [7.445099, 48.398958], [7.445073, 48.398897], [7.445047, 48.398844], [7.444977, 48.398747], [7.444902, 48.398645], [7.44486, 48.398587], [7.444813, 48.398498], [7.444754, 48.398396], [7.444615, 48.398151], [7.444461, 48.398007], [7.444363, 48.397915], [7.44429, 48.397867], [7.44411, 48.397741], [7.444014, 48.397665], [7.443622, 48.397856], [7.443436, 48.397947], [7.443338, 48.397872], [7.443279, 48.397814], [7.443001, 48.397901], [7.442277, 48.398067], [7.442307, 48.398164], [7.442365, 48.398351], [7.442389, 48.398426], [7.442394, 48.398443], [7.442381, 48.398447], [7.442394, 48.398478], [7.44243, 48.398543], [7.442327, 48.398546], [7.441973, 48.398572], [7.441753, 48.39859], [7.441648, 48.398598], [7.44165, 48.398555], [7.441671, 48.398243], [7.441678, 48.398179], [7.441681, 48.398147], [7.441684, 48.398118], [7.441397, 48.398138], [7.441382, 48.398055], [7.441484, 48.39805], [7.441441, 48.397816], [7.441364, 48.397461], [7.441364, 48.397428], [7.441227, 48.397096], [7.441018, 48.397128], [7.440969, 48.396962], [7.440913, 48.396774], [7.440829, 48.396777], [7.440559, 48.396789], [7.440537, 48.396724], [7.440303, 48.396746], [7.440298, 48.39671], [7.440132, 48.396776], [7.439959, 48.39685], [7.439826, 48.396905], [7.439786, 48.396922], [7.439861, 48.397115], [7.439831, 48.397121], [7.439815, 48.397127], [7.440045, 48.397492], [7.440026, 48.397543], [7.44006, 48.397555], [7.439925, 48.397596], [7.439825, 48.397627], [7.43966, 48.397656], [7.439616, 48.397668], [7.439492, 48.397701], [7.439351, 48.39774], [7.439186, 48.397759], [7.439075, 48.397758], [7.438919, 48.397741], [7.438867, 48.397825], [7.438851, 48.397912], [7.438868, 48.397957], [7.43893, 48.397992], [7.439018, 48.398042], [7.439136, 48.398114], [7.439219, 48.398165], [7.439255, 48.398187], [7.439515, 48.398346], [7.439529, 48.398354], [7.440032, 48.39855], [7.440131, 48.39857], [7.440263, 48.398597], [7.440346, 48.398614], [7.440404, 48.398625], [7.440414, 48.398626], [7.440808, 48.398657], [7.440803, 48.398699], [7.440719, 48.398692], [7.440532, 48.398681], [7.440396, 48.398672], [7.440352, 48.398664], [7.440123, 48.398619], [7.440005, 48.398589], [7.439732, 48.398488], [7.439585, 48.39843], [7.439498, 48.398395], [7.439008, 48.398114], [7.438954, 48.398084], [7.438861, 48.398169], [7.438803, 48.398221], [7.438797, 48.398226], [7.438662, 48.398323], [7.438592, 48.398374], [7.438516, 48.398429], [7.438402, 48.398496], [7.438289, 48.398545], [7.438251, 48.398562], [7.438181, 48.398595], [7.438115, 48.398626], [7.43796, 48.398667], [7.437651, 48.398754], [7.437451, 48.39881], [7.43739, 48.398825], [7.437316, 48.398844], [7.437191, 48.398875], [7.437132, 48.39889], [7.437064, 48.398907], [7.436952, 48.398935], [7.436807, 48.398972], [7.43669, 48.399001], [7.436592, 48.399026], [7.436478, 48.399035], [7.436362, 48.399044], [7.436256, 48.399052], [7.436231, 48.399156], [7.436236, 48.399736], [7.436277, 48.400019], [7.436304, 48.400424], [7.436461, 48.400414], [7.436455, 48.40046], [7.43618, 48.400475], [7.436117, 48.400429]], [[7.442743, 48.398967], [7.442966, 48.399154], [7.442887, 48.399092], [7.442767, 48.398991], [7.442743, 48.398967]], [[7.442966, 48.399154], [7.44303, 48.399194], [7.443078, 48.399222], [7.44301, 48.399187], [7.442966, 48.399154]], [[7.442546, 48.398736], [7.442628, 48.398833], [7.442701, 48.398925], [7.442623, 48.398835], [7.442559, 48.398754], [7.442546, 48.398736]], [[7.442549, 48.399142], [7.442125, 48.398989], [7.442398, 48.398689], [7.442655, 48.398993], [7.442952, 48.399235], [7.442549, 48.399142]]]]}}]}