{"type": "FeatureCollection", "features": [{"type": "Feature", "properties": {"id": "AOC-Alsace-Grand-Cru-Osterberg", "name": "Osterberg", "commune": "Ribeauvillé", "family": "泥灰石灰砂岩", "familyColor": "#d35400", "lessonId": "AL2M5L2"}, "geometry": {"type": "MultiPolygon", "coordinates": [[[[7.326493, 48.194552], [7.326482, 48.194552], [7.326241, 48.194543], [7.326229, 48.194691], [7.326213, 48.194921], [7.326209, 48.194941], [7.326207, 48.19498], [7.326204, 48.195006], [7.326369, 48.195045], [7.326489, 48.195161], [7.326428, 48.19518], [7.325572, 48.195878], [7.325569, 48.195878], [7.325563, 48.195875], [7.32546, 48.195803], [7.325391, 48.195782], [7.325323, 48.195768], [7.32529, 48.19576], [7.325272, 48.195804], [7.324944, 48.19615], [7.32495, 48.196216], [7.324996, 48.196249], [7.324774, 48.196311], [7.324326, 48.196531], [7.324036, 48.196643], [7.323792, 48.196787], [7.323518, 48.196905], [7.323487, 48.196922], [7.323381, 48.196874], [7.323278, 48.196863], [7.323172, 48.196896], [7.323019, 48.196999], [7.322964, 48.197019], [7.32281, 48.197041], [7.322679, 48.19706], [7.322764, 48.197212], [7.322831, 48.19733], [7.322876, 48.197386], [7.322981, 48.197516], [7.323198, 48.197699], [7.323234, 48.197741], [7.32308, 48.198103], [7.323002, 48.198241], [7.322974, 48.198293], [7.322851, 48.198535], [7.322787, 48.19871], [7.322735, 48.19906], [7.322783, 48.199111], [7.322845, 48.199119], [7.323105, 48.19916], [7.323212, 48.199185], [7.323341, 48.199218], [7.32342, 48.199255], [7.323448, 48.199267], [7.323532, 48.199307], [7.323558, 48.199324], [7.323686, 48.199413], [7.323829, 48.199509], [7.324083, 48.199613], [7.325502, 48.198874], [7.325589, 48.198882], [7.325659, 48.198886], [7.325616, 48.198852], [7.325734, 48.198939], [7.325819, 48.199028], [7.325834, 48.199042], [7.32584, 48.199051], [7.325984, 48.199197], [7.326099, 48.199317], [7.326296, 48.199546], [7.326524, 48.199859], [7.326743, 48.200069], [7.327041, 48.200344], [7.327171, 48.200422], [7.327454, 48.200553], [7.327481, 48.200588], [7.327603, 48.200724], [7.327614, 48.20073], [7.327857, 48.200662], [7.328304, 48.200498], [7.328796, 48.20031], [7.32929, 48.200056], [7.329245, 48.200009], [7.329065, 48.199818], [7.328984, 48.199556], [7.328986, 48.199406], [7.329018, 48.199147], [7.328987, 48.198896], [7.329069, 48.198873], [7.329258, 48.198816], [7.329358, 48.198682], [7.32943, 48.198584], [7.329522, 48.198485], [7.329759, 48.198282], [7.329795, 48.198235], [7.329839, 48.198174], [7.329846, 48.198133], [7.329799, 48.197981], [7.329717, 48.197804], [7.329637, 48.197713], [7.329518, 48.197609], [7.32941, 48.197512], [7.329221, 48.197281], [7.329236, 48.197297], [7.329293, 48.197275], [7.329465, 48.197204], [7.329742, 48.197091], [7.329789, 48.197075], [7.329681, 48.196942], [7.329651, 48.196903], [7.329884, 48.196817], [7.330305, 48.196665], [7.330314, 48.196605], [7.330333, 48.196604], [7.330334, 48.196585], [7.330373, 48.19627], [7.329789, 48.196522], [7.329657, 48.196579], [7.32956, 48.19662], [7.329025, 48.196829], [7.328917, 48.196662], [7.329325, 48.196443], [7.329295, 48.196414], [7.329227, 48.196366], [7.329146, 48.196338], [7.329005, 48.19632], [7.329305, 48.196165], [7.329106, 48.196006], [7.329083, 48.195992], [7.329462, 48.195681], [7.329474, 48.19567], [7.329271, 48.195587], [7.329283, 48.195569], [7.329092, 48.195507], [7.329214, 48.195252], [7.329237, 48.195205], [7.329269, 48.195139], [7.329071, 48.195097], [7.329044, 48.195093], [7.329017, 48.19509], [7.328992, 48.195087], [7.32884, 48.195068], [7.328611, 48.19504], [7.328374, 48.195011], [7.328295, 48.195003], [7.327971, 48.194963], [7.327503, 48.194908], [7.327585, 48.194595], [7.32718, 48.194579], [7.326917, 48.194569], [7.326493, 48.194552]], [[7.327853, 48.196908], [7.328238, 48.196698], [7.328378, 48.196627], [7.328317, 48.196576], [7.328433, 48.196674], [7.328441, 48.196681], [7.328672, 48.196799], [7.32886, 48.196895], [7.328803, 48.196922], [7.32838, 48.197146], [7.328307, 48.197178], [7.328301, 48.197169], [7.328289, 48.197157], [7.328236, 48.197099], [7.32823, 48.197091], [7.328033, 48.196892], [7.327977, 48.19684], [7.327853, 48.196908]]], [[[7.330035, 48.198529], [7.330019, 48.198335], [7.329961, 48.198215], [7.329823, 48.198245], [7.329781, 48.198286], [7.329541, 48.19849], [7.32945, 48.198591], [7.32938, 48.19869], [7.329276, 48.198838], [7.329201, 48.198969], [7.329116, 48.199152], [7.329072, 48.199405], [7.329153, 48.199798], [7.329431, 48.2001], [7.329682, 48.200368], [7.329888, 48.200676], [7.3301, 48.200987], [7.330121, 48.201019], [7.330189, 48.201126], [7.330239, 48.201206], [7.33105, 48.200913], [7.331142, 48.200852], [7.331863, 48.200367], [7.331802, 48.200285], [7.331796, 48.200278], [7.331772, 48.20025], [7.331622, 48.200127], [7.331493, 48.200026], [7.331196, 48.199826], [7.331159, 48.1998], [7.330784, 48.199603], [7.330627, 48.199504], [7.330508, 48.199399], [7.330444, 48.199342], [7.330297, 48.199187], [7.330085, 48.198746], [7.330045, 48.198617], [7.330035, 48.198529]]]]}}]}