{
  "type": "FeatureCollection",
  "features": [
    {
      "type": "Feature",
      "id": "north",
      "properties": { "zone": "north", "label": "北部 NORD" },
      "geometry": {
        "type": "Polygon",
        "coordinates": [[
          [6.8, 44.0], [7.0, 43.8], [9.7, 43.8],
          [12.5, 44.2], [13.8, 43.9], [14.7, 44.2],
          [14.0, 45.5], [13.5, 46.5], [12.2, 47.1],
          [10.5, 47.5], [8.5, 46.5], [7.0, 46.0],
          [6.8, 44.0]
        ]]
      }
    },
    {
      "type": "Feature",
      "id": "center",
      "properties": { "zone": "center", "label": "中部 CENTRO" },
      "geometry": {
        "type": "Polygon",
        "coordinates": [[
          [7.0, 43.8], [9.7, 43.8], [12.5, 44.2],
          [13.8, 43.9], [14.7, 44.2], [16.2, 41.5],
          [15.5, 40.8], [13.5, 40.6], [11.0, 40.5],
          [10.0, 41.3], [8.5, 42.0], [7.5, 43.0],
          [7.0, 43.8]
        ]]
      }
    },
    {
      "type": "Feature",
      "id": "south",
      "properties": { "zone": "south", "label": "南部 SUD" },
      "geometry": {
        "type": "Polygon",
        "coordinates": [[
          [10.0, 41.3], [11.0, 40.5], [13.5, 40.6],
          [15.5, 40.8], [16.2, 41.5], [18.5, 40.0],
          [18.3, 39.5], [16.5, 38.0], [15.9, 37.9],
          [15.5, 38.5], [15.0, 39.0], [14.5, 39.5],
          [13.0, 40.2], [11.5, 40.5], [10.0, 41.3]
        ]]
      }
    },
    {
      "type": "Feature",
      "id": "islands",
      "properties": { "zone": "islands", "label": "島嶼 ISOLE" },
      "geometry": {
        "type": "MultiPolygon",
        "coordinates": [
          [[
            [12.3, 38.2], [13.2, 38.2], [14.5, 38.2],
            [15.3, 38.0], [15.7, 37.7], [15.6, 37.1],
            [15.0, 36.8], [14.0, 36.7], [12.9, 36.7],
            [12.3, 37.3], [12.3, 38.2]
          ]],
          [[
            [8.2, 41.2], [9.3, 41.3], [9.7, 40.5],
            [9.5, 39.1], [9.0, 38.8], [8.3, 39.0],
            [8.2, 40.0], [8.2, 41.2]
          ]]
        ]
      }
    }
  ]
}
