{"type":"FeatureCollection","crs":{"type":"name","properties":{"name":"urn:ogc:def:crs:EPSG::4326"}},"features":[{"type":"Feature","properties":{"region_id":22,"name":"Csongrád","name_hu":"Csongrádi borvidék","region_group":"Alföld (Great Plain)","area_ha_approx":1000,"notable_grapes":"Kadarka, Kékfrankos, Kövidinka","notes":"SE Great Plain; sandy soils along Tisza river; traditional Kadarka"},"geometry":{"type":"Polygon","coordinates":[[[19.9351389,46.1761932],[19.9279217,46.1709708],[19.9218436,46.1669527],[19.9148804,46.1639849],[19.9102354,46.1630491],[19.9053309,46.1615643],[19.8978213,46.1598806],[19.881985,46.1542083],[19.8733725,46.1513556],[19.8627122,46.1500232],[19.8531941,46.1497905],[19.8526973,46.1494536],[19.8495182,46.1457372],[19.8442445,46.1414042],[19.8218397,46.1304195],[19.8178337,46.1277866],[19.8166724,46.1284652],[19.8141569,46.1304416],[19.8125725,46.1312818],[19.8082851,46.1319399],[19.8062376,46.1331776],[19.8049873,46.1335286],[19.8017284,46.1349509],[19.7995002,46.1363786],[19.7980168,46.1385685],[19.7981298,46.138943],[19.7973065,46.1394639],[19.7951874,46.1394729],[19.7935632,46.1401779],[19.7930986,46.1400417],[19.7919439,46.1392855],[19.7915018,46.1393009],[19.7871586,46.1411667],[19.7848598,46.1426921],[19.7828984,46.1436662],[19.7806854,46.1445304],[19.7755723,46.1439609],[19.7717827,46.144152],[19.7680684,46.1449764],[19.7656265,46.1460259],[19.7616286,46.1465662],[19.7584888,46.1478743],[19.757239,46.149217],[19.7557647,46.1502338],[19.7530693,46.1524758],[19.7498262,46.1556361],[19.7484024,46.1564859],[19.7447558,46.1603514],[19.741041,46.1656458],[19.7340335,46.1698249],[19.7327051,46.1701338],[19.7303053,46.1688606],[19.7270598,46.1681038],[19.726121,46.168266],[19.7247592,46.1692721],[19.7218051,46.1695877],[19.7179406,46.1715819],[19.7175239,46.1732442],[19.7179942,46.1741885],[19.7174101,46.1750673],[19.7176724,46.1759806],[19.703298,46.1839813],[19.7019883,46.1852353],[19.7007843,46.1866738],[19.6998298,46.1874615],[19.6980954,46.1881615],[19.696453,46.187677],[19.686297,46.1820297],[19.6868934,46.1810895],[19.6865235,46.1803422],[19.6857177,46.1800609],[19.6849051,46.1801687],[19.6844609,46.179909],[19.6825437,46.1799668],[19.6819938,46.1803344],[19.6799142,46.1809274],[19.6780785,46.1817868],[19.6765567,46.1820726],[19.6758493,46.1829493],[19.6732719,46.1841165],[19.6722004,46.1855847],[19.6702835,46.1867916],[19.6697504,46.1860199],[19.6695821,46.184251],[19.6679328,46.1851059],[19.6649294,46.1872743],[19.6638492,46.1892546],[19.6615385,46.1902839],[19.6314928,46.1694078],[19.6314762,46.1692611],[19.6079765,46.1727729],[19.606366,46.1721282],[19.6055112,46.1731399],[19.5676294,46.1787179],[19.5631497,46.1769784],[19.5642619,46.1756179],[19.5598325,46.1739294],[19.5631693,46.1697583],[19.5586322,46.168016],[19.5604429,46.1662977],[19.5344803,46.1518824],[19.5338513,46.1522275],[19.5305808,46.1501012],[19.5303949,46.150229],[19.5265629,46.1476923],[19.5167587,46.1517353],[19.5066081,46.1561426],[19.4934031,46.1612966],[19.4706718,46.171064],[19.4744528,46.1779742],[19.4548995,46.2020386],[19.4835041,46.2129758],[19.4688336,46.2309311],[19.4974625,46.2426209],[19.4515217,46.2637379],[19.4394916,46.2694949],[19.4389403,46.2698811],[19.4351522,46.2775052],[19.420963,46.2897382],[19.4204088,46.28974],[19.4319734,46.2942751],[19.4446508,46.3003236],[19.4479811,46.3045016],[19.4562573,46.3086554],[19.4546287,46.3120887],[19.4634492,46.3158682],[19.469528,46.3200354],[19.4739587,46.3238242],[19.4800331,46.3272285],[19.4850078,46.3306367],[19.4697124,46.3436425],[19.466977,46.3451774],[19.4774929,46.3542735],[19.4802587,46.3554095],[19.5051104,46.3686369],[19.5078516,46.366723],[19.5144692,46.3689828],[19.5133811,46.3705058],[19.5112244,46.3758449],[19.5177391,46.3790227],[19.5193409,46.377568],[19.5184745,46.3796734],[19.5239299,46.3818907],[19.5261462,46.3833998],[19.5278007,46.3841551],[19.5305794,46.3864303],[19.533851,46.3837511],[19.5388274,46.3863947],[19.5404786,46.3867656],[19.543209,46.3837104],[19.5574131,46.3733647],[19.5672679,46.3683675],[19.5739437,46.3763319],[19.5789477,46.3816449],[19.5822934,46.3858127],[19.5939845,46.3994666],[19.6095739,46.4169118],[19.6101413,46.4180494],[19.6123486,46.4191788],[19.6223729,46.429795],[19.6279545,46.4362372],[19.6268642,46.4373832],[19.6208329,46.4400791],[19.6202942,46.4408442],[19.6191996,46.4416121],[19.6263738,46.4434784],[19.6468276,46.4494643],[19.6595914,46.4577756],[19.6361574,46.4815085],[19.6290716,46.4891626],[19.6198014,46.498352],[19.6022799,46.5102465],[19.591306,46.5160082],[19.5781363,46.5233101],[19.5732308,46.5294256],[19.5683278,46.535919],[19.567791,46.5370619],[19.569473,46.5401036],[19.5739437,46.5454131],[19.5811919,46.5526123],[19.5845281,46.5556459],[19.6027782,46.5586072],[19.6193074,46.5558536],[19.6484516,46.5461824],[19.6670528,46.5319939],[19.6807694,46.5254471],[19.6786097,46.5296429],[19.6958157,46.5391234],[19.7159594,46.5602763],[19.7221186,46.5670948],[19.7298025,46.5636212],[19.7363707,46.5593915],[19.742933,46.5547834],[19.7577157,46.5455494],[19.7697671,46.538618],[19.7801594,46.5320803],[19.7916115,46.5224852],[19.809587,46.50599],[19.8184258,46.5070706],[19.830577,46.5081337],[19.837745,46.508462],[19.8482679,46.5110532],[19.863545,46.5002831],[19.873377,46.4941189],[19.8859671,46.4883114],[19.8952142,46.4806249],[19.9010797,46.4680169],[19.9010496,46.4661143],[19.9047035,46.4653745],[19.9203405,46.465967],[19.9379218,46.4627803],[19.9384563,46.4620137],[19.959653,46.4447063],[19.9645329,46.4400987],[19.9866921,46.44715],[19.9845396,46.4502175],[19.9829163,46.4517557],[19.9818201,46.4521429],[19.9812774,46.4529098],[19.9801877,46.4536812],[19.9979493,46.4611509],[20.002942,46.4630117],[20.0062781,46.4645082],[20.0129352,46.4671168],[20.0243389,46.4578763],[20.0366225,46.4665277],[20.0436828,46.460757],[20.0633392,46.4510613],[20.0671152,46.4468372],[20.0804533,46.4531872],[20.0820683,46.4508914],[20.0864924,46.4519913],[20.0897934,46.4515828],[20.0925459,46.4515574],[20.0936412,46.451163],[20.0941881,46.4511579],[20.0941808,46.4507799],[20.1003008,46.4537664],[20.1019283,46.4526107],[20.1064217,46.4567589],[20.1047868,46.4575366],[20.1160013,46.4677143],[20.1193484,46.4695855],[20.1338246,46.4770653],[20.1436447,46.4720179],[20.1550907,46.4654289],[20.1595018,46.4657699],[20.1732685,46.4652493],[20.1744114,46.4671471],[20.1766653,46.4694056],[20.182244,46.4727776],[20.18226,46.4735398],[20.1817369,46.4746856],[20.1823401,46.4773449],[20.185142,46.479604],[20.1846992,46.4845611],[20.1863659,46.4853067],[20.1885808,46.4856625],[20.1919235,46.4871536],[20.1945725,46.4821741],[20.1973347,46.4825303],[20.198438,46.4825191],[20.1995577,46.4832701],[20.1995658,46.4836482],[20.2006773,46.4840149],[20.2017473,46.4828635],[20.2056628,46.4851107],[20.2073216,46.4854718],[20.2089887,46.4862171],[20.211751,46.4865668],[20.2128545,46.4865555],[20.212871,46.4873177],[20.2134355,46.4876962],[20.2139992,46.4884528],[20.2140074,46.4888309],[20.2195573,46.4906764],[20.2295972,46.4959089],[20.2385435,46.501524],[20.2402205,46.5022687],[20.2457727,46.504113],[20.2496656,46.5055965],[20.2524292,46.5059453],[20.2590952,46.5077832],[20.2613025,46.5081377],[20.2707503,46.5110856],[20.2740794,46.5118058],[20.2785299,46.5136667],[20.2824679,46.5170516],[20.2841457,46.5181738],[20.2925011,46.5215101],[20.2958576,46.5233761],[20.2985695,46.5214431],[20.3023764,46.5191137],[20.3062097,46.5179305],[20.3116944,46.5167288],[20.3116587,46.5152044],[20.3131941,46.5098563],[20.3142024,46.5056567],[20.3241793,46.508208],[20.3209755,46.5124344],[20.3189471,46.5200755],[20.3184174,46.5208376],[20.3184624,46.5227463],[20.3191446,46.5284477],[20.3471259,46.5220365],[20.3632659,46.5180466],[20.374299,46.5201544],[20.3767329,46.5144586],[20.4150582,46.5255446],[20.4262573,46.5234504],[20.4304809,46.5237139],[20.4332663,46.5248267],[20.4380441,46.5175278],[20.4402719,46.5182628],[20.4439049,46.5094591],[20.4544775,46.5131342],[20.4608329,46.5031554],[20.4647215,46.5042473],[20.4705669,46.4957992],[20.4816951,46.4994648],[20.4881251,46.4925271],[20.4892286,46.492513],[20.4945215,46.4840645],[20.4978431,46.4847844],[20.5017415,46.4862593],[20.5022976,46.4862521],[20.5092397,46.4781659],[20.5153547,46.4799898],[20.5201279,46.4730717],[20.5156933,46.4719888],[20.5210022,46.4646793],[20.5271163,46.4665087],[20.5308256,46.4611228],[20.5297124,46.4607592],[20.5307839,46.4596046],[20.5318971,46.4599681],[20.5313308,46.4595974],[20.5404477,46.4503338],[20.5448916,46.4518],[20.5447966,46.4483732],[20.5453101,46.4468414],[20.5463704,46.4453024],[20.5458041,46.4449318],[20.5473672,46.441483],[20.5743784,46.4422619],[20.574945,46.4426386],[20.5826534,46.4425341],[20.5827816,46.4082516],[20.5811352,46.4086521],[20.5745443,46.4091257],[20.5712389,46.4091704],[20.560132,46.4055073],[20.5539071,46.3994969],[20.5521868,46.3972386],[20.5487323,46.3915691],[20.5475676,46.3893034],[20.5435694,46.3840191],[20.517997,46.3744554],[20.5129227,46.3699528],[20.5004622,46.3567801],[20.4982301,46.3556682],[20.4964814,46.3518784],[20.4964407,46.3503602],[20.4958337,46.3480806],[20.4886437,46.3466477],[20.4847862,46.3463188],[20.4754259,46.3460534],[20.4666105,46.3454022],[20.4627631,46.3454505],[20.4545028,46.3447976],[20.4506357,46.3440833],[20.446204,46.3429916],[20.4362108,46.339309],[20.4393945,46.3347012],[20.4194423,46.328468],[20.4149839,46.326241],[20.3893292,46.3113128],[20.3692521,46.2993634],[20.3692427,46.2989791],[20.3815742,46.286269],[20.3821099,46.2858784],[20.3826551,46.2858719],[20.3934693,46.2788875],[20.4057339,46.2642724],[20.4116774,46.2603884],[20.4161017,46.2614814],[20.4132637,46.258088],[20.4099188,46.2558412],[20.4033163,46.2551584],[20.4016543,46.2548003],[20.3994188,46.2533023],[20.3972114,46.2525663],[20.3955306,46.2514459],[20.3894448,46.2492313],[20.3872099,46.247733],[20.3855388,46.2469905],[20.3833037,46.245114],[20.3738403,46.239895],[20.3587671,46.2294099],[20.3531841,46.2252846],[20.354273,46.2248876],[20.3548085,46.2245033],[20.356451,46.2241061],[20.354781,46.2233631],[20.3536645,46.2226136],[20.3552977,46.2218322],[20.3569403,46.2218131],[20.3586105,46.2229342],[20.3591825,46.22369],[20.3608621,46.2251952],[20.3614432,46.226329],[20.3642488,46.2289616],[20.3659102,46.2297046],[20.3686606,46.2300567],[20.3697588,46.2300438],[20.3714013,46.2296402],[20.3735701,46.2288522],[20.3746311,46.227321],[20.3751752,46.2269303],[20.3761525,46.2223503],[20.376706,46.2223438],[20.3772039,46.2204349],[20.3676801,46.2121665],[20.3665452,46.2106549],[20.3623011,46.1939497],[20.3616279,46.1890049],[20.3528486,46.188729],[20.351449,46.1757964],[20.3334861,46.181334],[20.3335673,46.1847609],[20.3156085,46.1902956],[20.3155284,46.1868687],[20.2855645,46.195583],[20.2838705,46.1933144],[20.2816408,46.191814],[20.2783228,46.1903256],[20.2781414,46.1823315],[20.2741504,46.1755196],[20.2672681,46.1622677],[20.2638499,46.1562116],[20.2632884,46.1558334],[20.2610954,46.155479],[20.2588765,46.1543624],[20.2577712,46.15399],[20.2566321,46.1520994],[20.2566236,46.1517152],[20.2554676,46.1490622],[20.2553999,46.1460195],[20.2580688,46.1429412],[20.2602363,46.1417773],[20.257984,46.1391362],[20.2585366,46.1391303],[20.2568452,46.1372456],[20.2590209,46.1364597],[20.2539395,46.1296589],[20.2609754,46.1257773],[20.2621215,46.124936],[20.2549185,46.1157964],[20.2532392,46.1164153],[20.2519717,46.1173343],[20.2515607,46.1184674],[20.2495541,46.1198675],[20.250075,46.1213899],[20.2495843,46.1234952],[20.25147,46.1252813],[20.251565,46.1264588],[20.2499793,46.1275782],[20.2482128,46.1298279],[20.233185,46.1238099],[20.2298221,46.1290693],[20.2103272,46.1354665],[20.2080373,46.1439414],[20.1984551,46.1499218],[20.1891337,46.1729873],[20.1885967,46.1737551],[20.1787156,46.1730926],[20.173878,46.1777156],[20.1738701,46.1773314],[20.1733339,46.177721],[20.1673508,46.1800618],[20.1646544,46.1796038],[20.1624256,46.180495],[20.1629864,46.1808676],[20.1635306,46.1808622],[20.1685111,46.1830998],[20.1679658,46.1834833],[20.1260933,46.2002688],[20.1255477,46.2006583],[20.1239131,46.2010521],[20.1206426,46.2022238],[20.1189479,46.1995747],[20.1166926,46.1965528],[20.1077643,46.1886353],[20.1072053,46.1878844],[20.1005025,46.1818544],[20.0958112,46.1772401],[20.0808552,46.163178],[20.0745137,46.1567606],[20.0712706,46.1530866],[20.0685583,46.1503586],[20.0642344,46.1446083],[20.0637374,46.1436661],[20.0626192,46.146045],[20.0616815,46.1468695],[20.0592135,46.1477175],[20.0580824,46.1479143],[20.0550243,46.147863],[20.047908,46.1455603],[20.0455948,46.1449689],[20.0432502,46.1446088],[20.0390205,46.1444438],[20.0372417,46.1446413],[20.0359006,46.1450638],[20.0344381,46.1457582],[20.0328437,46.1468756],[20.0317804,46.1479296],[20.0299698,46.1512781],[20.0288462,46.1542609],[20.0269936,46.160185],[20.0254718,46.1658761],[20.0249569,46.1674066],[20.023675,46.1701489],[20.0229765,46.1732993],[20.0224339,46.1733145],[20.0157938,46.176777],[20.0150039,46.1765744],[19.9884824,46.1759375],[19.9725622,46.1758619],[19.9722758,46.1759767],[19.965342,46.1757516],[19.9351389,46.1761932]]]}}]}