{"type":"FeatureCollection","crs":{"type":"name","properties":{"name":"urn:ogc:def:crs:EPSG::4326"}},"features":[{"type":"Feature","properties":{"region_id":5,"name":"Neszmély","name_hu":"Neszmélyi borvidék","region_group":"Dunántúl (Transdanubia)","area_ha_approx":3000,"notable_grapes":"Olaszrizling, Rajnai Rizling, Sauvignon Blanc, Chardonnay","notes":"Along Danube bend, NW Hungary; known for crisp whites"},"geometry":{"type":"Polygon","coordinates":[[[17.9144874,47.5703397],[17.9161149,47.5730268],[17.9172167,47.5741779],[17.9199465,47.5780099],[17.9232604,47.5810914],[17.9226765,47.581848],[17.9209835,47.5822095],[17.9124752,47.5851755],[17.9141368,47.5867102],[17.918609,47.5879005],[17.9197029,47.5894358],[17.9224579,47.5921275],[17.9272891,47.6032122],[17.9293978,47.610087],[17.9326662,47.6154484],[17.9337681,47.6162213],[17.9354231,47.618146],[17.9354072,47.618902],[17.9359581,47.6192915],[17.9365102,47.6200591],[17.9370532,47.6208266],[17.9370453,47.6212045],[17.9376054,47.6215942],[17.9387234,47.6216049],[17.9398347,47.6223716],[17.9409539,47.6227666],[17.9426414,47.6231608],[17.9443514,47.6220367],[17.9460694,47.6205286],[17.9472282,47.619015],[17.9527916,47.6221169],[17.9493163,47.6270357],[17.9493085,47.6274137],[17.9532022,47.6297374],[17.9503647,47.6308509],[17.9497806,47.6316076],[17.951996,47.6335312],[17.9542429,47.6339367],[17.9542115,47.6354548],[17.9536116,47.6369737],[17.9507342,47.6399955],[17.9484632,47.6407363],[17.9467764,47.6407202],[17.945633,47.6414654],[17.946705,47.6441467],[17.9472564,47.64453],[17.9574512,47.6419616],[17.9590846,47.6450199],[17.9573727,47.6457661],[17.958469,47.6473009],[17.9595968,47.6473115],[17.9601417,47.648457],[17.9618052,47.6496191],[17.9606697,47.6499865],[17.9565933,47.6564244],[17.9554576,47.6567917],[17.9526818,47.6548629],[17.952129,47.6540954],[17.9529178,47.6704762],[17.9518104,47.6716118],[17.9489657,47.6708168],[17.9472779,47.6708008],[17.9450294,47.6704013],[17.941125,47.6684615],[17.9399809,47.6692128],[17.9388447,47.66958],[17.9382692,47.6703368],[17.937133,47.6707039],[17.9365654,47.6710827],[17.9360048,47.6706931],[17.9348605,47.6714444],[17.9337403,47.6710555],[17.932612,47.6710447],[17.9320606,47.6706551],[17.929796,47.6710175],[17.9280841,47.6721413],[17.9263963,47.672125],[17.9252519,47.6728762],[17.9241156,47.6732432],[17.9241236,47.6728652],[17.9235468,47.6732377],[17.9229711,47.6739943],[17.9207063,47.6743566],[17.9105443,47.6750195],[17.9060403,47.6749752],[17.9026471,47.6753197],[17.8992796,47.6749083],[17.8969483,47.6783123],[17.8958033,47.6790632],[17.89465,47.680192],[17.8900788,47.6831893],[17.8900621,47.6839515],[17.8906134,47.6843412],[17.8911563,47.6851089],[17.8933802,47.6866494],[17.8939324,47.6874172],[17.8949612,47.6920011],[17.8971431,47.6950657],[17.8999024,47.6977579],[17.9020939,47.7008287],[17.9025804,47.7046386],[17.9006921,47.7133767],[17.8993642,47.7225046],[17.8993062,47.7251688],[17.8986881,47.7278275],[17.8974923,47.7308585],[17.8947759,47.7393637],[17.8982518,47.7393366],[17.8999793,47.7394759],[17.903348,47.7400548],[17.9049636,47.74049],[17.9115074,47.7429325],[17.916278,47.7439648],[17.9179347,47.7441257],[17.9387156,47.7438347],[17.9425551,47.744204],[17.9444171,47.7445751],[17.9479377,47.7456726],[17.9495634,47.7463888],[17.9524686,47.7481219],[17.9565919,47.7512893],[17.9605065,47.7535874],[17.964675,47.7556728],[17.9675385,47.7564694],[17.9706706,47.7568677],[17.9738576,47.7568336],[17.9769694,47.7563684],[17.9784571,47.7559793],[17.9812207,47.7549086],[17.9932556,47.7487518],[17.9949443,47.7481912],[17.9985294,47.7474269],[18.0022686,47.7471625],[18.0060107,47.7474088],[18.0096038,47.7481555],[18.0112985,47.748708],[18.0245849,47.7541029],[18.0266429,47.7547862],[18.0309498,47.7558463],[18.0354373,47.7564803],[18.040013,47.7566754],[18.0877335,47.7564564],[18.0896632,47.7562936],[18.0934324,47.7556551],[18.1009398,47.7537279],[18.1068051,47.7526279],[18.1127947,47.7518931],[18.128973,47.7506144],[18.1354811,47.7493258],[18.1474997,47.7473833],[18.1599095,47.7443187],[18.1679592,47.7420688],[18.1751776,47.7407837],[18.17764,47.7405305],[18.1962475,47.7399167],[18.2021324,47.7404531],[18.2093291,47.7417728],[18.2124797,47.7420834],[18.2158315,47.742191],[18.2262857,47.7417642],[18.2298302,47.7412073],[18.2366187,47.7405053],[18.2452395,47.739984],[18.2501943,47.7394579],[18.2540441,47.7393462],[18.2624023,47.7380232],[18.2654987,47.7372805],[18.269865,47.7354093],[18.274462,47.7336633],[18.2767124,47.7329902],[18.2803227,47.7322007],[18.284193,47.7319418],[18.2876032,47.731354],[18.2901028,47.7311798],[18.2958638,47.7316573],[18.3025438,47.7324494],[18.3102022,47.733892],[18.3186151,47.7350542],[18.3235185,47.7354595],[18.329243,47.7368815],[18.3358544,47.7376501],[18.3430403,47.7392065],[18.3512238,47.7406545],[18.3577878,47.7422027],[18.3722725,47.7445704],[18.3756365,47.7455218],[18.3791147,47.7470034],[18.3856471,47.7494741],[18.3892985,47.750542],[18.3930894,47.7513588],[18.3966712,47.7518628],[18.4069408,47.7524907],[18.4128617,47.7533894],[18.4212244,47.7551756],[18.4280757,47.7555078],[18.4299443,47.75578],[18.4328333,47.7567164],[18.4372628,47.7590493],[18.4410701,47.7613626],[18.4470525,47.7639427],[18.4493452,47.7645871],[18.4517481,47.765011],[18.4542151,47.7652062],[18.4569988,47.7651315],[18.4630302,47.7641653],[18.4603686,47.7563987],[18.4604109,47.7525942],[18.461579,47.7491733],[18.4621614,47.7480298],[18.4621993,47.7446094],[18.4610779,47.7438416],[18.4605253,47.7423144],[18.460538,47.7411742],[18.4594421,47.7381199],[18.4588903,47.7373549],[18.4594591,47.7365956],[18.4645761,47.7331946],[18.4668354,47.733206],[18.4713831,47.730564],[18.4725168,47.7301917],[18.473077,47.7301944],[18.4759088,47.729062],[18.4781679,47.7290731],[18.4815606,47.7287117],[18.4821371,47.7271902],[18.4804597,47.7260418],[18.4799026,47.7248988],[18.4787814,47.7241311],[18.4776735,47.7229793],[18.4776858,47.7218391],[18.4771288,47.7206962],[18.4771329,47.720312],[18.4777063,47.7199368],[18.4777104,47.7195527],[18.4782787,47.7187994],[18.478291,47.7176531],[18.4794286,47.7168965],[18.4794368,47.7161343],[18.4800009,47.7157591],[18.4805701,47.7157619],[18.4811342,47.7153866],[18.4822676,47.7150079],[18.4828358,47.7142485],[18.4839894,47.7119737],[18.4845667,47.7112143],[18.4845869,47.709312],[18.4840219,47.708925],[18.4834619,47.7089223],[18.4828968,47.7085416],[18.4812077,47.7085333],[18.4806519,47.7081464],[18.4800827,47.7081436],[18.477846,47.7069924],[18.4772768,47.7069896],[18.476721,47.7066027],[18.475596,47.7062192],[18.4756249,47.7035547],[18.4750641,47.7027897],[18.4745165,47.7016468],[18.4762136,47.7008929],[18.4767869,47.7005116],[18.4767909,47.7001336],[18.477355,47.6997522],[18.4779281,47.699377],[18.4790519,47.6990045],[18.4807622,47.6978664],[18.4830108,47.6978774],[18.4852847,47.6963702],[18.4875425,47.6963812],[18.4909331,47.6960133],[18.49207,47.6952566],[18.4943224,47.6948893],[18.4954553,47.6945105],[18.4971558,47.6933784],[18.4983004,47.6918594],[18.5056562,47.6896136],[18.5090851,47.6854405],[18.5085473,47.6823892],[18.5074148,47.6827681],[18.5073993,47.6842863],[18.5062707,47.684281],[18.5045979,47.682755],[18.5023722,47.6796957],[18.5018283,47.6781687],[18.4979149,47.6751075],[18.495674,47.6735724],[18.4934292,47.6724215],[18.492318,47.671654],[18.490649,47.6689813],[18.4884167,47.6666839],[18.4861896,47.6647707],[18.4833971,47.6617082],[18.481738,47.6590355],[18.4801567,47.6491313],[18.4801894,47.6460826],[18.4790903,47.6434125],[18.4786006,47.6369405],[18.4780568,47.6346511],[18.4786498,47.6323674],[18.4797926,47.6300925],[18.4781142,47.629322],[18.477551,47.6296973],[18.4769827,47.6296945],[18.4769868,47.6293165],[18.4792662,47.627041],[18.4798335,47.6262816],[18.4792825,47.6255228],[18.4770443,47.6239874],[18.4764852,47.6239846],[18.4753703,47.6228327],[18.4781685,47.6210409],[18.4760075,47.6156039],[18.4765879,47.6144665],[18.4760322,47.6133174],[18.4760486,47.6117992],[18.4771962,47.6098962],[18.477229,47.6068536],[18.474441,47.6045531],[18.4738904,47.6037882],[18.4716614,47.6014966],[18.4688989,47.5969094],[18.4660942,47.5953771],[18.4604867,47.5938243],[18.4582419,47.5930506],[18.453215,47.5895979],[18.451534,47.5892112],[18.4504031,47.5895834],[18.4498358,47.5903427],[18.4470061,47.5910903],[18.4458886,47.5910845],[18.4441898,47.5914537],[18.4430675,47.5910698],[18.437998,47.5914212],[18.4351816,47.5917906],[18.4340506,47.5921626],[18.4272821,47.593651],[18.4250288,47.5936389],[18.4233344,47.594392],[18.4194137,47.5928463],[18.4142892,47.5977698],[18.4108906,47.5992756],[18.4097592,47.6004096],[18.4057923,47.6019122],[18.4041113,47.6015186],[18.401853,47.6018902],[18.3990452,47.6014903],[18.3945377,47.6022272],[18.3928334,47.6029798],[18.3810583,47.5994856],[18.3769889,47.609743],[18.3702702,47.6070391],[18.3714166,47.6055213],[18.3658115,47.6032017],[18.3629595,47.6062338],[18.3595986,47.6046894],[18.3613133,47.6031751],[18.3657314,47.5967543],[18.3658949,47.5967324],[18.3653557,47.5952048],[18.3625386,47.5955724],[18.3569598,47.5913499],[18.3473018,47.5985239],[18.3544433,47.6027088],[18.3454454,47.6106961],[18.3414495,47.614861],[18.3408753,47.6159978],[18.3391993,47.6152315],[18.3341884,47.6110115],[18.3291628,47.6079314],[18.3235697,47.6048537],[18.3241429,47.6044731],[18.3168701,47.6010004],[18.3107409,47.5963942],[18.3118888,47.594877],[18.3130471,47.5926038],[18.3130525,47.5922197],[18.3069193,47.5879913],[18.3041236,47.586833],[18.2996552,47.5841394],[18.2935115,47.5814348],[18.2912751,47.5802737],[18.2872936,47.5832966],[18.2805829,47.5805875],[18.2760996,47.5790331],[18.2716222,47.5771006],[18.2744759,47.574833],[18.2683422,47.5709867],[18.2660955,47.5705873],[18.2638375,47.5709562],[18.2621359,47.572085],[18.2598722,47.5728318],[18.2576574,47.5709142],[18.2554165,47.5701366],[18.2498431,47.5662931],[18.2459296,47.5647415],[18.245377,47.5643535],[18.244251,47.5643457],[18.2431307,47.5639598],[18.2408845,47.5635599],[18.2386533,47.5627883],[18.2369714,47.5620142],[18.236413,47.5620103],[18.2325177,47.5593181],[18.2325236,47.5589339],[18.2291224,47.5604344],[18.2262885,47.5619388],[18.2183325,47.5672116],[18.2127321,47.5652688],[18.20773,47.5614212],[18.2015085,47.5640406],[18.1958356,47.5666638],[18.1941326,47.5677977],[18.1924358,47.5685475],[18.1901712,47.569293],[18.1850649,47.5719198],[18.1827878,47.5734211],[18.1810906,47.5741707],[18.1799519,47.5749244],[18.1787881,47.5772024],[18.1776368,47.5787183],[18.1764917,47.57985],[18.1747942,47.5805995],[18.1725163,47.5821068],[18.1690958,47.5851237],[18.1662562,47.5862424],[18.1651261,47.586996],[18.1639805,47.5881338],[18.1622798,47.5884988],[18.1566179,47.5907421],[18.1560309,47.5918779],[18.1548877,47.5933936],[18.1526088,47.5948943],[18.1508976,47.5964056],[18.149203,47.5963924],[18.1469626,47.5956127],[18.1397118,47.5921289],[18.1369129,47.5913508],[18.1330511,47.5877256],[18.1305113,47.5860088],[18.1285873,47.5844307],[18.1235563,47.5824819],[18.1190999,47.5801655],[18.1179804,47.5797723],[18.1151867,47.5782315],[18.1129702,47.576689],[18.112416,47.5759223],[18.1090194,47.5774193],[18.1067195,47.5800654],[18.1044262,47.5823274],[18.1026936,47.5849781],[18.0981059,47.5895141],[18.0952531,47.5917713],[18.0918458,47.5932677],[18.0855871,47.5974052],[18.0833129,47.5985265],[18.0754,47.6003691],[18.0674938,47.6018207],[18.0614612,47.6024358],[18.0579065,47.6025013],[18.0567725,47.6028758],[18.0539315,47.6043698],[18.0517065,47.6028323],[18.0472588,47.600129],[18.0388638,47.597385],[18.0355073,47.5965996],[18.0355657,47.593551],[18.0367049,47.5924207],[18.0373164,47.5901392],[18.0384865,47.5878626],[18.0390741,47.5863493],[18.0396565,47.5855921],[18.0402441,47.5840727],[18.0431206,47.5806706],[18.0425909,47.5791414],[18.0460904,47.5723174],[18.0466652,47.5719444],[18.0466867,47.5708042],[18.0489892,47.5681593],[18.0495764,47.5666398],[18.0519002,47.5628484],[18.055922,47.5583155],[18.0565089,47.556796],[18.054839,47.5560193],[18.0537274,47.5552537],[18.0543164,47.5541122],[18.0526446,47.5529575],[18.0537917,47.5518271],[18.047684,47.5475849],[18.0482586,47.5472056],[18.0427027,47.5433522],[18.0415555,47.5444825],[18.0387607,47.5436959],[18.0342968,47.5421384],[18.0326259,47.5409772],[18.0312812,47.5357999],[18.0309242,47.5337216],[18.0292745,47.532887],[18.0290129,47.5332035],[18.0277051,47.5337014],[18.0215,47.535171],[18.0176615,47.5369699],[18.014437,47.5394056],[18.0071533,47.5420569],[17.998292,47.5473552],[17.9964508,47.5505573],[17.9854728,47.5653061],[17.9628778,47.5696637],[17.9359116,47.5678829],[17.9261333,47.5514144],[17.9227411,47.552528],[17.9204816,47.552884],[17.9193477,47.5532572],[17.915931,47.5555045],[17.9136631,47.5562445],[17.9119616,47.5566121],[17.9074185,47.558848],[17.9051504,47.5595879],[17.9079031,47.5622801],[17.9084542,47.5630478],[17.910657,47.5653564],[17.9144874,47.5703397]]]}}]}