{"type":"FeatureCollection","features":[{"type":"Feature","properties":{"OBJECTID":1804,"ZON_CO_ID":252,"ZON_DS_NOM":"VC Cangas","CAL_DS_NOM":"V.C.Cangas","TPR_DS_DES":"Vino de Calidad","TPR_DS_GRU":"CALIDAD DIFERENCIADA","FAM_DS_NOM":"Vinos"},"geometry":{"type":"Polygon","coordinates":[[[-6.550557249999997,43.456763369999976],[-6.547606470000005,43.45407296000002],[-6.54614435000002,43.45316399000001],[-6.546200750000025,43.450326089999976],[-6.545979960000011,43.4497207],[-6.545538179999994,43.44914017000002],[-6.544243129999984,43.44812695000002],[-6.54412738000002,43.448049509999976],[-6.541548980000016,43.44706707],[-6.539843819999987,43.44643567000003],[-6.538711890000002,43.44588550999998],[-6.537298910000004,43.4449659],[-6.534825590000025,43.44260250000002],[-6.533522000000005,43.44101318000003],[-6.533015830000011,43.44059665999998],[-6.532559230000004,43.44039470000001],[-6.531350980000013,43.438955469999996],[-6.5295955500000105,43.43809135999999],[-6.5290794100000085,43.43792724000002],[-6.5284204999999815,43.43785756],[-6.527776850000009,43.43762535000002],[-6.526555499999972,43.43680771999999],[-6.525640529999976,43.43658386999999],[-6.523878089999982,43.436872359999995],[-6.523425410000016,43.43694936000003],[-6.521008180000024,43.43660074000002],[-6.519860460000018,43.43641102999999],[-6.517579450000028,43.43606713999998],[-6.516747549999991,43.435570540000015],[-6.515745250000009,43.43469203000001],[-6.514894980000008,43.43366477000001],[-6.5148291500000255,43.43359477000001],[-6.514204860000007,43.43369501000001],[-6.513324850000004,43.434073230000024],[-6.512963189999994,43.43422841],[-6.511584970000001,43.43709795000001],[-6.51051670999999,43.43806718000002],[-6.5094259100000045,43.438433840000016],[-6.509250109999982,43.43838521999999],[-6.510071410000023,43.43699142000003],[-6.510253569999975,43.43586936000003],[-6.510200590000011,43.435807969999985],[-6.50970331000002,43.43532805000001],[-6.50618369,43.43386050999999],[-6.505177969999977,43.43462968],[-6.497900300000026,43.432908010000006],[-6.496806489999983,43.43236526999999],[-6.496002159999989,43.43212878000003],[-6.494367060000002,43.43226886000002],[-6.493255659999988,43.43377945999998],[-6.487700700000005,43.436011080000014],[-6.487435559999994,43.43612722],[-6.483374560000016,43.437916830000006],[-6.482282890000022,43.437625990000015],[-6.481281239999987,43.43761151000001],[-6.480262139999979,43.43772360000003],[-6.4795539799999915,43.437871229999985],[-6.479008220000026,43.438049920000026],[-6.476752710000028,43.43900996999997],[-6.477476589999981,43.44042852000001],[-6.475467040000012,43.44050770000001],[-6.473942809999983,43.441940639999984],[-6.472814480000011,43.44014721000002],[-6.469060469999988,43.43759619999997],[-6.465757979999978,43.436021770000025],[-6.460491730000001,43.436838720000026],[-6.45817126999998,43.43731416000003],[-6.456587259999992,43.437704250000024],[-6.454585339999994,43.438350060000005],[-6.453356320000012,43.43911652000003],[-6.449647000000027,43.436032290000014],[-6.450295240000003,43.43352768],[-6.449902660000021,43.43162174999998],[-6.450700929999982,43.43088633999997],[-6.449452780000001,43.42892520999999],[-6.445845319999989,43.42783659999998],[-6.439201720000028,43.42766768000001],[-6.433423010000013,43.42378983999998],[-6.429109830000016,43.41676142],[-6.427315659999977,43.413862040000026],[-6.427486830000021,43.412956529999974],[-6.428900180000028,43.411302439999986],[-6.4290904800000135,43.41095458000001],[-6.429455959999984,43.40824248000001],[-6.427231450000022,43.40777802000002],[-6.425734490000025,43.406418340000016],[-6.421564690000025,43.406057110000006],[-6.4184490399999845,43.403800409999974],[-6.416977560000021,43.40420458],[-6.395070719999978,43.39824899000001],[-6.390771200000017,43.398646799999995],[-6.393147259999978,43.39984578000002],[-6.3919052100000044,43.401926530000026],[-6.391753610000023,43.40319155999998],[-6.391624250000007,43.403528540000025],[-6.39091209999998,43.40448608000003],[-6.390567840000017,43.406945329999985],[-6.3901012300000275,43.407877559999974],[-6.3892192499999965,43.40822787000002],[-6.38857102999998,43.40856222999997],[-6.387610460000019,43.40927500999999],[-6.386234919999993,43.411404670000024],[-6.386061419999976,43.41205808000001],[-6.3860411900000145,43.41258090000002],[-6.386260670000013,43.41363683999998],[-6.386193409999976,43.41398098000002],[-6.385772990000021,43.41485779999999],[-6.385724579999987,43.41531843000001],[-6.385929019999992,43.416104700000005],[-6.385853660000009,43.416746209999985],[-6.385474839999972,43.418369110000015],[-6.38483432999999,43.41972965000002],[-6.383212930000013,43.42144338000003],[-6.381297780000011,43.42298570999998],[-6.379872079999984,43.42355911999999],[-6.373718380000014,43.42485749999997],[-6.370376309999983,43.427405179999994],[-6.369407099999989,43.42774889999998],[-6.362592660000018,43.43184832999998],[-6.36184424999999,43.431051009999976],[-6.359840099999985,43.42810272000003],[-6.359958849999998,43.427793099999974],[-6.36020142000001,43.427488840000024],[-6.3614204799999925,43.426525579999975],[-6.3604621100000145,43.42595053000002],[-6.359726239999986,43.42537792000002],[-6.359541130000025,43.42515827],[-6.359508769999991,43.42457397999999],[-6.358587940000007,43.42400680999998],[-6.357051580000018,43.42370082000002],[-6.356269820000023,43.42296747],[-6.3560423600000036,43.42287511000001],[-6.35538176,43.422768469999994],[-6.3543289099999924,43.42249326000001],[-6.35411627000002,43.42244548000002],[-6.353499859999999,43.42179729999998],[-6.353339849999998,43.42136081000001],[-6.353314520000026,43.420902360000014],[-6.353494179999984,43.41990666999999],[-6.354137890000004,43.418591219999996],[-6.354145659999972,43.41828486999998],[-6.353878650000013,43.41792355000001],[-6.352207469999996,43.41673908000001],[-6.351848280000013,43.41649752000001],[-6.351727869999991,43.41632998],[-6.351966310000023,43.41550364],[-6.351940490000004,43.415036199999975],[-6.350856669999985,43.41464481999998],[-6.350879529999986,43.41371676],[-6.348811889999979,43.41384942000002],[-6.347882799999979,43.411112489999994],[-6.347762439999997,43.40937828],[-6.346959000000027,43.407574049999994],[-6.346313660000021,43.406620550000014],[-6.3449476700000105,43.405138910000005],[-6.345211810000023,43.40432984],[-6.345957160000012,43.40306549000002],[-6.346419360000027,43.401593330000026],[-6.347340659999986,43.40016173999999],[-6.348004279999998,43.39965609000001],[-6.348512840000012,43.400145399999985],[-6.348992220000014,43.40032943],[-6.349727449999989,43.400226840000016],[-6.349243539999975,43.39973680999998],[-6.351412149999987,43.39920502000001],[-6.349588820000008,43.39681846000002],[-6.348628239999982,43.39507286999998],[-6.348217780000027,43.39434659],[-6.3450593100000106,43.393268620000015],[-6.342728819999991,43.39220236],[-6.341981750000002,43.39186405999999],[-6.3409869299999855,43.389939330000004],[-6.335249110000007,43.38729781000001],[-6.334225049999986,43.38663441],[-6.331388199999992,43.38375492],[-6.33076213999999,43.381342140000015],[-6.329212729999995,43.38032485999997],[-6.328394930000002,43.37959237000001],[-6.327402189999987,43.37836976],[-6.326474080000025,43.37697417999999],[-6.32927269999999,43.37443460999998],[-6.329867799999988,43.371554049999986],[-6.330233089999979,43.37056199],[-6.330723060000025,43.36959330000002],[-6.331501360000004,43.36848113999997],[-6.332223440000007,43.367694760000006],[-6.333110620000014,43.36699358999999],[-6.333528559999991,43.36651318999998],[-6.334942029999979,43.36415794999999],[-6.333254039999986,43.36263155],[-6.332576889999984,43.362210119999986],[-6.331070339999997,43.36174083999998],[-6.329749079999999,43.36150024],[-6.328731919999996,43.361178730000006],[-6.3238331399999765,43.35892634999999],[-6.322274909999976,43.35886362999997],[-6.322244459999979,43.35830628000002],[-6.318600650000008,43.358466220000025],[-6.317203699999993,43.35796656000002],[-6.315668589999973,43.35810115999999],[-6.314997909999988,43.35802159000002],[-6.314478580000014,43.35777553999998],[-6.314191940000001,43.357270640000024],[-6.313790310000002,43.355787659999976],[-6.312927030000026,43.355569590000016],[-6.311606219999987,43.35601306000001],[-6.310810500000002,43.35567596999999],[-6.309948519999978,43.35593505000003],[-6.30917371999999,43.35507511999998],[-6.3086150400000065,43.354785170000014],[-6.307026899999983,43.35462407],[-6.305286089999981,43.35324284000001],[-6.303993660000003,43.35307313999999],[-6.303375370000026,43.35282089999998],[-6.302832579999972,43.35236839999999],[-6.3019524200000205,43.35070112],[-6.301107790000003,43.350824569999986],[-6.300282540000012,43.351532710000015],[-6.299079380000023,43.34959562],[-6.306231969999999,43.345220059999974],[-6.306862430000024,43.34456253000002],[-6.307084649999979,43.34343061999999],[-6.307613530000026,43.341812619999985],[-6.310397829999999,43.338796720000005],[-6.311019859999988,43.337986349999994],[-6.313552619999996,43.333528039999976],[-6.3136950100000035,43.33342485999998],[-6.314217299999996,43.333049560000006],[-6.314905029999977,43.33140890999999],[-6.3151728299999945,43.33043773000003],[-6.314159770000003,43.32995390000002],[-6.312489009999979,43.32984929999998],[-6.311999949999972,43.329701409999984],[-6.3113040800000135,43.329379440000025],[-6.310622579999972,43.328867960000025],[-6.31019040000001,43.32817819000002],[-6.310169389999999,43.32779162999998],[-6.310350470000003,43.327039060000004],[-6.31001526,43.32654456],[-6.307783229999984,43.324052119999976],[-6.307061840000017,43.32371286],[-6.3056622700000275,43.32337519999999],[-6.304832519999991,43.32308408],[-6.3042219800000225,43.32274159000002],[-6.303987179999979,43.32250527000002],[-6.3032581499999765,43.32179704999999],[-6.303659359999983,43.321236209999995],[-6.304832830000009,43.32058999999998],[-6.305461229999992,43.31967143999998],[-6.306277679999994,43.31790106],[-6.307161759999985,43.31669597000001],[-6.30788007000001,43.316071910000005],[-6.308093480000025,43.31568757000002],[-6.308044069999994,43.31500470999998],[-6.308142180000004,43.31476777],[-6.308687609999993,43.314139710000006],[-6.3088906500000235,43.31379168000001],[-6.309175990000028,43.312234750000016],[-6.31115724,43.31057464999998],[-6.31222004,43.31016568000001],[-6.314642419999984,43.30823161000001],[-6.316434099999981,43.30717118000001],[-6.317400770000006,43.30680996000001],[-6.317926730000011,43.30650657000001],[-6.317986529999985,43.30579352000001],[-6.317735110000001,43.30525159000001],[-6.316604240000004,43.303501659999995],[-6.31662510000001,43.30297882999997],[-6.316999490000001,43.30238271000002],[-6.317707589999998,43.302029000000005],[-6.31858158,43.30177852000003],[-6.3193752000000245,43.301863509999976],[-6.320430190000025,43.302220009999985],[-6.320762520000017,43.302210349999996],[-6.321315000000027,43.301942180000026],[-6.3229892900000095,43.30054289999998],[-6.32481851,43.29949925],[-6.326733740000009,43.29890325000002],[-6.326792370000021,43.298622420000015],[-6.32682982,43.29840524000002],[-6.328364019999981,43.297379120000016],[-6.330095130000018,43.29589705000001],[-6.333260180000025,43.294265069999994],[-6.333678259999999,43.29221798999998],[-6.333634000000018,43.29163403000001],[-6.333584789999975,43.291410369999994],[-6.332794540000009,43.28800294000001],[-6.332217290000017,43.286687210000025],[-6.330084810000017,43.28465148999999],[-6.330527619999998,43.28215351],[-6.329960410000012,43.28034224999999],[-6.329896500000018,43.27984889999999],[-6.330126080000014,43.27818549],[-6.329933349999976,43.27691255000002],[-6.33040410000001,43.27515208],[-6.331034079999995,43.27472854000001],[-6.331474130000004,43.273986390000005],[-6.330243800000005,43.271312120000005],[-6.327666079999972,43.269685519999996],[-6.330080290000012,43.26921899000001],[-6.332594770000014,43.269235690000016],[-6.341704859999993,43.26436855999998],[-6.341938990000017,43.26009388],[-6.341150809999988,43.256947579999974],[-6.341415980000022,43.2554902],[-6.3411877199999935,43.254020249999996],[-6.339715920000003,43.25008358000002],[-6.339544260000025,43.24964741000002],[-6.33517298999999,43.246290639999984],[-6.33185979000001,43.245387900000026],[-6.32963620999999,43.24436327000001],[-6.325937389999979,43.242256080000004],[-6.3245573799999875,43.24179204000001],[-6.32275371999998,43.24033186999998],[-6.318747789999975,43.23618950000002],[-6.317499489999989,43.23519931999999],[-6.315437320000001,43.234187729999974],[-6.315204730000005,43.23194351000001],[-6.319001730000025,43.230662740000014],[-6.322207670000012,43.23029042000002],[-6.330507759999989,43.224655369999994],[-6.330721680000011,43.224514080000006],[-6.330887749999988,43.21784635],[-6.330665549999992,43.21534974000002],[-6.331949300000019,43.21496115000002],[-6.336935729999993,43.212492569999995],[-6.336192270000026,43.20969607000001],[-6.332595070000025,43.205578230000015],[-6.337234360000025,43.20172416999998],[-6.338887660000012,43.198641529999975],[-6.339281679999999,43.19503744999997],[-6.341154060000008,43.189436279999995],[-6.343899379999982,43.18180165000001],[-6.348897490000013,43.18005254000002],[-6.3491813800000045,43.17782024000002],[-6.351931589999992,43.17479529000002],[-6.351632209999991,43.17292225],[-6.351837750000016,43.16926061999999],[-6.353145740000002,43.16686320000002],[-6.353077439999993,43.16673915000001],[-6.352833250000003,43.16632313000002],[-6.353711560000022,43.16596420000002],[-6.354234930000018,43.163616820000016],[-6.354322350000018,43.16341616],[-6.354409270000019,43.16320652000002],[-6.354320819999998,43.162938999999994],[-6.354262829999982,43.16277862999999],[-6.354323249999993,43.16275884999999],[-6.356139199999973,43.16222829999998],[-6.358111259999987,43.16140501000001],[-6.358654940000008,43.16100186],[-6.359489750000023,43.15985181999997],[-6.3596182800000065,43.15905569],[-6.359748239999988,43.158061429999975],[-6.359095920000016,43.15536142000002],[-6.357450190000009,43.15315880999998],[-6.357029169999976,43.152432859999976],[-6.355862030000026,43.15088245999999],[-6.357323099999974,43.150839529999985],[-6.359481019999976,43.150496970000006],[-6.361361499999987,43.15047766999999],[-6.36504038999999,43.15028833000002],[-6.368893220000018,43.14901327000001],[-6.3725886600000194,43.14756265],[-6.374076679999973,43.146447239999986],[-6.374415989999989,43.144123200000024],[-6.37461313,43.14122710999999],[-6.375043380000022,43.14033202000002],[-6.3755742899999746,43.13947896000002],[-6.375748410000028,43.13795214999999],[-6.376206249999996,43.13733536000001],[-6.377290379999977,43.13625886],[-6.377321049999978,43.135699699999975],[-6.377149980000013,43.135272569999984],[-6.376657589999979,43.13436872],[-6.376326479999989,43.13393731000002],[-6.37601823,43.13302801999998],[-6.375018099999977,43.131833029999996],[-6.374860909999995,43.13165759999998],[-6.374866660000009,43.131315270000016],[-6.375355640000009,43.13014831999999],[-6.3755350000000135,43.12938668999999],[-6.376474589999987,43.12814338999999],[-6.376623649999999,43.12772481000002],[-6.375975849999975,43.127122680000014],[-6.375837979999972,43.12618133000001],[-6.37556472,43.12546008999999],[-6.375235050000015,43.124830540000005],[-6.374174120000021,43.12342124999998],[-6.37342682000002,43.123020129999986],[-6.373327119999999,43.12165447000001],[-6.372872719999975,43.120767479999984],[-6.372695299999975,43.12022347999999],[-6.372548699999982,43.11934542],[-6.372527359999992,43.118733780000014],[-6.3723726100000135,43.11837818999999],[-6.3723695599999814,43.11809914999998],[-6.373162480000019,43.11731940999999],[-6.373751219999974,43.11662673000001],[-6.374077329999977,43.11585176],[-6.373661249999998,43.11499065999999],[-6.373177010000006,43.11423062],[-6.373513720000005,43.11297812999999],[-6.373557189999985,43.11242759999999],[-6.373393790000023,43.11124389999998],[-6.373402899999974,43.10939781000002],[-6.373226509999995,43.108871780000015],[-6.373441249999985,43.10830720000001],[-6.372384780000004,43.107419970000024],[-6.371178719999989,43.106717230000015],[-6.369696770000019,43.10568946000001],[-6.368785290000005,43.10520310999999],[-6.367849219999982,43.10449238000001],[-6.365942249999989,43.10288281999999],[-6.365416639999978,43.10270922000001],[-6.362947720000022,43.10250278000001],[-6.363203139999996,43.10133373999997],[-6.364033070000005,43.09966157000002],[-6.363707110000007,43.09909491000002],[-6.364094650000027,43.098543259999985],[-6.36495463,43.097644539999976],[-6.365912289999983,43.09695904],[-6.366192169999977,43.09578928000002],[-6.365740049999999,43.09493821000001],[-6.365675699999997,43.094660980000015],[-6.3660866800000235,43.09386552000001],[-6.3661116499999935,43.09364869000001],[-6.365742560000001,43.093191349999984],[-6.365434370000003,43.09294831],[-6.36594697999999,43.09243799000001],[-6.366337789999989,43.09149905999999],[-6.366955229999974,43.09043639999999],[-6.367126589999998,43.089080739999986],[-6.366885369999977,43.08781828000002],[-6.366448090000006,43.08723689999999],[-6.3664607399999795,43.08679532000002],[-6.366350730000022,43.08635736999997],[-6.36548842000002,43.08496912999999],[-6.365180179999982,43.084275890000015],[-6.364519180000002,43.08342196000001],[-6.364335159999996,43.08320228000002],[-6.363917099999981,43.08274638],[-6.363598190000005,43.082530659999975],[-6.364253459999986,43.08193511000002],[-6.365724290000003,43.08030708000001],[-6.3660169799999835,43.079596149999986],[-6.366258430000016,43.07795028999999],[-6.366293639999981,43.077472039999975],[-6.366199859999995,43.07710564000001],[-6.3651376000000255,43.075876359999995],[-6.3641534399999955,43.074950899999976],[-6.363667280000016,43.074596050000025],[-6.363288080000018,43.07440011],[-6.362915769999972,43.07433004000001],[-6.362164810000024,43.07429810999997],[-6.361623640000005,43.07338661],[-6.3613895600000205,43.07270018000003],[-6.361339330000021,43.07133304000001],[-6.360634860000005,43.07035431000003],[-6.360000599999978,43.06976068],[-6.359502249999991,43.06940616999998],[-6.35906129,43.06920302999998],[-6.3586894900000175,43.06891682999998],[-6.358385829999975,43.06830446999999],[-6.359370940000019,43.06633062999998],[-6.359538090000001,43.06556938],[-6.35985973999999,43.06493863999998],[-6.360035630000027,43.06343879000002],[-6.360026179999977,43.06236758],[-6.359438060000002,43.061268359999985],[-6.359586579999984,43.06061570000003],[-6.359087740000007,43.05957689000002],[-6.359912500000007,43.058940370000016],[-6.360435670000015,43.05840275000003],[-6.36343316,43.057306100000005],[-6.363198189999991,43.05682680000001],[-6.362434029999974,43.05565173999997],[-6.362022410000009,43.054187179999985],[-6.36283044999999,43.053920300000016],[-6.363249170000017,43.05371889000003],[-6.363554609999994,43.053466790000016],[-6.364570819999983,43.05206824999999],[-6.364496529999997,43.050710820000006],[-6.364556259999972,43.05023183999998],[-6.364746930000024,43.04990207999998],[-6.36523034999999,43.04976178999999],[-6.366013269999996,43.04926151000001],[-6.36633925000001,43.04893677000001],[-6.366652429999988,43.04837829000002],[-6.366927459999999,43.04824413],[-6.367532449999999,43.048082239999985],[-6.368767470000023,43.047991809999985],[-6.369501370000023,43.04771806000002],[-6.370271100000025,43.04765034000002],[-6.371958080000013,43.04729443999997],[-6.373379250000028,43.04679328999998],[-6.3737606199999846,43.046583940000005],[-6.3740247700000054,43.04625198999997],[-6.374174659999994,43.045851389999996],[-6.374214240000015,43.04545403999998],[-6.373807429999999,43.044304520000026],[-6.373531730000025,43.04375441000002],[-6.373442339999997,43.04324380999998],[-6.3736659699999905,43.041949620000025],[-6.373546079999983,43.04110677],[-6.382018819999985,43.04115347999999],[-6.383127829999978,43.040337299999976],[-6.384737599999994,43.04103698],[-6.386054909999984,43.04021460000001],[-6.386596999999995,43.040027459999976],[-6.387839250000013,43.040071669999975],[-6.3892856400000255,43.04047899],[-6.390147979999995,43.040534449999996],[-6.390547949999984,43.040441550000025],[-6.3922538699999905,43.03954454000001],[-6.393078300000013,43.039357989999985],[-6.396028160000014,43.038982239999996],[-6.39662850000002,43.038739290000024],[-6.397047339999972,43.03832166000001],[-6.397070699999972,43.03807784999998],[-6.396295380000026,43.03693036999999],[-6.396471790000021,43.03612376000001],[-6.396292319999986,43.03531872000002],[-6.395696209999983,43.03452607000003],[-6.395365439999978,43.03320329000002],[-6.395041579999997,43.03267267000001],[-6.394732110000007,43.03240273],[-6.394086829999992,43.032052729999975],[-6.3930822400000125,43.03164135999998],[-6.39169929000002,43.031268220000015],[-6.391570170000023,43.03092989999999],[-6.391585620000001,43.030542260000004],[-6.392103270000007,43.02902320999999],[-6.390822140000012,43.02581974999998],[-6.393470879999995,43.02222053000003],[-6.391998909999984,43.021787010000025],[-6.392993219999994,43.0209021],[-6.393663160000017,43.02014387000003],[-6.393781069999989,43.019834230000015],[-6.393726049999998,43.018836410000006],[-6.393905570000015,43.018308839999975],[-6.39459635999998,43.01726185000001],[-6.394351900000004,43.01661180999997],[-6.398459319999972,43.016552779999984],[-6.399545320000016,43.01666454999997],[-6.402368060000015,43.01622938999998],[-6.403272780000009,43.01639153999997],[-6.405926889999989,43.01712284000001],[-6.406757319999997,43.017494269999986],[-6.407978860000014,43.01850232999999],[-6.409303239999986,43.018264740000006],[-6.409754819999989,43.01799914999998],[-6.411106840000002,43.01693233999998],[-6.411816250000015,43.01622685000001],[-6.412554199999988,43.01515133999999],[-6.412600580000003,43.01443862999997],[-6.411594190000017,43.01399146],[-6.411562389999972,43.01297495],[-6.411145990000023,43.01254617000001],[-6.4109973000000195,43.012298499999986],[-6.410955870000009,43.011993589999975],[-6.411254209999981,43.010291919999986],[-6.411705019999999,43.009792240000024],[-6.411873809999975,43.00951708000002],[-6.412133700000027,43.00867194],[-6.412154180000016,43.00749179000002],[-6.411629459999972,43.006435959999976],[-6.411308700000006,43.005518110000025],[-6.411353299999973,43.004994539999984],[-6.411132230000021,43.00321832999998],[-6.410478230000024,43.00159909000001],[-6.409985950000021,43.001127559999986],[-6.4091679800000065,43.00075578000002],[-6.408550149999996,43.000675160000014],[-6.407824210000001,43.000192570000024],[-6.407794739999986,43.00010341000001],[-6.407576710000001,42.99948862999997],[-6.413406179999981,42.994443460000014],[-6.4240806600000155,42.987875340000016],[-6.425009989999978,42.98760437999999],[-6.426354360000005,42.98751907000002],[-6.427586790000021,42.987626190000015],[-6.428641830000004,42.988071769999976],[-6.431756150000012,42.990697539999985],[-6.434108130000027,42.99218460999998],[-6.43709911000002,42.99303114000003],[-6.438042230000008,42.99168817999998],[-6.442298349999987,42.986418749999984],[-6.446439150000003,42.98217011000003],[-6.448111390000008,42.98268693],[-6.448855530000003,42.98283556000001],[-6.45053753000002,42.98264974],[-6.454366820000018,42.983578550000004],[-6.455610429999979,42.983667019999984],[-6.458248900000001,42.98347918000002],[-6.459028279999984,42.98359965999998],[-6.459799340000018,42.984008519999975],[-6.460803650000003,42.98507661000002],[-6.461246809999977,42.98532431000001],[-6.465279500000008,42.98615656999999],[-6.465879830000006,42.986363470000015],[-6.467901229999995,42.989156449999996],[-6.469466290000014,42.990594629999975],[-6.47085198000002,42.99167806999998],[-6.472130400000026,42.99194539000001],[-6.477315949999991,42.991895820000025],[-6.4781355100000155,42.991204589999995],[-6.478887419999978,42.989750070000014],[-6.478963229999977,42.98870328999999],[-6.477976790000014,42.98469949999998],[-6.477809480000019,42.983038840000006],[-6.478258760000017,42.98013487999998],[-6.476421340000002,42.97886717],[-6.472459179999987,42.97732184],[-6.471966749999979,42.97663447999997],[-6.47184317,42.97574682999999],[-6.4719667800000025,42.975328890000014],[-6.473901650000016,42.97332524000001],[-6.474439729999972,42.97199429],[-6.4746809800000165,42.970618349999995],[-6.474421220000011,42.969707830000004],[-6.474125679999986,42.969032500000026],[-6.473011359999987,42.96775176],[-6.472390350000012,42.967392459999985],[-6.470331929999986,42.96654554999998],[-6.468542630000002,42.96612262999997],[-6.466410709999991,42.96658346999999],[-6.465095669999982,42.967181589999996],[-6.463584879999985,42.967569519999984],[-6.462377170000025,42.967678139999975],[-6.461412370000005,42.967527270000005],[-6.459820579999985,42.96690916],[-6.456100119999974,42.96637340000001],[-6.451773279999998,42.96595488000003],[-6.44613824999999,42.966917249999995],[-6.444807860000026,42.96614698000002],[-6.442372040000009,42.966877650000015],[-6.439372059999982,42.96606753999998],[-6.437430860000006,42.965774769999996],[-6.435632709999993,42.96474833000002],[-6.435580519999974,42.96491197],[-6.43363832,42.96415995000001],[-6.4338882100000205,42.96270277999997],[-6.434714139999983,42.96190360999998],[-6.435775480000018,42.960268989999975],[-6.4369133600000055,42.95802878000001],[-6.437255979999975,42.95603756999998],[-6.439163389999976,42.95353109000001],[-6.441598069999998,42.948613609999995],[-6.44161102999999,42.947307620000004],[-6.440704079999989,42.94620939999999],[-6.436425120000024,42.94332171000002],[-6.4357131599999775,42.942640770000025],[-6.435814950000008,42.941827339999975],[-6.435532229999978,42.94115151],[-6.4345074299999965,42.94035391],[-6.433101640000018,42.93975683000002],[-6.440574280000021,42.93970329000001],[-6.441608710000025,42.939573110000026],[-6.442366960000015,42.939325180000026],[-6.445044670000016,42.93767779000001],[-6.445716240000024,42.93741444],[-6.447378759999992,42.93712120999999],[-6.449533340000016,42.93598472000002],[-6.451196480000021,42.93548432],[-6.453380760000016,42.93531932000002],[-6.454866369999991,42.93493228],[-6.460540159999994,42.93471567],[-6.462448320000021,42.93421669000003],[-6.465383910000014,42.93390266],[-6.467345509999973,42.93435642999998],[-6.471159929999999,42.933763469999974],[-6.473767080000016,42.93371130999998],[-6.476416389999997,42.93397295],[-6.477213049999989,42.933975739999994],[-6.478586849999999,42.93356477999998],[-6.481287179999981,42.93212297000002],[-6.483927859999994,42.93027771999999],[-6.4861227999999755,42.92900427000001],[-6.487149670000008,42.927226150000024],[-6.488604829999986,42.92413835999997],[-6.489157050000017,42.92263581999998],[-6.489769550000005,42.92024903999999],[-6.493097040000009,42.92081374999998],[-6.496480640000016,42.92150271000003],[-6.500120100000004,42.922814019999976],[-6.501419580000004,42.92369265999997],[-6.50356966999999,42.92531057999997],[-6.5054512400000135,42.92608129000001],[-6.508949009999981,42.92769378999998],[-6.510576449999974,42.92873334000001],[-6.5134219899999835,42.927061219999985],[-6.514216959999999,42.92682069],[-6.5179584499999805,42.92603933999999],[-6.519688589999987,42.92586903],[-6.521003549999989,42.92464899999999],[-6.522767989999977,42.923577179999995],[-6.523201099999994,42.92343777000002],[-6.524016949999975,42.923349599999995],[-6.525158999999974,42.92339542000002],[-6.528102590000003,42.923664780000024],[-6.529423989999998,42.92363298999999],[-6.53034322000002,42.92342452999998],[-6.531183419999991,42.92311945],[-6.533321430000001,42.92258516999999],[-6.534486660000027,42.92217998000001],[-6.535643129999983,42.92162198],[-6.536947240000018,42.92086131000002],[-6.537652709999975,42.92034425999998],[-6.538312720000022,42.919675540000014],[-6.538850809999985,42.918803490000016],[-6.538828539999997,42.917345520000026],[-6.539180339999973,42.91685740999998],[-6.539284740000028,42.91675513000001],[-6.540760009999985,42.915349830000025],[-6.541190420000021,42.914310030000024],[-6.5414221999999995,42.91343845],[-6.541234110000005,42.91250785],[-6.542657109999993,42.913184090000016],[-6.546566910000024,42.91215344],[-6.547740939999983,42.91233311000002],[-6.550134669999977,42.913060169999994],[-6.550986150000028,42.91316877999998],[-6.55517758000002,42.912777389999974],[-6.556714409999984,42.913512939999976],[-6.560389320000013,42.914361980000024],[-6.565366009999991,42.91505325999998],[-6.566736380000009,42.914812419999976],[-6.569061799999986,42.91477585000001],[-6.56965280999998,42.91567581999999],[-6.57019157000002,42.91630729000002],[-6.570781619999991,42.91676608],[-6.571167179999975,42.917078179999976],[-6.571657630000004,42.916873769999995],[-6.572723049999979,42.91729068000001],[-6.573831670000004,42.91760719000001],[-6.575654269999973,42.91798239000002],[-6.579396569999972,42.91850455000002],[-6.580664449999972,42.91818572],[-6.583770080000022,42.918502579999995],[-6.585542729999986,42.91843798999997],[-6.590052449999973,42.91677475],[-6.590292309999995,42.91668618],[-6.590677140000025,42.916773139999975],[-6.5919942500000275,42.91709192000002],[-6.592598259999988,42.917577170000015],[-6.594390420000025,42.91763787999997],[-6.597269630000028,42.91848374],[-6.597863410000002,42.91858209999998],[-6.599276869999983,42.91824047],[-6.60226603000001,42.91676868000002],[-6.603469099999984,42.91618151],[-6.6065027099999725,42.916103840000005],[-6.607117309999978,42.916768760000025],[-6.60967248999998,42.919614439999975],[-6.610774219999996,42.92253298999998],[-6.611788439999998,42.92290613],[-6.612926259999995,42.92455394000001],[-6.61593498000002,42.92404461000001],[-6.621647600000017,42.92200890999999],[-6.623466430000008,42.921059860000014],[-6.627470940000023,42.919987419999984],[-6.628581259999976,42.91949297000002],[-6.632217099999991,42.923195220000025],[-6.633529650000014,42.923846819999994],[-6.6387829899999815,42.92546248999997],[-6.645387570000025,42.924018450000005],[-6.646749800000009,42.92384894000003],[-6.647673349999991,42.92392751],[-6.648818070000004,42.92422412000002],[-6.650899110000012,42.92502206],[-6.656937649999975,42.92457688000002],[-6.659837890000006,42.92286330000002],[-6.660642320000022,42.92279251999997],[-6.661993359999997,42.923055369999986],[-6.663072779999993,42.92369609000002],[-6.6652820099999985,42.92396740999999],[-6.667189839999992,42.92452749],[-6.672039170000005,42.92366046000001],[-6.673651220000011,42.923572630000024],[-6.675002710000001,42.923430139999994],[-6.67764391999998,42.92293099],[-6.682186650000006,42.923090849999994],[-6.685137769999983,42.92265357000002],[-6.6859905399999775,42.92257205999999],[-6.687307009999984,42.92266466000001],[-6.6876850200000035,42.92263445999998],[-6.689904650000017,42.92246377999999],[-6.690997130000028,42.922293449999984],[-6.692771839999978,42.921443780000004],[-6.695968619999974,42.91897239000002],[-6.696994899999993,42.91851601000002],[-6.702530679999995,42.91767054000002],[-6.705844049999996,42.916743800000006],[-6.706398400000012,42.91659077000003],[-6.710604929999988,42.91585103],[-6.712786419999986,42.91505086000001],[-6.716790160000016,42.915830159999985],[-6.7176518499999816,42.91630636999997],[-6.7193077499999845,42.91674773],[-6.721724670000015,42.91741639999998],[-6.722659860000022,42.91748498999999],[-6.723192429999983,42.91737761000002],[-6.723901959999978,42.91675122999999],[-6.724111199999982,42.91656433000003],[-6.725548759999981,42.91480670999999],[-6.729733650000014,42.911482809999995],[-6.7310046499999885,42.91021678999999],[-6.732764850000024,42.909141869999985],[-6.733440789999975,42.90816536],[-6.734537769999974,42.90767032999997],[-6.735992490000001,42.90519169999999],[-6.737425680000001,42.904181419999986],[-6.738294090000011,42.90335166],[-6.738910139999973,42.90260218999998],[-6.739860210000018,42.90089635999999],[-6.740175239999985,42.90003066999998],[-6.740594320000014,42.89946771000001],[-6.742568860000006,42.898097500000006],[-6.74420361,42.89738668000001],[-6.745057429999974,42.89652133999999],[-6.745751859999984,42.89605739000001],[-6.747001950000026,42.895467180000026],[-6.747843330000023,42.895205499999975],[-6.748256379999987,42.89494884999999],[-6.749223930000028,42.89414276999997],[-6.749946840000007,42.892534350000005],[-6.751459210000007,42.889810539999985],[-6.7523246100000165,42.88934094000001],[-6.755145860000027,42.88619595],[-6.756669359999989,42.88305753999998],[-6.758316939999986,42.88337256],[-6.7604751800000145,42.88403091999999],[-6.7628151399999865,42.88344970999998],[-6.764867999999979,42.88338212999997],[-6.766501759999983,42.88367047000003],[-6.767847700000004,42.88345505000001],[-6.769914900000003,42.88281964999999],[-6.771514679999996,42.88255079999999],[-6.77284874999998,42.88254280000001],[-6.77371106999999,42.88282948],[-6.7741111099999785,42.883365519999984],[-6.774235439999984,42.88419878000002],[-6.774153850000005,42.88486776000002],[-6.773882220000019,42.885633059999975],[-6.773358210000026,42.88667680999998],[-6.772981819999984,42.887130420000005],[-6.767945129999987,42.89027685000002],[-6.767777070000022,42.892542400000025],[-6.768119399999989,42.89494418999999],[-6.768286709999984,42.895478920000016],[-6.768659049999997,42.89596187000001],[-6.769559510000022,42.89667050999998],[-6.770670639999992,42.89862375000001],[-6.774123939999981,42.90002247000001],[-6.776929049999978,42.901433499999996],[-6.778301020000015,42.90183836],[-6.780009880000023,42.901943949999975],[-6.782660210000017,42.90242353000002],[-6.786948999999993,42.90385723999998],[-6.789771029999997,42.90453807],[-6.79466463,42.907238989999996],[-6.801042559999985,42.91016948999999],[-6.80568409,42.910753390000025],[-6.811659210000016,42.91131065000002],[-6.824189419999982,42.91506098000002],[-6.835796319999986,42.91634683000001],[-6.8360042400000225,42.91673602999998],[-6.841874659999974,42.92819890999999],[-6.834630749999974,42.94097555000002],[-6.836091080000017,42.95776380000001],[-6.853333150000026,42.97239129000002],[-6.854351559999998,42.97338338999998],[-6.861981169999979,42.979302440000026],[-6.863118009999994,42.980614590000016],[-6.86349838000001,42.98120498999998],[-6.863903300000004,42.982577890000016],[-6.864303409999991,42.98348275000001],[-6.864803779999988,42.98383498999999],[-6.865461949999997,42.98396579000001],[-6.866203929999983,42.983868659999985],[-6.86706208999999,42.983668550000004],[-6.867429210000012,42.983656129999986],[-6.867888769999979,42.98374861999997],[-6.868392369999981,42.98395667],[-6.869744980000007,42.985576579999986],[-6.870741969999983,42.98817193000002],[-6.871074469999996,42.98858385],[-6.87177072999998,42.98892941999998],[-6.872164619999978,42.98895209],[-6.872729100000015,42.98876188999998],[-6.873154989999989,42.988513350000005],[-6.877593269999977,42.989659389999986],[-6.88060698999999,42.991357849999986],[-6.88470891999998,42.989498760000004],[-6.887970189999976,42.988703559999976],[-6.891124300000001,42.98815502000002],[-6.893768599999987,42.987884870000016],[-6.894739580000021,42.98850005999998],[-6.896016569999972,42.988717640000004],[-6.897770270000024,42.989297109999995],[-6.898514219999981,42.98942478999999],[-6.899346990000026,42.989405379999994],[-6.900052819999985,42.98931827000001],[-6.901836749999973,42.98882519],[-6.902951830000006,42.98861604000001],[-6.90619319000001,42.988865439999984],[-6.907382279999979,42.98904987999998],[-6.908316090000028,42.989270060000024],[-6.909429530000011,42.98980820999998],[-6.910321249999981,42.990137849999996],[-6.911061089999976,42.991165980000005],[-6.911372289999974,42.99201068000002],[-6.91832088000001,42.99828236000002],[-6.91940722999999,42.99877631999999],[-6.920056050000028,42.99914123000002],[-6.920404829999995,42.99941739000002],[-6.920987430000025,43.00009068999998],[-6.921015350000005,43.00014375000001],[-6.922050749999983,43.00137775000002],[-6.922691380000003,43.001805950000005],[-6.923921849999999,43.00224990999999],[-6.924514540000018,43.00231058999998],[-6.925944949999973,43.002234439999995],[-6.927793319999978,43.00371057000001],[-6.928209869999989,43.00389432999998],[-6.928668510000023,43.00396860000001],[-6.9295766100000264,43.00397339],[-6.9299310000000105,43.00452844],[-6.930880419999994,43.00460383000001],[-6.932645019999995,43.00668601000001],[-6.932573880000007,43.00730070999998],[-6.932323520000011,43.00818269000001],[-6.932411699999989,43.00860282999997],[-6.932574100000011,43.008840340000006],[-6.93286827999998,43.00902830000001],[-6.933894479999992,43.00934411999998],[-6.935501839999972,43.0103062],[-6.9358859299999835,43.01036499999998],[-6.936455200000012,43.01063350999999],[-6.93681595999999,43.010711119999996],[-6.937403570000015,43.01069087000002],[-6.937888069999985,43.010593140000026],[-6.938293779999981,43.01060617000002],[-6.938853110000025,43.01091102999999],[-6.940638209999975,43.011389699999995],[-6.941954450000026,43.016998650000005],[-6.944564539999988,43.02211273],[-6.945699779999984,43.025846090000016],[-6.945837209999979,43.02684076000003],[-6.94655315,43.03245235999998],[-6.957104210000011,43.03677836000003],[-6.957115980000026,43.03657987999998],[-6.956809770000007,43.035636090000025],[-6.956374419999975,43.035164959999975],[-6.955966349999983,43.034926989999974],[-6.9560096700000145,43.03464637000002],[-6.956464840000024,43.03409039000002],[-6.956782770000018,43.03388130000002],[-6.957888609999998,43.03351887000002],[-6.9580100200000174,43.033307579999985],[-6.958266760000015,43.03195713000002],[-6.958709950000014,43.03083432],[-6.958342210000012,43.03045989999998],[-6.95752822999998,43.03039805999998],[-6.957936529999984,43.029114400000026],[-6.958369370000014,43.02878427000002],[-6.959251810000012,43.02838455],[-6.961169840000025,43.02786788999998],[-6.962717699999985,43.02712994000001],[-6.964448520000019,43.02656569999999],[-6.964278429999979,43.026211450000005],[-6.963764420000018,43.025662049999994],[-6.963352910000026,43.02537018999999],[-6.961972839999987,43.024139520000006],[-6.961247829999991,43.02355240999998],[-6.960679110000001,43.02291485000001],[-6.960457179999992,43.02251738000001],[-6.9603996299999835,43.022195239999974],[-6.9604516900000135,43.021860300000014],[-6.960770330000003,43.02128202],[-6.96110041999998,43.0210725],[-6.962020040000027,43.02068047],[-6.962526260000004,43.02034778000001],[-6.962863289999973,43.02024605999998],[-6.96342648000001,43.02022653],[-6.963880739999979,43.020039699999984],[-6.963974810000025,43.01959526000002],[-6.963887460000024,43.019382199999995],[-6.961885919999986,43.01840718],[-6.961448259999997,43.01808921000003],[-6.9607286300000055,43.01739386000003],[-6.960407050000015,43.016972829999986],[-6.959624229999974,43.01567641999998],[-6.959516559999997,43.015338009999994],[-6.95958349,43.01447132999999],[-6.959720679999975,43.01412443999999],[-6.959960420000016,43.01384602000002],[-6.961874249999994,43.01269923000001],[-6.962031749999994,43.01247768000002],[-6.962073970000006,43.011990019999985],[-6.961799639999981,43.01154034000001],[-6.961076999999989,43.011178229999985],[-6.960789190000014,43.01090009000001],[-6.960158920000026,43.01006658],[-6.959820719999982,43.009195939999984],[-6.959694309999975,43.007993820000024],[-6.959974540000019,43.007200780000005],[-6.960146010000017,43.00700576000003],[-6.960597870000015,43.00678302],[-6.961567300000013,43.006596349999995],[-6.962053550000007,43.00633639],[-6.9622099800000115,43.00590778999998],[-6.962147140000013,43.005693880000024],[-6.961890869999991,43.00533360999998],[-6.9616018199999985,43.00522659000001],[-6.960455369999977,43.00514027999998],[-6.959892149999973,43.004394479999974],[-6.959781039999996,43.00400216000003],[-6.959743010000011,43.00322016000001],[-6.960271690000013,43.00209438000002],[-6.960531240000023,43.001743239999996],[-6.962019680000026,43.000854300000015],[-6.962075190000007,43.00057326000001],[-6.9616953899999885,43.000199269999996],[-6.961374279999973,43.00016538],[-6.9610869900000125,43.00008530000002],[-6.959878969999977,42.99980304000002],[-6.958377540000015,42.99896368999998],[-6.957567670000003,42.99857757000001],[-6.957041039999979,42.99820863999997],[-6.95667997999999,42.99774394999997],[-6.95613929000001,42.996583180000016],[-6.956074290000004,42.996144249999986],[-6.956280160000006,42.99591203],[-6.956624110000007,42.99572905000002],[-6.957430240000008,42.99548505000001],[-6.9584239800000205,42.99529755999998],[-6.958959479999976,42.995423070000015],[-6.959798990000024,42.995889190000014],[-6.960164780000014,42.99623666000002],[-6.960652489999973,42.99638183000002],[-6.9613908599999945,42.99641925999998],[-6.962033150000025,42.996297949999985],[-6.963712439999995,42.99570849999998],[-6.96415552000002,42.99535099000002],[-6.964376000000016,42.99496518000001],[-6.964458960000002,42.99453913000002],[-6.964356129999999,42.99389443000001],[-6.9641006599999855,42.993164990000025],[-6.96386775000002,42.9927859],[-6.963562379999985,42.992805499999974],[-6.963286690000018,42.99290509999997],[-6.962920409999981,42.99350304000001],[-6.9625939300000255,42.993766470000025],[-6.962198750000027,42.99391523000003],[-6.961896939999974,42.99379964000002],[-6.961837109999976,42.99344156000001],[-6.96192886,42.99296118000001],[-6.961832510000022,42.99222622000002],[-6.961826190000011,42.99098393000003],[-6.961956279999981,42.99071830999998],[-6.962230809999994,42.99060073999999],[-6.962720209999986,42.990772849999985],[-6.963936359999991,42.991946180000014],[-6.964706480000018,42.99247768999999],[-6.965427260000013,42.992623760000015],[-6.965889409999988,42.99256270000001],[-6.966194289999976,42.992345039999975],[-6.966646850000018,42.99156400999999],[-6.968731559999981,42.99231997999999],[-6.972155690000022,42.994064779999974],[-6.972569229999976,42.99629233000002],[-6.975095580000016,42.996285520000015],[-6.976947730000006,43.00008366999998],[-6.976978009999982,43.000172650000025],[-6.978697520000026,43.00400239999999],[-6.97963163999998,43.00478921000001],[-6.983778780000023,43.004041470000004],[-6.985854759999995,43.00957839],[-6.986183229999995,43.01199793000001],[-6.986175000000003,43.01262847999999],[-6.9858116400000085,43.014216799999986],[-6.985689779999973,43.01441913000002],[-6.988580000000013,43.014714449999985],[-6.991960469999981,43.01670328],[-6.992658280000001,43.017057050000005],[-6.99623428000001,43.01846268000003],[-6.997171779999974,43.019483330000014],[-6.996344700000009,43.022429450000004],[-6.995618900000011,43.023535270000025],[-6.9949660300000005,43.02633122999998],[-6.996409710000023,43.02682998],[-6.9969211200000245,43.027712459999975],[-6.996175429999994,43.02851285999998],[-6.995460019999996,43.02902406999999],[-6.993452499999989,43.03004864000002],[-6.991211089999979,43.03087425000001],[-6.987226889999988,43.02923960999999],[-6.986525990000018,43.02959720000001],[-6.986229729999991,43.03013874999999],[-6.9858098700000255,43.030477529999985],[-6.985292560000005,43.03139593999998],[-6.985130920000017,43.032500029999994],[-6.984691199999986,43.03291152999998],[-6.984370839999997,43.03478646000002],[-6.983128019999981,43.035874209999974],[-6.983297520000008,43.03735390999998],[-6.983909149999988,43.03826896999999],[-6.983146209999973,43.03937601000001],[-6.982709339999985,43.03983241999998],[-6.982582690000015,43.04053012000003],[-6.981913060000011,43.041372790000025],[-6.981195150000019,43.04128075],[-6.9809490100000176,43.041460400000005],[-6.980178760000001,43.04055985000002],[-6.979220279999993,43.03902658999999],[-6.978599799999984,43.03892214000001],[-6.978245300000026,43.03856533999999],[-6.977911280000001,43.037955710000006],[-6.977700299999981,43.03735080000001],[-6.977520560000016,43.03533123],[-6.977426170000001,43.03501038000002],[-6.977467730000001,43.03432465999998],[-6.976646710000011,43.034155150000004],[-6.975838490000001,43.03190533999998],[-6.972474390000002,43.03036565000002],[-6.97110047000001,43.03075554999998],[-6.970758699999976,43.03097451000002],[-6.970243919999973,43.03231593999999],[-6.968994720000012,43.03273748999999],[-6.969148370000028,43.03511813],[-6.967997729999979,43.03535617],[-6.96782773000001,43.034623769999996],[-6.964639659999989,43.03467139999998],[-6.9660387700000115,43.037143879999974],[-6.966088099999979,43.03771840000002],[-6.965962579999996,43.03805590000002],[-6.9651865600000065,43.03896519],[-6.965073860000018,43.03931124000002],[-6.96496719999999,43.04051242999998],[-6.964537469999982,43.04165280000001],[-6.964176000000009,43.04270976999999],[-6.9637372299999925,43.04313916000001],[-6.96334478,43.04428723000001],[-6.963786040000002,43.04618070999999],[-6.964165260000016,43.04730202000002],[-6.964805290000015,43.04961177000001],[-6.964854129999992,43.04998823],[-6.964748950000001,43.05045107000001],[-6.964551640000025,43.05081805999998],[-6.964216099999987,43.05113583000002],[-6.963056199999983,43.051806320000026],[-6.96255917000002,43.051904579999984],[-6.962031190000005,43.05209395999998],[-6.9620998799999825,43.05239770999998],[-6.962345949999985,43.05259625999997],[-6.963665129999981,43.05325278999999],[-6.964499550000028,43.05400716999998],[-6.964980550000007,43.054611729999976],[-6.966202520000024,43.054902459999994],[-6.967142169999988,43.05519398000001],[-6.967661249999992,43.055437059999974],[-6.968061900000009,43.05574727999999],[-6.968383179999989,43.05615929999999],[-6.968637919999992,43.05668166999999],[-6.968670480000014,43.05699566999999],[-6.968586399999992,43.057214680000016],[-6.96811138999999,43.05765435000001],[-6.967320819999998,43.05796091000002],[-6.967017380000016,43.05820554000002],[-6.966978260000019,43.059881589999975],[-6.96688764999999,43.06037994000002],[-6.966521569999998,43.061175960000014],[-6.966139960000021,43.06135128],[-6.9644797799999765,43.06093169000002],[-6.962661340000011,43.06091372999998],[-6.9619396599999845,43.06095677000002],[-6.961213250000014,43.061117009999975],[-6.9591038600000275,43.06191942999999],[-6.958560630000022,43.062064299999975],[-6.957834009999999,43.06260268],[-6.956347059999985,43.06334747],[-6.956042389999993,43.06357410999999],[-6.955864870000028,43.06386837000002],[-6.955820179999989,43.064509180000016],[-6.95592388,43.064784710000026],[-6.957581329999982,43.06611386999998],[-6.958060629999977,43.06669151],[-6.958161449999977,43.066922120000015],[-6.958102310000015,43.067338329999984],[-6.957723339999973,43.06793670000002],[-6.957357390000027,43.06816547],[-6.956161689999988,43.06847699000002],[-6.955086300000005,43.06855924000001],[-6.954566460000024,43.06849620000003],[-6.954250880000018,43.068363069999975],[-6.9534238800000026,43.06772540999998],[-6.9531473800000185,43.067626940000025],[-6.9526899699999944,43.067579739999985],[-6.951507779999986,43.067719669999974],[-6.950976159999982,43.06785510999998],[-6.950653989999978,43.06800129999999],[-6.950444989999994,43.068188599999985],[-6.9503193300000135,43.06852608000003],[-6.951671820000001,43.07046012000001],[-6.951899210000022,43.070749379999995],[-6.952016319999984,43.07104244999999],[-6.951512990000026,43.071618090000015],[-6.951115430000016,43.07192895999998],[-6.950927340000021,43.07225060000002],[-6.950854740000011,43.07264927],[-6.950931959999991,43.07327686000002],[-6.95111485000001,43.073828760000026],[-6.95184759,43.07509994999998],[-6.95199384,43.075464039999986],[-6.9519650500000125,43.07578016000002],[-6.951819510000007,43.076190370000006],[-6.951344230000018,43.07662998000001],[-6.951011499999993,43.07680355000002],[-6.9497636899999975,43.07707178999999],[-6.948662809999973,43.07752400999999],[-6.948104849999993,43.077633330000026],[-6.946175729999993,43.07742987],[-6.945403209999995,43.077258470000004],[-6.944729759999973,43.077290730000016],[-6.9443357299999775,43.07746639999999],[-6.944054300000005,43.07767419999999],[-6.943315270000028,43.078789159999985],[-6.9428014100000155,43.07920306],[-6.942240400000003,43.07945651],[-6.941386399999999,43.07973808000003],[-6.940936260000001,43.07999670999999],[-6.940276310000002,43.08062272000001],[-6.939890750000018,43.08112222],[-6.939490159999991,43.08215345000002],[-6.939389360000007,43.082688140000016],[-6.939424379999991,43.08342524],[-6.939472490000014,43.08532336000002],[-6.939210460000027,43.08602567999998],[-6.938688870000021,43.08651185000002],[-6.9381354199999805,43.086693000000025],[-6.937870149999981,43.08562169999999],[-6.937206639999999,43.08408693000001],[-6.936476490000018,43.08342780999999],[-6.934887919999994,43.08202394],[-6.934200750000002,43.08165143999997],[-6.932232859999999,43.08161114000001],[-6.930506470000012,43.08169756000001],[-6.929252130000009,43.081866760000025],[-6.928399549999995,43.08178803999999],[-6.924920480000026,43.08193462000003],[-6.924547050000001,43.081857420000006],[-6.923367569999982,43.08185291000001],[-6.920243570000025,43.0796732],[-6.919067919999975,43.07838099000003],[-6.918531819999998,43.077679079999996],[-6.918106260000002,43.076784299999986],[-6.917174100000011,43.07545670000002],[-6.915595090000011,43.07342196000002],[-6.914926470000012,43.074300230000006],[-6.912990709999974,43.07630234999999],[-6.91108496999999,43.07800628000001],[-6.905625579999992,43.08100221000001],[-6.904170589999978,43.08188028000001],[-6.903006559999994,43.08250529999998],[-6.901689169999997,43.083423659999994],[-6.901547800000003,43.083518519999984],[-6.901024469999982,43.083788500000026],[-6.8999458600000025,43.08491027000002],[-6.899261539999998,43.08562241999999],[-6.899104500000021,43.086050950000015],[-6.899084660000028,43.08805946000001],[-6.893990359999975,43.09179869000002],[-6.8919958999999835,43.09134444],[-6.890296840000019,43.09051094],[-6.882890309999993,43.09072689999999],[-6.878732290000016,43.090832130000024],[-6.873537989999988,43.09164763000001],[-6.871348080000018,43.09120863999999],[-6.870449140000005,43.09273373000002],[-6.86898567999998,43.09485416000001],[-6.86875354,43.09565435000002],[-6.866804609999974,43.09728697999998],[-6.866510210000001,43.09885459999998],[-6.865238879999993,43.10110352999999],[-6.862749240000028,43.10293446999998],[-6.8592424899999855,43.104421549999984],[-6.856557459999976,43.10627696],[-6.856147560000011,43.107380250000006],[-6.855605579999974,43.10853301999998],[-6.854799060000005,43.10860524999998],[-6.854351950000023,43.108530299999984],[-6.851621019999982,43.10907258999998],[-6.850630120000005,43.10934008999999],[-6.843981929999984,43.11326451999997],[-6.840906959999984,43.11518669999998],[-6.831052539999973,43.120928839999976],[-6.830461089999972,43.12247931000002],[-6.827604450000024,43.12318730999999],[-6.828409920000013,43.12407870999999],[-6.827378880000026,43.125283739999986],[-6.827698170000019,43.127641040000015],[-6.826922790000026,43.129791909999994],[-6.827212540000005,43.130691590000026],[-6.8268469800000275,43.131334100000004],[-6.8260519599999725,43.13179291],[-6.825549669999987,43.13221490000001],[-6.825697880000007,43.133407439999985],[-6.8250011100000165,43.134259110000016],[-6.8239207299999975,43.13704143000001],[-6.8248543700000255,43.137226269999985],[-6.824424029999989,43.13781691999998],[-6.824667519999991,43.14033883000002],[-6.822973069999989,43.14175511000002],[-6.8221128000000135,43.142747299999996],[-6.821553530000017,43.14324320999998],[-6.823291069999982,43.143698289999975],[-6.826341130000003,43.14587412999998],[-6.826806669999996,43.148208520000026],[-6.82950618000001,43.15027896999999],[-6.829791390000025,43.151890089999995],[-6.830622220000009,43.15239344999998],[-6.831108889999996,43.152899349999984],[-6.831553219999989,43.153514710000024],[-6.832245059999991,43.15376162000001],[-6.834500160000005,43.15540566999999],[-6.8350030899999865,43.15597402999998],[-6.836602589999984,43.15716285000002],[-6.83674886,43.15733800999999],[-6.836801439999988,43.157588350000026],[-6.83611516000002,43.15841273000001],[-6.836065619999999,43.15860347],[-6.836701679999976,43.158744179999985],[-6.837514240000019,43.16111188999997],[-6.837455060000025,43.16389602999999],[-6.8379820800000175,43.164454569999975],[-6.838801939999996,43.165759579999985],[-6.838912100000016,43.16614304000001],[-6.839186219999988,43.166394930000024],[-6.841942089999975,43.16659941],[-6.8443295899999725,43.16661813000002],[-6.845161589999975,43.16674318999998],[-6.84585026000002,43.16693609999999],[-6.847049939999977,43.167039769999974],[-6.850253580000015,43.16888564999999],[-6.851165089999995,43.169296110000005],[-6.854355139999996,43.171313399999974],[-6.855915589999995,43.17226013999999],[-6.856666650000022,43.17285604],[-6.8572509699999955,43.17353860999998],[-6.858025670000018,43.17489902],[-6.858848570000021,43.17585262],[-6.86081015000002,43.179838010000026],[-6.861080119999997,43.18080128999998],[-6.8618238500000075,43.18225275999998],[-6.865923570000007,43.18229414000001],[-6.867378669999994,43.18195677],[-6.8682079600000066,43.18145148999997],[-6.8693786000000046,43.18031337999997],[-6.870458499999984,43.179880630000014],[-6.870863820000011,43.17987590000001],[-6.87171244000001,43.179865140000004],[-6.870995429999994,43.18136605000001],[-6.870810170000027,43.18232673],[-6.870609880000018,43.18285573000003],[-6.868569890000003,43.18561695],[-6.868459840000014,43.18601683999998],[-6.868443920000004,43.18673768000002],[-6.868622979999998,43.18859537999998],[-6.868508949999978,43.18893237999998],[-6.868061920000002,43.18945172999997],[-6.868245639999998,43.19002174000002],[-6.870005909999975,43.18847649999998],[-6.870091960000025,43.18808643],[-6.870213949999993,43.187875210000016],[-6.87045667000001,43.18782196000001],[-6.871623829999976,43.18837665000001],[-6.874654309999983,43.18687831],[-6.875519010000005,43.184796129999995],[-6.8746929499999965,43.18205102000002],[-6.8766224400000056,43.18046392000002],[-6.876919110000017,43.178545059999976],[-6.8764501,43.17658017000002],[-6.876561859999981,43.17582005999998],[-6.876987410000027,43.174770190000004],[-6.878278309999985,43.17320474000002],[-6.8799940399999855,43.170580410000014],[-6.88036347000002,43.17019871000002],[-6.881889030000025,43.16942657999999],[-6.885146700000007,43.16803728999997],[-6.886272539999993,43.16678349],[-6.88612157,43.165762210000025],[-6.885920100000021,43.16491371000001],[-6.885513109999977,43.1643153],[-6.883489069999996,43.161881100000016],[-6.88286291999998,43.161317139999994],[-6.882148340000015,43.16052208999997],[-6.883516470000018,43.15901699],[-6.884207479999986,43.15847127000001],[-6.885405149999997,43.156800869999984],[-6.891464030000009,43.15537911000001],[-6.892839009999989,43.1549541],[-6.894656059999988,43.15509924999998],[-6.895703140000023,43.15512656999999],[-6.896439740000005,43.15529952999998],[-6.901235600000007,43.155099810000024],[-6.902145399999995,43.15509574999999],[-6.9058520199999975,43.14977391999997],[-6.914303700000005,43.146945570000014],[-6.916499160000001,43.144358280000006],[-6.91944417000002,43.140997930000026],[-6.924742120000019,43.140978089999976],[-6.925816709999992,43.14067104999998],[-6.9268911099999855,43.140553090000026],[-6.929175750000013,43.141284859999985],[-6.929440870000008,43.14139279],[-6.929558040000018,43.14168588000001],[-6.929596730000014,43.14286403],[-6.930207600000017,43.14241984],[-6.93094665000001,43.141674120000005],[-6.9318552299999965,43.141462769999976],[-6.932128169999999,43.141309320000005],[-6.9325988699999925,43.140788910000026],[-6.9329413699999805,43.14057002999999],[-6.93386812,43.140259000000015],[-6.934698869999977,43.140176370000006],[-6.935404779999999,43.139872930000024],[-6.937315370000022,43.13937492000002],[-6.938246909999975,43.135696300000006],[-6.938635050000016,43.132936789999974],[-6.941563299999984,43.131827369999996],[-6.945575790000021,43.13209401],[-6.947151290000022,43.13269685],[-6.950986100000023,43.13440102999999],[-6.952755840000009,43.134582910000006],[-6.954138380000018,43.13467011],[-6.9546009399999775,43.134789160000025],[-6.955224789999988,43.134740550000004],[-6.955831639999985,43.134809570000016],[-6.956498010000018,43.13503859000002],[-6.9573623,43.135476849999975],[-6.9576523100000145,43.136160080000025],[-6.95781777000002,43.137198780000006],[-6.957577329999992,43.138044449999995],[-6.957108870000013,43.13935722000002],[-6.957144350000021,43.13971613000001],[-6.95745020999999,43.14026376999999],[-6.961064369999974,43.14519856999999],[-6.961501189999979,43.14567862000001],[-6.96290233000002,43.146809510000026],[-6.965091420000022,43.148714359999985],[-6.973469729999977,43.149539730000015],[-6.977497760000006,43.16062713000002],[-6.980286700000022,43.165878169999985],[-6.980726740000023,43.166403049999985],[-6.980772909999985,43.166545499999984],[-6.980724989999999,43.166754260000005],[-6.9806945999999925,43.16685436],[-6.976344310000002,43.17562233000001],[-6.9740498799999955,43.17893447],[-6.972390200000007,43.18084693999998],[-6.966055610000012,43.185992020000015],[-6.965117669999984,43.18708701000003],[-6.964901269999984,43.18754469999999],[-6.964652320000027,43.18958816000003],[-6.964470310000024,43.1903868],[-6.964569559999973,43.19096859000001],[-6.964983689999997,43.19261088000002],[-6.9656109000000015,43.193174339999985],[-6.965839440000025,43.19347253000001],[-6.965784919999976,43.194149700000025],[-6.965857879999987,43.194705390000024],[-6.96630614999998,43.19554517],[-6.967979790000015,43.19725175000002],[-6.96853686999998,43.19806073000001],[-6.969009060000019,43.19964697],[-6.970089289999976,43.202067409999984],[-6.9705112699999745,43.203637379999975],[-6.971018759999993,43.204249989999994],[-6.97173214999998,43.204432269999984],[-6.972679459999995,43.20442634],[-6.973647260000007,43.20416759],[-6.974391659999981,43.204069660000016],[-6.975763500000028,43.204156969999985],[-6.976717829999984,43.20369158],[-6.980918680000002,43.203752339999994],[-6.980626289999975,43.20323130999998],[-6.986365410000019,43.202157820000025],[-6.989026969999998,43.204657940000004],[-6.992747570000006,43.20866959],[-6.989880219999975,43.208112519999986],[-6.986983640000005,43.2072953],[-6.984119299999975,43.20659391999999],[-6.982428860000027,43.20860664999998],[-6.979941719999999,43.20878336999999],[-6.9771370199999865,43.20937626],[-6.980347170000016,43.212739829999975],[-6.980756569999983,43.21316674000002],[-6.981642669999985,43.21410823999997],[-6.981255519999991,43.214400850000004],[-6.980633850000004,43.21487268999999],[-6.9804695199999856,43.215184539999996],[-6.980508729999997,43.21559733999999],[-6.980870789999983,43.21624198000001],[-6.9813135699999975,43.21661369999998],[-6.98191601000002,43.21697985999998],[-6.982144720000008,43.21727800999997],[-6.981969890000016,43.217806310000014],[-6.981746470000019,43.21796716],[-6.980468519999988,43.21838085000002],[-6.980270840000003,43.21855879999998],[-6.980218820000005,43.219271900000024],[-6.973195579999981,43.22441973999997],[-6.964040769999997,43.226225209999996],[-6.962659200000019,43.22322545999998],[-6.95687786000002,43.21640672000001],[-6.953661290000014,43.21108263999997],[-6.953506090000019,43.211061900000004],[-6.953343510000025,43.211041420000015],[-6.953138299999978,43.211008900000024],[-6.9529194699999834,43.21097506000001],[-6.9527554900000155,43.210951920000014],[-6.952611359999992,43.21089298999999],[-6.9524509600000215,43.21083011000002],[-6.952287720000015,43.21072321999998],[-6.952090220000002,43.210600399999976],[-6.95199365000002,43.2104966],[-6.951846810000006,43.21031979999998],[-6.951855570000021,43.210207860000025],[-6.951846390000014,43.21006591999998],[-6.951788910000005,43.20991935000001],[-6.951761099999999,43.20969882000003],[-6.951668789999985,43.20935627],[-6.951662429999999,43.20931508000001],[-6.951563770000007,43.209178940000015],[-6.951499640000009,43.209119929999986],[-6.951395230000003,43.209047010000006],[-6.951292319999993,43.20899745000003],[-6.951201920000017,43.20896997],[-6.951067420000015,43.20894580999999],[-6.950982850000003,43.20895143000001],[-6.9508032400000275,43.208990959999994],[-6.950620529999981,43.20902068999999],[-6.950427579999996,43.209063379999975],[-6.950170350000008,43.20912089000001],[-6.949759789999973,43.209167509999986],[-6.949618789999988,43.20915708000001],[-6.949396739999997,43.209149449999984],[-6.949276220000002,43.209113100000025],[-6.949156290000019,43.20908573999998],[-6.948892650000005,43.208967900000005],[-6.94874655000001,43.20887841000001],[-6.948595759999989,43.20881159999999],[-6.948380229999998,43.20873351],[-6.948149450000017,43.208647859999985],[-6.947950289999994,43.20857551],[-6.947752820000005,43.208529209999995],[-6.9475007400000095,43.208475799999974],[-6.947263739999983,43.208427270000016],[-6.947065720000012,43.208429609999996],[-6.94689618000001,43.20843457000001],[-6.946754699999985,43.208454759999995],[-6.9466154200000005,43.208528],[-6.946477589999972,43.208623699999976],[-6.946332740000003,43.20872505],[-6.946196690000022,43.2088675],[-6.946118090000027,43.208984569999984],[-6.9460851599999955,43.209103649999975],[-6.946140650000018,43.209238589999984],[-6.946216730000003,43.20936831],[-6.946338360000027,43.209498259999975],[-6.946394209999994,43.20961968],[-6.946470569999974,43.209772810000004],[-6.946544340000003,43.20996203999999],[-6.946505790000003,43.210089419999974],[-6.946438870000009,43.21023488999998],[-6.946371329999977,43.210332660000006],[-6.946267460000001,43.210458700000004],[-6.9462027899999725,43.210543770000015],[-6.945943660000012,43.210648160000005],[-6.945770390000007,43.21072887999998],[-6.945609779999984,43.21073892999999],[-6.945458659999986,43.21074325000001],[-6.945296600000006,43.21074973999998],[-6.945144389999996,43.210813529999996],[-6.944967440000028,43.21087546000001],[-6.944872019999991,43.210941779999985],[-6.944771870000011,43.210992060000024],[-6.944695889999991,43.21111173000003],[-6.9446300899999756,43.21123645],[-6.944804739999995,43.2114249],[-6.944993679999982,43.21158673999997],[-6.945084039999983,43.21168985999998],[-6.945212949999984,43.21177994999999],[-6.945329290000018,43.21186596000001],[-6.945434560000024,43.21197126999999],[-6.945433589999993,43.21205143999998],[-6.9454430100000195,43.212140250000004],[-6.945440749999989,43.212219559999994],[-6.945434239999997,43.21225220000002],[-6.945412289999979,43.21229347000002],[-6.945335759999978,43.21234743000002],[-6.94528661999999,43.21236804],[-6.945214150000027,43.21238944999999],[-6.945133610000028,43.21240033999999],[-6.945005939999987,43.21238674],[-6.944842839999978,43.21235816000001],[-6.944752419999986,43.21236848000001],[-6.944668540000009,43.21238489000001],[-6.944558529999995,43.212396790000014],[-6.94451693000002,43.212419839999995],[-6.9444884299999785,43.21245503],[-6.944461380000007,43.21251268999998],[-6.944430280000006,43.212583989999985],[-6.944403210000019,43.21267947000001],[-6.944381990000011,43.21277022999999],[-6.9443772199999785,43.212829820000024],[-6.944428010000024,43.21289200000001],[-6.944490599999995,43.212984370000015],[-6.94450624000001,43.21305496000002],[-6.944519360000015,43.21312474000001],[-6.944543179999982,43.213207650000015],[-6.944545940000012,43.21328857999998],[-6.944536920000019,43.213320409999994],[-6.944505310000011,43.213364720000015],[-6.944437250000021,43.213435489999995],[-6.944299679999972,43.213573499999995],[-6.9493759700000055,43.21914867999999],[-6.951617160000012,43.22378182],[-6.951590109999984,43.22414379999998],[-6.951866960000018,43.224464650000016],[-6.952264800000023,43.22490465999999],[-6.952851940000016,43.22518775999998],[-6.952925950000008,43.225304040000026],[-6.952989559999992,43.22541168999999],[-6.953024299999981,43.22543479000001],[-6.953113900000005,43.22546861000001],[-6.953409679999993,43.22558712],[-6.953663010000014,43.22581064000002],[-6.953829559999974,43.225948930000015],[-6.953945820000001,43.22603314000003],[-6.954487420000021,43.22644925999998],[-6.954955629999972,43.22681569000002],[-6.95511522999999,43.22694161999999],[-6.955159900000012,43.22700400000002],[-6.955225219999988,43.22708096000002],[-6.9552494700000125,43.227170160000014],[-6.95528717000002,43.22725799],[-6.955414729999973,43.22734541],[-6.955680359999974,43.22737852],[-6.95260202999998,43.22948659000002],[-6.949678629999994,43.23245085000002],[-6.948595130000001,43.235117349999996],[-6.9467579600000136,43.237746860000016],[-6.94430564999999,43.23810169000001],[-6.943581870000003,43.23814469000001],[-6.941786279999974,43.23799059999999],[-6.941103999999996,43.23810417999999],[-6.940602430000013,43.238346569999976],[-6.940208439999992,43.23872931],[-6.93986289999998,43.23929045],[-6.938861229999986,43.23922596],[-6.938176030000022,43.23929461],[-6.937800910000021,43.23939758],[-6.937519570000006,43.23923622000001],[-6.937278460000016,43.238362180000024],[-6.936832170000002,43.23812547],[-6.936400260000028,43.238302420000025],[-6.936126460000025,43.23825784000002],[-6.935851039999989,43.23799722000001],[-6.935446259999992,43.237831099999994],[-6.93507532000001,43.23780786999998],[-6.933251900000016,43.23817680000002],[-6.932512659999986,43.2385534],[-6.929771990000006,43.24016934000002],[-6.929444260000025,43.24024364000002],[-6.928281389999995,43.239779450000015],[-6.927611490000004,43.23970344999998],[-6.926483169999983,43.23996734000002],[-6.926064650000001,43.24016179],[-6.925856759999988,43.240376019999985],[-6.925726189999978,43.24121783999999],[-6.925898340000003,43.24178814999999],[-6.925682779999988,43.24207467000002],[-6.925350260000016,43.24226616999999],[-6.924955880000027,43.24226171999999],[-6.924604139999985,43.24234582999998],[-6.924280280000005,43.242672089999985],[-6.922110739999994,43.24244950000002],[-6.921687580000025,43.24257208],[-6.921025810000003,43.24319803999998],[-6.920585560000006,43.24343823999999],[-6.9197562699999935,43.24356574000001],[-6.919029739999985,43.24395082000001],[-6.917268579999984,43.24375915000002],[-6.9169619400000215,43.24377866999998],[-6.916723479999973,43.24409297],[-6.916288969999982,43.244422989999975],[-6.915776289999997,43.24449458999999],[-6.913650490000009,43.24437839000001],[-6.911524820000011,43.24753042999998],[-6.910519109999996,43.25009487],[-6.908986289999973,43.25404587999998],[-6.906863670000007,43.25552306999998],[-6.906617449999999,43.258025480000015],[-6.902509339999995,43.25889523000001],[-6.90142351999998,43.25944554],[-6.894114349999995,43.261891890000015],[-6.893762040000013,43.262741240000025],[-6.895063730000004,43.26421843999998],[-6.89588126000001,43.26486582000001],[-6.897187570000028,43.26506433999998],[-6.898188500000003,43.265111209999986],[-6.897498219999989,43.265683990000014],[-6.895835099999999,43.26665009999999],[-6.893861870000023,43.26700550999999],[-6.8931248100000175,43.267039650000015],[-6.892953270000021,43.26705449999997],[-6.893571730000019,43.26863605],[-6.893968429999973,43.26925276999998],[-6.891817140000001,43.27048757],[-6.892362269999978,43.27130632000001],[-6.892553809999981,43.27256928999998],[-6.89372265999998,43.2736999],[-6.893995539999992,43.27411375999998],[-6.894354329999999,43.27510092],[-6.894384269999989,43.27595523000002],[-6.894099600000004,43.27651415999998],[-6.893235129999994,43.277642060000005],[-6.898386459999983,43.27996028000001],[-6.8965319399999885,43.28391307999999],[-6.894514959999981,43.28648485999997],[-6.892818610000006,43.29234094999998],[-6.8925764800000024,43.29665287],[-6.894881189999978,43.29896020000001],[-6.894511449999982,43.300503400000025],[-6.895078029999979,43.30319412],[-6.890176970000027,43.30598121999998],[-6.889550859999986,43.30814536999998],[-6.889810329999989,43.30950505999999],[-6.890189819999989,43.31004134],[-6.889775190000023,43.31397198000002],[-6.889751230000002,43.31706998999999],[-6.888741079999988,43.31669923999999],[-6.885824870000022,43.31563707999999],[-6.883569449999982,43.314687419999984],[-6.889889779999976,43.3200094],[-6.891467669999997,43.321351170000014],[-6.898681179999983,43.32365306000003],[-6.899740070000007,43.32304968],[-6.901622210000028,43.32240015000002],[-6.907764419999978,43.32126273],[-6.90976028,43.32161755999999],[-6.913002959999972,43.32199265999998],[-6.913919109999995,43.32224036000002],[-6.916540339999983,43.32311384000002],[-6.916665120000005,43.323136569999974],[-6.91966266999998,43.32391603000002],[-6.920660530000021,43.32389977999998],[-6.920561340000006,43.324848540000005],[-6.919791130000021,43.326675669999986],[-6.919700610000007,43.327759189999995],[-6.918117080000002,43.33304454],[-6.918512329999999,43.333436129999996],[-6.918552149999982,43.333479780000005],[-6.920243649999975,43.33618575999998],[-6.920498189999989,43.33669020999997],[-6.921177569999998,43.33880970000001],[-6.922201560000019,43.34340228000002],[-6.9234272900000065,43.34729465999999],[-6.922803520000002,43.349864060000016],[-6.922558100000003,43.351223000000005],[-6.922438810000017,43.35243356000001],[-6.922472780000021,43.35410703000002],[-6.922735139999986,43.35530447000002],[-6.923289629999999,43.35624877999999],[-6.923969269999986,43.35683764999999],[-6.924356530000011,43.35709668999999],[-6.925935009999989,43.357661399999984],[-6.926957790000017,43.358022370000015],[-6.928399189999993,43.35741457],[-6.929342070000018,43.35711201999999],[-6.930244990000006,43.35695489],[-6.931886580000025,43.35887009999999],[-6.934141950000026,43.36225870999999],[-6.934474480000006,43.36434503999999],[-6.935693329999992,43.36696802],[-6.93689809,43.36861011000002],[-6.938590320000003,43.36996527000002],[-6.9401997599999845,43.37175542],[-6.941004340000006,43.373123169999985],[-6.940061440000022,43.37304768000001],[-6.939606649999973,43.37383767],[-6.939127059999976,43.37500664999999],[-6.939406770000005,43.37646454999998],[-6.939486680000016,43.37750618000001],[-6.939421960000004,43.378030609999996],[-6.936324529999979,43.38013622],[-6.935048440000003,43.381206599999985],[-6.933285650000016,43.38200562999998],[-6.932915569999977,43.38200938],[-6.930628130000002,43.38118782999999],[-6.9303849199999945,43.38086307999998],[-6.93019283000001,43.380374510000024],[-6.929131999999981,43.380194949999975],[-6.928051069999981,43.38027717],[-6.927371240000014,43.38045361000002],[-6.927490460000001,43.38115177999998],[-6.926754730000027,43.38160925],[-6.926570210000023,43.38219182],[-6.926249040000016,43.382761070000015],[-6.925846530000001,43.38302700999998],[-6.923479450000002,43.38383766999999],[-6.919896979999976,43.385518330000025],[-6.919185330000005,43.38577686000002],[-6.918528299999991,43.38592546000001],[-6.9164701099999775,43.38597808999998],[-6.916134639999996,43.38594458],[-6.915836420000005,43.38553166000003],[-6.915553269999975,43.38535230000002],[-6.915115780000008,43.38526826999998],[-6.914688150000018,43.38533695000001],[-6.91391778000002,43.38564246999999],[-6.912491160000002,43.38515117999998],[-6.911162939999997,43.384845559999974],[-6.910479699999996,43.38477893999999],[-6.909720479999976,43.38506604000003],[-6.909287049999989,43.38504487],[-6.908056810000005,43.38472686],[-6.907034640000006,43.384572779999985],[-6.9062172399999895,43.38433966000002],[-6.904333650000012,43.38461117000003],[-6.903910049999979,43.384742700000004],[-6.903875789999972,43.384977960000015],[-6.9044953599999985,43.38597415999999],[-6.903534770000022,43.38581793999998],[-6.903039760000013,43.386375069999985],[-6.902769920000026,43.386978520000014],[-6.902010249999989,43.38706751000001],[-6.90174675999998,43.387193560000014],[-6.9015737299999955,43.38776668999998],[-6.901622990000021,43.38834122999998],[-6.900038170000016,43.388269330000014],[-6.899528840000016,43.38956522000001],[-6.898462890000019,43.38969165999998],[-6.898182539999993,43.39128584000002],[-6.897373899999991,43.39157454999997],[-6.897065139999995,43.39176515999998],[-6.896567140000002,43.39227734999997],[-6.895930319999991,43.393127400000026],[-6.894682339999974,43.395420839999986],[-6.894175280000013,43.39560019999999],[-6.893363319999992,43.39564589999998],[-6.892735360000017,43.39586538999998],[-6.892163019999998,43.396182020000026],[-6.889393199999972,43.39881538999998],[-6.8890299099999766,43.39892680999998],[-6.8867517499999735,43.399022409999986],[-6.88571048,43.39895882000002],[-6.884809589999975,43.39877339999998],[-6.884076349999987,43.398699309999984],[-6.882130010000026,43.3989636],[-6.880406460000017,43.39846398999998],[-6.879951170000027,43.39848847000002],[-6.879206239999974,43.3988109],[-6.878492470000026,43.398655080000026],[-6.878038329999981,43.398697519999985],[-6.877710530000002,43.39859160999998],[-6.877248609999981,43.398319189999995],[-6.876550889999976,43.39802777],[-6.876054570000008,43.397216300000025],[-6.874113009999974,43.39542749999998],[-6.873866589999977,43.39504871999998],[-6.873812729999997,43.394978519999995],[-6.874426990000018,43.39454352000001],[-6.874915569999985,43.39059243000003],[-6.875387069999988,43.38946900000002],[-6.881642069999998,43.37936172000002],[-6.8767001499999765,43.379097479999984],[-6.874725730000023,43.378912420000006],[-6.867642320000016,43.38029605999998],[-6.86215900000002,43.38141804999998],[-6.855354850000026,43.38273745999999],[-6.85486099000002,43.38273613000001],[-6.854347410000003,43.38261841999997],[-6.847560429999987,43.382460200000025],[-6.845439479999982,43.38249564],[-6.843061929999976,43.38237760999999],[-6.83930762,43.382350859999974],[-6.838376390000008,43.38226513000001],[-6.837482290000025,43.38237621000002],[-6.834260799999981,43.38277255000003],[-6.83360128999999,43.38288473],[-6.832807979999984,43.38302841000001],[-6.832386900000017,43.38300652999999],[-6.831995959999972,43.38287559999998],[-6.8317460499999925,43.38263189000003],[-6.831077540000024,43.38123178000001],[-6.830106230000013,43.379922850000014],[-6.8300488799999926,43.379600649999986],[-6.8305656,43.37800771000002],[-6.831084169999997,43.37742308999998],[-6.831772600000022,43.37640060000001],[-6.829452059999994,43.375812199999984],[-6.82721792000001,43.37541893000002],[-6.826426260000005,43.37539143999999],[-6.825651999999991,43.37544439999999],[-6.824785870000028,43.37541039000001],[-6.823900630000026,43.37526897999999],[-6.820011350000016,43.3744628],[-6.819051679999973,43.37431484000001],[-6.818460930000015,43.37414552000001],[-6.815973310000004,43.37266208],[-6.814599240000007,43.37220380000002],[-6.8138841499999785,43.371822529999974],[-6.812436429999991,43.37058338000003],[-6.811883729999977,43.37023269000002],[-6.81029522,43.369502409999996],[-6.809672519999992,43.36901898999997],[-6.808962339999994,43.36812433],[-6.8069851800000265,43.366704690000006],[-6.806500809999989,43.36626166999997],[-6.805953059999979,43.36539757999998],[-6.805404380000027,43.36510974999999],[-6.804159149999975,43.36414285000001],[-6.802620499999989,43.362627499999974],[-6.80230911000001,43.36198961000002],[-6.801839130000019,43.360591709999994],[-6.801438189999999,43.35990278999998],[-6.799991009999985,43.35866346],[-6.798692619999997,43.35664486000002],[-6.798054470000011,43.35610787000002],[-6.7976878399999805,43.35596700999997],[-6.794457210000019,43.35540814000001],[-6.791747149999992,43.35488591000001],[-6.791082220000021,43.35451182999998],[-6.789655569999979,43.35399195999997],[-6.788619589999996,43.353405090000024],[-6.787074329999996,43.35177269000002],[-6.7851362800000175,43.35036936],[-6.784405970000023,43.349736310000026],[-6.783324300000004,43.34801646],[-6.782691349999993,43.34815447],[-6.779400129999999,43.348596559999976],[-6.777037280000002,43.34908889000002],[-6.775667209999995,43.349476330000016],[-6.775141689999998,43.34955673000002],[-6.77626730999998,43.34861016000002],[-6.776200829999993,43.347937090000016],[-6.776554359999977,43.34568352000002],[-6.776515860000018,43.34506355000002],[-6.776770010000007,43.34458697000002],[-6.7783701999999835,43.34254426000001],[-6.778512410000019,43.34205336000002],[-6.778562920000013,43.34107931],[-6.778728600000022,43.34076771000002],[-6.77904534999999,43.34050513],[-6.779452730000003,43.34031156999998],[-6.781044689999987,43.34012382999998],[-6.781482270000026,43.34001931],[-6.781788919999997,43.339793069999985],[-6.781964660000028,43.339445109999986],[-6.782253490000016,43.338337120000006],[-6.783256890000018,43.336422140000025],[-6.783175260000007,43.33570457000002],[-6.782408939999982,43.33349707000002],[-6.782393280000008,43.333443569999986],[-6.7816834999999855,43.33154932000002],[-6.781274010000004,43.331112700000006],[-6.780746469999997,43.33076102000001],[-6.777299340000013,43.32907437],[-6.774278059999972,43.327688669999986],[-6.771414680000021,43.32626164999999],[-6.770468789999995,43.32592374000001],[-6.768764359999977,43.32548480000003],[-6.767656830000021,43.325125179999986],[-6.766616479999982,43.32465529000001],[-6.759642589999999,43.32156275],[-6.758644370000013,43.32097435999998],[-6.758393339999998,43.32070350999999],[-6.757130920000009,43.319430520000026],[-6.756493840000019,43.318299019999984],[-6.750969590000011,43.31830050000002],[-6.749053989999993,43.318831579999994],[-6.746722560000023,43.31961937],[-6.743554210000013,43.32043454000001],[-6.742778390000012,43.321855519999986],[-6.740992160000019,43.32409290999999],[-6.7395925600000055,43.325399240000024],[-6.737539319999996,43.32690702000002],[-6.735654049999994,43.32813915999998],[-6.73368567,43.32962608999998],[-6.730527250000023,43.33162004000002],[-6.727912629999992,43.33343409999998],[-6.727770420000013,43.33352876999999],[-6.726086220000013,43.33523137999998],[-6.724531769999999,43.33744294000002],[-6.723586239999975,43.33892334000001],[-6.722304749999978,43.340558750000014],[-6.721517189999986,43.341799890000004],[-6.720214810000016,43.34349897999999],[-6.719874259999983,43.34378018000001],[-6.716812479999987,43.34535643999999],[-6.7153372899999795,43.34725916999997],[-6.713283230000002,43.34877554000002],[-6.712427409999975,43.34930756],[-6.711661320000019,43.349692600000026],[-6.710308650000002,43.35097904000003],[-6.709931910000023,43.35147747000002],[-6.7081377800000155,43.35260715999999],[-6.707756370000027,43.35323177999999],[-6.707182310000007,43.35393469000002],[-6.705802370000015,43.35538402999998],[-6.7057503899999915,43.35574586000001],[-6.706340969999985,43.35652800999998],[-6.7068497500000035,43.35738485000002],[-6.706688040000017,43.357768239999984],[-6.706386479999992,43.358084150000025],[-6.705899639999984,43.358397070000024],[-6.70559178000002,43.358812209999996],[-6.705731360000016,43.359077790000015],[-6.706096450000018,43.35939908],[-6.706206759999986,43.359791659999985],[-6.705554919999997,43.360839209999995],[-6.703087989999972,43.363692319999984],[-6.703486489999989,43.36456175000001],[-6.703435039999988,43.36493256],[-6.70324045000001,43.36518196999998],[-6.702771330000019,43.36558432999999],[-6.702727540000012,43.36608094000002],[-6.7023593999999775,43.366723130000025],[-6.702288510000017,43.36697751999998],[-6.702429740000014,43.367675220000024],[-6.702176290000011,43.36797154999999],[-6.701182979999999,43.36848093999998],[-6.700967559999981,43.36879404000001],[-6.700811799999997,43.36927627],[-6.700830119999978,43.370185040000024],[-6.699770530000023,43.37041743999998],[-6.699252370000011,43.37062329999998],[-6.698804540000026,43.37097094000001],[-6.698569930000019,43.37137468999998],[-6.698278940000023,43.371663230000024],[-6.697856559999991,43.37182095999998],[-6.696193359999995,43.37207287000001],[-6.695848969999986,43.37249817999998],[-6.693949589999988,43.37414424999997],[-6.693417109999984,43.374521619999996],[-6.692771330000028,43.37465953999998],[-6.690874520000023,43.37492794000002],[-6.689704810000023,43.37497473000002],[-6.688343219999979,43.37491067000002],[-6.687683240000013,43.374814930000014],[-6.686539030000006,43.37467179999999],[-6.684522389999984,43.374592819999975],[-6.683862970000007,43.37450604999998],[-6.683578889999978,43.37429913],[-6.683485370000028,43.37397801999998],[-6.683281529999988,43.37366946999998],[-6.68226734000001,43.372819830000026],[-6.681928350000021,43.37231756],[-6.681527430000017,43.37201535999998],[-6.678980969999998,43.371134040000015],[-6.676909200000011,43.370957680000004],[-6.674960429999999,43.37057023],[-6.673289940000018,43.36988567999998],[-6.671148700000003,43.369171230000006],[-6.670555330000013,43.36854204000002],[-6.668535870000028,43.368003699999974],[-6.667171429999996,43.36748029],[-6.6659362899999905,43.367258849999985],[-6.665420740000002,43.367509489999975],[-6.663122009999995,43.36888877000001],[-6.662449419999973,43.371449359999986],[-6.6623133800000005,43.37226405000001],[-6.662216740000019,43.374346969999976],[-6.660330600000009,43.37479459999997],[-6.659231700000021,43.37683762],[-6.6589243799999736,43.37706356000001],[-6.65758679999999,43.377808689999995],[-6.656758500000024,43.37840244],[-6.6564795900000036,43.37869049],[-6.656315339999992,43.37903788],[-6.655549650000012,43.38149336999999],[-6.655579820000014,43.381789519999984],[-6.655962530000011,43.38220044000002],[-6.656389649999994,43.38252890000001],[-6.656504980000022,43.38280430999998],[-6.656598439999982,43.384151859999974],[-6.655258199999992,43.38526619999999],[-6.653408969999987,43.38736018999998],[-6.652375559999996,43.389473090000024],[-6.651729929999988,43.39146554000001],[-6.643242369999996,43.400218110000026],[-6.644489280000016,43.40021432999998],[-6.645464689999983,43.40062438000001],[-6.644790709999995,43.400915999999995],[-6.644615550000026,43.40108365999998],[-6.644523230000004,43.40201397999999],[-6.644196270000009,43.40314986999999],[-6.6440061600000035,43.40348007],[-6.641623890000005,43.4041143],[-6.641337249999992,43.40427649999998],[-6.641182479999998,43.404578560000004],[-6.640928939999981,43.40591017999998],[-6.6401283999999805,43.40779945999998],[-6.640872380000019,43.409702519999996],[-6.641244400000005,43.40993374999999],[-6.64129564000001,43.40934687999999],[-6.642438739999989,43.409256400000004],[-6.64293717999999,43.409330539999985],[-6.644530120000013,43.40973889000003],[-6.644513990000007,43.41090988000002],[-6.645634710000024,43.411063179999985],[-6.646219540000004,43.41134161999997],[-6.646414250000021,43.411704559999976],[-6.646318969999982,43.41196869999999],[-6.645532220000007,43.413263340000015],[-6.644823190000011,43.41338501000001],[-6.643692349999981,43.413475129999995],[-6.643056660000013,43.413378360000024],[-6.642733920000012,43.413145559999975],[-6.642643150000026,43.41266225999999],[-6.642483980000009,43.412685350000004],[-6.641569389999972,43.41493842],[-6.641291410000008,43.41545149000001],[-6.640114659999995,43.416218300000025],[-6.639877339999998,43.41658601],[-6.63982593999998,43.41675872000002],[-6.639190840000026,43.41852567000001],[-6.637759800000026,43.42061510000002],[-6.6336531499999865,43.424437350000005],[-6.631902910000008,43.42450203999999],[-6.631082760000027,43.42462716],[-6.628616430000022,43.425317810000024],[-6.627978540000015,43.425599190000014],[-6.627131609999992,43.426103290000015],[-6.624943490000021,43.42773039999997],[-6.62415390000001,43.42857479000003],[-6.623573329999999,43.42898938000002],[-6.62234675000002,43.42955051000001],[-6.62172701999998,43.429930309999975],[-6.621212909999997,43.43042380999998],[-6.619817420000004,43.432088710000016],[-6.619508610000025,43.43229658000001],[-6.617160839999997,43.433118279999974],[-6.616271359999985,43.433533609999984],[-6.6155791699999895,43.43394268999998],[-6.615203300000019,43.43447680000003],[-6.614756129999989,43.43464402000001],[-6.610823270000026,43.43561478999999],[-6.610308509999982,43.435892179999996],[-6.609407050000016,43.43693809000001],[-6.608587139999997,43.437486209999975],[-6.608398350000016,43.43784332000001],[-6.608326299999987,43.43912411000002],[-6.608063399999992,43.44010480999998],[-6.60723145999998,43.44169772999999],[-6.606360419999987,43.44284169000002],[-6.605983920000028,43.443159700000024],[-6.605383280000012,43.44344877999998],[-6.603268189999994,43.444037760000015],[-6.602667530000019,43.444326820000015],[-6.602100059999998,43.44475889],[-6.6016263999999865,43.44531404999998],[-6.601186480000024,43.44602120000002],[-6.600403089999986,43.44760352999998],[-6.600110509999979,43.44871119999999],[-6.599000890000013,43.450627929999996],[-6.598621390000005,43.45172932999998],[-6.598792220000007,43.454398019999985],[-6.5987588200000005,43.45487627],[-6.598302320000016,43.455097739999985],[-6.597097050000002,43.45540582000001],[-6.595359700000017,43.455703640000024],[-6.592722390000006,43.45583167000001],[-6.591692529999989,43.455972110000005],[-6.589120760000014,43.45699836],[-6.588250710000011,43.45712473999998],[-6.586904419999996,43.457140030000005],[-6.586207179999974,43.45705389],[-6.585602569999992,43.457279959999994],[-6.585148670000024,43.45754631],[-6.584606689999987,43.45799549999998],[-6.583032349999996,43.45812595000001],[-6.582005489999972,43.45852731000002],[-6.580255220000026,43.45860922000003],[-6.578827699999977,43.45892407000002],[-6.5759305799999765,43.45905085999999],[-6.575479009999981,43.458938950000004],[-6.574505859999988,43.45836616999998],[-6.572127669999986,43.45744119],[-6.571534429999986,43.45744173999998],[-6.570494259999975,43.45761833],[-6.569554519999997,43.45761169000002],[-6.566506010000012,43.45726576999999],[-6.564744809999979,43.456951609999976],[-6.563965119999978,43.45672385],[-6.563106310000023,43.45620143000002],[-6.561443199999985,43.457765919999986],[-6.560399249999989,43.45850976000003],[-6.558716810000021,43.45995776000001],[-6.558021150000002,43.459898409999994],[-6.556123140000011,43.459570369999994],[-6.5551152400000205,43.45903453],[-6.55304086000001,43.45864891000002],[-6.550557249999997,43.456763369999976]]]}}]}