{"type":"FeatureCollection","crs":{"type":"name","properties":{"name":"urn:ogc:def:crs:EPSG::4326"}},"features":[{"type":"Feature","properties":{"region_id":8,"name":"Somló","name_hu":"Somlói borvidék","region_group":"Dunántúl (Transdanubia)","area_ha_approx":600,"notable_grapes":"Juhfark, Olaszrizling, Hárslevelű, Tramini","notes":"Extinct volcano hill; unique basalt soils; 'wedding wine' tradition"},"geometry":{"type":"Polygon","coordinates":[[[17.4073317,47.0329687],[17.4074134,47.0303042],[17.406369,47.0280018],[17.403716,47.0237732],[17.4037863,47.0214867],[17.4044209,47.0188303],[17.4039383,47.0165421],[17.403997,47.0146336],[17.4034704,47.0134854],[17.4007363,47.0119211],[17.3996338,47.0115271],[17.3963122,47.0110948],[17.3946481,47.0106926],[17.3919144,47.0091281],[17.3913854,47.0083579],[17.383188,47.003292],[17.3815215,47.0032677],[17.3798105,47.0043834],[17.379258,47.0043753],[17.376418,47.0062369],[17.3752919,47.0066048],[17.3748084,47.0074793],[17.3735778,47.0080985],[17.3713376,47.00845],[17.3707642,47.0088197],[17.3696591,47.0088035],[17.3679713,47.0091631],[17.3663047,47.0091386],[17.3651787,47.0095002],[17.3640406,47.0102459],[17.3628784,47.0117538],[17.3617523,47.0121153],[17.3611876,47.0124913],[17.3600255,47.0139929],[17.3588992,47.0143607],[17.3583225,47.0151146],[17.3566225,47.015852],[17.3554932,47.0165978],[17.3554813,47.0169757],[17.3549076,47.0173454],[17.3543309,47.0180993],[17.3520539,47.0195906],[17.3503748,47.01995],[17.3503628,47.020328],[17.3498011,47.0203196],[17.3492364,47.0206894],[17.3486747,47.0206811],[17.3475481,47.0210487],[17.3452799,47.0225399],[17.3452559,47.0232958],[17.3441172,47.0240414],[17.3435311,47.0247951],[17.3435189,47.0251793],[17.3429299,47.0263111],[17.3423651,47.0266809],[17.34402,47.0270899],[17.3439958,47.027852],[17.3445242,47.0286224],[17.3450739,47.0290087],[17.3461763,47.0294095],[17.3488976,47.0313531],[17.351583,47.0344367],[17.3537882,47.0352319],[17.3526373,47.0363555],[17.3520391,47.0374934],[17.3507401,47.0435679],[17.3482441,47.051912],[17.3464944,47.0541673],[17.3332785,47.0494012],[17.3305813,47.0466952],[17.3232162,47.0503906],[17.3199082,47.0492001],[17.3154822,47.0483707],[17.3127612,47.0464263],[17.3127737,47.0460421],[17.3113297,47.045445],[17.3105687,47.0452461],[17.3094538,47.0452292],[17.3089132,47.0448428],[17.3083513,47.0448343],[17.3067207,47.0436688],[17.3045159,47.0428728],[17.3034259,47.0420936],[17.3028731,47.0420852],[17.3023235,47.0416987],[17.302336,47.0413145],[17.3017955,47.0409281],[17.3006808,47.0409111],[17.2990507,47.0397393],[17.2968212,47.0397052],[17.2945791,47.0400552],[17.2940139,47.0404247],[17.2923372,47.040399],[17.2901042,47.0407491],[17.2872876,47.0414682],[17.2861319,47.0429693],[17.2849417,47.0452384],[17.2843546,47.0459919],[17.284317,47.047132],[17.2814335,47.0501375],[17.2797154,47.0516298],[17.27855,47.0531368],[17.2757417,47.0538558],[17.2701666,47.0537693],[17.2687473,47.0628911],[17.2697359,47.0667128],[17.2690562,47.0705086],[17.2757141,47.0713744],[17.2755624,47.0759471],[17.277105,47.0797772],[17.2781953,47.0805566],[17.2787324,47.0813274],[17.2769283,47.0851058],[17.2796968,47.0859111],[17.2791092,47.0866645],[17.2790967,47.0870425],[17.2796463,47.0874353],[17.2784928,47.0885582],[17.2784551,47.0896982],[17.2789832,47.0904689],[17.2817302,47.0916581],[17.2822802,47.0920448],[17.2850903,47.0913256],[17.2895536,47.0913942],[17.2906854,47.0906491],[17.2918012,47.0906662],[17.2946076,47.0903311],[17.2921508,47.0971497],[17.2871587,47.0963105],[17.2836601,47.1008255],[17.2748296,47.0980235],[17.2713262,47.1029223],[17.2724331,47.1029395],[17.2740485,47.1048677],[17.273486,47.1048589],[17.2723192,47.1063659],[17.2756423,47.1071798],[17.2732708,47.1113338],[17.2719519,47.1174071],[17.2713983,47.1173985],[17.2707941,47.1189079],[17.2707559,47.1200542],[17.2729671,47.1204666],[17.2734917,47.1216216],[17.2728532,47.123893],[17.265782,47.1352083],[17.2701728,47.137564],[17.2694194,47.1432679],[17.2727701,47.1433199],[17.2744537,47.1429616],[17.2766874,47.1429961],[17.2855632,47.1446579],[17.2916265,47.1470385],[17.2910134,47.1485479],[17.2909006,47.1519742],[17.2903215,47.1527279],[17.2867439,47.1595292],[17.2855387,47.1621762],[17.2848965,47.164832],[17.2842954,47.1659696],[17.2841821,47.1693959],[17.2830144,47.1708967],[17.2788424,47.1788355],[17.2854981,47.1804567],[17.2871322,47.1816287],[17.2830736,47.186135],[17.2729718,47.1875041],[17.2685351,47.1866729],[17.2668793,47.1858847],[17.2657615,47.1858673],[17.2652198,47.1854808],[17.2624299,47.1854374],[17.2613377,47.1846579],[17.2602073,47.1850184],[17.2596183,47.1857717],[17.2590512,47.186141],[17.2579206,47.1865077],[17.2562101,47.1876217],[17.2561845,47.1883838],[17.2555954,47.189137],[17.2554802,47.1925634],[17.2549001,47.1933168],[17.2536925,47.1959635],[17.251354,47.1989707],[17.2511614,47.2046833],[17.2517123,47.20507],[17.2556468,47.2043753],[17.2567906,47.2036306],[17.2573836,47.2024931],[17.259069,47.2021412],[17.260738,47.2025454],[17.2613052,47.202176],[17.2651505,47.204139],[17.2690215,47.2053397],[17.2706779,47.2061278],[17.2773021,47.2085177],[17.281161,47.2101021],[17.2850327,47.2113023],[17.2878113,47.2117293],[17.2906117,47.2117722],[17.2922722,47.2121758],[17.2933905,47.2121929],[17.2956057,47.2126049],[17.2972752,47.2130147],[17.3000165,47.2145814],[17.2994121,47.216091],[17.298106,47.2217866],[17.2968999,47.2244337],[17.2916573,47.2308316],[17.2893067,47.2342237],[17.2864136,47.237223],[17.2823002,47.2432535],[17.2805035,47.2466539],[17.2799232,47.2474074],[17.2781099,47.25157],[17.2786017,47.2534807],[17.2780213,47.2542342],[17.2768768,47.2549791],[17.2763254,47.2545862],[17.2752152,47.2545691],[17.2730022,47.2537724],[17.2724252,47.2541479],[17.2718447,47.2549014],[17.2717559,47.2575656],[17.271179,47.2579348],[17.2700179,47.2594418],[17.2700051,47.2598259],[17.2693902,47.2613352],[17.2682325,47.262464],[17.2630849,47.2658122],[17.2597485,47.265376],[17.2574456,47.2672432],[17.2574327,47.2676274],[17.2602013,47.268433],[17.2623639,47.2707478],[17.263962,47.2730601],[17.2633812,47.2738135],[17.2772618,47.277072],[17.2788861,47.278622],[17.278318,47.2789976],[17.2776904,47.280891],[17.2771224,47.2812604],[17.2746925,47.2869383],[17.2729663,47.2884366],[17.2734711,47.2899632],[17.2734075,47.2918715],[17.2756349,47.292284],[17.277323,47.2919318],[17.2801059,47.2923528],[17.282346,47.2923873],[17.2845532,47.2919139],[17.2837224,47.2941696],[17.282739,47.2959467],[17.2847461,47.2958913],[17.2889313,47.2962944],[17.2923117,47.2974704],[17.297381,47.2987925],[17.2978203,47.2983393],[17.2972774,47.2979467],[17.2990032,47.2964481],[17.2990657,47.2945459],[17.3002233,47.293423],[17.3008253,47.2922915],[17.3008503,47.2915294],[17.298673,47.289587],[17.2987229,47.2880691],[17.2998929,47.2865619],[17.2999056,47.2861778],[17.3004858,47.2854303],[17.3082164,47.2885913],[17.3104438,47.2890093],[17.3164876,47.2925285],[17.3214492,47.2948843],[17.3241708,47.2972126],[17.326448,47.2961061],[17.3281853,47.2942229],[17.3287499,47.2942313],[17.3316069,47.2923709],[17.3300205,47.2893036],[17.3301068,47.2866332],[17.3279621,47.2839356],[17.3280851,47.2801313],[17.3270515,47.2774503],[17.3259933,47.2755314],[17.3277668,47.2725081],[17.3289356,47.2710007],[17.3290093,47.2687206],[17.3284665,47.2683282],[17.333009,47.2661149],[17.3358277,47.2653944],[17.3398268,47.2627885],[17.3420291,47.2639618],[17.3442559,47.264373],[17.3465313,47.2632661],[17.3510242,47.2625701],[17.3532873,47.261841],[17.3538908,47.2603312],[17.3541453,47.2523322],[17.3563837,47.2523652],[17.3613914,47.2532013],[17.3658321,47.2544132],[17.3818719,47.259978],[17.3846155,47.2619208],[17.3845917,47.2626829],[17.3851588,47.2623068],[17.385135,47.2630689],[17.3856902,47.2630769],[17.3874095,47.2619612],[17.3885171,47.2623553],[17.3808996,47.2732913],[17.3825746,47.2733156],[17.3825151,47.2752178],[17.3836227,47.2756182],[17.3835989,47.2763803],[17.3830079,47.2775123],[17.382384,47.2794063],[17.3840562,47.2798148],[17.3840682,47.2794307],[17.3852145,47.2783067],[17.3874185,47.2794791],[17.3874303,47.2791012],[17.3901897,47.2802816],[17.3902014,47.2799036],[17.396285,47.2822724],[17.4078773,47.2873912],[17.4084534,47.2870213],[17.4095618,47.2874152],[17.4133952,47.2901352],[17.4150589,47.2905432],[17.4150473,47.2909212],[17.416144,47.2916992],[17.4155769,47.2920692],[17.4144101,47.2935775],[17.4160507,47.2947414],[17.4177145,47.2951493],[17.4199199,47.2963212],[17.4226925,47.2971228],[17.4237894,47.2979008],[17.4265621,47.2987024],[17.4282469,47.2987261],[17.4304551,47.2995196],[17.4328112,47.2957406],[17.4346113,47.2919599],[17.4378792,47.2763912],[17.4384231,47.2767769],[17.4395313,47.2771768],[17.4433655,47.2798958],[17.4472231,47.2818526],[17.4511039,47.2830471],[17.4522122,47.2834468],[17.4516568,47.2834391],[17.4549733,47.2846257],[17.456116,47.2838791],[17.4599743,47.2858355],[17.4599629,47.2862196],[17.4643748,47.2885616],[17.4649303,47.2885692],[17.4665922,47.2893546],[17.4682336,47.2905239],[17.4704737,47.2905546],[17.4720817,47.2928578],[17.4737009,47.2947891],[17.4764293,47.2971076],[17.4786359,47.2982845],[17.4820527,47.2964219],[17.4843154,47.2956902],[17.4843265,47.2953123],[17.4848932,47.2949419],[17.4865801,47.2945805],[17.4882648,47.2946034],[17.4888314,47.2942329],[17.4893961,47.2942406],[17.4883429,47.291939],[17.491761,47.2896981],[17.4923255,47.2897057],[17.4923478,47.2889436],[17.4918166,47.2877959],[17.4901968,47.2858709],[17.4892841,47.2853632],[17.4890992,47.2850936],[17.489686,47.2843392],[17.4942789,47.2802111],[17.4971072,47.2791087],[17.5010884,47.2768751],[17.5078841,47.274301],[17.5130171,47.2709419],[17.5158773,47.268699],[17.5147797,47.2679219],[17.5187702,47.2653097],[17.5198678,47.2660867],[17.5215426,47.266109],[17.5226732,47.2657397],[17.5243601,47.2634864],[17.5244242,47.2630975],[17.5238798,47.2627122],[17.5244568,47.2619574],[17.5278805,47.2597155],[17.5300758,47.2612694],[17.5300651,47.2616473],[17.5294898,47.2620241],[17.5277501,47.2642821],[17.5282835,47.2650516],[17.52824,47.2665759],[17.5287936,47.2669613],[17.5310327,47.2669909],[17.5319773,47.2664765],[17.5321738,47.2662497],[17.5321847,47.2658656],[17.5326269,47.2654529],[17.5327616,47.2651107],[17.5339627,47.2642279],[17.5346296,47.2633936],[17.5367294,47.26326],[17.5372954,47.2628894],[17.5401202,47.2621641],[17.540697,47.2614092],[17.5423931,47.260669],[17.5452178,47.2599436],[17.5468924,47.2599655],[17.5491633,47.2588546],[17.5514145,47.2581215],[17.5525553,47.257374],[17.5531195,47.2573813],[17.5525659,47.256996],[17.5520429,47.2558425],[17.5537494,47.2547241],[17.5588563,47.2521251],[17.5604456,47.2551891],[17.5632908,47.2537073],[17.5666715,47.2526042],[17.5683867,47.2514858],[17.5701033,47.2499831],[17.5718303,47.2481023],[17.572426,47.2469695],[17.571883,47.2462001],[17.5724683,47.2454452],[17.5725843,47.2412564],[17.5731604,47.2405014],[17.5737666,47.2389844],[17.5738193,47.2370821],[17.5743953,47.2363271],[17.5744164,47.2355649],[17.5738824,47.2348018],[17.5739035,47.2340397],[17.5744794,47.2332847],[17.5733817,47.2325081],[17.5728268,47.232501],[17.5722734,47.2321096],[17.571577,47.2310131],[17.5706525,47.2301858],[17.5698038,47.2303903],[17.5689893,47.2297863],[17.5685752,47.2297377],[17.5681938,47.2293824],[17.5679022,47.2286317],[17.5664136,47.2276637],[17.5664248,47.2272305],[17.5677142,47.2263048],[17.5678876,47.2256056],[17.5677181,47.2244049],[17.5674653,47.2240516],[17.5663679,47.223275],[17.5658131,47.2232678],[17.5658343,47.2225057],[17.5663996,47.2221349],[17.5664101,47.2217569],[17.5658553,47.2217497],[17.5658448,47.2221277],[17.56529,47.2221205],[17.5648674,47.2219053],[17.5649363,47.2216734],[17.5645399,47.2207888],[17.5647256,47.2203798],[17.5641984,47.2195504],[17.563731,47.219699],[17.5625809,47.2196526],[17.5624037,47.218785],[17.563983,47.2185504],[17.5654171,47.2175538],[17.5654278,47.2171697],[17.5648957,47.2160222],[17.56547,47.2156516],[17.5654807,47.2152674],[17.5660459,47.2148966],[17.5671644,47.214911],[17.568304,47.2141633],[17.5700299,47.2122825],[17.5734485,47.2100392],[17.5740031,47.2100464],[17.5755605,47.2094853],[17.5753617,47.2091127],[17.5740821,47.2087292],[17.5752386,47.208153],[17.5764717,47.2071349],[17.5760206,47.2068054],[17.5761572,47.2065335],[17.5768996,47.2062776],[17.5769312,47.2051313],[17.5774949,47.2051385],[17.5777225,47.2046055],[17.5774583,47.204203],[17.5770655,47.2040599],[17.5775684,47.202474],[17.5787076,47.2017262],[17.5792832,47.2009712],[17.5798468,47.2009784],[17.5798782,47.1998382],[17.5804642,47.1987052],[17.5804747,47.198321],[17.5799306,47.1979359],[17.5799516,47.1971738],[17.5805271,47.1964187],[17.5805375,47.1960407],[17.5816766,47.1952929],[17.5816871,47.1949087],[17.5822626,47.1941536],[17.5834014,47.1934119],[17.5843808,47.1932864],[17.58453,47.193042],[17.5839859,47.192657],[17.5840903,47.1924065],[17.5851054,47.1922869],[17.5856898,47.191532],[17.5862546,47.1911611],[17.5873726,47.1911753],[17.5885011,47.1908053],[17.5896191,47.1908196],[17.5918862,47.1897078],[17.5918965,47.1893298],[17.5907994,47.1885535],[17.5835793,47.1869367],[17.5841846,47.1854196],[17.5753033,47.1834029],[17.5794209,47.1758376],[17.5755346,47.1750254],[17.5796619,47.1670821],[17.5802265,47.1667112],[17.5796723,47.1667041],[17.5785759,47.1659276],[17.5786283,47.1640253],[17.578065,47.1640181],[17.578086,47.163256],[17.5775424,47.1628647],[17.5775949,47.1609624],[17.5770421,47.1605772],[17.5776159,47.1602002],[17.5776473,47.1590601],[17.578212,47.158683],[17.5782224,47.158305],[17.5787856,47.1583122],[17.5788486,47.1560257],[17.5805093,47.1564313],[17.5832561,47.1579913],[17.5832876,47.156845],[17.585543,47.1561113],[17.5889051,47.155776],[17.5900329,47.1554061],[17.5950779,47.1543296],[17.5984398,47.153994],[17.6028263,47.1570929],[17.603607,47.1487284],[17.6019359,47.1487073],[17.6025105,47.1479522],[17.5975089,47.1471266],[17.5971103,47.1414064],[17.5960865,47.1379656],[17.5961798,47.1345389],[17.5956271,47.1341538],[17.5951044,47.1330005],[17.5946542,47.1291888],[17.593068,47.1257408],[17.592535,47.1249716],[17.5936619,47.1246078],[17.5941949,47.125377],[17.5958653,47.1253982],[17.5969924,47.1250281],[17.598109,47.1250423],[17.5969407,47.1269305],[17.5975035,47.1269376],[17.5992152,47.1254406],[17.599778,47.1254477],[17.6026578,47.1220562],[17.6044001,47.1194128],[17.6061219,47.1175253],[17.6072589,47.1167771],[17.608365,47.1171754],[17.6095019,47.1164272],[17.6106594,47.1149169],[17.6118065,47.1137907],[17.6151056,47.1153569],[17.617942,47.1138675],[17.6224492,47.1120206],[17.6269755,47.1097896],[17.6320447,47.1079494],[17.6348812,47.1060814],[17.6405335,47.1031013],[17.6299841,47.1014464],[17.631694,47.0999488],[17.6317547,47.0976623],[17.6328909,47.0969139],[17.6345963,47.0954115],[17.62353,47.0926076],[17.627397,47.0856725],[17.6263064,47.0854633],[17.6242827,47.0854608],[17.6216142,47.0845103],[17.6206906,47.084363],[17.6197328,47.0835365],[17.6153744,47.0810104],[17.6125854,47.0796116],[17.6167241,47.0775715],[17.618568,47.0776873],[17.6202107,47.0772829],[17.6220865,47.0714342],[17.6207114,47.0717403],[17.6180183,47.0714083],[17.6178457,47.0704834],[17.6182683,47.0697053],[17.618106,47.0693125],[17.6168784,47.0679579],[17.6163094,47.0670653],[17.6155914,47.0657655],[17.6153916,47.0648456],[17.6142061,47.0645971],[17.6138078,47.063563],[17.6124465,47.0625544],[17.6118954,47.0612092],[17.6114939,47.0612774],[17.6113706,47.0610332],[17.6105456,47.061258],[17.609914,47.06174],[17.6091744,47.0618291],[17.6074067,47.0613226],[17.6069743,47.0610332],[17.605384,47.0616282],[17.6026937,47.0610526],[17.6022878,47.0598174],[17.603035,47.0588846],[17.6032057,47.0580525],[17.6030483,47.057493],[17.6031678,47.0570615],[17.6040099,47.0559722],[17.6042451,47.0551478],[17.6036918,47.0539375],[17.6037991,47.0527711],[17.6036495,47.0500533],[17.6027101,47.0476394],[17.6031272,47.0459762],[17.6030508,47.0457852],[17.6016855,47.0449619],[17.5999689,47.0433872],[17.6000763,47.0420064],[17.5994647,47.0393084],[17.5995196,47.0382592],[17.5988236,47.0365273],[17.6023621,47.0339603],[17.5747976,47.0196223],[17.5713625,47.0230169],[17.5691021,47.0241283],[17.5651636,47.0256022],[17.5629346,47.0255732],[17.5612463,47.0263076],[17.5589324,47.0293273],[17.5543768,47.0330739],[17.5532727,47.0326814],[17.5526895,47.0334362],[17.5510007,47.0341766],[17.54534,47.0375303],[17.5447354,47.0390411],[17.5435991,47.0397886],[17.5435777,47.0405507],[17.542429,47.0420605],[17.541867,47.0420531],[17.5396588,47.0412616],[17.5384993,47.0431493],[17.5373521,47.044281],[17.5356429,47.045399],[17.5350362,47.047294],[17.5338889,47.0484194],[17.5333359,47.0484121],[17.5333251,47.0487963],[17.5327307,47.049929],[17.5315185,47.0533408],[17.5308789,47.0563822],[17.5325148,47.0575444],[17.5330553,47.058314],[17.5335977,47.0586993],[17.5335761,47.0594615],[17.5330014,47.0602164],[17.5335329,47.0609858],[17.5301764,47.0613195],[17.5301655,47.0617037],[17.5289962,47.0635912],[17.5289853,47.0639754],[17.5262666,47.0616519],[17.5262991,47.0605118],[17.5241971,47.0562934],[17.5242188,47.0555312],[17.5253683,47.0540216],[17.5259846,47.0521268],[17.5260497,47.0498403],[17.5266675,47.0475674],[17.5227914,47.0467533],[17.5228241,47.0456069],[17.5206376,47.0440591],[17.5189698,47.0440368],[17.5173675,47.041728],[17.5157216,47.0409435],[17.5140557,47.0405431],[17.5129409,47.0405281],[17.5107422,47.0397361],[17.5068907,47.0377813],[17.5047253,47.0358428],[17.5041854,47.0350731],[17.5025288,47.0346726],[17.4997466,47.034635],[17.498654,47.0338577],[17.4858266,47.0344457],[17.4801862,47.0366559],[17.4796223,47.0370263],[17.4790694,47.0370188],[17.4779658,47.0366255],[17.4690909,47.0353565],[17.4663671,47.0330377],[17.4636302,47.0314749],[17.4625268,47.0310815],[17.4597562,47.0306587],[17.4563875,47.0317525],[17.4546884,47.0324913],[17.4530209,47.0324681],[17.4486193,47.0305035],[17.4480665,47.0304958],[17.4446542,47.0327354],[17.4435282,47.0330978],[17.4407346,47.0334429],[17.4290791,47.0321317],[17.4268845,47.03096],[17.4252286,47.0305584],[17.4229879,47.0309047],[17.4201713,47.0320053],[17.4173428,47.0334899],[17.4173195,47.0342521],[17.4144793,47.0361147],[17.4138941,47.0368688],[17.4073317,47.0329687]]]}}]}