{
  "type": "FeatureCollection",
  "features": [
    {
      "type": "Feature",
      "geometry": {
        "type": "Polygon",
        "coordinates": [
          [
            [
              4.867796109913042,
              47.07786973044572,
              0.0
            ],
            [
              4.867664121191011,
              47.07771762485423,
              0.0
            ],
            [
              4.867718182817946,
              47.07765186795258,
              0.0
            ],
            [
              4.868399870701747,
              47.07725520008522,
              0.0
            ],
            [
              4.869085366869557,
              47.07682993664367,
              0.0
            ],
            [
              4.869654116644233,
              47.07643728787848,
              0.0
            ],
            [
              4.870167119289897,
              47.07608953584551,
              0.0
            ],
            [
              4.870736104673705,
              47.07661376223759,
              0.0
            ],
            [
              4.870287324487572,
              47.07691848057831,
              0.0
            ],
            [
              4.869838598382938,
              47.07735546997939,
              0.0
            ],
            [
              4.869648537504343,
              47.07753358055891,
              0.0
            ],
            [
              4.86961395492936,
              47.07753071928579,
              0.0
            ],
            [
              4.869413597785524,
              47.07735288322888,
              0.0
            ],
            [
              4.868871471292886,
              47.07767369249549,
              0.0
            ],
            [
              4.8680832481634,
              47.07814159764185,
              0.0
            ],
            [
              4.867796109913042,
              47.07786973044572,
              0.0
            ]
          ]
        ]
      },
      "properties": {
        "folder": "01 Domaine des Hospices de Beaune.kmz",
        "name": "01 Domaine des Hospices de Beaune"
      }
    }
  ]
}