{
  "type": "FeatureCollection",
  "features": [
    {
      "type": "Feature",
      "geometry": {
        "type": "Polygon",
        "coordinates": [
          [
            [
              4.868828830329546,
              47.07787907826975,
              0.0
            ],
            [
              4.869469406870417,
              47.07752415778872,
              0.0
            ],
            [
              4.869698974153081,
              47.07764470863917,
              0.0
            ],
            [
              4.86985204128549,
              47.07772549896018,
              0.0
            ],
            [
              4.869876177530452,
              47.07779733844027,
              0.0
            ],
            [
              4.869708318113926,
              47.07824995148054,
              0.0
            ],
            [
              4.869659042846919,
              47.0783772962255,
              0.0
            ],
            [
              4.86953914876058,
              47.07838719987546,
              0.0
            ],
            [
              4.868828830329546,
              47.07787907826975,
              0.0
            ]
          ]
        ]
      },
      "properties": {
        "folder": "02 Domaine d'Ardhuy.kmz",
        "name": "02 Domaine d'Ardhuy"
      }
    }
  ]
}