{
  "type": "FeatureCollection",
  "features": [
    {
      "type": "Feature",
      "geometry": {
        "type": "Polygon",
        "coordinates": [
          [
            [
              4.867032277845387,
              47.07321594682043,
              0.0
            ],
            [
              4.867356584110929,
              47.07345230532673,
              0.0
            ],
            [
              4.867141374512887,
              47.07359245635723,
              0.0
            ],
            [
              4.867041766243734,
              47.07354404127479,
              0.0
            ],
            [
              4.86682393475151,
              47.07367996551367,
              0.0
            ],
            [
              4.866165633985111,
              47.07416038083858,
              0.0
            ],
            [
              4.865682697301748,
              47.07451656811757,
              0.0
            ],
            [
              4.865554418276106,
              47.0745047972371,
              0.0
            ],
            [
              4.865445297949112,
              47.07444036670633,
              0.0
            ],
            [
              4.866635343499174,
              47.07354111016843,
              0.0
            ],
            [
              4.86657067574916,
              47.07349047435016,
              0.0
            ],
            [
              4.867032277845387,
              47.07321594682043,
              0.0
            ]
          ]
        ]
      },
      "properties": {
        "folder": "03 Domaine Maillard.kmz / 03 Domaine Maillard",
        "name": "03 Domaine Maillard"
      }
    },
    {
      "type": "Feature",
      "geometry": {
        "type": "Polygon",
        "coordinates": [
          [
            [
              4.864888704674382,
              47.07483305136512,
              0.0
            ],
            [
              4.865383322906394,
              47.07445767909487,
              0.0
            ],
            [
              4.865873059268038,
              47.07474310000169,
              0.0
            ],
            [
              4.86679761363872,
              47.07408560384721,
              0.0
            ],
            [
              4.867574485611811,
              47.07361537280183,
              0.0
            ],
            [
              4.867935740634208,
              47.07392272757265,
              0.0
            ],
            [
              4.867938948361612,
              47.0739241810406,
              0.0
            ],
            [
              4.867711208022564,
              47.07407702535289,
              0.0
            ],
            [
              4.867339254846366,
              47.07429104774979,
              0.0
            ],
            [
              4.867262550300611,
              47.07422525057034,
              0.0
            ],
            [
              4.86711843589676,
              47.07430732972018,
              0.0
            ],
            [
              4.86695789360472,
              47.07442548575223,
              0.0
            ],
            [
              4.866689242247819,
              47.0745644942766,
              0.0
            ],
            [
              4.866433715085869,
              47.07471495539011,
              0.0
            ],
            [
              4.866097225820438,
              47.07489977371924,
              0.0
            ],
            [
              4.866035230760232,
              47.07490443952781,
              0.0
            ],
            [
              4.865640343759054,
              47.07515881286174,
              0.0
            ],
            [
              4.864888704674382,
              47.07483305136512,
              0.0
            ]
          ]
        ]
      },
      "properties": {
        "folder": "03 Domaine Maillard.kmz / 03 Domaine Maillard",
        "name": "03 Domaine Maillard"
      }
    }
  ]
}