{
  "type": "FeatureCollection",
  "features": [
    {
      "type": "Feature",
      "geometry": {
        "type": "Polygon",
        "coordinates": [
          [
            [
              4.868713856587839,
              47.07583358183663,
              0.0
            ],
            [
              4.869663762554723,
              47.07519789330333,
              0.0
            ],
            [
              4.869841534593093,
              47.07534051538318,
              0.0
            ],
            [
              4.870047493046085,
              47.0754821623805,
              0.0
            ],
            [
              4.869507902823962,
              47.07585319506936,
              0.0
            ],
            [
              4.869969068694113,
              47.07616556529637,
              0.0
            ],
            [
              4.869508481310241,
              47.07645926284177,
              0.0
            ],
            [
              4.869111732651314,
              47.0761902996667,
              0.0
            ],
            [
              4.86913202043297,
              47.07612122011081,
              0.0
            ],
            [
              4.868713856587839,
              47.07583358183663,
              0.0
            ]
          ]
        ]
      },
      "properties": {
        "folder": "04 Domaine Marius Delarche.kmz / 04 Domaine Marius Delarche",
        "name": "04 Domaine Marius Delarche"
      }
    },
    {
      "type": "Feature",
      "geometry": {
        "type": "Polygon",
        "coordinates": [
          [
            [
              4.867454115423355,
              47.07701474608871,
              0.0
            ],
            [
              4.867520116490027,
              47.07698919488737,
              0.0
            ],
            [
              4.86765173369772,
              47.07710355930107,
              0.0
            ],
            [
              4.867722102352183,
              47.07709191093618,
              0.0
            ],
            [
              4.868018213339673,
              47.07737369617465,
              0.0
            ],
            [
              4.867553586343436,
              47.07764951308479,
              0.0
            ],
            [
              4.867107575856693,
              47.07723596081225,
              0.0
            ],
            [
              4.867454115423355,
              47.07701474608871,
              0.0
            ]
          ]
        ]
      },
      "properties": {
        "folder": "04 Domaine Marius Delarche.kmz / 04 Domaine Marius Delarche",
        "name": "04 Domaine Marius Delarche"
      }
    }
  ]
}