{
  "type": "FeatureCollection",
  "features": [
    {
      "type": "Feature",
      "geometry": {
        "type": "Polygon",
        "coordinates": [
          [
            [
              4.866879705349509,
              47.07572263030449,
              0.0
            ],
            [
              4.867570856879697,
              47.07530384245241,
              0.0
            ],
            [
              4.868099036773339,
              47.07498274231913,
              0.0
            ],
            [
              4.868783609258798,
              47.07456109203505,
              0.0
            ],
            [
              4.868909835478254,
              47.07465919329083,
              0.0
            ],
            [
              4.868300649323594,
              47.07508335775124,
              0.0
            ],
            [
              4.867892910893914,
              47.07537537908934,
              0.0
            ],
            [
              4.867596563000669,
              47.07557193185808,
              0.0
            ],
            [
              4.867127035343374,
              47.07584413439364,
              0.0
            ],
            [
              4.866879705349509,
              47.07572263030449,
              0.0
            ]
          ]
        ]
      },
      "properties": {
        "folder": "05 Domaine Bruno Colin.kmz / 05 Domaine Bruno Colin",
        "name": "05 Domaine Bruno Colin"
      }
    },
    {
      "type": "Feature",
      "geometry": {
        "type": "Polygon",
        "coordinates": [
          [
            [
              4.868377294556375,
              47.07430307334211,
              0.0
            ],
            [
              4.868460521134644,
              47.07438057876881,
              0.0
            ],
            [
              4.867835303456534,
              47.07477156439268,
              0.0
            ],
            [
              4.867351787685392,
              47.07505809392438,
              0.0
            ],
            [
              4.866542912230796,
              47.0755662294554,
              0.0
            ],
            [
              4.866416472521733,
              47.07549721521161,
              0.0
            ],
            [
              4.868377294556375,
              47.07430307334211,
              0.0
            ]
          ]
        ]
      },
      "properties": {
        "folder": "05 Domaine Bruno Colin.kmz / 05 Domaine Bruno Colin",
        "name": "05 Domaine Bruno Colin"
      }
    },
    {
      "type": "Feature",
      "geometry": {
        "type": "Polygon",
        "coordinates": [
          [
            [
              4.867734474844654,
              47.0744053459911,
              0.0
            ],
            [
              4.86764523131249,
              47.07434785169218,
              0.0
            ],
            [
              4.868137989638393,
              47.07404249973379,
              0.0
            ],
            [
              4.868214930703552,
              47.07411121318433,
              0.0
            ],
            [
              4.867734474844654,
              47.0744053459911,
              0.0
            ]
          ]
        ]
      },
      "properties": {
        "folder": "05 Domaine Bruno Colin.kmz / 05 Domaine Bruno Colin",
        "name": "05 Domaine Bruno Colin"
      }
    }
  ]
}