{
  "type": "FeatureCollection",
  "features": [
    {
      "type": "Feature",
      "geometry": {
        "type": "Polygon",
        "coordinates": [
          [
            [
              4.866224917239976,
              47.07542349997069,
              0.0
            ],
            [
              4.866032779167844,
              47.07532005238427,
              0.0
            ],
            [
              4.867631689074319,
              47.07434312939033,
              0.0
            ],
            [
              4.867728390948168,
              47.07440797038109,
              0.0
            ],
            [
              4.868222212504953,
              47.07411456417334,
              0.0
            ],
            [
              4.868401440250258,
              47.07425898838198,
              0.0
            ],
            [
              4.868355481109806,
              47.07430055840973,
              0.0
            ],
            [
              4.866403806325481,
              47.07550328961345,
              0.0
            ],
            [
              4.866224917239976,
              47.07542349997069,
              0.0
            ]
          ]
        ]
      },
      "properties": {
        "folder": "06 Domaine Michel Mallard.kmz",
        "name": "06 Domaine Michel Mallard"
      }
    }
  ]
}