{
  "type": "FeatureCollection",
  "features": [
    {
      "type": "Feature",
      "geometry": {
        "type": "Polygon",
        "coordinates": [
          [
            [
              4.8659107119365,
              47.07471173303352,
              0.0
            ],
            [
              4.865682997808967,
              47.07458477510237,
              0.0
            ],
            [
              4.865728775560097,
              47.07449770904303,
              0.0
            ],
            [
              4.866937850226742,
              47.07361699905099,
              0.0
            ],
            [
              4.867051510946439,
              47.07370471946638,
              0.0
            ],
            [
              4.867387294180457,
              47.07346777260709,
              0.0
            ],
            [
              4.867572249485209,
              47.07360887180735,
              0.0
            ],
            [
              4.866833075566435,
              47.07406283659555,
              0.0
            ],
            [
              4.8659107119365,
              47.07471173303352,
              0.0
            ]
          ]
        ]
      },
      "properties": {
        "folder": "07 Domaine de la Romanée Conti.kmz",
        "name": "07 Domaine de la Romanée Conti"
      }
    }
  ]
}