{
  "type": "FeatureCollection",
  "features": [
    {
      "type": "Feature",
      "geometry": {
        "type": "Polygon",
        "coordinates": [
          [
            [
              4.867462472318631,
              47.07587117005112,
              0.0
            ],
            [
              4.867466621426429,
              47.07586777625952,
              0.0
            ],
            [
              4.868084404992372,
              47.07542183663227,
              0.0
            ],
            [
              4.86851463496428,
              47.07512626415787,
              0.0
            ],
            [
              4.869008409543644,
              47.07477441540702,
              0.0
            ],
            [
              4.869060307561927,
              47.07474891631773,
              0.0
            ],
            [
              4.869146788102896,
              47.07479235776175,
              0.0
            ],
            [
              4.869207355604869,
              47.07482626381417,
              0.0
            ],
            [
              4.869285173256353,
              47.07485240367635,
              0.0
            ],
            [
              4.869273046736784,
              47.07488634107677,
              0.0
            ],
            [
              4.868726208396175,
              47.07528596647983,
              0.0
            ],
            [
              4.868363839470289,
              47.07555219289732,
              0.0
            ],
            [
              4.868321038127159,
              47.07560476606704,
              0.0
            ],
            [
              4.868561045372597,
              47.07581419930954,
              0.0
            ],
            [
              4.868020702964959,
              47.07621911241751,
              0.0
            ],
            [
              4.867462472318631,
              47.07587117005112,
              0.0
            ]
          ]
        ]
      },
      "properties": {
        "folder": "08 Domaine Leroy.kmz",
        "name": "08 Domaine Leroy"
      }
    }
  ]
}