{
  "type": "FeatureCollection",
  "features": [
    {
      "type": "Feature",
      "geometry": {
        "type": "Polygon",
        "coordinates": [
          [
            [
              4.866859598519328,
              47.07623086454955,
              0.0
            ],
            [
              4.867083537050747,
              47.07608319388747,
              0.0
            ],
            [
              4.867417770161016,
              47.07587643373642,
              0.0
            ],
            [
              4.867644091597548,
              47.07602152665159,
              0.0
            ],
            [
              4.867995117177331,
              47.07623470729862,
              0.0
            ],
            [
              4.867847667876301,
              47.07634560909169,
              0.0
            ],
            [
              4.867585705428567,
              47.07650996236705,
              0.0
            ],
            [
              4.867167592698429,
              47.0762050285909,
              0.0
            ],
            [
              4.866992012719114,
              47.07632485657959,
              0.0
            ],
            [
              4.866859598519328,
              47.07623086454955,
              0.0
            ]
          ]
        ]
      },
      "properties": {
        "folder": "09 Domaine Michel Voarick.kmz",
        "name": "09 Domaine Michel Voarick"
      }
    }
  ]
}