{
  "type": "FeatureCollection",
  "features": [
    {
      "type": "Feature",
      "geometry": {
        "type": "Polygon",
        "coordinates": [
          [
            [
              4.868179279539491,
              47.07828806576703,
              0.0
            ],
            [
              4.868845425913313,
              47.0779344686807,
              0.0
            ],
            [
              4.869230110727376,
              47.07825318402719,
              0.0
            ],
            [
              4.868970122782644,
              47.07839200924075,
              0.0
            ],
            [
              4.868432770333606,
              47.07868316218853,
              0.0
            ],
            [
              4.868179279539491,
              47.07828806576703,
              0.0
            ]
          ]
        ]
      },
      "properties": {
        "folder": "10 Château Corton C..kmz",
        "name": "10 Château Corton C."
      }
    }
  ]
}