{
  "type": "FeatureCollection",
  "features": [
    {
      "type": "Feature",
      "geometry": {
        "type": "Polygon",
        "coordinates": [
          [
            [
              4.870044457096254,
              47.07548304573437,
              0.0
            ],
            [
              4.870080469999194,
              47.0755144426473,
              0.0
            ],
            [
              4.870352596634959,
              47.07561960164266,
              0.0
            ],
            [
              4.870480770785952,
              47.07565746170835,
              0.0
            ],
            [
              4.870533124467262,
              47.07568144517229,
              0.0
            ],
            [
              4.87056142298645,
              47.07569835155188,
              0.0
            ],
            [
              4.870561186945523,
              47.0757205970769,
              0.0
            ],
            [
              4.870533214227541,
              47.07574901248463,
              0.0
            ],
            [
              4.870426814123634,
              47.07580741028438,
              0.0
            ],
            [
              4.870226610621198,
              47.07592377186471,
              0.0
            ],
            [
              4.870170025120513,
              47.07598183629033,
              0.0
            ],
            [
              4.870158624246928,
              47.07604486970401,
              0.0
            ],
            [
              4.870126687871503,
              47.07608639422064,
              0.0
            ],
            [
              4.870011909192202,
              47.0761499459509,
              0.0
            ],
            [
              4.869774220435385,
              47.0759753386539,
              0.0
            ],
            [
              4.869534924313868,
              47.07583179658491,
              0.0
            ],
            [
              4.870044457096254,
              47.07548304573437,
              0.0
            ]
          ]
        ]
      },
      "properties": {
        "folder": "11 Domaine Maldant-Pauvelot.kmz",
        "name": "11 Domaine Maldant-Pauvelot"
      }
    }
  ]
}