{
  "type": "FeatureCollection",
  "features": [
    {
      "type": "Feature",
      "geometry": {
        "type": "Polygon",
        "coordinates": [
          [
            [
              4.866871141405255,
              47.07644692060556,
              0.0
            ],
            [
              4.867107116987251,
              47.07627883218516,
              0.0
            ],
            [
              4.867201719701533,
              47.07628008647546,
              0.0
            ],
            [
              4.867771601407038,
              47.07670678901474,
              0.0
            ],
            [
              4.867957895718556,
              47.07685633252905,
              0.0
            ],
            [
              4.867649336976818,
              47.07703820035562,
              0.0
            ],
            [
              4.86764251105477,
              47.07704187410535,
              0.0
            ],
            [
              4.866871141405255,
              47.07644692060556,
              0.0
            ]
          ]
        ]
      },
      "properties": {
        "folder": "12 Maison Capitain-Gagnerot.kmz",
        "name": "12 Maison Capitain-Gagnerot"
      }
    }
  ]
}