{
  "type": "FeatureCollection",
  "features": [
    {
      "type": "Feature",
      "geometry": {
        "type": "Polygon",
        "coordinates": [
          [
            [
              4.866817057570265,
              47.07649547130361,
              0.0
            ],
            [
              4.867191875414147,
              47.07676582263403,
              0.0
            ],
            [
              4.867463676179082,
              47.07696264092971,
              0.0
            ],
            [
              4.867068466321182,
              47.07720599724268,
              0.0
            ],
            [
              4.866483006509393,
              47.07673011602247,
              0.0
            ],
            [
              4.866817057570265,
              47.07649547130361,
              0.0
            ]
          ]
        ]
      },
      "properties": {
        "folder": "13 Maison Louis Latour.kmz",
        "name": "13 Maison Louis Latour"
      }
    }
  ]
}