{
  "type": "FeatureCollection",
  "features": [
    {
      "type": "Feature",
      "geometry": {
        "type": "Polygon",
        "coordinates": [
          [
            [
              4.865814016820487,
              47.07521630833632,
              0.0
            ],
            [
              4.866572531198614,
              47.07475534432211,
              0.0
            ],
            [
              4.867282385690162,
              47.07430418821692,
              0.0
            ],
            [
              4.867327154532035,
              47.07431427692264,
              0.0
            ],
            [
              4.867978553277938,
              47.07392915180731,
              0.0
            ],
            [
              4.868113427877527,
              47.0740466708866,
              0.0
            ],
            [
              4.867466591657461,
              47.07444552598826,
              0.0
            ],
            [
              4.866028391804031,
              47.07532044825061,
              0.0
            ],
            [
              4.865814016820487,
              47.07521630833632,
              0.0
            ]
          ]
        ]
      },
      "properties": {
        "folder": "15 Domaine Michel Gaunoux.kmz",
        "name": "15 Domaine Michel Gaunoux"
      }
    }
  ]
}