{
  "type": "FeatureCollection",
  "features": [
    {
      "type": "Feature",
      "geometry": {
        "type": "Polygon",
        "coordinates": [
          [
            [
              4.87100008544301,
              47.07669116321919,
              0.0
            ],
            [
              4.870801136414318,
              47.0765045656839,
              0.0
            ],
            [
              4.870737249070842,
              47.07648226489871,
              0.0
            ],
            [
              4.870673655833906,
              47.07640964792697,
              0.0
            ],
            [
              4.870622121355401,
              47.07634890388125,
              0.0
            ],
            [
              4.870537831742013,
              47.0763093351262,
              0.0
            ],
            [
              4.87041879609917,
              47.07620284183516,
              0.0
            ],
            [
              4.870280941576192,
              47.07604396414383,
              0.0
            ],
            [
              4.870456138535912,
              47.0758984887942,
              0.0
            ],
            [
              4.870607991466782,
              47.07601293435241,
              0.0
            ],
            [
              4.870612285491958,
              47.0760542988871,
              0.0
            ],
            [
              4.870761310394956,
              47.07620921234079,
              0.0
            ],
            [
              4.870762245947171,
              47.07621362769298,
              0.0
            ],
            [
              4.871051048660715,
              47.07647349355989,
              0.0
            ],
            [
              4.871132269525189,
              47.07657448003395,
              0.0
            ],
            [
              4.871080923328455,
              47.07663248642049,
              0.0
            ],
            [
              4.87100008544301,
              47.07669116321919,
              0.0
            ]
          ]
        ]
      },
      "properties": {
        "folder": "16 Domaine Parent.kmz",
        "name": "16 Domaine Parent"
      }
    }
  ]
}