{
  "type": "FeatureCollection",
  "features": [
    {
      "type": "Feature",
      "geometry": {
        "type": "Polygon",
        "coordinates": [
          [
            [
              4.867601412106087,
              47.07652182650373,
              0.0
            ],
            [
              4.867839275687478,
              47.07637421817716,
              0.0
            ],
            [
              4.868454494633445,
              47.07685206856248,
              0.0
            ],
            [
              4.868460959017773,
              47.07686089153929,
              0.0
            ],
            [
              4.868341416009501,
              47.07693534110084,
              0.0
            ],
            [
              4.867908204374656,
              47.0771806813651,
              0.0
            ],
            [
              4.867825008412656,
              47.07711009180503,
              0.0
            ],
            [
              4.867757192460602,
              47.07702745083966,
              0.0
            ],
            [
              4.868010116095338,
              47.07687590629518,
              0.0
            ],
            [
              4.867601412106087,
              47.07652182650373,
              0.0
            ]
          ]
        ]
      },
      "properties": {
        "folder": "17 Domaine Françoise André.kmz",
        "name": "17 Domaine Françoise André"
      }
    }
  ]
}