{
  "type": "FeatureCollection",
  "features": [
    {
      "type": "Feature",
      "geometry": {
        "type": "Polygon",
        "coordinates": [
          [
            [
              4.868637198560332,
              47.07911620307411,
              0.0
            ],
            [
              4.868784790747025,
              47.07899538836653,
              0.0
            ],
            [
              4.869595284895361,
              47.07851935839774,
              0.0
            ],
            [
              4.869607449884777,
              47.0786104110648,
              0.0
            ],
            [
              4.86957617819262,
              47.07869607428636,
              0.0
            ],
            [
              4.869088625932996,
              47.07910290194452,
              0.0
            ],
            [
              4.868772282109659,
              47.0793783111702,
              0.0
            ],
            [
              4.868637198560332,
              47.07911620307411,
              0.0
            ]
          ]
        ]
      },
      "properties": {
        "folder": "18 Domaine Antonin Guyon.kmz",
        "name": "18 Domaine Antonin Guyon"
      }
    }
  ]
}