{
  "type": "FeatureCollection",
  "features": [
    {
      "type": "Feature",
      "geometry": {
        "type": "Polygon",
        "coordinates": [
          [
            [
              4.866780910359161,
              47.07566373004163,
              0.0
            ],
            [
              4.867184420491329,
              47.07542285202803,
              0.0
            ],
            [
              4.867994359512819,
              47.07492461417361,
              0.0
            ],
            [
              4.868695331517041,
              47.07449946640744,
              0.0
            ],
            [
              4.868776659531704,
              47.07456158444098,
              0.0
            ],
            [
              4.868076044035545,
              47.07499028364573,
              0.0
            ],
            [
              4.867267251457714,
              47.07548382375662,
              0.0
            ],
            [
              4.866878903932676,
              47.0757212356467,
              0.0
            ],
            [
              4.866780910359161,
              47.07566373004163,
              0.0
            ]
          ]
        ]
      },
      "properties": {
        "folder": "19 Domaine Michel Gay .kmz",
        "name": "19 Domaine Michel Gay"
      }
    }
  ]
}