{
  "type": "FeatureCollection",
  "features": [
    {
      "type": "Feature",
      "geometry": {
        "type": "Polygon",
        "coordinates": [
          [
            [
              4.867980652336006,
              47.07727228344035,
              0.0
            ],
            [
              4.86790017212541,
              47.07719644572754,
              0.0
            ],
            [
              4.868478741140388,
              47.07683620035093,
              0.0
            ],
            [
              4.868841309057037,
              47.07660034501869,
              0.0
            ],
            [
              4.869234931597579,
              47.07631875126809,
              0.0
            ],
            [
              4.869335575347473,
              47.07639341056566,
              0.0
            ],
            [
              4.868978889251155,
              47.07664673423111,
              0.0
            ],
            [
              4.868601188337629,
              47.07691078455561,
              0.0
            ],
            [
              4.867980652336006,
              47.07727228344035,
              0.0
            ]
          ]
        ]
      },
      "properties": {
        "folder": "20 Domaine Robert Gibourg.kmz",
        "name": "20 Domaine Robert Gibourg"
      }
    }
  ]
}