{
  "type": "FeatureCollection",
  "features": [
    {
      "type": "Feature",
      "geometry": {
        "type": "Polygon",
        "coordinates": [
          [
            [
              4.868885970550021,
              47.07968679286688,
              0.0
            ],
            [
              4.869051819808147,
              47.07950048012648,
              0.0
            ],
            [
              4.869383046011812,
              47.07918157167437,
              0.0
            ],
            [
              4.869405519121286,
              47.07932329173568,
              0.0
            ],
            [
              4.869354686020458,
              47.07947338542583,
              0.0
            ],
            [
              4.869247643103407,
              47.07959672336232,
              0.0
            ],
            [
              4.869146688626209,
              47.0796754115927,
              0.0
            ],
            [
              4.869116965116596,
              47.07971363934381,
              0.0
            ],
            [
              4.86899144956994,
              47.07971792279932,
              0.0
            ],
            [
              4.868885970550021,
              47.07968679286688,
              0.0
            ]
          ]
        ]
      },
      "properties": {
        "folder": "21 Domaine Chandon de Briailles.kmz",
        "name": "21 Domaine Chandon de Briailles"
      }
    }
  ]
}