{
  "type": "FeatureCollection",
  "features": [
    {
      "type": "Feature",
      "geometry": {
        "type": "Polygon",
        "coordinates": [
          [
            [
              4.868088586646715,
              47.07815077075151,
              0.0
            ],
            [
              4.868377150089556,
              47.07797861443773,
              0.0
            ],
            [
              4.86864079801075,
              47.07781380086382,
              0.0
            ],
            [
              4.868743467743286,
              47.07790101017788,
              0.0
            ],
            [
              4.868382478790196,
              47.07810075589541,
              0.0
            ],
            [
              4.868148421516654,
              47.07821347852311,
              0.0
            ],
            [
              4.868088586646715,
              47.07815077075151,
              0.0
            ]
          ]
        ]
      },
      "properties": {
        "folder": "22 Domaine Prin.kmz",
        "name": "22 Domaine Prin"
      }
    }
  ]
}