{
"type": "FeatureCollection",
"name": "Reuilly",
"crs": { "type": "name", "properties": { "name": "urn:ogc:def:crs:OGC:1.3:CRS84" } },
"features": [
{ "type": "Feature", "properties": { "Name": null, "id": "" }, "geometry": { "type": "MultiPolygon", "coordinates": [ [ [ [ 2.04276781364242, 47.112895878021099 ], [ 2.04276440036665, 47.112857854120698 ], [ 2.04183890668873, 47.112251624023799 ], [ 2.0413954529614, 47.112521572234698 ], [ 2.04135194810696, 47.112542820557799 ], [ 2.04105965229697, 47.112685627345797 ], [ 2.0407525862187, 47.112835693944902 ], [ 2.04071274482285, 47.112865976124603 ], [ 2.04054485173756, 47.112977129884598 ], [ 2.04055016664495, 47.113026784424399 ], [ 2.04111936336371, 47.113384450190402 ], [ 2.04161985050506, 47.113705168755899 ], [ 2.04208211032902, 47.113379372419303 ], [ 2.04232839960859, 47.113205659576799 ], [ 2.04276781364242, 47.112895878021099 ] ] ], [ [ [ 2.04743800496155, 47.112833233910699 ], [ 2.04728435579284, 47.112728785933399 ], [ 2.04711115941355, 47.112611031292701 ], [ 2.04702109248386, 47.112550684697403 ], [ 2.04691330031408, 47.112478397112902 ], [ 2.04680368298837, 47.112404923900201 ], [ 2.04658862120195, 47.112260712659896 ], [ 2.04648147360047, 47.112189330339902 ], [ 2.04638631943722, 47.112125880028799 ], [ 2.04581448088387, 47.111744898801 ], [ 2.0457224265346, 47.111677781974102 ], [ 2.04540539018013, 47.1114461113308 ], [ 2.04479052614532, 47.110993280228897 ], [ 2.04464471994052, 47.110885922141499 ], [ 2.04456073152374, 47.110877305068797 ], [ 2.0437604653169, 47.111256590374801 ], [ 2.0434677512504, 47.111393997517602 ], [ 2.04327369574035, 47.111456498860498 ], [ 2.04313985959997, 47.111499599902501 ], [ 2.0429725087845, 47.111558450079698 ], [ 2.04259386577759, 47.111736831148299 ], [ 2.04254862539181, 47.1117593260714 ], [ 2.04243577899516, 47.111838344802699 ], [ 2.04188795845735, 47.112222498203003 ], [ 2.0423342390177, 47.112513232634399 ], [ 2.04242211326511, 47.112570503508501 ], [ 2.04254284415799, 47.112649114995101 ], [ 2.04266826988383, 47.1127307364346 ], [ 2.04284415025384, 47.1128453687137 ], [ 2.04341078478088, 47.112441468284501 ], [ 2.04347705371121, 47.112490006131701 ], [ 2.04356115698067, 47.1125517467988 ], [ 2.04369252306765, 47.112648002250403 ], [ 2.0438547175552, 47.112768462267603 ], [ 2.04398073078744, 47.112861701900798 ], [ 2.0440870344367, 47.112950816863702 ], [ 2.04417020903174, 47.113020382615296 ], [ 2.04434903154694, 47.1131701513265 ], [ 2.04444806025886, 47.1132530833084 ], [ 2.04472837199155, 47.113525690025803 ], [ 2.0448755302724, 47.113668803714198 ], [ 2.04498003443791, 47.113770328055402 ], [ 2.04510809611095, 47.1138970770782 ], [ 2.04517319720481, 47.113900045526897 ], [ 2.04560823127182, 47.113702943541199 ], [ 2.04586908811656, 47.113584896309597 ], [ 2.04605681962202, 47.113499919244198 ], [ 2.04742205421836, 47.112877580830798 ], [ 2.04743800496155, 47.112833233910699 ] ] ], [ [ [ 2.04504807955705, 47.113912338051797 ], [ 2.044944855412, 47.113812985238802 ], [ 2.04488014948844, 47.1137505054473 ], [ 2.04483528326502, 47.1137071872744 ], [ 2.04476240857385, 47.113636806730099 ], [ 2.04471974923021, 47.113595487550299 ], [ 2.04466606449487, 47.113543723027398 ], [ 2.04457011316621, 47.113450822557098 ], [ 2.04439246654515, 47.113279274964299 ], [ 2.04396744837462, 47.1129190357615 ], [ 2.04393022103342, 47.112891266731197 ], [ 2.04385458923405, 47.112835178679497 ], [ 2.04365868479343, 47.1126894096287 ], [ 2.04360973981918, 47.1126530801154 ], [ 2.04344090725677, 47.112527702839301 ], [ 2.04338521928878, 47.112529493184802 ], [ 2.04289238839573, 47.112876920736603 ], [ 2.04273893258733, 47.112984865742099 ], [ 2.04264530802607, 47.113050808299 ], [ 2.04252216604816, 47.113137575105497 ], [ 2.04249331937614, 47.113157774716399 ], [ 2.04235107812308, 47.113257978823903 ], [ 2.04226827318313, 47.113316177435003 ], [ 2.04222446180705, 47.113347237586297 ], [ 2.0420028874449, 47.113503147502499 ], [ 2.04191913306171, 47.113562778594002 ], [ 2.04167268175247, 47.113738019855099 ], [ 2.04188323696458, 47.113868247142797 ], [ 2.04221452691983, 47.114129037212699 ], [ 2.04248493646729, 47.1143350299633 ], [ 2.04260131474264, 47.114428731495501 ], [ 2.04273107409759, 47.114511649169998 ], [ 2.04331448648407, 47.114865189606903 ], [ 2.04339751699778, 47.114868667490398 ], [ 2.04361049584437, 47.114728980591998 ], [ 2.0437837076804, 47.114615345393801 ], [ 2.04385124478805, 47.114570254950799 ], [ 2.04397857747144, 47.114485232106297 ], [ 2.04411004887093, 47.114397362141901 ], [ 2.04419440561473, 47.114340885764598 ], [ 2.0444334390291, 47.114234096103097 ], [ 2.04503358138592, 47.113963899599 ], [ 2.04504807955705, 47.113912338051797 ] ] ], [ [ [ 2.0424902768029, 47.114442758476699 ], [ 2.04180030126692, 47.113918881221302 ], [ 2.04160333092851, 47.113796059355899 ], [ 2.04154502354052, 47.113759651400699 ], [ 2.04132845260236, 47.113619199429699 ], [ 2.04120588954229, 47.1135397611842 ], [ 2.04113287359324, 47.113492426632199 ], [ 2.04110184093289, 47.113472361197203 ], [ 2.04104916458503, 47.113438250594001 ], [ 2.04097755622965, 47.1133933586121 ], [ 2.04086916611369, 47.113325382186297 ], [ 2.04076038386786, 47.113257222328699 ], [ 2.04067168700923, 47.113201744119799 ], [ 2.04047329855012, 47.113077377862297 ], [ 2.04039704641923, 47.1130785459846 ], [ 2.03954907683073, 47.113644503694097 ], [ 2.03930217309156, 47.113807671237197 ], [ 2.03946831900667, 47.113965085439297 ], [ 2.03953563387665, 47.1140288504875 ], [ 2.03962914739041, 47.114117503193299 ], [ 2.03966555522184, 47.1141541804746 ], [ 2.03978905679015, 47.114269733004498 ], [ 2.03983880669591, 47.114312643511802 ], [ 2.03986660709956, 47.114336464005603 ], [ 2.03989518753387, 47.114360921226897 ], [ 2.03993348482056, 47.114387800060399 ], [ 2.03999288404947, 47.114429530072996 ], [ 2.04006407210066, 47.114483242788303 ], [ 2.04026409868679, 47.1146343642517 ], [ 2.04031641419, 47.114673964459101 ], [ 2.04038590937658, 47.1147264924384 ], [ 2.04073433028294, 47.114521126899596 ], [ 2.04101934444107, 47.114365655375401 ], [ 2.04171114754434, 47.115031450730697 ], [ 2.04178340521291, 47.114965782112499 ], [ 2.04182442576841, 47.114928576495402 ], [ 2.04191612158212, 47.114845241487501 ], [ 2.04213862158044, 47.114637568132501 ], [ 2.0421679015882, 47.114615301349701 ], [ 2.04233448146123, 47.114526193486199 ], [ 2.0424902768029, 47.114442758476699 ] ] ], [ [ [ 2.04893332543504, 47.109657417483497 ], [ 2.0487887006849, 47.109191366447902 ], [ 2.04869374291805, 47.109191665846197 ], [ 2.04827092093867, 47.109192778995499 ], [ 2.04816283672956, 47.108958063050203 ], [ 2.04789066842025, 47.108366619593703 ], [ 2.04784875669824, 47.108275607116099 ], [ 2.04782438624569, 47.108221834355902 ], [ 2.04776689880642, 47.1080943185842 ], [ 2.04764126711109, 47.1078155193943 ], [ 2.04756090876507, 47.1077061827378 ], [ 2.04748676259764, 47.107581140675499 ], [ 2.04736767194857, 47.107380097095003 ], [ 2.04731067973074, 47.107284368254703 ], [ 2.04720770123182, 47.107111908965699 ], [ 2.04708308139256, 47.106902986249303 ], [ 2.04683984571321, 47.1070109172028 ], [ 2.04642796711135, 47.106938553255503 ], [ 2.04622103272848, 47.106872920345999 ], [ 2.04603311381018, 47.106753691689597 ], [ 2.04602907096318, 47.106751137297401 ], [ 2.04586124158808, 47.106674121460699 ], [ 2.04579073365936, 47.106641846602997 ], [ 2.04565286424201, 47.106563456984397 ], [ 2.04551142784497, 47.106448212518501 ], [ 2.04535690222197, 47.1063572599178 ], [ 2.04522816766956, 47.106291820510101 ], [ 2.04492651432523, 47.106213518273798 ], [ 2.0447120875925, 47.106154213379 ], [ 2.04449145863349, 47.106147258533298 ], [ 2.04439440993768, 47.1061393436893 ], [ 2.04406739557167, 47.106115572293398 ], [ 2.04346003023319, 47.1060542768438 ], [ 2.04393571137837, 47.107079143043897 ], [ 2.04400836195941, 47.107109545961698 ], [ 2.04411962707702, 47.107156204601203 ], [ 2.04425339737058, 47.107212863183697 ], [ 2.04432368610207, 47.107242616119201 ], [ 2.04437944278603, 47.107266396509502 ], [ 2.04441813283238, 47.107293277194699 ], [ 2.04451219099552, 47.107358430975999 ], [ 2.044623184716, 47.107435339388402 ], [ 2.04472203746533, 47.107505304573301 ], [ 2.04502693713886, 47.107720850786002 ], [ 2.04506523226708, 47.107747727983899 ], [ 2.04530292944156, 47.108086969852103 ], [ 2.04630673780848, 47.107909775421597 ], [ 2.04647893230167, 47.107874460111802 ], [ 2.04652410953626, 47.107996923023599 ], [ 2.04656727120847, 47.108114057100003 ], [ 2.04666457709804, 47.108398476389297 ], [ 2.04670934342632, 47.108529309268697 ], [ 2.0467509604927, 47.1086816350482 ], [ 2.046783545888, 47.108800302500498 ], [ 2.04689675726913, 47.109162374587001 ], [ 2.04693112111367, 47.109277455143101 ], [ 2.04700345833266, 47.109519800963497 ], [ 2.04659455300065, 47.109621234018498 ], [ 2.04656491898728, 47.109671230444299 ], [ 2.04668741820646, 47.109948114029599 ], [ 2.04669426647101, 47.109963566827403 ], [ 2.04684298159845, 47.1103018014973 ], [ 2.04781350674442, 47.110009972395297 ], [ 2.04793655452644, 47.109972449511901 ], [ 2.04882247218591, 47.109691530266403 ], [ 2.04889846506569, 47.109667395035103 ], [ 2.04893332543504, 47.109657417483497 ] ] ], [ [ [ 2.04691081519712, 47.109456281644 ], [ 2.04675186561462, 47.108913848353602 ], [ 2.04671508622607, 47.108793705732303 ], [ 2.04668541694754, 47.108696581180098 ], [ 2.04665037719626, 47.108582485357097 ], [ 2.04662943507858, 47.108513884469602 ], [ 2.04660562428208, 47.1084359860983 ], [ 2.04659813953013, 47.108411794431703 ], [ 2.04657968980189, 47.108351407460297 ], [ 2.04655703820316, 47.108289995434198 ], [ 2.04651400986137, 47.108172772424403 ], [ 2.04642645108531, 47.107933812092298 ], [ 2.04533438821845, 47.1081275662115 ], [ 2.04539854134324, 47.108347516423699 ], [ 2.04539773925121, 47.108474732359099 ], [ 2.0453970694698, 47.108594476294101 ], [ 2.04539678958031, 47.1086251766651 ], [ 2.04539648941471, 47.108701705796001 ], [ 2.04539613846805, 47.108751313387998 ], [ 2.04538557249839, 47.108774545804401 ], [ 2.04532778516314, 47.108902551855202 ], [ 2.0452779610501, 47.109012796250703 ], [ 2.0452200381559, 47.109140981196298 ], [ 2.04509135509589, 47.1094445145091 ], [ 2.04498724255925, 47.109820100204303 ], [ 2.04492200101271, 47.110056089048399 ], [ 2.04477048122631, 47.110688068893303 ], [ 2.04481182872962, 47.110713980932502 ], [ 2.0453482111822, 47.1106087444266 ], [ 2.04552767055678, 47.110573310383003 ], [ 2.04621999733861, 47.110434692433003 ], [ 2.04676472774855, 47.110282158714497 ], [ 2.04659699159002, 47.109908382544297 ], [ 2.04652293848588, 47.109740753170399 ], [ 2.04646587993407, 47.1096114396018 ], [ 2.04686417958082, 47.109505687849399 ], [ 2.04691081519712, 47.109456281644 ] ] ] ] } },
{ "type": "Feature", "properties": { "Name": null, "id": "" }, "geometry": { "type": "MultiPolygon", "coordinates": [ [ [ [ 2.03945746104774, 47.053474342327497 ], [ 2.0404441228455, 47.053360079430703 ], [ 2.04027311723264, 47.052604735455702 ], [ 2.04015208075488, 47.052072562730103 ], [ 2.04005219952125, 47.051637645645798 ], [ 2.03990178275085, 47.050960751633603 ], [ 2.03987382172709, 47.0508463497181 ], [ 2.03866502560009, 47.050966844704902 ], [ 2.03779758941981, 47.051054299194 ], [ 2.03754428926545, 47.051079245931398 ], [ 2.03759235846759, 47.051305374386999 ], [ 2.03774164591903, 47.051941339399903 ], [ 2.03788976659451, 47.052605260463302 ], [ 2.0380512198006, 47.053297456375297 ], [ 2.03809869701153, 47.053534114051502 ], [ 2.03828916169737, 47.053542002430902 ], [ 2.03872627313912, 47.053559614318402 ], [ 2.03891307858193, 47.053536263704103 ], [ 2.03924455886538, 47.0534983771893 ], [ 2.03945746104774, 47.053474342327497 ] ] ], [ [ [ 2.06079419487364, 47.076239959362297 ], [ 2.06082424639354, 47.076215641192 ], [ 2.06080489577867, 47.076088629411402 ], [ 2.06078719035916, 47.075933746219199 ], [ 2.06075824825604, 47.075752057422903 ], [ 2.06065794396538, 47.074984280335997 ], [ 2.06060571679089, 47.0745988981853 ], [ 2.0605935496475, 47.074489313017096 ], [ 2.06055858216909, 47.074493251579597 ], [ 2.06002870772113, 47.074588498449103 ], [ 2.05932288633305, 47.074715499033701 ], [ 2.05888777599994, 47.0747913704298 ], [ 2.05850466391601, 47.074860820894799 ], [ 2.05844023430091, 47.074870371289897 ], [ 2.05809090462033, 47.074935782773899 ], [ 2.0576376595904, 47.075016714899299 ], [ 2.05776426667202, 47.076486970102003 ], [ 2.05822583077217, 47.076450367902503 ], [ 2.05870071749306, 47.076412341720001 ], [ 2.05893653557711, 47.076392418787599 ], [ 2.05898652977606, 47.076387702670601 ], [ 2.05923034255619, 47.0763688346482 ], [ 2.05932756112109, 47.0763602709727 ], [ 2.05946472401763, 47.076348889943702 ], [ 2.05997496297085, 47.076306743354799 ], [ 2.06079419487364, 47.076239959362297 ] ] ], [ [ [ 2.06093616210589, 47.077140403275102 ], [ 2.06086348970785, 47.076546039352102 ], [ 2.0608402776782, 47.076353142429298 ], [ 2.0608362982696, 47.076302373683603 ], [ 2.06080353474969, 47.0762856395041 ], [ 2.05948019590873, 47.076389776053901 ], [ 2.05816243959716, 47.076497706570997 ], [ 2.0577674941353, 47.076529314287797 ], [ 2.05783588971893, 47.077425434967601 ], [ 2.06093616210589, 47.077140403275102 ] ] ], [ [ [ 2.0602984900387, 47.095919998696701 ], [ 2.0603513313888, 47.0943903233646 ], [ 2.06033644212584, 47.0939472181376 ], [ 2.06033457870763, 47.093917967832802 ], [ 2.06032716175299, 47.093688402080701 ], [ 2.05900187226166, 47.093765706990901 ], [ 2.05846636239011, 47.0937951563903 ], [ 2.05838362960981, 47.095982563657401 ], [ 2.05838738802587, 47.096270930059603 ], [ 2.05839281350059, 47.096433635810897 ], [ 2.05840864143236, 47.0968900651986 ], [ 2.05874892153359, 47.0968821483319 ], [ 2.05992666836225, 47.096838274665899 ], [ 2.06027907178419, 47.096823897147303 ], [ 2.06028615139168, 47.096367744350601 ], [ 2.0602984900387, 47.095919998696701 ] ] ], [ [ [ 2.0601476970369, 47.1020742896239 ], [ 2.06180930481099, 47.102055144193699 ], [ 2.06154363982623, 47.1013448639942 ], [ 2.06136769624012, 47.101033050692401 ], [ 2.06110480236586, 47.1005625427808 ], [ 2.06101153428794, 47.1003970533189 ], [ 2.06078534236271, 47.099885650513897 ], [ 2.06057683040932, 47.099252750418103 ], [ 2.06047140690323, 47.098931523200299 ], [ 2.06034354967478, 47.098425329972599 ], [ 2.05884295606497, 47.098486533050298 ], [ 2.05888284330589, 47.0986080389401 ], [ 2.05890188851207, 47.098663611921197 ], [ 2.05905759888182, 47.099084119870199 ], [ 2.05922218718705, 47.099538535772297 ], [ 2.0601476970369, 47.1020742896239 ] ] ], [ [ [ 2.06104986612795, 47.082443477980497 ], [ 2.06108150685186, 47.082162240793302 ], [ 2.05949401008381, 47.081919081466197 ], [ 2.0582150100222, 47.081723162912901 ], [ 2.05731731526384, 47.081585632672002 ], [ 2.05665438787639, 47.081364718706297 ], [ 2.0566372528908, 47.081388060748402 ], [ 2.05648748103447, 47.081606332708397 ], [ 2.05646179623979, 47.081636177701803 ], [ 2.05632354379338, 47.081887569366401 ], [ 2.05620107532592, 47.082140800448997 ], [ 2.05618065746058, 47.082223666667502 ], [ 2.05617031878571, 47.082264603507099 ], [ 2.05597140009281, 47.082669788247003 ], [ 2.05575864747961, 47.083225006731503 ], [ 2.05573337606054, 47.083276346966898 ], [ 2.05569231410885, 47.083326126601399 ], [ 2.05557326399685, 47.0834680980945 ], [ 2.05555819679941, 47.083492978502299 ], [ 2.05539625444585, 47.0837583023525 ], [ 2.05537308602732, 47.083794902487902 ], [ 2.0552427565944, 47.084037362723201 ], [ 2.05521939282262, 47.084122725717897 ], [ 2.05514471731483, 47.084368080699299 ], [ 2.05506381603751, 47.084527101486003 ], [ 2.05480714760505, 47.0849049987036 ], [ 2.05480637832049, 47.084911286056403 ], [ 2.05481106059914, 47.084959269474197 ], [ 2.05599705639496, 47.085501128953702 ], [ 2.05621995849778, 47.085483401782803 ], [ 2.05642232027404, 47.085465821657998 ], [ 2.05656086216916, 47.085451573964299 ], [ 2.05669814593019, 47.0854421778781 ], [ 2.0568279516008, 47.085430739785302 ], [ 2.05720230925387, 47.085407277419399 ], [ 2.05779930883068, 47.085372600247403 ], [ 2.05781023271793, 47.085439983499199 ], [ 2.05821808111997, 47.0854288468609 ], [ 2.05861660268706, 47.0854233952481 ], [ 2.05870012244353, 47.085422724792103 ], [ 2.05905679635948, 47.085416210598503 ], [ 2.05929608314979, 47.085410522863697 ], [ 2.05949978302137, 47.0853909674207 ], [ 2.05958050810609, 47.085384250067897 ], [ 2.05979783509814, 47.085361833713897 ], [ 2.06035262470308, 47.085271102726203 ], [ 2.0607440147619, 47.085207286399303 ], [ 2.06085959177991, 47.084407276776403 ], [ 2.06090170045775, 47.083959518997098 ], [ 2.06086410081226, 47.083925017194197 ], [ 2.06053915614461, 47.083866220252197 ], [ 2.05999703898077, 47.0837692003021 ], [ 2.05978320935368, 47.083728231829497 ], [ 2.05968829705941, 47.083710361634303 ], [ 2.05912966755155, 47.083691103961897 ], [ 2.05896748492028, 47.083686362360098 ], [ 2.05883594574958, 47.083668994624098 ], [ 2.05834046684973, 47.083601590848701 ], [ 2.05822606092341, 47.083583650684801 ], [ 2.0581675534762, 47.083578050851202 ], [ 2.05774026043524, 47.083519924685703 ], [ 2.05731964138814, 47.083478958544397 ], [ 2.05729378952824, 47.083496467163002 ], [ 2.05725951463167, 47.084200967596402 ], [ 2.05723130907363, 47.084791979714403 ], [ 2.05685616152075, 47.084779447597001 ], [ 2.05676348818767, 47.084776710625803 ], [ 2.05666066486427, 47.0847739717859 ], [ 2.05652484659661, 47.084768262431801 ], [ 2.05643821030789, 47.084766294773999 ], [ 2.05643767918869, 47.0847213075577 ], [ 2.056854359871, 47.084732469188197 ], [ 2.05696691151599, 47.084735197181203 ], [ 2.05713199242875, 47.084740964622704 ], [ 2.05716274827979, 47.084721965398003 ], [ 2.05719934064597, 47.083975472368998 ], [ 2.05722104257559, 47.083521237527798 ], [ 2.05723068627965, 47.083421995458799 ], [ 2.05729748389386, 47.083428392683501 ], [ 2.05770796818955, 47.0834684749586 ], [ 2.05775089494117, 47.083469545176001 ], [ 2.05835475339931, 47.083553401946602 ], [ 2.0585559153031, 47.083580692209502 ], [ 2.05897986310095, 47.083641750359 ], [ 2.05897849029977, 47.0836373273318 ], [ 2.05970082842003, 47.083664490278302 ], [ 2.06087087963526, 47.083877127160299 ], [ 2.0609144929299, 47.083860743455801 ], [ 2.06091869492852, 47.083748869658699 ], [ 2.06096326656681, 47.083265584857202 ], [ 2.06102549281721, 47.082676739004597 ], [ 2.06104986612795, 47.082443477980497 ] ] ], [ [ [ 2.06301815053985, 47.082672433688302 ], [ 2.06309262304937, 47.082406210389003 ], [ 2.06197018335509, 47.082273692533299 ], [ 2.06121735922809, 47.082183053469699 ], [ 2.06115500388724, 47.082944545914003 ], [ 2.06113828577816, 47.083124242592703 ], [ 2.06111286225906, 47.083620009167198 ], [ 2.0611041242977, 47.083660059023401 ], [ 2.06109934912566, 47.083751876762904 ], [ 2.06106777595291, 47.0840723438033 ], [ 2.0610424415285, 47.0842782434311 ], [ 2.06102901896389, 47.084404889537701 ], [ 2.06092636792387, 47.085218230856 ], [ 2.06131446125553, 47.085251365443703 ], [ 2.06149881349697, 47.085239104503003 ], [ 2.06153498818129, 47.085234365075799 ], [ 2.06188505270985, 47.085213652592401 ], [ 2.06201236801324, 47.085201297107702 ], [ 2.06227536404937, 47.085188241430401 ], [ 2.06234013284532, 47.084761799005101 ], [ 2.06234341649952, 47.0847389740686 ], [ 2.06237614901742, 47.084525039843101 ], [ 2.06240873703839, 47.084402051527199 ], [ 2.06246549036364, 47.084200007982602 ], [ 2.06255409623709, 47.083892959600298 ], [ 2.06267684334814, 47.083908901233201 ], [ 2.0626858452096, 47.083875597236997 ], [ 2.06270304066661, 47.0838115037443 ], [ 2.06271253383058, 47.0837734407325 ], [ 2.06290661065405, 47.083070693930097 ], [ 2.06301815053985, 47.082672433688302 ] ] ] ] } },
{ "type": "Feature", "properties": { "Name": null, "id": "" }, "geometry": { "type": "MultiPolygon", "coordinates": [ [ [ [ 2.0719310101334, 47.113915981905798 ], [ 2.07193378844217, 47.1138779457034 ], [ 2.07183677551867, 47.1135222607084 ], [ 2.07175528936212, 47.113236136478797 ], [ 2.0717183978856, 47.113099191721702 ], [ 2.07167890989732, 47.112937655091102 ], [ 2.07159697151605, 47.112586763646 ], [ 2.07158791598567, 47.1125466516336 ], [ 2.07150667949103, 47.112207911653499 ], [ 2.07120004658957, 47.112237727798203 ], [ 2.0708151992447, 47.112278601562302 ], [ 2.07074511964324, 47.112285232466199 ], [ 2.07055900783492, 47.112302527674103 ], [ 2.07041968007663, 47.112311924233403 ], [ 2.07041786799486, 47.112317581983099 ], [ 2.07009569890754, 47.112392432763698 ], [ 2.07000346456184, 47.1124134530356 ], [ 2.06969629406516, 47.112481940666001 ], [ 2.06959561982776, 47.112504423352398 ], [ 2.06953037831478, 47.112519555895702 ], [ 2.06950234106458, 47.112608844855103 ], [ 2.06943596322715, 47.1126217983186 ], [ 2.06936547568598, 47.1126359791906 ], [ 2.06925817727598, 47.112660929313599 ], [ 2.06909422289563, 47.112714748310701 ], [ 2.06895660922536, 47.112746999232598 ], [ 2.06883269556831, 47.112772544509298 ], [ 2.06875776751638, 47.112791812353102 ], [ 2.06868098391869, 47.112811605427702 ], [ 2.06858694683095, 47.112839182742803 ], [ 2.06857862510731, 47.112839926058001 ], [ 2.0685454341546, 47.112778577839599 ], [ 2.06839804866922, 47.112826766939499 ], [ 2.06824023898736, 47.112876762647304 ], [ 2.06821838490508, 47.112882889159998 ], [ 2.06821094979556, 47.112886511763598 ], [ 2.06793076908665, 47.1129772621656 ], [ 2.0678000154457, 47.113016950014902 ], [ 2.06772937199, 47.1130408526069 ], [ 2.06766524875243, 47.113059126397097 ], [ 2.06760050241605, 47.113077584206003 ], [ 2.06754028590726, 47.113099499894901 ], [ 2.06734233996804, 47.1131602363144 ], [ 2.06726195268655, 47.112964451420602 ], [ 2.06723537339577, 47.112924287762901 ], [ 2.06720852802395, 47.112936847474799 ], [ 2.06708943393995, 47.112981040358697 ], [ 2.06707126677482, 47.112986737206903 ], [ 2.06695026013252, 47.113033975771202 ], [ 2.06678304476954, 47.113071027373401 ], [ 2.066656443787, 47.113099330782802 ], [ 2.06652269694153, 47.113129007965902 ], [ 2.06648892593087, 47.113032738209803 ], [ 2.0663991095532, 47.113059447454503 ], [ 2.06625736733509, 47.113101475862599 ], [ 2.06643497296519, 47.113579375037197 ], [ 2.06643381398704, 47.113623447671102 ], [ 2.066412019074, 47.1138903657302 ], [ 2.06639435549326, 47.113981187263597 ], [ 2.06650687624718, 47.113967158362797 ], [ 2.06645364127626, 47.114389289045903 ], [ 2.06622666765578, 47.114384116501199 ], [ 2.06587164551701, 47.114368806713401 ], [ 2.06572447390596, 47.114366978759797 ], [ 2.06577975755322, 47.114544572555303 ], [ 2.06582754017654, 47.114540096505102 ], [ 2.06582942277201, 47.114643032682203 ], [ 2.0658289833334, 47.1146836086806 ], [ 2.06582861172761, 47.114712660527097 ], [ 2.06582812240005, 47.114747743882099 ], [ 2.06583002755258, 47.114767189191802 ], [ 2.06581686684241, 47.114856867505601 ], [ 2.06567536073012, 47.114862909449101 ], [ 2.06560281515395, 47.114858631905101 ], [ 2.06555989516525, 47.114856484432501 ], [ 2.06546963237107, 47.114848642272598 ], [ 2.0653700293025, 47.114838653723503 ], [ 2.06532387876593, 47.1148334188101 ], [ 2.06530550776923, 47.114835611308202 ], [ 2.06515686225318, 47.114918693364203 ], [ 2.06518434846481, 47.114951400761797 ], [ 2.06513573773887, 47.114965575813699 ], [ 2.0649763019404, 47.115002327568497 ], [ 2.06482757654077, 47.115036743713297 ], [ 2.06475284912237, 47.115066986081999 ], [ 2.06467889230336, 47.115113621316702 ], [ 2.06464004689023, 47.115157119053698 ], [ 2.06463073374631, 47.115184567963603 ], [ 2.06463213598451, 47.115224609626502 ], [ 2.06464871850039, 47.115271526801699 ], [ 2.06473408985503, 47.115460970097999 ], [ 2.06474639243038, 47.115488512762703 ], [ 2.06484264226102, 47.115637104233301 ], [ 2.06491229495516, 47.115738247345099 ], [ 2.06493659609506, 47.1157804639261 ], [ 2.06501049159112, 47.115850695660299 ], [ 2.06501408417455, 47.115856487049001 ], [ 2.06507074226344, 47.115909931618901 ], [ 2.06525539941129, 47.116111962746501 ], [ 2.06533029545422, 47.116184633336999 ], [ 2.06542293744271, 47.116275985812003 ], [ 2.0656360440114, 47.116494173633001 ], [ 2.06601789064903, 47.116483067780202 ], [ 2.06627635992639, 47.116466733052498 ], [ 2.06629734020607, 47.116465461826699 ], [ 2.0665706186887, 47.116445464446699 ], [ 2.06658803358616, 47.116444434505802 ], [ 2.06669370954176, 47.116438282386902 ], [ 2.06684438869806, 47.116367351732997 ], [ 2.06692091842083, 47.116332080508798 ], [ 2.06702156467682, 47.116281976645503 ], [ 2.06711577086449, 47.116237403026901 ], [ 2.06720285019686, 47.116193843293999 ], [ 2.06763344730007, 47.115987277553103 ], [ 2.06775402833858, 47.115927627794903 ], [ 2.0677995520639, 47.115908924934402 ], [ 2.06783493448724, 47.115890140326997 ], [ 2.06786943704593, 47.115876471703601 ], [ 2.06794644235638, 47.115843364518 ], [ 2.06801950463891, 47.1158102165071 ], [ 2.0682930626025, 47.115676149907799 ], [ 2.06837789582178, 47.115633471570199 ], [ 2.06860774502224, 47.115519103337 ], [ 2.06880466129337, 47.115419136490303 ], [ 2.06892850378791, 47.115284295153899 ], [ 2.06897025640115, 47.115240279187098 ], [ 2.06908894843961, 47.115152359339 ], [ 2.06920445168437, 47.115073408370201 ], [ 2.06935339794443, 47.1149809687752 ], [ 2.0694369416529, 47.114928834444903 ], [ 2.06954696783893, 47.114868368614999 ], [ 2.06966326080003, 47.114804720771602 ], [ 2.06980759302626, 47.114727351633903 ], [ 2.06993564230266, 47.114668741077097 ], [ 2.07017830661288, 47.114583266514202 ], [ 2.07023521528672, 47.114568876944503 ], [ 2.07032595073028, 47.114542442227702 ], [ 2.07043553599083, 47.114515087497601 ], [ 2.0705458233403, 47.114486018606101 ], [ 2.07065813506907, 47.1144542737796 ], [ 2.07085464160985, 47.114407466820701 ], [ 2.0710023643374, 47.1143551356231 ], [ 2.07113985210034, 47.114307394946799 ], [ 2.07141913593357, 47.114176149121697 ], [ 2.07182598819962, 47.113976391105098 ], [ 2.07191091976255, 47.113935340647103 ], [ 2.0719310101334, 47.113915981905798 ] ] ], [ [ [ 2.070590782108, 47.114561146318103 ], [ 2.07055155907795, 47.114512877613997 ], [ 2.07047489919517, 47.114533042026203 ], [ 2.07030794229188, 47.1145779249849 ], [ 2.07019382641476, 47.114607953277499 ], [ 2.07003298775032, 47.114663599387903 ], [ 2.06988603362988, 47.114725551451997 ], [ 2.06981377916404, 47.1147655409127 ], [ 2.06961486713808, 47.1148667629298 ], [ 2.06949390787387, 47.114934064687901 ], [ 2.06940318020671, 47.114990544051899 ], [ 2.0691169301999, 47.115172554672498 ], [ 2.06898802645941, 47.115287385341702 ], [ 2.06903655899111, 47.115307475998797 ], [ 2.06927658911221, 47.115191486696602 ], [ 2.06989331703409, 47.114897354942698 ], [ 2.07035292804336, 47.114681297504397 ], [ 2.070590782108, 47.114561146318103 ] ] ], [ [ [ 2.06691720910411, 47.1240823223715 ], [ 2.06695341134422, 47.1238732707317 ], [ 2.06693692626757, 47.123866934262402 ], [ 2.06682399134567, 47.123781803262602 ], [ 2.06676856896403, 47.123755452703797 ], [ 2.06671934640354, 47.123735967891399 ], [ 2.06657241518638, 47.123689079944 ], [ 2.06641188827753, 47.1236427033393 ], [ 2.06640388634752, 47.123640117742198 ], [ 2.06617319675949, 47.123589834198803 ], [ 2.0661418124209, 47.123583107233003 ], [ 2.06599672852809, 47.123550702310801 ], [ 2.06593357690243, 47.123536515886798 ], [ 2.06588746410497, 47.123527148907797 ], [ 2.06585854854414, 47.123522593669897 ], [ 2.06579849762389, 47.123512934031098 ], [ 2.06564788409371, 47.123495150947498 ], [ 2.06560017146489, 47.1236381665952 ], [ 2.0655322153557, 47.1236203396885 ], [ 2.06521549868759, 47.123536252887597 ], [ 2.06513177949807, 47.1235146068734 ], [ 2.06500797813201, 47.123486523372101 ], [ 2.06495502192732, 47.123477001668498 ], [ 2.06489866270549, 47.123467461436498 ], [ 2.06479865594179, 47.123457019108798 ], [ 2.06475876114962, 47.123454985893197 ], [ 2.06462729470077, 47.123458136681897 ], [ 2.06432126464139, 47.1234569043283 ], [ 2.06414372295127, 47.123456899761997 ], [ 2.0639875556343, 47.123447524004803 ], [ 2.06382594002739, 47.123433611126302 ], [ 2.06373291210516, 47.123424664934902 ], [ 2.06365860003048, 47.123415870156599 ], [ 2.06349783525862, 47.1233985513229 ], [ 2.06317124435556, 47.123389496373598 ], [ 2.06296736448734, 47.1233884663759 ], [ 2.06284389820162, 47.123378363544198 ], [ 2.06298650476171, 47.124619860891798 ], [ 2.06310878014767, 47.1246227509845 ], [ 2.06357257624842, 47.124684651675203 ], [ 2.06374319653412, 47.1247043910749 ], [ 2.06410795198875, 47.124739665575298 ], [ 2.06421954943149, 47.124749752052402 ], [ 2.06428693213312, 47.124763433402201 ], [ 2.06437597190979, 47.124781881725397 ], [ 2.06451846330875, 47.124804183605697 ], [ 2.06459053117615, 47.124813950064997 ], [ 2.06466325318149, 47.124823271585903 ], [ 2.0647415321092, 47.124831647585303 ], [ 2.06501384853604, 47.124854377092397 ], [ 2.06527499359513, 47.124875485075599 ], [ 2.06544572977623, 47.124887848909097 ], [ 2.06561524905756, 47.1248950795908 ], [ 2.06600130618101, 47.124903257131699 ], [ 2.06608432199284, 47.124904737661701 ], [ 2.06636830269443, 47.1249083173619 ], [ 2.06670270777591, 47.1249085126423 ], [ 2.06682613695283, 47.124482186686102 ], [ 2.06684753094117, 47.124381779611298 ], [ 2.06689679373037, 47.124134603904999 ], [ 2.06691720910411, 47.1240823223715 ] ] ], [ [ [ 2.06297409064062, 47.119522234999202 ], [ 2.063055854595, 47.119429079167901 ], [ 2.06303666168162, 47.119388164137597 ], [ 2.06302206755128, 47.119371038009902 ], [ 2.06295722755249, 47.119348831963798 ], [ 2.06271664396073, 47.119321852637199 ], [ 2.06258235215499, 47.119306007419098 ], [ 2.06236805198452, 47.119299039412297 ], [ 2.06215127719747, 47.119297083991498 ], [ 2.06191935232199, 47.119302388305499 ], [ 2.06177998969701, 47.119305831893101 ], [ 2.06144263408948, 47.119311171428102 ], [ 2.06110254961834, 47.119314146877997 ], [ 2.06094083856956, 47.119313275375099 ], [ 2.06086004546577, 47.1193134207819 ], [ 2.06080297441684, 47.119313227526099 ], [ 2.06073759436317, 47.119314497396999 ], [ 2.06068658226233, 47.119727279267401 ], [ 2.06065355194875, 47.119956685457197 ], [ 2.06075676780995, 47.1199634659962 ], [ 2.06081403051849, 47.119967082216498 ], [ 2.06115547687179, 47.119954313648698 ], [ 2.06111829308554, 47.1199936819811 ], [ 2.06108838161802, 47.120022953200099 ], [ 2.06105726982668, 47.120053736286998 ], [ 2.06129364526732, 47.1201020865891 ], [ 2.0614505672464, 47.120112993818097 ], [ 2.0618502282255, 47.120124987384102 ], [ 2.06195324957103, 47.120127812667398 ], [ 2.06230494996553, 47.120139055578697 ], [ 2.0624143931314, 47.1200608635652 ], [ 2.06248911490337, 47.120008671728698 ], [ 2.06255509686427, 47.119959191146698 ], [ 2.06271565540293, 47.119806484631702 ], [ 2.0628344989718, 47.119673851233003 ], [ 2.06297409064062, 47.119522234999202 ] ] ], [ [ [ 2.06535435049758, 47.116520223305798 ], [ 2.06554599071457, 47.116489304461702 ], [ 2.06522539570265, 47.116146807565201 ], [ 2.06513654728102, 47.116050452533898 ], [ 2.06509704644763, 47.116017657035599 ], [ 2.06495869466517, 47.115881222558102 ], [ 2.06488695450052, 47.1158083971523 ], [ 2.0648562468213, 47.115770540563297 ], [ 2.06470109894656, 47.115509107062699 ], [ 2.06465709102974, 47.115432814239 ], [ 2.06459756800152, 47.115295224982397 ], [ 2.06456770676856, 47.1152321828787 ], [ 2.06454679657685, 47.115206641420997 ], [ 2.06451857384817, 47.115177628425002 ], [ 2.06448605858377, 47.115153523718902 ], [ 2.06443913572198, 47.115130463941199 ], [ 2.06423390120098, 47.115058079863303 ], [ 2.06376224136969, 47.1152387482704 ], [ 2.0634049998449, 47.115372126654997 ], [ 2.06333692403712, 47.115399018588199 ], [ 2.06323304925203, 47.115453405887301 ], [ 2.06311619999507, 47.115503006092297 ], [ 2.0629962501941, 47.115549618854601 ], [ 2.06288296791331, 47.115599616872203 ], [ 2.06276385894403, 47.115666116316497 ], [ 2.06265878769502, 47.115720223298403 ], [ 2.06248429215044, 47.115811195764202 ], [ 2.06244650249059, 47.115824196887502 ], [ 2.06237150387984, 47.115840317772403 ], [ 2.06244157199744, 47.115955241385699 ], [ 2.06196785149094, 47.116004171105899 ], [ 2.06188456405451, 47.1158841969688 ], [ 2.06185354630874, 47.115887006643298 ], [ 2.06174792741452, 47.115927791930297 ], [ 2.06164248396249, 47.115966066520102 ], [ 2.06127203759972, 47.116520811150799 ], [ 2.06109666929991, 47.116638128201103 ], [ 2.06106124012712, 47.116659431413801 ], [ 2.06097967024187, 47.116764202233099 ], [ 2.06103245188435, 47.116745470901002 ], [ 2.0611407131512, 47.116734842997303 ], [ 2.06134420789881, 47.116726248371698 ], [ 2.06143466654247, 47.116723750096298 ], [ 2.06154357880517, 47.116720420072099 ], [ 2.06191221465327, 47.1167046196936 ], [ 2.06209131603349, 47.116697095436301 ], [ 2.06224561573113, 47.116690621340702 ], [ 2.06240153162889, 47.116682980659597 ], [ 2.06250293469464, 47.116679129676903 ], [ 2.06282068954067, 47.116664543667099 ], [ 2.0630400286168, 47.116654192669998 ], [ 2.06333574862317, 47.116640057010898 ], [ 2.06348793078591, 47.116641568374199 ], [ 2.06365380010211, 47.1166448109973 ], [ 2.06383562441582, 47.116647552259103 ], [ 2.06392060648034, 47.116641406249499 ], [ 2.0640983755137, 47.1166270253186 ], [ 2.06421331882096, 47.116618159308402 ], [ 2.06440386663559, 47.116619079482497 ], [ 2.0645740472839, 47.116624696612298 ], [ 2.06466698247586, 47.116623116206497 ], [ 2.06508265093746, 47.116562442625799 ], [ 2.06535435049758, 47.116520223305798 ] ] ], [ [ [ 2.06626173826574, 47.116647615693601 ], [ 2.06624216767848, 47.116636032056903 ], [ 2.0661664824332, 47.116593581015103 ], [ 2.06603016165967, 47.116520856207401 ], [ 2.06562472176796, 47.116523407111202 ], [ 2.06536006619446, 47.116555707920902 ], [ 2.06500688041327, 47.116600239806701 ], [ 2.06465423390154, 47.1166440636893 ], [ 2.06456636858423, 47.116656750593002 ], [ 2.06439449424685, 47.116665876763399 ], [ 2.06418232602527, 47.1166795296635 ], [ 2.06405752993472, 47.116686875332597 ], [ 2.06379859082775, 47.116692946134698 ], [ 2.06332806511291, 47.116679935064099 ], [ 2.06305091025739, 47.116687567379003 ], [ 2.06283054181139, 47.116695668143898 ], [ 2.06252009866914, 47.116707702378797 ], [ 2.06241500140146, 47.116711613469199 ], [ 2.06225978634926, 47.116717630186599 ], [ 2.06209508544518, 47.116723029559502 ], [ 2.06193352699196, 47.116728994403502 ], [ 2.06180323062132, 47.116734051122698 ], [ 2.06156730083804, 47.116742743557097 ], [ 2.06136734119848, 47.116752078552302 ], [ 2.06140199091628, 47.116850517742201 ], [ 2.06146737057869, 47.117045284424897 ], [ 2.06153159180173, 47.117230857911899 ], [ 2.06159555463144, 47.117423722222398 ], [ 2.06166652657715, 47.117637522845001 ], [ 2.06169478267935, 47.117717641600002 ], [ 2.06171454695561, 47.117980222797797 ], [ 2.06172263811338, 47.118097336091303 ], [ 2.06157023293364, 47.118092489273401 ], [ 2.06155239629369, 47.1182078525975 ], [ 2.061546380833, 47.118265472273301 ], [ 2.06153830381224, 47.118358162506503 ], [ 2.06153464818234, 47.118430999511403 ], [ 2.06151935432765, 47.118484402218201 ], [ 2.06151027201011, 47.118528770620998 ], [ 2.06148009468353, 47.118662752412 ], [ 2.06146192392586, 47.118745015521 ], [ 2.06142478667177, 47.118908265751202 ], [ 2.0613447653047, 47.119261757518601 ], [ 2.06159250143104, 47.119257428972098 ], [ 2.06197166185553, 47.119250276141003 ], [ 2.06225590793003, 47.119245224823501 ], [ 2.06254493168858, 47.119238491828597 ], [ 2.06269211517169, 47.119254810704298 ], [ 2.06279694515458, 47.119266554526199 ], [ 2.06296893967236, 47.119297290847399 ], [ 2.06311787824655, 47.119326480622803 ], [ 2.06313423504088, 47.119326433027602 ], [ 2.06314834540485, 47.119318272945499 ], [ 2.06332287867576, 47.119127809367598 ], [ 2.06347113227875, 47.118970950507602 ], [ 2.06359498131187, 47.1188377355911 ], [ 2.06365342354333, 47.118774156637301 ], [ 2.06370554218758, 47.118717720394002 ], [ 2.06387675014601, 47.118529389933499 ], [ 2.06392605725696, 47.118476082117802 ], [ 2.0640675531942, 47.118320788458099 ], [ 2.06413336263965, 47.118249894869699 ], [ 2.06418215890819, 47.118195592407702 ], [ 2.06429685846241, 47.118072557880602 ], [ 2.06438740647192, 47.117974610174997 ], [ 2.06451918263423, 47.117832013534702 ], [ 2.0646210061702, 47.117729564965899 ], [ 2.06478171134094, 47.117576046418499 ], [ 2.06492887184793, 47.117436085714701 ], [ 2.06505379761148, 47.1173240275319 ], [ 2.06508736456499, 47.117295955311 ], [ 2.06518886627308, 47.117218785927598 ], [ 2.06526854837524, 47.117161590332202 ], [ 2.06543359244487, 47.117053538430298 ], [ 2.0655945486355, 47.116961371750001 ], [ 2.06572195369233, 47.116894846399497 ], [ 2.0659212332929, 47.116803718103597 ], [ 2.06618838193729, 47.116682380888001 ], [ 2.06626173826574, 47.116647615693601 ] ] ] ] } },
{ "type": "Feature", "properties": { "Name": null, "id": "" }, "geometry": { "type": "MultiPolygon", "coordinates": [ [ [ [ 2.17776222715001, 47.090922741285503 ], [ 2.17775378743228, 47.090775922494103 ], [ 2.17774714259493, 47.0906756651028 ], [ 2.17774129196108, 47.090384987076902 ], [ 2.17772319241458, 47.089808267303397 ], [ 2.17762801633769, 47.089531359595803 ], [ 2.17755129651919, 47.089358214632703 ], [ 2.17751947459163, 47.089301085428701 ], [ 2.17742163803779, 47.089077730048999 ], [ 2.17715632241332, 47.088486825641802 ], [ 2.17705189426429, 47.088255049586699 ], [ 2.17706318692788, 47.088145646019697 ], [ 2.17718915870514, 47.087743000634099 ], [ 2.17741248604384, 47.087024480655003 ], [ 2.17733020244235, 47.087026236075502 ], [ 2.17459337110326, 47.087082988410998 ], [ 2.17440550941553, 47.087083987885698 ], [ 2.17400013701665, 47.087093877339399 ], [ 2.1738904634108, 47.087093723919402 ], [ 2.17262524098716, 47.087127713057299 ], [ 2.17249647713896, 47.088517760869799 ], [ 2.17249959343338, 47.088563566034203 ], [ 2.17097746168311, 47.088336979675603 ], [ 2.17039541981568, 47.088253482468403 ], [ 2.17037118447717, 47.089520388048101 ], [ 2.17056201552359, 47.089558312002303 ], [ 2.17083551680485, 47.089612494879901 ], [ 2.17120660592723, 47.0896816024541 ], [ 2.17144741056466, 47.089770393466502 ], [ 2.17175822048232, 47.089884715563002 ], [ 2.17204930941213, 47.0900214046165 ], [ 2.1723551326929, 47.090117231957997 ], [ 2.17243819386006, 47.090133852983897 ], [ 2.1727229890944, 47.090191173422802 ], [ 2.17283476549537, 47.0902093501766 ], [ 2.17311400251399, 47.0902767139237 ], [ 2.17322312431, 47.090356275949802 ], [ 2.17334560683807, 47.090467265971 ], [ 2.17345509161134, 47.090531794331802 ], [ 2.17374331596189, 47.090666657831797 ], [ 2.17417485230287, 47.090740599529902 ], [ 2.17505631227661, 47.090901844569203 ], [ 2.1760279492877, 47.091097669161897 ], [ 2.17629509418748, 47.091145941354299 ], [ 2.1764483757012, 47.091165760827899 ], [ 2.1765214341317, 47.091172853854701 ], [ 2.17701903151298, 47.091237801594197 ], [ 2.17775409630372, 47.091352245429199 ], [ 2.17775056332522, 47.091056541937903 ], [ 2.17776222715001, 47.090922741285503 ] ], [ [ 2.17249959343338, 47.088563566034203 ], [ 2.17281381136541, 47.0886103381577 ], [ 2.17249959653464, 47.088563611618198 ], [ 2.17249959343338, 47.088563566034203 ] ] ], [ [ [ 2.17674275006602, 47.092176531128899 ], [ 2.1766577373649, 47.092157918549098 ], [ 2.17640951455134, 47.092096096566401 ], [ 2.17636576565065, 47.092086151056698 ], [ 2.17602951453558, 47.092004703509097 ], [ 2.17610494370699, 47.091813554324801 ], [ 2.17616050630668, 47.091671513238097 ], [ 2.17617075168497, 47.0916480868351 ], [ 2.17618499308769, 47.091613344362798 ], [ 2.17631347271609, 47.091289139591801 ], [ 2.1760058400051, 47.091233195937697 ], [ 2.17568920116882, 47.0911541380137 ], [ 2.17540469161663, 47.091094846203603 ], [ 2.17510086889537, 47.091031274230502 ], [ 2.17452224966017, 47.090911357935497 ], [ 2.17444012728846, 47.090893574658999 ], [ 2.17428492706637, 47.090861403861801 ], [ 2.17404285675242, 47.090811595450702 ], [ 2.17382051386057, 47.090764898695802 ], [ 2.17373300401688, 47.090745995980001 ], [ 2.17357633810434, 47.090714894182099 ], [ 2.17343449928404, 47.090679756515598 ], [ 2.17327432643904, 47.090636654429296 ], [ 2.173231550322, 47.0906235634083 ], [ 2.17314351918815, 47.090587099471598 ], [ 2.17300299374873, 47.090517937009501 ], [ 2.17291050062354, 47.090462983568798 ], [ 2.1727786805416, 47.090384969527797 ], [ 2.172705887616, 47.0903434822214 ], [ 2.17262653639725, 47.090308430535103 ], [ 2.17254607550441, 47.090276972296401 ], [ 2.17249638270728, 47.090259329687399 ], [ 2.17201675493843, 47.090132546186098 ], [ 2.17174313645701, 47.090059997925799 ], [ 2.17143261019558, 47.0899786310693 ], [ 2.17115788341872, 47.089909674912299 ], [ 2.17065620187024, 47.089785788824997 ], [ 2.17049808892012, 47.089746209031802 ], [ 2.17053779527819, 47.089607388023403 ], [ 2.17027404182779, 47.089562278017397 ], [ 2.17001116856051, 47.089519964846701 ], [ 2.1697706300861, 47.089456923072902 ], [ 2.16952762942273, 47.089399715459201 ], [ 2.16939001905101, 47.089381439915101 ], [ 2.1692870397017, 47.089382860872199 ], [ 2.16915551385792, 47.089397491982197 ], [ 2.16905677894955, 47.089422892867702 ], [ 2.1688331043511, 47.089497455623203 ], [ 2.1687059126388, 47.089530214660698 ], [ 2.16841903484001, 47.0895656966076 ], [ 2.1682305177213, 47.089574424509699 ], [ 2.16804249471866, 47.089568209649599 ], [ 2.16770297164669, 47.089521197936598 ], [ 2.16759347079317, 47.089518068626901 ], [ 2.16749987490639, 47.089517934904102 ], [ 2.16737712183934, 47.089519301807499 ], [ 2.16717978625335, 47.089510047277301 ], [ 2.16696138731317, 47.089490376507896 ], [ 2.16671590315091, 47.0894660983299 ], [ 2.16656913480874, 47.089443341639097 ], [ 2.16649918826352, 47.089431312735599 ], [ 2.16638297988648, 47.089410126671702 ], [ 2.1662676116019, 47.089377241837802 ], [ 2.16606377048527, 47.0893454294214 ], [ 2.16592583282146, 47.089322825643599 ], [ 2.16579022473441, 47.089303029633598 ], [ 2.16550119237344, 47.089256195669499 ], [ 2.16534115661828, 47.089230460481701 ], [ 2.16520600852075, 47.089206525435799 ], [ 2.16470015518692, 47.089123459668102 ], [ 2.1645251710642, 47.089135160461304 ], [ 2.16438741449167, 47.089134975177402 ], [ 2.16411152995393, 47.089082020248902 ], [ 2.16339955219028, 47.090627294590398 ], [ 2.16378023457601, 47.090774736893003 ], [ 2.16395544314684, 47.0908424507641 ], [ 2.16437481788648, 47.091002865974602 ], [ 2.16451626319636, 47.091054578606098 ], [ 2.16467685024516, 47.091121645483199 ], [ 2.16493535670747, 47.0912163402582 ], [ 2.1650922496815, 47.091283649973903 ], [ 2.16518208154081, 47.091322744114898 ], [ 2.16526080098146, 47.091355815564498 ], [ 2.16540955633452, 47.091429368619004 ], [ 2.16554103241155, 47.091486500215098 ], [ 2.16574003909031, 47.091584185069003 ], [ 2.16595899382119, 47.091687775792998 ], [ 2.16617239949989, 47.091783672998503 ], [ 2.16637152532203, 47.091873794561202 ], [ 2.16660568167049, 47.091983436027 ], [ 2.16680489208955, 47.092076708701399 ], [ 2.16738549253419, 47.092392506458403 ], [ 2.16784705641473, 47.092656754179202 ], [ 2.16822958778603, 47.092874062861704 ], [ 2.16854681352898, 47.093060378384003 ], [ 2.16861939879702, 47.093098265329303 ], [ 2.16860248637868, 47.093169092154703 ], [ 2.1685733224855, 47.093290611228099 ], [ 2.16898231599786, 47.093459488126797 ], [ 2.16905464536605, 47.093488369340697 ], [ 2.16923193000583, 47.093559241223197 ], [ 2.16933026915112, 47.09359425153 ], [ 2.1693298445578, 47.093596139236901 ], [ 2.16940706563247, 47.093624155010303 ], [ 2.1694077621904, 47.0936217290405 ], [ 2.16941103975146, 47.093622923054902 ], [ 2.16947580617598, 47.093338244075703 ], [ 2.16948858257132, 47.093279092114599 ], [ 2.16953538265563, 47.093082339304502 ], [ 2.16955924389007, 47.092979689486803 ], [ 2.16985977672779, 47.093034608861799 ], [ 2.17009471516208, 47.093077081833798 ], [ 2.17009510924314, 47.0930771746986 ], [ 2.17054316009438, 47.093158361176002 ], [ 2.17063531421261, 47.093175498863701 ], [ 2.17079530052133, 47.093205367889702 ], [ 2.17105995485114, 47.093253094022799 ], [ 2.17106809806295, 47.093203632574102 ], [ 2.17110637749717, 47.092994753242003 ], [ 2.17117274799167, 47.0926136561826 ], [ 2.17144556339547, 47.092670623645098 ], [ 2.17151233355455, 47.092683797211897 ], [ 2.17169748615434, 47.092723119050298 ], [ 2.1720425833305, 47.092795008680902 ], [ 2.1722803174946, 47.092844339971599 ], [ 2.17233208665316, 47.092855694981097 ], [ 2.17242002805367, 47.092872440945897 ], [ 2.17246954662782, 47.092884410036199 ], [ 2.17259557554529, 47.0929106121486 ], [ 2.17293267401837, 47.092979830813299 ], [ 2.17308602573822, 47.093012530359502 ], [ 2.17324478511354, 47.093045088297501 ], [ 2.17325489953437, 47.093047501559901 ], [ 2.17353415379018, 47.093106130744602 ], [ 2.1734100761555, 47.093356804409297 ], [ 2.17339784638836, 47.093380576521497 ], [ 2.17373273895814, 47.093456349672401 ], [ 2.17379794946038, 47.093468160218301 ], [ 2.17402532987038, 47.0935051689913 ], [ 2.17404743068155, 47.093508298064698 ], [ 2.17400093832248, 47.093591339273701 ], [ 2.17388032793242, 47.093796479943997 ], [ 2.17381125351634, 47.093916364515401 ], [ 2.17399443353319, 47.093972955432797 ], [ 2.17403000765178, 47.093983023498303 ], [ 2.17430739569986, 47.0940691884377 ], [ 2.17440476579446, 47.094098875348202 ], [ 2.17453573156118, 47.094138705993899 ], [ 2.1745780013984, 47.094150622411902 ], [ 2.17461487332236, 47.094162050100103 ], [ 2.17464056494418, 47.094171777318202 ], [ 2.1747071916907, 47.094194491804899 ], [ 2.17494629198693, 47.094284343470598 ], [ 2.17515591701322, 47.0943274357601 ], [ 2.17535261935041, 47.094370705606003 ], [ 2.17538126505743, 47.094376942323699 ], [ 2.17541795487862, 47.094383056331601 ], [ 2.17543154932693, 47.0943131052979 ], [ 2.17547669426417, 47.094050792306398 ], [ 2.17582046964784, 47.094097901212002 ], [ 2.17586796660621, 47.094000730815402 ], [ 2.17591082864954, 47.093913521355198 ], [ 2.17593711272846, 47.093858606674601 ], [ 2.17595744378646, 47.093813643553098 ], [ 2.17611642797515, 47.0934865953895 ], [ 2.17624086011804, 47.093229168745601 ], [ 2.17642119705005, 47.092850411514497 ], [ 2.17646287913985, 47.092762653206201 ], [ 2.17648794133215, 47.092709980583003 ], [ 2.17648821459881, 47.092709352277303 ], [ 2.1765303935105, 47.0926235782728 ], [ 2.1765322994967, 47.092619630263499 ], [ 2.17653243544216, 47.092619361123703 ], [ 2.17665199297362, 47.092370092546098 ], [ 2.17665212891786, 47.092369823406202 ], [ 2.17671120968248, 47.092247705104 ], [ 2.17671379536022, 47.092242411390899 ], [ 2.17674275006602, 47.092176531128899 ] ], [ [ 2.16951945253946, 47.092824091421498 ], [ 2.16949413848512, 47.092926910872897 ], [ 2.16912610801955, 47.092803438205102 ], [ 2.16872160503345, 47.092668537641998 ], [ 2.16881996313147, 47.092514022542602 ], [ 2.16891383624112, 47.092556384085803 ], [ 2.16928764421452, 47.092724016654799 ], [ 2.16951945253946, 47.092824091421498 ] ] ], [ [ [ 2.17101433397712, 47.100800119566898 ], [ 2.17066363063923, 47.100617983366497 ], [ 2.17045121683019, 47.100506255865398 ], [ 2.17031454847029, 47.100459176988203 ], [ 2.17001157045309, 47.1003548120094 ], [ 2.1698321684118, 47.100291489469299 ], [ 2.16970696564608, 47.1002448523206 ], [ 2.16961991212589, 47.100212534588998 ], [ 2.16940392187667, 47.100127790196296 ], [ 2.16924086243711, 47.1000650342909 ], [ 2.16921464717315, 47.100054942000703 ], [ 2.1689670988076, 47.100015978368297 ], [ 2.16896955932933, 47.100010323791899 ], [ 2.16845396626944, 47.099927745751302 ], [ 2.16830921408928, 47.099926254529599 ], [ 2.16821464264082, 47.099919811987498 ], [ 2.16804143842191, 47.099907941706903 ], [ 2.16798843642327, 47.099907740425699 ], [ 2.16778620118217, 47.099905924962698 ], [ 2.16774862433152, 47.099905834586004 ], [ 2.16749039567721, 47.099824293966101 ], [ 2.1668244762893, 47.099811124345898 ], [ 2.16647982109122, 47.099776407607202 ], [ 2.16643808952341, 47.099772145203502 ], [ 2.16621917065951, 47.099749318395801 ], [ 2.16599643284563, 47.099726193520098 ], [ 2.16589085723769, 47.099715167908201 ], [ 2.16591202610819, 47.099744582279499 ], [ 2.16595054568257, 47.099760436338499 ], [ 2.16512603338419, 47.100179905945502 ], [ 2.1649861007342, 47.100173673462002 ], [ 2.16473824317428, 47.101457055718598 ], [ 2.16911450723808, 47.102488971326999 ], [ 2.16929116039889, 47.1021577383028 ], [ 2.16944321138973, 47.101882690697998 ], [ 2.16953685290296, 47.101710044309499 ], [ 2.16963713436211, 47.101525740863799 ], [ 2.16981752941173, 47.1015676422575 ], [ 2.17023890469318, 47.1016645739914 ], [ 2.17051362898331, 47.101728939782603 ], [ 2.1705653985795, 47.101672228430303 ], [ 2.17070521384535, 47.101523501676702 ], [ 2.17079002787276, 47.101452981614003 ], [ 2.17085520086874, 47.101407800790597 ], [ 2.17069438105173, 47.101347056568798 ], [ 2.17078408558032, 47.101153479910799 ], [ 2.17084508733582, 47.101019403831401 ], [ 2.17090870386723, 47.100861036792402 ], [ 2.17097576915949, 47.100889968943498 ], [ 2.17101433397712, 47.100800119566898 ] ], [ [ 2.17069438105173, 47.101347056568798 ], [ 2.1706494749801, 47.101443960457402 ], [ 2.17069434672606, 47.101347043603397 ], [ 2.17069438105173, 47.101347056568798 ] ] ], [ [ [ 2.17155580087311, 47.103172751289897 ], [ 2.17152835065087, 47.103011210586203 ], [ 2.17118677619936, 47.1029032410555 ], [ 2.17103442804352, 47.102854970306197 ], [ 2.17060544786369, 47.102720262059997 ], [ 2.17052186099868, 47.102693732220999 ], [ 2.17009225879965, 47.102556766688799 ], [ 2.17008230823266, 47.102569300284202 ], [ 2.16920178403863, 47.103670777646002 ], [ 2.16813942365021, 47.105000261256798 ], [ 2.16947111192682, 47.105686721161 ], [ 2.16959037821692, 47.105614468658999 ], [ 2.17016605816346, 47.105703594669301 ], [ 2.17025549378707, 47.105718822174701 ], [ 2.17069756886608, 47.105783847677102 ], [ 2.17074091941996, 47.105348836069297 ], [ 2.17079747051671, 47.104784267637903 ], [ 2.17085539064531, 47.104602180571703 ], [ 2.17106054995485, 47.104200561505898 ], [ 2.17116505960536, 47.103981353352196 ], [ 2.17126143485512, 47.103810886159501 ], [ 2.1714175177693, 47.103564856557099 ], [ 2.17148277187654, 47.103377239456002 ], [ 2.17155580087311, 47.103172751289897 ] ] ], [ [ [ 2.16738402840133, 47.097516447425299 ], [ 2.16666810221103, 47.097396584095797 ], [ 2.16629112023233, 47.097338854563198 ], [ 2.16579285610353, 47.097254498556303 ], [ 2.16542894276888, 47.097195870085002 ], [ 2.16514131159794, 47.097149495947498 ], [ 2.16491821520943, 47.0971161922348 ], [ 2.16465676365457, 47.097073607397398 ], [ 2.1640191851348, 47.096969509648197 ], [ 2.16382508613735, 47.096936863642497 ], [ 2.16362889063967, 47.096903391819701 ], [ 2.16333850389768, 47.096856362986003 ], [ 2.16309589832875, 47.0968144511804 ], [ 2.16298779300988, 47.0967969219559 ], [ 2.16301573011975, 47.098683468693601 ], [ 2.16312820510916, 47.098674558899901 ], [ 2.16339999297349, 47.0986547369383 ], [ 2.16356773492574, 47.098644425850097 ], [ 2.16369993727409, 47.098613239243399 ], [ 2.16387438705436, 47.098561469641297 ], [ 2.16404338379368, 47.098512721577499 ], [ 2.16467768907135, 47.098327149644199 ], [ 2.16495637617605, 47.098244798878902 ], [ 2.16518712646224, 47.098175786831099 ], [ 2.1654919890596, 47.098088851853298 ], [ 2.16579595986973, 47.097999838815099 ], [ 2.16630341073828, 47.097848636851602 ], [ 2.16738402840133, 47.097516447425299 ] ] ], [ [ [ 2.17105872189851, 47.094756957063602 ], [ 2.1709646916931, 47.0947416070114 ], [ 2.1708296300428, 47.094719570078603 ], [ 2.17067602255136, 47.094694698883202 ], [ 2.1705100637099, 47.094667127827499 ], [ 2.17035469656042, 47.095073696165997 ], [ 2.17019442051763, 47.095045175048803 ], [ 2.17004333096012, 47.095019420730999 ], [ 2.17002229269158, 47.095015758307902 ], [ 2.1697494559809, 47.094968061165403 ], [ 2.16962204021177, 47.094946077727101 ], [ 2.16945965986879, 47.094917270363801 ], [ 2.16927149577501, 47.094884766115399 ], [ 2.16919588967124, 47.094871617825703 ], [ 2.16892990107083, 47.094824508159903 ], [ 2.16899853356085, 47.094639977405201 ], [ 2.16897858896702, 47.094633801641599 ], [ 2.16765988820698, 47.094242923268297 ], [ 2.16738886921791, 47.094163270779298 ], [ 2.16783625328128, 47.093066340719197 ], [ 2.16762523934624, 47.092943092927896 ], [ 2.16742505914413, 47.092826945571801 ], [ 2.16693888074473, 47.092543161055701 ], [ 2.16684518307559, 47.092489544645098 ], [ 2.16649214812014, 47.092257948125699 ], [ 2.16628782408517, 47.092111696788301 ], [ 2.16581230025645, 47.092256376250603 ], [ 2.16550931192351, 47.092352149080298 ], [ 2.16503479013362, 47.092414809657797 ], [ 2.16475392067118, 47.092452756970303 ], [ 2.16432829785587, 47.092456524112997 ], [ 2.16412186180231, 47.092480872194699 ], [ 2.16376578405848, 47.092607769302198 ], [ 2.16375093076365, 47.092613424184698 ], [ 2.16358807718473, 47.092675271476402 ], [ 2.16346180871218, 47.092707311175097 ], [ 2.16345835955821, 47.092717190197298 ], [ 2.162927063442, 47.0942287432282 ], [ 2.16318060341047, 47.094278927937999 ], [ 2.1634165016298, 47.094327543862498 ], [ 2.16365022766436, 47.094371731819599 ], [ 2.1636243087619, 47.094478777337898 ], [ 2.16414579763103, 47.094661990445204 ], [ 2.16435325949247, 47.094733628168598 ], [ 2.16452740679764, 47.094794130423601 ], [ 2.16458699232575, 47.0948115777894 ], [ 2.16467953316556, 47.094846370074102 ], [ 2.16484254287016, 47.094902469649703 ], [ 2.16513733207433, 47.095005168887901 ], [ 2.16548439173381, 47.095121029763597 ], [ 2.16546786500802, 47.095183665616403 ], [ 2.16538095909943, 47.095525805599202 ], [ 2.16536305894853, 47.095600496346997 ], [ 2.16534520389595, 47.095663752837503 ], [ 2.16533492016582, 47.095723372502498 ], [ 2.16528376939275, 47.095910458291598 ], [ 2.16664364556307, 47.096197938650498 ], [ 2.16651406789672, 47.096520414019302 ], [ 2.16625053508307, 47.097226467118503 ], [ 2.16690246983048, 47.097332006479597 ], [ 2.16773370478229, 47.097464132961399 ], [ 2.16783067665372, 47.097477075799098 ], [ 2.16791129156183, 47.097490531098401 ], [ 2.16791940312886, 47.097468980840397 ], [ 2.16808433833911, 47.097486464142499 ], [ 2.16829944656484, 47.0974993561329 ], [ 2.16846420307553, 47.097502791997101 ], [ 2.16868829836053, 47.097497200486998 ], [ 2.16889689697743, 47.097487625611599 ], [ 2.16907492276551, 47.0974770203375 ], [ 2.16926114709034, 47.097464853046503 ], [ 2.16942977922268, 47.097447787184798 ], [ 2.16953979982603, 47.097435342144799 ], [ 2.16979916971702, 47.0973908361943 ], [ 2.16995500379939, 47.097365754515799 ], [ 2.1700565147468, 47.097109520596902 ], [ 2.17011095540451, 47.096973236776201 ], [ 2.17015172910199, 47.096868277386598 ], [ 2.17017712932182, 47.096802733433798 ], [ 2.17020882230711, 47.0967223787016 ], [ 2.17030529519045, 47.096476372467599 ], [ 2.1703656415235, 47.096324644696502 ], [ 2.17037798826077, 47.096293400769 ], [ 2.17042076884269, 47.096186474875203 ], [ 2.17045037978346, 47.096112857824501 ], [ 2.17050302571881, 47.095981692960301 ], [ 2.17053959532819, 47.095987087358601 ], [ 2.17060532826645, 47.095819371682403 ], [ 2.17065432970281, 47.095693672792699 ], [ 2.17068474348602, 47.095619251108197 ], [ 2.17086532453243, 47.095167665151997 ], [ 2.17090343679577, 47.095175591511001 ], [ 2.17093234745461, 47.095181741193699 ], [ 2.17105872189851, 47.094756957063602 ] ] ], [ [ [ 2.17223691915182, 47.099776797206403 ], [ 2.17213733329929, 47.099744841834998 ], [ 2.17192544137538, 47.099676427982601 ], [ 2.17136085691392, 47.099495643076203 ], [ 2.17083208927017, 47.099326726841902 ], [ 2.17089213617285, 47.099211731424703 ], [ 2.17090639714434, 47.099184642845699 ], [ 2.17091523926657, 47.099166969178 ], [ 2.17099485858744, 47.099013848790698 ], [ 2.17099934623121, 47.099004967412696 ], [ 2.17103311059904, 47.0988413441777 ], [ 2.17104494886065, 47.098791729239899 ], [ 2.17108814178611, 47.0986065649587 ], [ 2.17110491701566, 47.098544560450001 ], [ 2.17112127870908, 47.098483723439998 ], [ 2.17112813168182, 47.098458202371297 ], [ 2.17114420059044, 47.098399254011603 ], [ 2.17116487465308, 47.098323772053803 ], [ 2.17119406496604, 47.0982432190876 ], [ 2.17122333582714, 47.098165998017997 ], [ 2.17125123706223, 47.098092098451303 ], [ 2.17125536229272, 47.098081053602101 ], [ 2.17128219116454, 47.098016870218203 ], [ 2.17134446832427, 47.097868127049203 ], [ 2.1712091921295, 47.097850951042901 ], [ 2.17121653097153, 47.097579365289803 ], [ 2.17121992029796, 47.097307391058301 ], [ 2.17101752203439, 47.097325387911802 ], [ 2.17074795328402, 47.097355867873802 ], [ 2.17054176226879, 47.097380409319001 ], [ 2.17019322854505, 47.097435801674798 ], [ 2.16988513340204, 47.097485090756997 ], [ 2.16985207813817, 47.097491155957002 ], [ 2.16953024548865, 47.097550609565097 ], [ 2.16919969010349, 47.097577136488603 ], [ 2.16909841451755, 47.0975867628988 ], [ 2.16891699401039, 47.097595182948702 ], [ 2.16874638377188, 47.097603680430502 ], [ 2.16849548980573, 47.097611420278703 ], [ 2.16833310457087, 47.097608091553198 ], [ 2.16817921084715, 47.0976013122852 ], [ 2.16797655568632, 47.097584548101601 ], [ 2.1678943266696, 47.097573152060598 ], [ 2.16756116053048, 47.097521054122097 ], [ 2.16733062692153, 47.097593493808297 ], [ 2.16724450850099, 47.097620514653102 ], [ 2.16686547239694, 47.097738252323502 ], [ 2.16668183841001, 47.097795992633699 ], [ 2.16644533651976, 47.097870548415301 ], [ 2.16619771119211, 47.097948174763602 ], [ 2.16598984011462, 47.098012852045201 ], [ 2.16587973022603, 47.098047982139398 ], [ 2.16583486991586, 47.098331271806401 ], [ 2.16575520291376, 47.098835978818897 ], [ 2.16566500010497, 47.099407956552099 ], [ 2.16574614561103, 47.099429880540299 ], [ 2.16578450363027, 47.0995243348546 ], [ 2.16580376020714, 47.099575073965902 ], [ 2.16584209984769, 47.099679252001202 ], [ 2.16585059317414, 47.099701282034502 ], [ 2.16589206792754, 47.099705092618898 ], [ 2.16612228558934, 47.099730522535502 ], [ 2.16633750311559, 47.099753953093902 ], [ 2.16650415731118, 47.0997715410182 ], [ 2.16663948413506, 47.099785661637398 ], [ 2.16682391447699, 47.099804817784701 ], [ 2.16695205323682, 47.099806281217901 ], [ 2.16714329958209, 47.099810990179002 ], [ 2.1674248637569, 47.099815808948399 ], [ 2.16749640347778, 47.099819475281599 ], [ 2.16765055227732, 47.099869924650903 ], [ 2.16774961946314, 47.099901159882201 ], [ 2.16804060584295, 47.099902083384201 ], [ 2.16830402802013, 47.0999205449681 ], [ 2.16831550772446, 47.0999199972849 ], [ 2.16845564274972, 47.0999216353676 ], [ 2.16876250258143, 47.099970570285798 ], [ 2.16889534498954, 47.099991963302301 ], [ 2.16903988372449, 47.100015871186301 ], [ 2.16921716593154, 47.100045506331298 ], [ 2.16925893406038, 47.100055980465903 ], [ 2.16953888567078, 47.100165584231704 ], [ 2.16970940239595, 47.100232174762098 ], [ 2.16971870894631, 47.100235752984503 ], [ 2.16998402782825, 47.100328143773503 ], [ 2.17028383316563, 47.100433026276903 ], [ 2.17046049110785, 47.100494797810903 ], [ 2.17064793659165, 47.100592480702602 ], [ 2.17095059320397, 47.100752213713598 ], [ 2.17102190255685, 47.100788109025999 ], [ 2.17118250869609, 47.100856336974097 ], [ 2.17126409421149, 47.100781291627598 ], [ 2.17122027581071, 47.1007497351506 ], [ 2.17140993890379, 47.100651784847102 ], [ 2.17158746617212, 47.100494053543102 ], [ 2.17170804579055, 47.100386874336401 ], [ 2.17180049846226, 47.1004283227713 ], [ 2.17192970687965, 47.100274386507699 ], [ 2.17205449473615, 47.100124920236503 ], [ 2.17212055095627, 47.099996281807002 ], [ 2.17223691915182, 47.099776797206403 ] ] ], [ [ [ 2.16682701829546, 47.117974746824601 ], [ 2.16662146071687, 47.117918974735097 ], [ 2.16664354189125, 47.117855748951698 ], [ 2.16668062731686, 47.117717811898899 ], [ 2.16673242926305, 47.117719985784497 ], [ 2.16675103644459, 47.117488999124802 ], [ 2.1667511258479, 47.117474684150302 ], [ 2.16674743888004, 47.1173633739119 ], [ 2.16673786915327, 47.117274260021098 ], [ 2.16671754742025, 47.117121323644 ], [ 2.16668811872053, 47.116943201781901 ], [ 2.16663480749382, 47.116492730925003 ], [ 2.16661280914823, 47.116345904808298 ], [ 2.16646089285372, 47.116344269946197 ], [ 2.16636617439087, 47.115774113516302 ], [ 2.1655328922028, 47.115636923321098 ], [ 2.16499691420509, 47.115549772563099 ], [ 2.16483971865952, 47.115522977560801 ], [ 2.16429707582291, 47.115431993928901 ], [ 2.16428624089062, 47.115696979945703 ], [ 2.16426100987594, 47.116456606487198 ], [ 2.16426191828543, 47.116483083458199 ], [ 2.16426201805994, 47.1164851549932 ], [ 2.16425602321843, 47.1167526968717 ], [ 2.16423042314198, 47.117612619855997 ], [ 2.1642169524344, 47.118073053368597 ], [ 2.16421379597611, 47.118149020394704 ], [ 2.16419596139449, 47.118661192602502 ], [ 2.16418953115543, 47.118803672063599 ], [ 2.16416420862581, 47.119577522675598 ], [ 2.16415880872174, 47.119747110158301 ], [ 2.1641486557821, 47.120070083415598 ], [ 2.16412896202165, 47.120634012114301 ], [ 2.16411114128072, 47.121238740200099 ], [ 2.16409052379436, 47.121751612011401 ], [ 2.1640720024863, 47.122231365915397 ], [ 2.16406170823671, 47.122367784911198 ], [ 2.16402711683292, 47.122590912293497 ], [ 2.16397977989533, 47.122768299694698 ], [ 2.16394543542249, 47.122864929360901 ], [ 2.1639235004781, 47.122926895117402 ], [ 2.16454181114725, 47.123153478984101 ], [ 2.16458600511288, 47.123093654640797 ], [ 2.1649322901262, 47.122624100364902 ], [ 2.16538507622823, 47.122006035078002 ], [ 2.16568909762743, 47.121581641304999 ], [ 2.16551893072754, 47.121513967904797 ], [ 2.16569277105934, 47.1213699049597 ], [ 2.16589948103805, 47.121215634676297 ], [ 2.16647815100077, 47.1207977205639 ], [ 2.16641845686593, 47.120444262247702 ], [ 2.16626985584054, 47.119562466396502 ], [ 2.16628101772335, 47.119531574710102 ], [ 2.1663005853517, 47.119477424468002 ], [ 2.1664141430934, 47.119128365742597 ], [ 2.16646542944223, 47.118984858923199 ], [ 2.16650527371406, 47.118898892218603 ], [ 2.16656883639859, 47.118746200166299 ], [ 2.16660104357811, 47.118625244701398 ], [ 2.16663599790121, 47.118539872960199 ], [ 2.1666671410616, 47.118530373512797 ], [ 2.16671764025424, 47.118531547625103 ], [ 2.16672474627495, 47.1184728957966 ], [ 2.16678060045449, 47.118170329323803 ], [ 2.16679016489347, 47.118003832882401 ], [ 2.16682701829546, 47.117974746824601 ] ] ], [ [ [ 2.16494426243757, 47.1246693354313 ], [ 2.16471608652767, 47.124573421394999 ], [ 2.16393970186101, 47.1242634042828 ], [ 2.16321890164467, 47.123959276076498 ], [ 2.16310130799941, 47.124082043719298 ], [ 2.16286177908952, 47.124301256956898 ], [ 2.16279692588722, 47.124357599829601 ], [ 2.16234762389598, 47.124756804596103 ], [ 2.16219732025227, 47.124895990968099 ], [ 2.16338156822262, 47.124884303276403 ], [ 2.1647352029262, 47.124855009225897 ], [ 2.1648025628318, 47.124790040012201 ], [ 2.16494426243757, 47.1246693354313 ] ] ], [ [ [ 2.1674856899972, 47.1113583746438 ], [ 2.16747413099366, 47.111269966589099 ], [ 2.16745416879209, 47.111230387333897 ], [ 2.16682390491287, 47.111008773051303 ], [ 2.16587291476591, 47.110684813098999 ], [ 2.16554535037905, 47.110572426731601 ], [ 2.16506351354804, 47.110407335419097 ], [ 2.16455749202064, 47.110237205449003 ], [ 2.16452516324146, 47.110408579757099 ], [ 2.16448613086149, 47.110706135508501 ], [ 2.16446564786964, 47.110938549434202 ], [ 2.16446254589161, 47.110968508870897 ], [ 2.16444193990103, 47.111208845013401 ], [ 2.16443840947231, 47.111385559319203 ], [ 2.16471333753759, 47.111448049085503 ], [ 2.16496674120987, 47.111512363573503 ], [ 2.1672242411632, 47.112045174086298 ], [ 2.16731443179684, 47.112063380370003 ], [ 2.16732765588592, 47.111924460753897 ], [ 2.16738894030658, 47.111756355471599 ], [ 2.1674522616384, 47.111550269822999 ], [ 2.1674856899972, 47.1113583746438 ] ] ] ] } },
{ "type": "Feature", "properties": { "Name": null, "id": "" }, "geometry": { "type": "MultiPolygon", "coordinates": [ [ [ [ 2.01956000233768, 47.044444004877498 ], [ 2.02017400107649, 47.042692002708201 ], [ 2.01804900449704, 47.042448002615401 ], [ 2.01746299540638, 47.044098001338298 ], [ 2.01956000233768, 47.044444004877498 ] ] ], [ [ [ 2.02228699840514, 47.055193001969997 ], [ 2.02273400583224, 47.0551069968825 ], [ 2.02129000371707, 47.053252003618297 ], [ 2.02095800485451, 47.0534339961727 ], [ 2.0185949939593, 47.0531329973456 ], [ 2.01820000032982, 47.052189000517501 ], [ 2.01987399788119, 47.050743001983399 ], [ 2.01727199818839, 47.049902996897302 ], [ 2.01576800037919, 47.050204997667599 ], [ 2.01485599362762, 47.050441996126999 ], [ 2.01378500008682, 47.051074001877197 ], [ 2.01283900632537, 47.051512004554901 ], [ 2.01263700718282, 47.051638998666199 ], [ 2.01216700122701, 47.051849994865101 ], [ 2.011996998826, 47.051881999745397 ], [ 2.01052799845658, 47.052119997982999 ], [ 2.01030199608125, 47.052168997391199 ], [ 2.01006299561131, 47.052217002594901 ], [ 2.0096150035995, 47.052335994747402 ], [ 2.00901400102149, 47.052560000348898 ], [ 2.00868899984902, 47.052004000597499 ], [ 2.00831699610229, 47.052001005987499 ], [ 2.00777299388911, 47.052050997938501 ], [ 2.00706899390981, 47.052194000690001 ], [ 2.00677999722709, 47.052296997718898 ], [ 2.00651100184797, 47.0524469955743 ], [ 2.00505199944608, 47.053118001387098 ], [ 2.00615399148355, 47.0548380020116 ], [ 2.00614099694252, 47.054972003942297 ], [ 2.00605399915079, 47.055065994994202 ], [ 2.00607500157448, 47.0552439945141 ], [ 2.00622400664066, 47.056036002266602 ], [ 2.00630499498023, 47.056541000391498 ], [ 2.00640700272788, 47.057156000116599 ], [ 2.00652999723009, 47.057193001478097 ], [ 2.0084619991661, 47.057051002713401 ], [ 2.00905200353013, 47.056998997689803 ], [ 2.0105009991835, 47.057130997630999 ], [ 2.01344399750766, 47.057385999048599 ], [ 2.01354300715547, 47.057340006017199 ], [ 2.01348000278047, 47.056027001799997 ], [ 2.01441499357244, 47.0560310018842 ], [ 2.01544200118689, 47.056010999776397 ], [ 2.01650899448558, 47.056043002448803 ], [ 2.01676300091972, 47.056038996705702 ], [ 2.01705899887635, 47.056002996568999 ], [ 2.01791100258247, 47.055822996474497 ], [ 2.01926900033036, 47.055955004432903 ], [ 2.01956799948422, 47.055897999209201 ], [ 2.01977600255175, 47.055871996052304 ], [ 2.0217560033166, 47.055336999777701 ], [ 2.02228699840514, 47.055193001969997 ] ] ], [ [ [ 2.03015499902084, 47.0633439955065 ], [ 2.03026199856928, 47.063299000739001 ], [ 2.03007599800416, 47.062886997619998 ], [ 2.0300540024569, 47.062778001053701 ], [ 2.0297529989773, 47.062276001473599 ], [ 2.02964699423301, 47.062234999007202 ], [ 2.02902799804644, 47.062223001227402 ], [ 2.02843599627385, 47.061218998495697 ], [ 2.02744000260338, 47.061100997086101 ], [ 2.02751399810635, 47.059956999818297 ], [ 2.02681700718081, 47.059941002043097 ], [ 2.02639699494735, 47.059888005262302 ], [ 2.02487100282486, 47.059908000994298 ], [ 2.02427399119004, 47.059986003962003 ], [ 2.02344700124784, 47.059990002136502 ], [ 2.02055699156869, 47.060463996419401 ], [ 2.01657599621413, 47.060489994980401 ], [ 2.0166400057313, 47.062040004182798 ], [ 2.01833300056082, 47.062031998093701 ], [ 2.01941099640587, 47.062030004591897 ], [ 2.02210900571552, 47.062066996575901 ], [ 2.02416799839305, 47.062085997249604 ], [ 2.02445600077598, 47.063325996074099 ], [ 2.02506599985883, 47.063347999675898 ], [ 2.02504499689869, 47.0637059971558 ], [ 2.03015499902084, 47.0633439955065 ] ] ] ] } },
{ "type": "Feature", "properties": { "Name": null, "id": "" }, "geometry": { "type": "MultiPolygon", "coordinates": [ [ [ [ 2.03218600216905, 47.067275998312297 ], [ 2.03223299768104, 47.067217002382797 ], [ 2.03188699349361, 47.066758004263001 ], [ 2.03155200385546, 47.066203998408902 ], [ 2.03142499106822, 47.065929999522098 ], [ 2.03140000267891, 47.065814999701701 ], [ 2.03131199527114, 47.0656459976083 ], [ 2.03116200143793, 47.0651520031209 ], [ 2.03112399815671, 47.064983996313501 ], [ 2.0310159998586, 47.064688997137601 ], [ 2.03064899766456, 47.064148999793403 ], [ 2.03027000872396, 47.063302003227697 ], [ 2.03015499902084, 47.0633439955065 ], [ 2.02503399611488, 47.063711000538298 ], [ 2.02490099616385, 47.065275996174996 ], [ 2.02498799763191, 47.0653340039933 ], [ 2.02696100094185, 47.065337002682597 ], [ 2.02693599474043, 47.0669770015312 ], [ 2.02701600196008, 47.067048994897199 ], [ 2.03028899413495, 47.067514004419102 ], [ 2.0312250037601, 47.067451003600603 ], [ 2.03218600216905, 47.067275998312297 ] ] ], [ [ [ 2.04801200195246, 47.0765899955585 ], [ 2.04809000031095, 47.076413001678098 ], [ 2.04806299122132, 47.076050996847101 ], [ 2.04795799641861, 47.0756569983063 ], [ 2.04789599673681, 47.075238998462197 ], [ 2.04796299565241, 47.075143002397198 ], [ 2.04792300608373, 47.074840000528702 ], [ 2.04734700645647, 47.073249995761003 ], [ 2.04729100380002, 47.073254000024001 ], [ 2.04703100309853, 47.072408998994597 ], [ 2.04676500845191, 47.072378002114903 ], [ 2.04647199647921, 47.072273994740002 ], [ 2.04557799649705, 47.072028995094797 ], [ 2.04436100147248, 47.071611001505602 ], [ 2.04317700627747, 47.071249001871401 ], [ 2.04289000383651, 47.0711420007271 ], [ 2.04154499964591, 47.0706510031021 ], [ 2.04111000021569, 47.070462995892598 ], [ 2.04085799755181, 47.070341000476702 ], [ 2.04014799817499, 47.069912996321399 ], [ 2.04011500115504, 47.0698869982606 ], [ 2.03872000488076, 47.069261997699698 ], [ 2.03714399920543, 47.069772001393297 ], [ 2.03790300732143, 47.071245004719998 ], [ 2.03826099112204, 47.072271001179999 ], [ 2.03835900164564, 47.072342001701699 ], [ 2.0416629919935, 47.073120996497799 ], [ 2.04376700192245, 47.073615996182397 ], [ 2.04376599408516, 47.073684002785001 ], [ 2.04287500501995, 47.074339003361999 ], [ 2.04330099222219, 47.074606999819302 ], [ 2.04398599932667, 47.075022999464402 ], [ 2.04466099383178, 47.075263004417899 ], [ 2.04478400174255, 47.0753059969405 ], [ 2.04523299176526, 47.075430997354196 ], [ 2.04601500607351, 47.075638005917199 ], [ 2.04573799845384, 47.076104998343801 ], [ 2.04789999652914, 47.0766259976131 ], [ 2.04801200195246, 47.0765899955585 ] ] ], [ [ [ 2.04177100770856, 47.081428999036198 ], [ 2.04183099883829, 47.080714998930397 ], [ 2.041759001316, 47.080641003013703 ], [ 2.04120900347144, 47.080528999689498 ], [ 2.04133600259617, 47.079992003137697 ], [ 2.04132799817839, 47.079636997342298 ], [ 2.04129900761815, 47.079580996259502 ], [ 2.04070399720447, 47.0794860034121 ], [ 2.04068399562829, 47.079392999047897 ], [ 2.04126600027836, 47.0787640042061 ], [ 2.04163899430653, 47.078508003560003 ], [ 2.04166199897669, 47.078414995766899 ], [ 2.04076800089758, 47.0769609987641 ], [ 2.03932500365809, 47.076107002998 ], [ 2.03857499554279, 47.075632999570701 ], [ 2.03761700223673, 47.075874000633398 ], [ 2.03721699974049, 47.075802996450697 ], [ 2.03694199524432, 47.075759998970597 ], [ 2.03387499988038, 47.0751889949576 ], [ 2.03379200055947, 47.0750429971473 ], [ 2.03464900023088, 47.073368996985401 ], [ 2.03471900091196, 47.073158000306996 ], [ 2.03495699619973, 47.071391001872499 ], [ 2.03511899373904, 47.070171999393402 ], [ 2.03107999390895, 47.069601000216501 ], [ 2.02865500844847, 47.069404005378502 ], [ 2.02837900246031, 47.069380003849702 ], [ 2.02789799267479, 47.069356996563002 ], [ 2.02609199136978, 47.069040998495701 ], [ 2.02525000821034, 47.068953999296902 ], [ 2.02504599455252, 47.068935999311101 ], [ 2.02394099670229, 47.068760000978401 ], [ 2.02287100761992, 47.068492997726402 ], [ 2.02168600409919, 47.067998995455497 ], [ 2.01866599986359, 47.067326001048698 ], [ 2.01783099419995, 47.067066996401998 ], [ 2.01774000295042, 47.067101005026899 ], [ 2.0150550003999, 47.071184003990702 ], [ 2.01509500299635, 47.071252999488003 ], [ 2.01896999769137, 47.072323996606002 ], [ 2.02085899140029, 47.0727989971111 ], [ 2.02094999648465, 47.072769001873702 ], [ 2.02119099282857, 47.072269005612597 ], [ 2.02186100625136, 47.0723329962901 ], [ 2.02358300630169, 47.072519000240703 ], [ 2.02703099661297, 47.072858001308802 ], [ 2.0272619934804, 47.072877998508901 ], [ 2.03014699481192, 47.073023994830301 ], [ 2.03007700202581, 47.073440997080297 ], [ 2.0298729988078, 47.073982000934897 ], [ 2.02876500455636, 47.075372001344498 ], [ 2.0280679985041, 47.076273999906299 ], [ 2.02758199275227, 47.076890997166998 ], [ 2.02692900508145, 47.077593005549403 ], [ 2.02664099983255, 47.077818998997103 ], [ 2.02635299407013, 47.078095998488998 ], [ 2.02614899165885, 47.078393000292003 ], [ 2.02520900124339, 47.079886998158301 ], [ 2.0248589987421, 47.080490004175502 ], [ 2.02573700181346, 47.0806009970592 ], [ 2.02715399917833, 47.080823999637602 ], [ 2.02715799510921, 47.080790998208897 ], [ 2.02746299759163, 47.080849001409 ], [ 2.02747699805653, 47.080892004453297 ], [ 2.02801999846812, 47.080977002975899 ], [ 2.02931999777642, 47.081221000289702 ], [ 2.02927599665727, 47.082099998492403 ], [ 2.03022199684853, 47.082243995745699 ], [ 2.0305170017514, 47.081511001986499 ], [ 2.03188699718773, 47.081936002831299 ], [ 2.03207100189148, 47.081452994065003 ], [ 2.0328819926028, 47.081620005260902 ], [ 2.03354599123558, 47.081814999213698 ], [ 2.03362700216511, 47.081803998557703 ], [ 2.0343930062506, 47.080580000872999 ], [ 2.0344169971533, 47.0802530023524 ], [ 2.0344640055399, 47.0801149972582 ], [ 2.0347719986216, 47.079587001231502 ], [ 2.03518999398318, 47.079033001154002 ], [ 2.03528200247714, 47.079047995171003 ], [ 2.03695199820364, 47.079533001492301 ], [ 2.03664000000943, 47.080329994936498 ], [ 2.03680399636609, 47.0803890040862 ], [ 2.03696100747116, 47.080447999820002 ], [ 2.03724599200602, 47.080585998369401 ], [ 2.03729099085836, 47.080524003708902 ], [ 2.03791199650376, 47.080798001209203 ], [ 2.03825199490788, 47.080948997425502 ], [ 2.03881600514105, 47.081139995753098 ], [ 2.04041700690656, 47.081577998498403 ], [ 2.04083800302723, 47.081702999060397 ], [ 2.04138800626513, 47.081844995744 ], [ 2.04144499560258, 47.081541994951202 ], [ 2.0417459972522, 47.081574005142002 ], [ 2.04177100770856, 47.081428999036198 ] ] ], [ [ [ 2.04737799198639, 47.106261001474898 ], [ 2.04741999946419, 47.106186004342099 ], [ 2.04711000357853, 47.105829000826098 ], [ 2.04685400320478, 47.105700001632499 ], [ 2.04656499458649, 47.105595003769203 ], [ 2.04387100234055, 47.104295996226497 ], [ 2.04314400614714, 47.104125998030199 ], [ 2.04122100719143, 47.103531003848303 ], [ 2.0409419998704, 47.103420996476899 ], [ 2.03898200343704, 47.103302000805698 ], [ 2.03873099688221, 47.103243001864598 ], [ 2.03806499254887, 47.103185998236299 ], [ 2.03748199522015, 47.104191997626501 ], [ 2.03741799585921, 47.1041760054908 ], [ 2.0372809952994, 47.1042249978764 ], [ 2.03715400094889, 47.104471993710398 ], [ 2.03713199326559, 47.104579000033198 ], [ 2.03726899713136, 47.104682000032497 ], [ 2.03743400082178, 47.104738998710502 ], [ 2.03745000688235, 47.104764999689998 ], [ 2.03858800530271, 47.104954000847599 ], [ 2.03895200551968, 47.104972999086399 ], [ 2.04051200205594, 47.105182999725599 ], [ 2.04051100196808, 47.1052140002963 ], [ 2.04068500847691, 47.105229993935097 ], [ 2.04103500132154, 47.105338996787303 ], [ 2.04153500569273, 47.105426003335097 ], [ 2.04190099966686, 47.105522999119103 ], [ 2.04285600424769, 47.105827994452802 ], [ 2.0433330041409, 47.105998996629403 ], [ 2.04346300535987, 47.1060619996409 ], [ 2.04400400760977, 47.106107998384999 ], [ 2.04471699618637, 47.106159998304697 ], [ 2.04524300373093, 47.106297003090397 ], [ 2.04552500120892, 47.1064480004122 ], [ 2.04566700038256, 47.106561997987697 ], [ 2.04579599750415, 47.1066380004265 ], [ 2.04603099903613, 47.106748001898701 ], [ 2.04622999936401, 47.1068669978171 ], [ 2.04643000364497, 47.106935994983097 ], [ 2.04684700136575, 47.107002998881697 ], [ 2.04708900250727, 47.1069000007843 ], [ 2.04716099585512, 47.106952005227598 ], [ 2.04723899883511, 47.106951999617003 ], [ 2.04697699761851, 47.1066780004249 ], [ 2.0473329955634, 47.1062820056503 ], [ 2.04737799198639, 47.106261001474898 ] ] ], [ [ [ 2.04492400271629, 47.102960998269801 ], [ 2.04659500276695, 47.102980999873701 ], [ 2.04649800370038, 47.102646998850602 ], [ 2.04636499921549, 47.101895998762103 ], [ 2.04628200057671, 47.101173997615099 ], [ 2.04624400013098, 47.100514997407501 ], [ 2.04595799579374, 47.100527998433201 ], [ 2.04600600156511, 47.100364994554504 ], [ 2.04595200293595, 47.100161001384798 ], [ 2.04589899284046, 47.100079998488397 ], [ 2.04584500388042, 47.100064003533497 ], [ 2.04590099700422, 47.099927995785102 ], [ 2.0459709985541, 47.099585998824097 ], [ 2.04526999890657, 47.099560998991997 ], [ 2.04465699507173, 47.099379993703302 ], [ 2.0442959971774, 47.099302999730803 ], [ 2.04325199370724, 47.098917000872603 ], [ 2.04308500831852, 47.098875003138403 ], [ 2.04248600673665, 47.098706005013803 ], [ 2.04214399997805, 47.098551999322602 ], [ 2.04118699844709, 47.098107997658097 ], [ 2.04088700256584, 47.0979319981872 ], [ 2.0407170031344, 47.0978040040807 ], [ 2.04044600262372, 47.097514004256503 ], [ 2.04019600007188, 47.097282999627197 ], [ 2.0399950000288, 47.097145004988199 ], [ 2.03955000120343, 47.096952995709003 ], [ 2.03875500807862, 47.096572003696103 ], [ 2.03866600141029, 47.096468998919804 ], [ 2.03859000247272, 47.096406997338804 ], [ 2.03844299369156, 47.0963159983027 ], [ 2.03817799942801, 47.096192999678301 ], [ 2.03779100281761, 47.096026001202098 ], [ 2.03756600533211, 47.095950000524198 ], [ 2.03708799788361, 47.095803004740901 ], [ 2.03670799975233, 47.095558997562797 ], [ 2.03660400650861, 47.095551999536703 ], [ 2.03649899771425, 47.095607001936003 ], [ 2.03641300052372, 47.0956029988943 ], [ 2.03639799356619, 47.095643003640603 ], [ 2.03566499734458, 47.095645995284301 ], [ 2.03407899695641, 47.095431999302598 ], [ 2.0330880061152, 47.095130003896699 ], [ 2.03278599398132, 47.095279002434701 ], [ 2.03298499816291, 47.095570993829803 ], [ 2.03302900009318, 47.095605999368097 ], [ 2.03325699258622, 47.095804998567999 ], [ 2.03351799782393, 47.096357995545297 ], [ 2.03352000047565, 47.096527994535002 ], [ 2.03335599718892, 47.097355997058798 ], [ 2.03599000918814, 47.097972002206703 ], [ 2.03558699919359, 47.098711001948402 ], [ 2.03734600858819, 47.0994119984204 ], [ 2.03702199556058, 47.099780003237498 ], [ 2.03646399930085, 47.100843002457601 ], [ 2.03807899447579, 47.101486999234602 ], [ 2.04035000899778, 47.102143000812298 ], [ 2.04042700297408, 47.102162997804498 ], [ 2.04166599779715, 47.102487998470501 ], [ 2.04214099437169, 47.102545002059401 ], [ 2.04228000382949, 47.102616994880798 ], [ 2.04492400271629, 47.102960998269801 ] ] ], [ [ [ 2.03413900355612, 47.088888998619403 ], [ 2.03416199420222, 47.088705000016397 ], [ 2.03415400586431, 47.088479000976598 ], [ 2.03407199098914, 47.0882430014642 ], [ 2.0339350002782, 47.0880080010866 ], [ 2.03378099790517, 47.087833003725898 ], [ 2.03361400400622, 47.087731998826399 ], [ 2.03307999572824, 47.087799996198399 ], [ 2.03252100624151, 47.087876002523998 ], [ 2.03235500034526, 47.088190997732497 ], [ 2.03211699364901, 47.0883360013854 ], [ 2.03226300550901, 47.088958999185003 ], [ 2.03344699549808, 47.088958000584697 ], [ 2.03410699982711, 47.0889020028308 ], [ 2.03413900355612, 47.088888998619403 ] ] ], [ [ [ 2.02400300247891, 47.090122001768997 ], [ 2.02411700007576, 47.0899739961067 ], [ 2.02407899395786, 47.089126002678903 ], [ 2.02406000115108, 47.088865001947703 ], [ 2.02404000787475, 47.088365004548798 ], [ 2.0232539956219, 47.088424004059803 ], [ 2.02248600414876, 47.0885200032303 ], [ 2.02213599453557, 47.087524993663003 ], [ 2.02177700259324, 47.087014996433297 ], [ 2.02077700336677, 47.086891002150601 ], [ 2.01991399963326, 47.086922999464797 ], [ 2.0198060023236, 47.086956001209202 ], [ 2.01872199868248, 47.087681003663498 ], [ 2.01867300474776, 47.087714000965697 ], [ 2.0182479967059, 47.088209996522501 ], [ 2.01815400323131, 47.088315002172699 ], [ 2.0165470025335, 47.089293996020501 ], [ 2.01534499351844, 47.089856002378603 ], [ 2.01519199460176, 47.089964005548801 ], [ 2.01448599339959, 47.0904249995451 ], [ 2.01518500236963, 47.091172006309002 ], [ 2.01540999970068, 47.091580994185499 ], [ 2.01591500777757, 47.092567996988699 ], [ 2.0163660013644, 47.092460997943 ], [ 2.01765800154256, 47.092138994996297 ], [ 2.01881499399501, 47.091809997536501 ], [ 2.0191819978359, 47.091692001400197 ], [ 2.01883600216521, 47.091272000085603 ], [ 2.0193860030734, 47.090971995515503 ], [ 2.01985600137901, 47.091442999682499 ], [ 2.02068600025031, 47.091055999626398 ], [ 2.02158500393917, 47.090650003388099 ], [ 2.02253099737271, 47.090331005156301 ], [ 2.02320599505765, 47.090224000536502 ], [ 2.02400300247891, 47.090122001768997 ] ] ], [ [ [ 2.04613699832417, 47.098246998253003 ], [ 2.04614099449996, 47.097799004543603 ], [ 2.04606300049271, 47.096582998343003 ], [ 2.04602199438736, 47.096556999316398 ], [ 2.04573400612561, 47.096464999459897 ], [ 2.0455860032829, 47.096390001081097 ], [ 2.04496999779172, 47.096140003389699 ], [ 2.04420700254724, 47.095472003226497 ], [ 2.04433400165898, 47.095186004048799 ], [ 2.04434099895291, 47.095120001274999 ], [ 2.04456899546072, 47.095099997397298 ], [ 2.04488800023663, 47.095072002248301 ], [ 2.04510200156281, 47.095065000193003 ], [ 2.04497400516781, 47.092554998473098 ], [ 2.04567800592086, 47.092444005739203 ], [ 2.04573400068351, 47.092379001513301 ], [ 2.04557300484659, 47.091765001958997 ], [ 2.04478799841682, 47.091817997738197 ], [ 2.04411199160124, 47.091876994593001 ], [ 2.04385400212091, 47.091899999800297 ], [ 2.04375599636526, 47.091777998431603 ], [ 2.04342100203761, 47.091772003844298 ], [ 2.04151299443954, 47.091561998876003 ], [ 2.04146399551848, 47.091517996345999 ], [ 2.04134299628976, 47.0914550020726 ], [ 2.04146800088377, 47.091329004221301 ], [ 2.04184699719718, 47.090881002454303 ], [ 2.04207299716029, 47.0906599956799 ], [ 2.04223599784962, 47.0904320018536 ], [ 2.04265899943728, 47.0895600046737 ], [ 2.04291000281275, 47.089185004484101 ], [ 2.0431399990307, 47.088698002849803 ], [ 2.04167999458326, 47.0885839955262 ], [ 2.04171599841867, 47.088324993888499 ], [ 2.0428170006659, 47.088321005585399 ], [ 2.04244199511157, 47.0869480004962 ], [ 2.04229700136895, 47.086973999853797 ], [ 2.04174999487638, 47.0869140035716 ], [ 2.04148700628756, 47.0869339996623 ], [ 2.04102899902699, 47.0869420051961 ], [ 2.04069000855389, 47.086943001247697 ], [ 2.04030399695729, 47.0869610012927 ], [ 2.04005500384465, 47.086996002592997 ], [ 2.03927899737282, 47.086813000746403 ], [ 2.03904399782509, 47.087036997802599 ], [ 2.03877899413873, 47.087433995936202 ], [ 2.03817000093603, 47.088025999352098 ], [ 2.03805600681841, 47.088579000255102 ], [ 2.03789899570721, 47.089010001755 ], [ 2.03724300225932, 47.089735000194999 ], [ 2.03717100742196, 47.089710000350003 ], [ 2.03631099832411, 47.090702003280903 ], [ 2.04011099987108, 47.0919710057521 ], [ 2.04028499539418, 47.093426001887103 ], [ 2.03984199361962, 47.093336004577303 ], [ 2.03952999323272, 47.093342002704098 ], [ 2.03841399494309, 47.093169001644398 ], [ 2.03825600083976, 47.093142999136099 ], [ 2.03677699525644, 47.092741003091902 ], [ 2.03487700247631, 47.092171002209398 ], [ 2.0347759991451, 47.092440002458403 ], [ 2.03531200307071, 47.093372000779098 ], [ 2.03401600059243, 47.094150001216299 ], [ 2.03405600133596, 47.094202998523997 ], [ 2.0332820003843, 47.094933002706398 ], [ 2.03357699381307, 47.095146004161798 ], [ 2.03391199835997, 47.095182000758697 ], [ 2.03441600286745, 47.095334998353799 ], [ 2.03482399871322, 47.095328995971499 ], [ 2.03532300197938, 47.095296001865101 ], [ 2.03575500038175, 47.095178999844201 ], [ 2.03584599921093, 47.095165001525601 ], [ 2.03629599997763, 47.095066002100502 ], [ 2.03629299689922, 47.095026000310497 ], [ 2.03640200029861, 47.094998997110501 ], [ 2.03653800323847, 47.095008999216297 ], [ 2.03730999617093, 47.095368998779698 ], [ 2.03850399949778, 47.095740003341497 ], [ 2.0394589952974, 47.096050998804003 ], [ 2.03952900293003, 47.096157005478503 ], [ 2.03992900253139, 47.096358995638703 ], [ 2.04045000425291, 47.096588999913898 ], [ 2.04088200185135, 47.096787002457603 ], [ 2.04135700295362, 47.097073002508402 ], [ 2.04151800315194, 47.0971880007178 ], [ 2.04192900204279, 47.097475997813298 ], [ 2.04257999872572, 47.097819004004599 ], [ 2.0430159978589, 47.098005002459303 ], [ 2.04367700470149, 47.098304002768998 ], [ 2.04434000418528, 47.0985200010809 ], [ 2.04552800831335, 47.098875998941402 ], [ 2.04550000026329, 47.098931996159003 ], [ 2.04556300440614, 47.098966001174503 ], [ 2.04596599626469, 47.098973000411 ], [ 2.04602500300936, 47.098952004304302 ], [ 2.04613699832417, 47.098246998253003 ] ] ] ] } }
]
}
