{
  "type": "FeatureCollection",
  "features": [
    {
      "type": "Feature",
      "geometry": {
        "type": "Polygon",
        "coordinates": [
          [
            [
              3.802715169680684,
              47.82453517558007,
              0.0
            ],
            [
              3.802959901294418,
              47.82363383624308,
              0.0
            ],
            [
              3.80316682041018,
              47.82364577586317,
              0.0
            ],
            [
              3.802928066510609,
              47.82456504606776,
              0.0
            ],
            [
              3.802715169680684,
              47.82453517558007,
              0.0
            ]
          ]
        ]
      },
      "properties": {
        "folder": "01 Domaine Billaud-Simon.kmz / 01 Domaine Billaud-Simon",
        "name": "01 Domaine Billaud-Simon"
      }
    },
    {
      "type": "Feature",
      "geometry": {
        "type": "Polygon",
        "coordinates": [
          [
            [
              3.804783425978551,
              47.82408885283694,
              0.0
            ],
            [
              3.804922546411165,
              47.82430811828408,
              0.0
            ],
            [
              3.805096257979974,
              47.82445314157492,
              0.0
            ],
            [
              3.805256832346258,
              47.82455788262332,
              0.0
            ],
            [
              3.805438488772759,
              47.82469020251306,
              0.0
            ],
            [
              3.805562337237023,
              47.82482345254199,
              0.0
            ],
            [
              3.805519782929365,
              47.82487303970147,
              0.0
            ],
            [
              3.805351763205791,
              47.8247809925567,
              0.0
            ],
            [
              3.805184062999389,
              47.82467994475351,
              0.0
            ],
            [
              3.804909163625625,
              47.82457082014216,
              0.0
            ],
            [
              3.80450170861943,
              47.82444574316423,
              0.0
            ],
            [
              3.804783425978551,
              47.82408885283694,
              0.0
            ]
          ]
        ]
      },
      "properties": {
        "folder": "01 Domaine Billaud-Simon.kmz / 01 Domaine Billaud-Simon",
        "name": "01 Domaine Billaud-Simon"
      }
    },
    {
      "type": "Feature",
      "geometry": {
        "type": "Polygon",
        "coordinates": [
          [
            [
              3.806537393012523,
              47.82610310719806,
              0.0
            ],
            [
              3.806591058755233,
              47.82618868400346,
              0.0
            ],
            [
              3.806237553870648,
              47.82638865283014,
              0.0
            ],
            [
              3.805866774207896,
              47.82657020871675,
              0.0
            ],
            [
              3.805809450183308,
              47.82656566227085,
              0.0
            ],
            [
              3.805700034934467,
              47.82661859206882,
              0.0
            ],
            [
              3.805620617048739,
              47.82658166916328,
              0.0
            ],
            [
              3.806537393012523,
              47.82610310719806,
              0.0
            ]
          ]
        ]
      },
      "properties": {
        "folder": "01 Domaine Billaud-Simon.kmz / 01 Domaine Billaud-Simon",
        "name": "01 Domaine Billaud-Simon"
      }
    }
  ]
}