{
  "type": "FeatureCollection",
  "features": [
    {
      "type": "Feature",
      "geometry": {
        "type": "Polygon",
        "coordinates": [
          [
            [
              3.805464270674133,
              47.82648012853274,
              0.0
            ],
            [
              3.80641849383486,
              47.82598704742131,
              0.0
            ],
            [
              3.80652208188226,
              47.82610546046714,
              0.0
            ],
            [
              3.805624914569119,
              47.82657028917573,
              0.0
            ],
            [
              3.805620574595239,
              47.82657998603658,
              0.0
            ],
            [
              3.805623591066531,
              47.82658162714375,
              0.0
            ],
            [
              3.805464270674133,
              47.82648012853274,
              0.0
            ]
          ]
        ]
      },
      "properties": {
        "folder": "02 Domaine Samuel Billaud .kmz / 02 Domaine Samuel Billaud",
        "name": "02 Domaine Samuel Billaud"
      }
    },
    {
      "type": "Feature",
      "geometry": {
        "type": "Polygon",
        "coordinates": [
          [
            [
              3.802609268932853,
              47.82452081949715,
              0.0
            ],
            [
              3.802763591920102,
              47.82402152166804,
              0.0
            ],
            [
              3.802859193987205,
              47.82363428986299,
              0.0
            ],
            [
              3.802960816665197,
              47.82362893719803,
              0.0
            ],
            [
              3.802715382171509,
              47.82452711516954,
              0.0
            ],
            [
              3.802609268932853,
              47.82452081949715,
              0.0
            ]
          ]
        ]
      },
      "properties": {
        "folder": "02 Domaine Samuel Billaud .kmz / 02 Domaine Samuel Billaud",
        "name": "02 Domaine Samuel Billaud"
      }
    }
  ]
}