{
  "type": "FeatureCollection",
  "features": [
    {
      "type": "Feature",
      "geometry": {
        "type": "Polygon",
        "coordinates": [
          [
            [
              3.805462578253449,
              47.82647501949143,
              0.0
            ],
            [
              3.804847472350517,
              47.82624228490334,
              0.0
            ],
            [
              3.8050829872237,
              47.8257922103852,
              0.0
            ],
            [
              3.805554089780605,
              47.82599804710691,
              0.0
            ],
            [
              3.806056518341261,
              47.82552907419787,
              0.0
            ],
            [
              3.806406240572155,
              47.82596634799242,
              0.0
            ],
            [
              3.805997442926421,
              47.82620776288061,
              0.0
            ],
            [
              3.805462578253449,
              47.82647501949143,
              0.0
            ]
          ]
        ]
      },
      "properties": {
        "folder": "03 Domaine Besson et Fils.kmz / 03 Domaine Besson et Fils",
        "name": "03 Domaine Besson et Fils"
      }
    },
    {
      "type": "Feature",
      "geometry": {
        "type": "Polygon",
        "coordinates": [
          [
            [
              3.800004536389558,
              47.82390087016943,
              0.0
            ],
            [
              3.799974304063596,
              47.82461618577704,
              0.0
            ],
            [
              3.799850744598976,
              47.82462016098638,
              0.0
            ],
            [
              3.799726211307077,
              47.82462208722806,
              0.0
            ],
            [
              3.799591479480222,
              47.82462684219314,
              0.0
            ],
            [
              3.799488194111824,
              47.82462310074294,
              0.0
            ],
            [
              3.799369068456424,
              47.82460938461361,
              0.0
            ],
            [
              3.7991963932882,
              47.8245751054727,
              0.0
            ],
            [
              3.799025916901013,
              47.82453326572603,
              0.0
            ],
            [
              3.798890874163001,
              47.82445019941363,
              0.0
            ],
            [
              3.798776321503683,
              47.82437813802938,
              0.0
            ],
            [
              3.798685545053306,
              47.8243103168824,
              0.0
            ],
            [
              3.798624938679067,
              47.82426181959282,
              0.0
            ],
            [
              3.798534140330068,
              47.82417106995739,
              0.0
            ],
            [
              3.799750317834272,
              47.82365474158336,
              0.0
            ],
            [
              3.800004536389558,
              47.82390087016943,
              0.0
            ]
          ]
        ]
      },
      "properties": {
        "folder": "03 Domaine Besson et Fils.kmz / 03 Domaine Besson et Fils",
        "name": "03 Domaine Besson et Fils"
      }
    },
    {
      "type": "Feature",
      "geometry": {
        "type": "Polygon",
        "coordinates": [
          [
            [
              3.800070290442601,
              47.82385631979076,
              0.0
            ],
            [
              3.800000101155698,
              47.82384792793184,
              0.0
            ],
            [
              3.799913902382759,
              47.82375893467874,
              0.0
            ],
            [
              3.799732679177117,
              47.82358773367466,
              0.0
            ],
            [
              3.799499354164386,
              47.82337174447815,
              0.0
            ],
            [
              3.799486830401839,
              47.82334052352547,
              0.0
            ],
            [
              3.799570522322413,
              47.82328253691495,
              0.0
            ],
            [
              3.800212647911954,
              47.82381544826281,
              0.0
            ],
            [
              3.800070290442601,
              47.82385631979076,
              0.0
            ]
          ]
        ]
      },
      "properties": {
        "folder": "03 Domaine Besson et Fils.kmz / 03 Domaine Besson et Fils",
        "name": "03 Domaine Besson et Fils"
      }
    }
  ]
}