{
  "type": "FeatureCollection",
  "features": [
    {
      "type": "Feature",
      "geometry": {
        "type": "Polygon",
        "coordinates": [
          [
            [
              3.805294588414769,
              47.82582189184161,
              0.0
            ],
            [
              3.805453475658831,
              47.82558643040173,
              0.0
            ],
            [
              3.805759040781336,
              47.82520177381486,
              0.0
            ],
            [
              3.805943532566405,
              47.82538624916962,
              0.0
            ],
            [
              3.806058227251454,
              47.82550218684254,
              0.0
            ],
            [
              3.805580843687095,
              47.82598596887537,
              0.0
            ],
            [
              3.805294588414769,
              47.82582189184161,
              0.0
            ]
          ]
        ]
      },
      "properties": {
        "folder": "04 Domaine Thierry Laffay.kmz",
        "name": "04 Domaine Thierry Laffay"
      }
    }
  ]
}