{
  "type": "FeatureCollection",
  "features": [
    {
      "type": "Feature",
      "geometry": {
        "type": "Polygon",
        "coordinates": [
          [
            [
              3.804631377142949,
              47.82558005033371,
              0.0
            ],
            [
              3.804756128139501,
              47.82498689228015,
              0.0
            ],
            [
              3.804799079526688,
              47.82475561971842,
              0.0
            ],
            [
              3.805036598789646,
              47.82481723684054,
              0.0
            ],
            [
              3.805342779544056,
              47.82492832070315,
              0.0
            ],
            [
              3.805699283151291,
              47.82514958304451,
              0.0
            ],
            [
              3.805678691350527,
              47.82522776785273,
              0.0
            ],
            [
              3.80527320428818,
              47.82582613173866,
              0.0
            ],
            [
              3.804631377142949,
              47.82558005033371,
              0.0
            ]
          ]
        ]
      },
      "properties": {
        "folder": "05 Domaine Gérard Tremblay.kmz",
        "name": "05 Domaine Gérard Tremblay"
      }
    }
  ]
}