{
  "type": "FeatureCollection",
  "features": [
    {
      "type": "Feature",
      "geometry": {
        "type": "Polygon",
        "coordinates": [
          [
            [
              3.804386040173329,
              47.82577674747305,
              0.0
            ],
            [
              3.804385966319686,
              47.82576731916147,
              0.0
            ],
            [
              3.804385818602487,
              47.82574847106396,
              0.0
            ],
            [
              3.804461051931534,
              47.82535425522592,
              0.0
            ],
            [
              3.804550029846989,
              47.82471265861457,
              0.0
            ],
            [
              3.804782204405208,
              47.8247547830411,
              0.0
            ],
            [
              3.804632844823765,
              47.82561610070959,
              0.0
            ],
            [
              3.80505496839934,
              47.82579897598758,
              0.0
            ],
            [
              3.804820448685651,
              47.8262368952652,
              0.0
            ],
            [
              3.804569717062807,
              47.82614786326651,
              0.0
            ],
            [
              3.804300217856555,
              47.82609287166949,
              0.0
            ],
            [
              3.804386040173329,
              47.82577674747305,
              0.0
            ]
          ]
        ]
      },
      "properties": {
        "folder": "06 Domaine Christian Moreau et Fils.kmz",
        "name": "06 Domaine Christian Moreau et Fils"
      }
    }
  ]
}