{
  "type": "FeatureCollection",
  "features": [
    {
      "type": "Feature",
      "geometry": {
        "type": "Polygon",
        "coordinates": [
          [
            [
              3.803896369492805,
              47.82606564510409,
              0.0
            ],
            [
              3.804017585600097,
              47.8255478819901,
              0.0
            ],
            [
              3.80408497103303,
              47.82514455656905,
              0.0
            ],
            [
              3.804158282531702,
              47.82464797862315,
              0.0
            ],
            [
              3.804552800860368,
              47.82471630773207,
              0.0
            ],
            [
              3.804509210585079,
              47.82513013665088,
              0.0
            ],
            [
              3.804436297059541,
              47.82558047859928,
              0.0
            ],
            [
              3.804295117964247,
              47.82609912182497,
              0.0
            ],
            [
              3.803896369492805,
              47.82606564510409,
              0.0
            ]
          ]
        ]
      },
      "properties": {
        "folder": "07 Domaine Louis Moreau.kmz",
        "name": "07 Domaine Louis Moreau"
      }
    }
  ]
}