{
  "type": "FeatureCollection",
  "features": [
    {
      "type": "Feature",
      "geometry": {
        "type": "Polygon",
        "coordinates": [
          [
            [
              3.803607186682607,
              47.82604798746538,
              0.0
            ],
            [
              3.803729671813645,
              47.8252358364924,
              0.0
            ],
            [
              3.803784221207007,
              47.82462459286048,
              0.0
            ],
            [
              3.803940251328251,
              47.82462214080553,
              0.0
            ],
            [
              3.804159562368818,
              47.82466009880395,
              0.0
            ],
            [
              3.804071343765656,
              47.82527822991364,
              0.0
            ],
            [
              3.803999198242141,
              47.82565308407715,
              0.0
            ],
            [
              3.803893198984369,
              47.82605575852732,
              0.0
            ],
            [
              3.803607186682607,
              47.82604798746538,
              0.0
            ]
          ]
        ]
      },
      "properties": {
        "folder": "08 Domaine William Fèvre.kmz / 08 Domaine William Fèvre",
        "name": "08 Domaine William Fèvre"
      }
    },
    {
      "type": "Feature",
      "geometry": {
        "type": "Polygon",
        "coordinates": [
          [
            [
              3.800185965377851,
              47.82547519558074,
              0.0
            ],
            [
              3.799435792871197,
              47.82547163765322,
              0.0
            ],
            [
              3.799079771547156,
              47.82544694878369,
              0.0
            ],
            [
              3.798846472877333,
              47.82535572085684,
              0.0
            ],
            [
              3.799141807117217,
              47.82459057485192,
              0.0
            ],
            [
              3.799267463320219,
              47.82462736111179,
              0.0
            ],
            [
              3.799447546230883,
              47.82464812940297,
              0.0
            ],
            [
              3.799758126679982,
              47.82464633940268,
              0.0
            ],
            [
              3.800016397396795,
              47.82463213535635,
              0.0
            ],
            [
              3.800185965377851,
              47.82547519558074,
              0.0
            ]
          ]
        ]
      },
      "properties": {
        "folder": "08 Domaine William Fèvre.kmz / 08 Domaine William Fèvre",
        "name": "08 Domaine William Fèvre"
      }
    }
  ]
}