{
  "type": "FeatureCollection",
  "features": [
    {
      "type": "Feature",
      "geometry": {
        "type": "Polygon",
        "coordinates": [
          [
            [
              3.79843901110521,
              47.82394854176364,
              0.0
            ],
            [
              3.798454492326335,
              47.82370320897089,
              0.0
            ],
            [
              3.79855125376144,
              47.8234463856044,
              0.0
            ],
            [
              3.798711142128146,
              47.82320871438528,
              0.0
            ],
            [
              3.799090256809874,
              47.82289263656821,
              0.0
            ],
            [
              3.799426387152194,
              47.82329316450754,
              0.0
            ],
            [
              3.799438114932401,
              47.82336123411401,
              0.0
            ],
            [
              3.799475672997239,
              47.82338786516311,
              0.0
            ],
            [
              3.79972612212004,
              47.82363914380614,
              0.0
            ],
            [
              3.798539385342232,
              47.82416223111531,
              0.0
            ],
            [
              3.79843901110521,
              47.82394854176364,
              0.0
            ]
          ]
        ]
      },
      "properties": {
        "folder": "09 Domaine Jean-Paul et Benoît Droin.kmz / 09 Domaine Jean-Paul et Benoît Droin",
        "name": "09 Domaine Jean-Paul et Benoît Droin"
      }
    },
    {
      "type": "Feature",
      "geometry": {
        "type": "Polygon",
        "coordinates": [
          [
            [
              3.803382416752679,
              47.82605655147395,
              0.0
            ],
            [
              3.803474256413215,
              47.82544117428736,
              0.0
            ],
            [
              3.803510411446362,
              47.82496236648408,
              0.0
            ],
            [
              3.803535325868128,
              47.82460761302412,
              0.0
            ],
            [
              3.803780570284583,
              47.82461023197208,
              0.0
            ],
            [
              3.803715117803148,
              47.82526962991058,
              0.0
            ],
            [
              3.803654905755141,
              47.82566070555307,
              0.0
            ],
            [
              3.803599070612012,
              47.82607641724325,
              0.0
            ],
            [
              3.803382416752679,
              47.82605655147395,
              0.0
            ]
          ]
        ]
      },
      "properties": {
        "folder": "09 Domaine Jean-Paul et Benoît Droin.kmz / 09 Domaine Jean-Paul et Benoît Droin",
        "name": "09 Domaine Jean-Paul et Benoît Droin"
      }
    }
  ]
}