{
  "type": "FeatureCollection",
  "features": [
    {
      "type": "Feature",
      "geometry": {
        "type": "Polygon",
        "coordinates": [
          [
            [
              3.802418437656752,
              47.82604004136715,
              0.0
            ],
            [
              3.802394380657299,
              47.82561593863249,
              0.0
            ],
            [
              3.803239774379266,
              47.82559598095026,
              0.0
            ],
            [
              3.80326141436387,
              47.82504056147028,
              0.0
            ],
            [
              3.803278204804348,
              47.8246135208381,
              0.0
            ],
            [
              3.803541711174692,
              47.82462290061056,
              0.0
            ],
            [
              3.803475690336835,
              47.82522151808324,
              0.0
            ],
            [
              3.803378849038994,
              47.82604895808809,
              0.0
            ],
            [
              3.802418437656752,
              47.82604004136715,
              0.0
            ]
          ]
        ]
      },
      "properties": {
        "folder": "10 Domaine de l'Enclos.kmz",
        "name": "10 Domaine de l'Enclos"
      }
    }
  ]
}