{
  "type": "FeatureCollection",
  "features": [
    {
      "type": "Feature",
      "geometry": {
        "type": "Polygon",
        "coordinates": [
          [
            [
              3.802058696481603,
              47.82608248631553,
              0.0
            ],
            [
              3.802052116046226,
              47.82562620590609,
              0.0
            ],
            [
              3.802437452907466,
              47.8256034171912,
              0.0
            ],
            [
              3.802444343396585,
              47.82606638132297,
              0.0
            ],
            [
              3.802270490930362,
              47.82608039239778,
              0.0
            ],
            [
              3.802058696481603,
              47.82608248631553,
              0.0
            ]
          ]
        ]
      },
      "properties": {
        "folder": "11 Domaine de Bréchain.kmz",
        "name": "11 Domaine de Bréchain"
      }
    }
  ]
}