{
  "type": "FeatureCollection",
  "features": [
    {
      "type": "Feature",
      "geometry": {
        "type": "Polygon",
        "coordinates": [
          [
            [
              3.801828789865698,
              47.82513248409317,
              0.0
            ],
            [
              3.801908053420837,
              47.82562624233142,
              0.0
            ],
            [
              3.801595039232089,
              47.82565832483125,
              0.0
            ],
            [
              3.801634133892418,
              47.82607979474505,
              0.0
            ],
            [
              3.801206210161248,
              47.82609116365239,
              0.0
            ],
            [
              3.80084524384475,
              47.82614733142152,
              0.0
            ],
            [
              3.800471202534905,
              47.82624144191492,
              0.0
            ],
            [
              3.800175965035717,
              47.82629582200668,
              0.0
            ],
            [
              3.800023375167816,
              47.82582195072939,
              0.0
            ],
            [
              3.799540231868048,
              47.82583063827855,
              0.0
            ],
            [
              3.798798767822587,
              47.8258116251347,
              0.0
            ],
            [
              3.798927046900427,
              47.82552562539951,
              0.0
            ],
            [
              3.799006517255143,
              47.82549866973726,
              0.0
            ],
            [
              3.799445566264512,
              47.82551733213101,
              0.0
            ],
            [
              3.800203335418897,
              47.82550127244932,
              0.0
            ],
            [
              3.800096373223216,
              47.82506172364816,
              0.0
            ],
            [
              3.800038620747035,
              47.82463528995356,
              0.0
            ],
            [
              3.800881960286957,
              47.82456342914642,
              0.0
            ],
            [
              3.801682782286311,
              47.82455125020078,
              0.0
            ],
            [
              3.801828789865698,
              47.82513248409317,
              0.0
            ]
          ]
        ]
      },
      "properties": {
        "folder": "12 Domaine Long-Depaquit.kmz / 12 Domaine Long-Depaquit",
        "name": "12 Domaine Long-Depaquit"
      }
    },
    {
      "type": "Feature",
      "geometry": {
        "type": "Polygon",
        "coordinates": [
          [
            [
              3.798348518031096,
              47.82582545953497,
              0.0
            ],
            [
              3.797898249882909,
              47.82541285001712,
              0.0
            ],
            [
              3.797504350721141,
              47.82507129663841,
              0.0
            ],
            [
              3.797871164631688,
              47.82488228403023,
              0.0
            ],
            [
              3.797720692759805,
              47.82475982327764,
              0.0
            ],
            [
              3.798093866129431,
              47.82455536023497,
              0.0
            ],
            [
              3.798526260493544,
              47.82426762891929,
              0.0
            ],
            [
              3.798753382240454,
              47.82441218321664,
              0.0
            ],
            [
              3.79892415098334,
              47.82451059231477,
              0.0
            ],
            [
              3.799124149049988,
              47.82459819217119,
              0.0
            ],
            [
              3.798855867085325,
              47.82533114047219,
              0.0
            ],
            [
              3.798893105292602,
              47.82539319534425,
              0.0
            ],
            [
              3.798688474604628,
              47.825812765424,
              0.0
            ],
            [
              3.798348518031096,
              47.82582545953497,
              0.0
            ]
          ]
        ]
      },
      "properties": {
        "folder": "12 Domaine Long-Depaquit.kmz / 12 Domaine Long-Depaquit",
        "name": "12 Domaine Long-Depaquit(Moutonne)"
      }
    },
    {
      "type": "Feature",
      "geometry": {
        "type": "Polygon",
        "coordinates": [
          [
            [
              3.799439031942389,
              47.82667850231912,
              0.0
            ],
            [
              3.799318417743001,
              47.82669293467447,
              0.0
            ],
            [
              3.799066394190234,
              47.82660017555369,
              0.0
            ],
            [
              3.79864281707655,
              47.82632966945135,
              0.0
            ],
            [
              3.798230730379664,
              47.82605292606281,
              0.0
            ],
            [
              3.798235599217676,
              47.82596380143271,
              0.0
            ],
            [
              3.798327520153719,
              47.82590196611461,
              0.0
            ],
            [
              3.798493642512488,
              47.82584829836922,
              0.0
            ],
            [
              3.798795649354962,
              47.82582275666252,
              0.0
            ],
            [
              3.79911171492336,
              47.82583366935712,
              0.0
            ],
            [
              3.799339279201661,
              47.82584617530772,
              0.0
            ],
            [
              3.799706985331626,
              47.82585490322649,
              0.0
            ],
            [
              3.800025750688616,
              47.82584249918949,
              0.0
            ],
            [
              3.800188814484662,
              47.82631481955986,
              0.0
            ],
            [
              3.79991622508425,
              47.82635022815663,
              0.0
            ],
            [
              3.799717714680075,
              47.82641532671442,
              0.0
            ],
            [
              3.799559959151195,
              47.82655443602525,
              0.0
            ],
            [
              3.799439031942389,
              47.82667850231912,
              0.0
            ]
          ]
        ]
      },
      "properties": {
        "folder": "12 Domaine Long-Depaquit.kmz / 12 Domaine Long-Depaquit",
        "name": "12 Domaine Long-Depaquit(Moutonne)"
      }
    }
  ]
}