{
  "type": "FeatureCollection",
  "features": [
    {
      "type": "Feature",
      "geometry": {
        "type": "Polygon",
        "coordinates": [
          [
            [
              3.803253837844958,
              47.82508016719052,
              0.0
            ],
            [
              3.803240411842708,
              47.82558446839389,
              0.0
            ],
            [
              3.80189434180989,
              47.82561957172282,
              0.0
            ],
            [
              3.801840718856433,
              47.82516823288496,
              0.0
            ],
            [
              3.801725627361259,
              47.8245535200344,
              0.0
            ],
            [
              3.802141870760407,
              47.82453677704144,
              0.0
            ],
            [
              3.802744166917016,
              47.82456644999839,
              0.0
            ],
            [
              3.803290449908039,
              47.82460057415851,
              0.0
            ],
            [
              3.803253837844958,
              47.82508016719052,
              0.0
            ]
          ]
        ]
      },
      "properties": {
        "folder": "13 Domaine Drouhin-Vaudon.kmz / 13 Domaine Drouhin-Vaudon",
        "name": "13 Domaine Drouhin-Vaudon"
      }
    },
    {
      "type": "Feature",
      "geometry": {
        "type": "Polygon",
        "coordinates": [
          [
            [
              3.801669328540254,
              47.82610708642048,
              0.0
            ],
            [
              3.801640514853817,
              47.82566863178782,
              0.0
            ],
            [
              3.801990607927728,
              47.82564107519491,
              0.0
            ],
            [
              3.802016675891315,
              47.82610041554229,
              0.0
            ],
            [
              3.801669328540254,
              47.82610708642048,
              0.0
            ]
          ]
        ]
      },
      "properties": {
        "folder": "13 Domaine Drouhin-Vaudon.kmz / 13 Domaine Drouhin-Vaudon",
        "name": "13 Domaine Drouhin-Vaudon"
      }
    }
  ]
}