{
  "type": "FeatureCollection",
  "features": [
    {
      "type": "Feature",
      "geometry": {
        "type": "Polygon",
        "coordinates": [
          [
            [
              3.799989486874564,
              47.82460329192738,
              0.0
            ],
            [
              3.80001459251665,
              47.82392642151905,
              0.0
            ],
            [
              3.801102986030684,
              47.82360614881281,
              0.0
            ],
            [
              3.801180081076532,
              47.82364216879276,
              0.0
            ],
            [
              3.80169745720581,
              47.82360197605087,
              0.0
            ],
            [
              3.801703831924703,
              47.82449964474488,
              0.0
            ],
            [
              3.799989486874564,
              47.82460329192738,
              0.0
            ]
          ]
        ]
      },
      "properties": {
        "folder": "14 Domaine Alain Gautherin et Fils.kmz",
        "name": "14 Domaine Alain Gautherin et Fils"
      }
    }
  ]
}