{
  "type": "FeatureCollection",
  "features": [
    {
      "type": "Feature",
      "geometry": {
        "type": "Polygon",
        "coordinates": [
          [
            [
              3.801227782982177,
              47.82452853062129,
              0.0
            ],
            [
              3.801271821012899,
              47.82362168013969,
              0.0
            ],
            [
              3.801709435446849,
              47.82360890360147,
              0.0
            ],
            [
              3.80167913382242,
              47.8245036424298,
              0.0
            ],
            [
              3.801449833905945,
              47.82453236095797,
              0.0
            ],
            [
              3.801227782982177,
              47.82452853062129,
              0.0
            ]
          ]
        ]
      },
      "properties": {
        "folder": "15 Domaine des Malandes.kmz",
        "name": "15 Domaine des Malandes"
      }
    }
  ]
}