{
  "type": "FeatureCollection",
  "features": [
    {
      "type": "Feature",
      "geometry": {
        "type": "Polygon",
        "coordinates": [
          [
            [
              3.801695715481845,
              47.82449224751994,
              0.0
            ],
            [
              3.801750937056738,
              47.82405183237743,
              0.0
            ],
            [
              3.801777848259165,
              47.8236100818716,
              0.0
            ],
            [
              3.802022257024291,
              47.82360792747707,
              0.0
            ],
            [
              3.80227184063521,
              47.82361917942419,
              0.0
            ],
            [
              3.802068102736638,
              47.82449024243326,
              0.0
            ],
            [
              3.801695715481845,
              47.82449224751994,
              0.0
            ]
          ]
        ]
      },
      "properties": {
        "folder": "16 Domaine Guy Robin.kmz",
        "name": "16 Domaine Guy Robin"
      }
    }
  ]
}