{
  "type": "FeatureCollection",
  "features": [
    {
      "type": "Feature",
      "geometry": {
        "type": "Polygon",
        "coordinates": [
          [
            [
              3.802266573250921,
              47.82361483381411,
              0.0
            ],
            [
              3.802456110181351,
              47.82362262861769,
              0.0
            ],
            [
              3.802609986142924,
              47.82362786161764,
              0.0
            ],
            [
              3.802502201976352,
              47.82405261939879,
              0.0
            ],
            [
              3.802377504273049,
              47.82447799478576,
              0.0
            ],
            [
              3.802090561805582,
              47.82448727966922,
              0.0
            ],
            [
              3.802266573250921,
              47.82361483381411,
              0.0
            ]
          ]
        ]
      },
      "properties": {
        "folder": "17 Domaine Ginette Robin.kmz",
        "name": "17 Domaine Ginette Robin"
      }
    }
  ]
}