{
  "type": "FeatureCollection",
  "features": [
    {
      "type": "Feature",
      "geometry": {
        "type": "Polygon",
        "coordinates": [
          [
            [
              3.802372059253354,
              47.82452389879916,
              0.0
            ],
            [
              3.802620634580636,
              47.82362319453337,
              0.0
            ],
            [
              3.802856137635313,
              47.82363747835016,
              0.0
            ],
            [
              3.802696623222075,
              47.82422564266441,
              0.0
            ],
            [
              3.802613760897293,
              47.82453685866778,
              0.0
            ],
            [
              3.802372059253354,
              47.82452389879916,
              0.0
            ]
          ]
        ]
      },
      "properties": {
        "folder": "18 Domaine Louis Michel et Fils.kmz / 18 Domaine Louis Michel et Fils",
        "name": "18 Domaine Louis Michel et Fils"
      }
    },
    {
      "type": "Feature",
      "geometry": {
        "type": "Polygon",
        "coordinates": [
          [
            [
              3.802931095747391,
              47.8245551828439,
              0.0
            ],
            [
              3.803197092977613,
              47.82363619409278,
              0.0
            ],
            [
              3.803504211352204,
              47.82364137378156,
              0.0
            ],
            [
              3.80404456596354,
              47.82367546371957,
              0.0
            ],
            [
              3.804407008715371,
              47.8236962252151,
              0.0
            ],
            [
              3.804717114455938,
              47.82376952534221,
              0.0
            ],
            [
              3.804719718243523,
              47.8239337267866,
              0.0
            ],
            [
              3.80478421039854,
              47.82408314216461,
              0.0
            ],
            [
              3.804506445108011,
              47.82443018904303,
              0.0
            ],
            [
              3.804093616636444,
              47.82432672610675,
              0.0
            ],
            [
              3.803602316773811,
              47.82427630777814,
              0.0
            ],
            [
              3.803388462435413,
              47.82424283591212,
              0.0
            ],
            [
              3.803268955411476,
              47.82457282684051,
              0.0
            ],
            [
              3.80311226717629,
              47.82456335582907,
              0.0
            ],
            [
              3.802931095747391,
              47.8245551828439,
              0.0
            ]
          ]
        ]
      },
      "properties": {
        "folder": "18 Domaine Louis Michel et Fils.kmz / 18 Domaine Louis Michel et Fils",
        "name": "18 Domaine Louis Michel et Fils"
      }
    }
  ]
}