{
  "type": "FeatureCollection",
  "features": [
    {
      "type": "Feature",
      "geometry": {
        "type": "Polygon",
        "coordinates": [
          [
            [
              3.803331912529375,
              47.82455440186261,
              0.0
            ],
            [
              3.803488232283336,
              47.824271441581,
              0.0
            ],
            [
              3.803964710774379,
              47.82434512700848,
              0.0
            ],
            [
              3.803835202546657,
              47.82458451033929,
              0.0
            ],
            [
              3.803331912529375,
              47.82455440186261,
              0.0
            ]
          ]
        ]
      },
      "properties": {
        "folder": "19 Domaine Vocoret et Fils.kmz",
        "name": "19 Domaine Vocoret et Fils"
      }
    }
  ]
}