{"type":"FeatureCollection","crs":{"type":"name","properties":{"name":"urn:ogc:def:crs:EPSG::4326"}},"features":[{"type":"Feature","properties":{"region_id":13,"name":"Zala","name_hu":"Zalai borvidék","region_group":"Dunántúl (Transdanubia)","area_ha_approx":2500,"notable_grapes":"Olaszrizling, Chardonnay, Merlot, Cabernet Franc","notes":"SW Hungary; small family wineries; Dráva influence"},"geometry":{"type":"Polygon","coordinates":[[[16.6577557,46.4917226],[16.6578232,46.4901986],[16.6570579,46.4897627],[16.6567538,46.4894133],[16.656855,46.4871274],[16.6563079,46.4871158],[16.6552383,46.4863367],[16.6552891,46.4851906],[16.6547331,46.4851789],[16.6536638,46.4843936],[16.6536806,46.4840157],[16.6526203,46.4832305],[16.6520644,46.4832188],[16.6515006,46.4835851],[16.6509107,46.4843353],[16.6513991,46.485871],[16.6524684,46.4866564],[16.6518956,46.4870225],[16.6518785,46.4874066],[16.6513315,46.487395],[16.6502116,46.4877495],[16.6490746,46.4884881],[16.6479545,46.4888488],[16.6445097,46.4918203],[16.6440133,46.4906689],[16.644098,46.488767],[16.6356932,46.4916328],[16.6346672,46.4900855],[16.6313236,46.4907769],[16.6313405,46.490399],[16.6197367,46.4909134],[16.6187194,46.4889817],[16.6159488,46.4893066],[16.6159661,46.4889225],[16.6148457,46.4892829],[16.6148114,46.4900449],[16.6131178,46.4907712],[16.6125364,46.4915214],[16.6125193,46.4918993],[16.6102959,46.4922296],[16.6097144,46.4929798],[16.6096456,46.4945038],[16.6090895,46.4944918],[16.6101239,46.4960395],[16.6028456,46.4985489],[16.5972139,46.4889025],[16.5977784,46.4885303],[16.5984378,46.4862626],[16.5963355,46.4839289],[16.5952497,46.4835271],[16.5941467,46.4835032],[16.5935825,46.4838693],[16.593565,46.4842533],[16.5929919,46.4846192],[16.5924449,46.4846073],[16.5918714,46.4849793],[16.5902214,46.4849435],[16.589709,46.4841696],[16.5892224,46.4826336],[16.5886929,46.4822377],[16.5849242,46.4772547],[16.5844054,46.477276],[16.5809027,46.478211],[16.5803738,46.4784819],[16.5798767,46.4790616],[16.5799217,46.480246],[16.5792879,46.4810456],[16.5752938,46.4827856],[16.5703974,46.4845798],[16.5699802,46.4849785],[16.5697884,46.4854362],[16.5701505,46.4871596],[16.569879,46.4876233],[16.56935,46.4879805],[16.5663739,46.4891999],[16.5643451,46.4897395],[16.5634062,46.4896953],[16.5622676,46.4893223],[16.5613455,46.4894022],[16.5559374,46.4917812],[16.5550904,46.4917798],[16.5529647,46.492213],[16.550701,46.4933703],[16.5465005,46.4946979],[16.5368436,46.4999554],[16.532048,46.5005265],[16.5312208,46.5008653],[16.5236253,46.5053038],[16.5252885,46.5085882],[16.529942,46.5075404],[16.5332297,46.5143477],[16.5324521,46.5146314],[16.5315993,46.5153198],[16.5281626,46.5149508],[16.5271281,46.515364],[16.5257927,46.5153885],[16.525265,46.5160211],[16.5255265,46.5163227],[16.5253483,46.5164948],[16.5257869,46.5170268],[16.5254412,46.5171893],[16.5258046,46.5183676],[16.5250082,46.5192822],[16.5243832,46.5195055],[16.5281009,46.5233866],[16.5287005,46.5231213],[16.5279955,46.5237294],[16.528649,46.5245619],[16.5302757,46.525155],[16.5307795,46.5251386],[16.5307838,46.5254476],[16.530494,46.525992],[16.5304961,46.5265132],[16.5298973,46.5274307],[16.5300166,46.5286451],[16.53055,46.529736],[16.5313436,46.5295502],[16.5319033,46.530413],[16.531907,46.530807],[16.5324346,46.5312975],[16.5324201,46.5315368],[16.531688,46.5319221],[16.5304962,46.5320509],[16.5291336,46.5327983],[16.5288329,46.5327441],[16.5278429,46.5348799],[16.5277113,46.5347885],[16.5271775,46.535051],[16.5256035,46.5352316],[16.5242742,46.5352146],[16.5239405,46.5355166],[16.5233727,46.535619],[16.5230842,46.5351718],[16.521442,46.5352045],[16.5200643,46.534959],[16.5185174,46.5353394],[16.5185868,46.5357554],[16.5175898,46.536311],[16.517585,46.537016],[16.5179872,46.5373707],[16.5179981,46.5376601],[16.5167019,46.5382368],[16.5171073,46.5388181],[16.517708,46.5385671],[16.5178939,46.5388184],[16.5168985,46.5394077],[16.5170465,46.5398721],[16.5177589,46.540531],[16.5169923,46.5409425],[16.5160472,46.5411319],[16.5163145,46.5420459],[16.5170964,46.5430652],[16.5171831,46.5433884],[16.5180658,46.5441854],[16.5188082,46.5457319],[16.5193072,46.5462906],[16.5192246,46.546653],[16.5186429,46.5469683],[16.5182173,46.5474615],[16.5180913,46.549347],[16.5182535,46.5501531],[16.5188238,46.5510745],[16.5188872,46.5515255],[16.518623,46.5521512],[16.518648,46.5526799],[16.5148169,46.5572659],[16.5134417,46.5590456],[16.5136131,46.5591356],[16.5133625,46.5594643],[16.5130416,46.5594689],[16.5083356,46.5652338],[16.5080175,46.5648549],[16.5064877,46.5640755],[16.5046233,46.5642959],[16.5041683,46.5635908],[16.5033158,46.5634624],[16.5029279,46.5636247],[16.5026993,46.5633338],[16.5018849,46.5630901],[16.5011604,46.5624134],[16.4999625,46.5623244],[16.4991724,46.5627238],[16.4976256,46.5630204],[16.4971085,46.5632899],[16.4961712,46.5630249],[16.4953761,46.5624362],[16.4930869,46.5625053],[16.4929605,46.5631478],[16.4930655,46.5644454],[16.4902022,46.5656005],[16.4896913,46.5656866],[16.4883673,46.5650831],[16.4871624,46.5652521],[16.4853139,46.5658129],[16.4829704,46.5659846],[16.4819851,46.5668362],[16.4819077,46.5674268],[16.4824296,46.5684794],[16.4827083,46.5697068],[16.4821795,46.5718235],[16.4822598,46.5733594],[16.4819812,46.5735812],[16.4818555,46.5744391],[16.482342,46.5760615],[16.4828901,46.5767611],[16.4840335,46.5775554],[16.4837396,46.5777482],[16.4833498,46.5785173],[16.4820557,46.5790078],[16.4813454,46.5795444],[16.4799673,46.5820404],[16.4772896,46.5846122],[16.4750189,46.5860922],[16.4734475,46.5875445],[16.4699871,46.5858353],[16.469132,46.5856138],[16.4688718,46.585819],[16.464853,46.5917926],[16.464578,46.5918906],[16.4629901,46.5944267],[16.4633075,46.5949507],[16.4615427,46.5969265],[16.4556769,46.5978281],[16.4556192,46.5987998],[16.4536428,46.6007058],[16.4521949,46.6006881],[16.4485247,46.6059735],[16.4467703,46.6077787],[16.4455713,46.610952],[16.4494034,46.6147662],[16.4504355,46.6163154],[16.4493114,46.6166741],[16.448644,46.6189409],[16.4496944,46.6201122],[16.4501968,46.6212648],[16.4512658,46.622052],[16.4534502,46.6224802],[16.4539342,46.6240168],[16.4556251,46.6232927],[16.4556432,46.6229149],[16.4573525,46.6218067],[16.4658428,46.6292433],[16.4674335,46.6307988],[16.4679454,46.6315732],[16.4684845,46.6319699],[16.4683934,46.6338716],[16.4672509,46.6346084],[16.4666934,46.6345957],[16.4661267,46.6349611],[16.4655692,46.6349484],[16.4644538,46.6353075],[16.4638597,46.6360567],[16.4633112,46.6360442],[16.4627721,46.6356475],[16.4622235,46.635635],[16.4616842,46.6352444],[16.4594263,46.636334],[16.4593715,46.6374738],[16.4662556,46.6437264],[16.4667948,46.6441232],[16.4678829,46.6445262],[16.4678645,46.6449102],[16.4694829,46.6457098],[16.4723212,46.6465219],[16.4738628,46.6465657],[16.4738809,46.6461878],[16.4771816,46.6466409],[16.4788726,46.6459227],[16.483316,46.6456387],[16.4845128,46.6437619],[16.4860951,46.6453231],[16.4883259,46.644989],[16.4894501,46.6446361],[16.4899987,46.6446484],[16.4905384,46.6450389],[16.4925793,46.6485141],[16.5009708,46.6582277],[16.5041464,46.6613498],[16.5084292,46.6644905],[16.5158087,46.6722764],[16.5180635,46.6737994],[16.5255291,46.6774474],[16.5292565,46.6805749],[16.5286449,46.6817085],[16.523101,46.6819637],[16.5159816,46.6802798],[16.5104913,46.6794007],[16.5093843,46.679376],[16.5077465,46.6789549],[16.5033908,46.6773319],[16.5011948,46.6769044],[16.4995389,46.6768673],[16.4979013,46.676446],[16.4918178,46.6763093],[16.4885151,46.6758566],[16.4874082,46.6758317],[16.4846275,46.6761472],[16.4824137,46.6760972],[16.4818828,46.675707],[16.480209,46.6760474],[16.4779952,46.6759973],[16.4762665,46.6774837],[16.4762482,46.6778678],[16.4773281,46.6782705],[16.4800272,46.6798571],[16.4810797,46.6810219],[16.481556,46.6825581],[16.4820687,46.6833325],[16.4826087,46.6837229],[16.4831214,46.6844973],[16.4795549,46.6897497],[16.4795366,46.6901338],[16.4822093,46.6920979],[16.4832259,46.6940247],[16.4831895,46.6947866],[16.4807935,46.69854],[16.4801532,46.7004355],[16.4784332,46.7015377],[16.4762003,46.7018654],[16.4761638,46.7026274],[16.4755417,46.7041388],[16.4743978,46.7048756],[16.4743433,46.7060154],[16.4759452,46.7071989],[16.4774837,46.7099002],[16.4774473,46.7106622],[16.4739424,46.7143904],[16.4737968,46.7174319],[16.4715305,46.7180149],[16.4715448,46.7181436],[16.4736873,46.7197177],[16.4747767,46.7201268],[16.4763613,46.721682],[16.4768833,46.7224565],[16.4773779,46.7236149],[16.4784497,46.7243957],[16.4784133,46.7251576],[16.4794664,46.7263286],[16.4805379,46.7271156],[16.4820865,46.7294326],[16.4836896,46.7306098],[16.485851,46.7318057],[16.4885623,46.7330078],[16.4907602,46.7334417],[16.4934717,46.7346437],[16.49567,46.7350713],[16.4983814,46.7362794],[16.5016697,46.7371158],[16.5004896,46.7386087],[16.4993632,46.7389679],[16.4981286,46.7416067],[16.4975611,46.7419723],[16.4975429,46.7423563],[16.4935781,46.7441711],[16.491289,46.7456451],[16.4890723,46.7455953],[16.4884864,46.7463448],[16.4879097,46.7467101],[16.4861611,46.7485745],[16.4833946,46.7485122],[16.4811051,46.749986],[16.4804826,46.7514974],[16.4752259,46.75709],[16.471314,46.7577642],[16.4694456,46.7619139],[16.4643331,46.764476],[16.466963,46.7675751],[16.4679714,46.7695017],[16.4673667,46.770629],[16.4667984,46.7710006],[16.4667436,46.7721404],[16.4661846,46.7721277],[16.4655799,46.773255],[16.4632888,46.7747285],[16.4665057,46.7770898],[16.4675327,46.7786324],[16.4669277,46.7797659],[16.4673497,46.782442],[16.4678906,46.7828325],[16.4684406,46.782845],[16.4689812,46.7832417],[16.4694399,46.7851559],[16.4705001,46.786152],[16.4699443,46.7863083],[16.468276,46.7862705],[16.4671484,46.7866294],[16.4668351,46.7877229],[16.4659935,46.7877442],[16.4638118,46.786932],[16.4640786,46.8044627],[16.4644455,46.8082847],[16.4643906,46.8094245],[16.4660505,46.8094622],[16.4699569,46.8091724],[16.4732768,46.8092475],[16.4743499,46.8100345],[16.4743318,46.8104124],[16.474873,46.8108029],[16.4742406,46.8123141],[16.4775332,46.8131512],[16.4773872,46.8161989],[16.4878802,46.817198],[16.4872754,46.8183254],[16.4861292,46.8190624],[16.4860748,46.8202022],[16.4854973,46.8205675],[16.4854246,46.8220913],[16.4858749,46.8243897],[16.485279,46.825139],[16.4852426,46.8259009],[16.4858021,46.8259135],[16.4862802,46.8274435],[16.4857113,46.8278152],[16.4850974,46.8289424],[16.485079,46.8293265],[16.4838417,46.8319651],[16.4860802,46.831631],[16.4854389,46.8335203],[16.4809983,46.8334203],[16.480907,46.8353282],[16.4803384,46.8356937],[16.4808706,46.8360902],[16.4802838,46.8368335],[16.4802654,46.8372175],[16.4797058,46.8372049],[16.480229,46.8379795],[16.4796693,46.8379668],[16.480156,46.8395033],[16.4801015,46.8406431],[16.4795053,46.8413924],[16.4800469,46.8417829],[16.4811572,46.8418079],[16.4811388,46.8421919],[16.4827453,46.8433691],[16.4838556,46.8433941],[16.4844246,46.8430224],[16.4849843,46.843035],[16.484966,46.8434191],[16.4843699,46.8441684],[16.4843154,46.8453082],[16.4837283,46.8460577],[16.4831505,46.846423],[16.4819398,46.848684],[16.4813617,46.8490554],[16.4812342,46.851719],[16.4751309,46.8515814],[16.4754901,46.8557753],[16.4665226,46.8574825],[16.4653938,46.8578352],[16.465853,46.8597493],[16.4653022,46.8597368],[16.4651921,46.8620226],[16.4656696,46.8635589],[16.4662295,46.8635716],[16.4662113,46.8639494],[16.4672487,46.8654984],[16.467212,46.8662603],[16.4677262,46.8670347],[16.4676347,46.8689364],[16.4681123,46.8704727],[16.4686723,46.8704854],[16.4680575,46.8716125],[16.4685808,46.872387],[16.4666075,46.8788164],[16.4671585,46.8788289],[16.466589,46.8792004],[16.4637886,46.8795153],[16.4604276,46.8802018],[16.4592615,46.8813163],[16.4575808,46.8816626],[16.4519883,46.8822982],[16.448664,46.8822224],[16.4469744,46.8825622],[16.4425389,46.8824609],[16.440849,46.8828068],[16.4408677,46.8824227],[16.4392623,46.8823548],[16.4374508,46.8842483],[16.4368348,46.8853814],[16.4367238,46.8876609],[16.4377608,46.8892102],[16.4382654,46.8903628],[16.4376866,46.890734],[16.4371354,46.8907214],[16.4365569,46.8910864],[16.4370799,46.8918611],[16.4369686,46.8941468],[16.436913,46.8952866],[16.4363528,46.8952738],[16.4363341,46.8956578],[16.4385569,46.8957087],[16.4395944,46.8972517],[16.4395757,46.8976358],[16.4417616,46.8984485],[16.4429101,46.897712],[16.4445357,46.8985119],[16.4456102,46.8992991],[16.446106,46.9004515],[16.4466663,46.9004642],[16.4471992,46.9008547],[16.4516083,46.9017179],[16.4526739,46.9025049],[16.458158,46.904155],[16.4586357,46.9056913],[16.4608221,46.9065037],[16.4613734,46.9065162],[16.4630089,46.9073098],[16.4635602,46.9073223],[16.4640838,46.9080969],[16.4646166,46.9084934],[16.4657101,46.9088965],[16.4667484,46.9104454],[16.4672263,46.9119817],[16.4683381,46.9120069],[16.4682832,46.9131466],[16.4688069,46.9139212],[16.4699187,46.9139464],[16.4699372,46.9135623],[16.4694131,46.9127939],[16.469578,46.9093684],[16.4701569,46.908997],[16.4718199,46.9090346],[16.4735561,46.9075483],[16.4741165,46.907561],[16.4757429,46.9083604],[16.4762942,46.9083728],[16.4784261,46.9103308],[16.4795378,46.9103558],[16.4805768,46.9118985],[16.4810551,46.9134347],[16.4820939,46.9149836],[16.4826363,46.915374],[16.4836842,46.9165448],[16.4847234,46.9180874],[16.4851926,46.9200079],[16.4839716,46.9222625],[16.4828596,46.9222375],[16.4822716,46.922987],[16.4821805,46.9248887],[16.4826955,46.925663],[16.4837711,46.9264499],[16.4848102,46.9279987],[16.4847557,46.9291385],[16.4869616,46.9295725],[16.4868706,46.9314741],[16.4874041,46.9318644],[16.4879193,46.9326387],[16.4877555,46.9360642],[16.4888313,46.936851],[16.4887949,46.937613],[16.4893375,46.9380034],[16.4898528,46.9387777],[16.4897619,46.9406794],[16.4891919,46.941051],[16.4885948,46.9418004],[16.4885584,46.9425623],[16.4874098,46.9432931],[16.4840632,46.9436024],[16.4829143,46.9443393],[16.4818019,46.9443143],[16.4807079,46.9439053],[16.4801378,46.9442769],[16.4801743,46.943515],[16.4807625,46.9427655],[16.4807991,46.9420036],[16.4802839,46.9412293],[16.4791897,46.9408264],[16.4791716,46.9412042],[16.4785924,46.9415757],[16.4780408,46.9415633],[16.4767457,46.9453416],[16.4734266,46.9448885],[16.4709543,46.9501656],[16.4708261,46.9528292],[16.4713597,46.9532195],[16.4713412,46.9536036],[16.4707712,46.953969],[16.4701737,46.9547182],[16.4701552,46.9551023],[16.4706797,46.9558707],[16.470643,46.9566326],[16.4722523,46.9578161],[16.4727493,46.9589683],[16.4714074,46.9638927],[16.4735874,46.9647046],[16.4769259,46.9647798],[16.4780572,46.9644208],[16.4780754,46.9640429],[16.4792066,46.9636839],[16.4814232,46.9637338],[16.4825177,46.9641428],[16.4824996,46.9645207],[16.4813683,46.9648797],[16.4780388,46.9648049],[16.4763559,46.9651452],[16.474682,46.9651075],[16.4713158,46.9657944],[16.4712243,46.967696],[16.4693671,46.9714616],[16.4680705,46.975246],[16.4679603,46.9775317],[16.4668197,46.9782624],[16.4650352,46.9805103],[16.4644649,46.9808757],[16.4637383,46.9842884],[16.4582363,46.9830228],[16.4560467,46.9822104],[16.4549335,46.9821852],[16.4543628,46.9825567],[16.4548966,46.9829471],[16.4543445,46.9829345],[16.4543259,46.9833186],[16.4537647,46.9833058],[16.4543076,46.9836964],[16.4537281,46.9840615],[16.4537095,46.9844456],[16.4531574,46.984433],[16.4536912,46.9848234],[16.453139,46.9848109],[16.4531204,46.9851949],[16.4525683,46.9851824],[16.452513,46.9863221],[16.4519518,46.9863094],[16.4518965,46.9874491],[16.4513444,46.9874366],[16.4513074,46.9881985],[16.4507462,46.9881857],[16.4507276,46.9885698],[16.4501754,46.9885572],[16.4501384,46.9893191],[16.4495589,46.9896842],[16.4490067,46.9896717],[16.4489881,46.9900557],[16.4472671,46.9911575],[16.4472488,46.9915354],[16.4466876,46.9915226],[16.446677,46.9931187],[16.4454751,46.9932088],[16.446527,46.9961947],[16.4469885,46.9993348],[16.4462239,47.0013542],[16.4460802,47.0023346],[16.4465596,47.0031579],[16.4478185,47.003633],[16.4487366,47.0032379],[16.4493136,47.0037424],[16.4501141,47.0038768],[16.4512678,47.0034024],[16.4513942,47.0036575],[16.4513027,47.0041741],[16.4515012,47.00429],[16.4524765,47.0039739],[16.4523571,47.0033977],[16.4526554,47.0031547],[16.4545247,47.0033821],[16.4542396,47.0025171],[16.4561473,47.0019769],[16.4563757,47.0010953],[16.4582432,47.0013901],[16.4585767,47.0011451],[16.4585936,47.0007256],[16.4591861,47.0005883],[16.4595372,47.001023],[16.4594279,47.0018735],[16.4600177,47.0017374],[16.4600278,47.0015344],[16.4604291,47.0014285],[16.4601089,47.0011901],[16.4602636,47.0006257],[16.460128,47.0002905],[16.4614446,47.0001156],[16.4617943,46.9998324],[16.4616339,46.9986193],[16.4625792,46.9983678],[16.4627419,46.998219],[16.4629278,46.9974237],[16.4631758,46.9972902],[16.4633977,46.9973859],[16.4637038,46.997078],[16.4641002,46.9972507],[16.464548,46.9977394],[16.4653563,46.9975871],[16.465959,46.9971819],[16.4660679,46.9974499],[16.4658239,46.9981457],[16.4660264,46.9983258],[16.4667552,46.9982631],[16.4679512,46.997657],[16.4691053,46.9979853],[16.4697019,46.9976689],[16.4700501,46.9972031],[16.4704832,46.9974364],[16.4706554,46.9978209],[16.4708941,46.9978402],[16.47141,46.997702],[16.4720027,46.9970081],[16.473976,46.9973431],[16.4741778,46.9971559],[16.4738574,46.9969123],[16.473869,46.9967258],[16.4742351,46.9961077],[16.4752259,46.9959303],[16.4760265,46.9955057],[16.4777408,46.9950844],[16.4786517,46.9952951],[16.4786079,46.9949165],[16.4779427,46.9944971],[16.4782808,46.9943037],[16.4790453,46.9943655],[16.4788249,46.9939123],[16.4792132,46.99382],[16.4798004,46.9939836],[16.480148,46.9941955],[16.4804932,46.9947575],[16.4810636,46.99502],[16.4818331,46.9945966],[16.4819191,46.9941958],[16.4816371,46.9942167],[16.4817099,46.9926991],[16.4822987,46.9919496],[16.4817649,46.9915531],[16.481783,46.9911753],[16.4830426,46.9881527],[16.4868618,46.9897638],[16.4879752,46.9897888],[16.4890702,46.9901977],[16.4896224,46.9902101],[16.4930353,46.988761],[16.4980952,46.9877331],[16.4986657,46.9873614],[16.5003492,46.9870207],[16.5020237,46.987058],[16.5025941,46.9866862],[16.5037254,46.9863332],[16.5076536,46.9856579],[16.5104864,46.9845799],[16.5111742,46.9819225],[16.51121,46.9811668],[16.5139706,46.9816063],[16.5133012,46.9838796],[16.5144145,46.9839043],[16.5143244,46.985806],[16.5137362,46.9865557],[16.513664,46.9880795],[16.5141082,46.9903713],[16.5180185,46.9900797],[16.5257048,46.9925316],[16.5279227,46.9925806],[16.5285376,46.9914531],[16.5301851,46.9918739],[16.5313167,46.9915144],[16.5345854,46.9931118],[16.5356363,46.9942758],[16.536144,46.995428],[16.5361082,46.9961899],[16.5366424,46.9965861],[16.5365709,46.9981099],[16.5365531,46.9984878],[16.5354038,46.9992252],[16.5359566,46.9995995],[16.5364996,46.9996276],[16.5365174,46.9992497],[16.5370967,46.998878],[16.5371145,46.9985001],[16.5376845,46.9981344],[16.5377025,46.9977503],[16.5382638,46.9977627],[16.5389053,46.9958731],[16.5378098,46.9954646],[16.538371,46.9954769],[16.5397965,46.9886562],[16.5398322,46.9878943],[16.5415068,46.9879311],[16.5420769,46.9875591],[16.5426738,46.9868095],[16.5427095,46.9860476],[16.5438228,46.986072],[16.5438582,46.9853162],[16.5486048,46.9789403],[16.5677101,46.9869775],[16.5711735,46.9843863],[16.5749951,46.9859945],[16.5766431,46.9864084],[16.5787995,46.9879804],[16.5799129,46.9880045],[16.5820871,46.9891924],[16.5837527,46.9892283],[16.5876976,46.9881724],[16.588811,46.9881964],[16.594343,46.989078],[16.5954473,46.9891017],[16.6152804,46.9937174],[16.6163939,46.9937411],[16.6163768,46.994119],[16.6276319,46.9950683],[16.627503,46.9943552],[16.6281068,46.9932271],[16.6281242,46.992843],[16.6292722,46.9921046],[16.6298334,46.9921165],[16.6303683,46.9925123],[16.6309379,46.9921399],[16.630955,46.991762],[16.6315506,46.9910119],[16.6316539,46.9887261],[16.6294786,46.9875391],[16.6294957,46.9871612],[16.6300742,46.986789],[16.6300913,46.9864112],[16.6306953,46.9852768],[16.6291328,46.9829619],[16.6286406,46.9814261],[16.6270268,46.980251],[16.6282263,46.9783666],[16.6287955,46.9780004],[16.6276994,46.977599],[16.6277493,46.9748683],[16.6285187,46.9718993],[16.628061,46.9696015],[16.6330651,46.9697075],[16.6330822,46.9693296],[16.6325475,46.9689338],[16.6325646,46.9685559],[16.6347906,46.968603],[16.6359379,46.9678646],[16.6365413,46.9667364],[16.6393364,46.9664109],[16.6393877,46.9652711],[16.6416306,46.9649401],[16.6421313,46.9660916],[16.6426753,46.9664813],[16.6426411,46.9672433],[16.6437198,46.9680286],[16.6437026,46.9684127],[16.6442206,46.9691801],[16.6442034,46.9695642],[16.6458172,46.9707391],[16.6458,46.9711231],[16.6463441,46.9715128],[16.6463099,46.9722748],[16.6468449,46.9726643],[16.6468277,46.9730483],[16.6484336,46.9746074],[16.6483997,46.9753632],[16.6489345,46.9757589],[16.6489176,46.9761368],[16.6497924,46.9765825],[16.6500135,46.9765442],[16.6511608,46.9758056],[16.651178,46.9754215],[16.651798,46.9739154],[16.6529794,46.9724148],[16.6531158,46.969367],[16.6536937,46.9690009],[16.6537447,46.967861],[16.6548827,46.9671222],[16.6548999,46.9667381],[16.6560469,46.9659995],[16.6560638,46.9656216],[16.6566417,46.9652554],[16.6571937,46.965267],[16.6572108,46.9648829],[16.6584087,46.9630044],[16.6584427,46.9622424],[16.6579928,46.959945],[16.6618661,46.9604104],[16.6618832,46.9600264],[16.6757294,46.9614619],[16.6757464,46.9610779],[16.6751855,46.9610662],[16.6752528,46.9595485],[16.6830336,46.9597099],[16.6830673,46.9589479],[16.6836282,46.9589595],[16.6838131,46.9547718],[16.6871011,46.9559807],[16.6865232,46.9563532],[16.6909242,46.957585],[16.6909743,46.9564452],[16.6920448,46.9572237],[16.6925722,46.9579973],[16.6931072,46.9583927],[16.6941198,46.9606954],[16.6941029,46.9610795],[16.6951991,46.9614803],[16.6957432,46.9618759],[16.697408,46.9619102],[16.7012487,46.9631301],[16.7039765,46.964327],[16.7050895,46.9643499],[16.706721,46.965146],[16.7078007,46.9659308],[16.7116251,46.9675344],[16.7127048,46.9683191],[16.7143366,46.9691151],[16.7225479,46.9723271],[16.7258542,46.973157],[16.7269342,46.9739416],[16.7274863,46.9739528],[16.7274369,46.9750927],[16.7255073,46.9811485],[16.7246487,46.9879887],[16.7259267,46.9971603],[16.726446,46.9979335],[16.7262809,47.0017372],[16.7268165,47.0021325],[16.726602,47.0070761],[16.7276828,47.0078607],[16.7276661,47.0082448],[16.7282112,47.0086341],[16.7276497,47.0086227],[16.7281945,47.0090182],[16.727633,47.0090068],[16.7275672,47.0105245],[16.7270148,47.0105133],[16.7269486,47.0120373],[16.7275011,47.0120485],[16.7274847,47.0124264],[16.7269322,47.0124152],[16.7268991,47.0131772],[16.7274516,47.0131884],[16.7274185,47.0139504],[16.7268494,47.0143232],[16.7274019,47.0143344],[16.7279801,47.0139618],[16.7285325,47.013973],[16.729094,47.0139844],[16.7290774,47.0143684],[16.7301914,47.014391],[16.730208,47.0140069],[16.7307439,47.0144022],[16.7324103,47.014436],[16.732427,47.0140519],[16.7329885,47.0140633],[16.7330048,47.0136854],[16.7341188,47.013708],[16.7341355,47.0133239],[16.7346879,47.013335],[16.7357853,47.0137417],[16.7357689,47.0141196],[16.7363048,47.0145148],[16.732361,47.0155759],[16.7416451,47.019955],[16.7438733,47.0199999],[16.7433283,47.0196045],[16.7439061,47.019238],[16.7433446,47.0192266],[16.7434265,47.0173248],[16.7428906,47.0169296],[16.7434594,47.0165628],[16.7451259,47.0165964],[16.7478993,47.0170304],[16.7500856,47.0178371],[16.7501184,47.0170751],[16.7518919,47.014829],[16.7524609,47.014456],[16.7524936,47.013694],[16.7530551,47.0137053],[16.7541927,47.0129655],[16.7542743,47.0110636],[16.751494,47.0110078],[16.7509578,47.0106188],[16.7507888,47.0014698],[16.7502365,47.0014587],[16.7505308,46.9946071],[16.7516279,46.9950135],[16.752758,46.9946518],[16.7527742,46.9942739],[16.7533429,46.9939009],[16.7533591,46.993523],[16.7550738,46.9924166],[16.7551229,46.9912705],[16.7546196,46.9901195],[16.7535388,46.9893352],[16.7536368,46.9870492],[16.754198,46.9870605],[16.7558146,46.98824],[16.7613241,46.9894913],[16.7614541,46.9864495],[16.7622268,46.9815109],[16.7640872,46.9769784],[16.7618607,46.9769339],[16.7613251,46.9765387],[16.7613412,46.9761608],[16.7619097,46.9757878],[16.7620071,46.973508],[16.7614876,46.972735],[16.7615365,46.9715889],[16.7620886,46.9715999],[16.7621209,46.9708441],[16.763234,46.9708664],[16.7632665,46.9701044],[16.7638601,46.9693536],[16.7639251,46.9678296],[16.7650616,46.9670897],[16.7656227,46.9671009],[16.7656388,46.966723],[16.7662071,46.96635],[16.7668168,46.9652213],[16.7679622,46.9644815],[16.7679783,46.9641036],[16.7685791,46.9629685],[16.7686115,46.9622065],[16.7680596,46.9621955],[16.7680918,46.9614397],[16.7697891,46.960711],[16.7753285,46.9611996],[16.7759055,46.9608328],[16.7786832,46.960888],[16.7792191,46.9612769],[16.7797801,46.9612881],[16.7798124,46.9605261],[16.7814772,46.9605591],[16.7820219,46.9609543],[16.7825096,46.9624831],[16.7823969,46.965147],[16.7805545,46.9693019],[16.7805382,46.969686],[16.7799612,46.9700527],[16.7804899,46.9708259],[16.7826589,46.9720097],[16.7826426,46.9723938],[16.7869667,46.9755239],[16.7869505,46.975908],[16.7880315,46.976692],[16.790762,46.9778868],[16.7929405,46.9790707],[16.7967843,46.9802936],[16.8051206,46.9804575],[16.8051367,46.9800734],[16.8068112,46.9801063],[16.8108942,46.9756168],[16.8142496,46.9753042],[16.8181099,46.976136],[16.8186777,46.9757689],[16.8192298,46.9757797],[16.8203588,46.9754235],[16.8214563,46.9758231],[16.8220331,46.9754561],[16.8220808,46.97431],[16.8237461,46.9743425],[16.8238251,46.9724405],[16.8243298,46.9735912],[16.8254271,46.973997],[16.8259882,46.9740079],[16.8270698,46.9747915],[16.8281423,46.975575],[16.8286562,46.9767258],[16.8314032,46.9775418],[16.8319487,46.9779306],[16.8319328,46.9783147],[16.832485,46.9783254],[16.8352009,46.9798971],[16.8385094,46.9807238],[16.8408145,46.9788649],[16.8424956,46.9785191],[16.8436402,46.9777786],[16.8478453,46.9702397],[16.850608,46.970671],[16.859473,46.9716039],[16.8655441,46.972867],[16.8688837,46.9729308],[16.8678326,46.9713855],[16.8678482,46.9710014],[16.8722918,46.9710861],[16.8733893,46.9714914],[16.8739723,46.9707399],[16.874549,46.9703665],[16.8767753,46.9704088],[16.8784558,46.9700626],[16.8784712,46.9696846],[16.8790232,46.9696951],[16.8861927,46.9713501],[16.8872751,46.9721332],[16.891136,46.9729687],[16.8971777,46.9749861],[16.8994042,46.975028],[16.8999715,46.9746604],[16.903909,46.9735936],[16.907264,46.9732721],[16.9089597,46.9725413],[16.9131543,46.9790988],[16.9141918,46.9810216],[16.9163488,46.982587],[16.9260588,46.9903814],[16.933127,46.9947036],[16.9374524,46.9978339],[16.9386111,46.9967145],[16.9392626,46.9944387],[16.9409285,46.9944695],[16.9419973,46.99563],[16.9436633,46.9956607],[16.9448518,46.9937792],[16.9454879,46.9918875],[16.9533935,46.9889823],[16.9545963,46.9867228],[16.9551485,46.9867329],[16.9557604,46.9852189],[16.9574203,46.9856275],[16.9574351,46.9852496],[16.9601698,46.9864404],[16.961313,46.9856987],[16.9640476,46.9868955],[16.9652205,46.9853918],[16.9685313,46.9862146],[16.9691132,46.9854626],[16.9718777,46.9858911],[16.9719219,46.9847511],[16.9724685,46.9851392],[16.9730501,46.9843934],[16.9735967,46.9847815],[16.9736409,46.9836416],[16.9748192,46.9817534],[16.9753804,46.9817636],[16.976538,46.9806438],[16.9776365,46.9810481],[16.978233,46.9799119],[16.9804598,46.9799522],[16.9832093,46.9807646],[16.9887673,46.9808649],[16.991526,46.9816771],[16.995883,46.9840432],[16.9958685,46.9844211],[16.996415,46.9848153],[16.9974613,46.9863531],[16.9974466,46.9867372],[17.0034356,46.990273],[17.0039969,46.9902831],[17.0067473,46.9910948],[17.0078609,46.9911147],[17.0117107,46.9923241],[17.0133187,46.9938779],[17.0143601,46.9957998],[17.0153726,46.9984837],[17.0159249,46.9984935],[17.0169809,47.0000374],[17.0169665,47.0004154],[17.0181814,46.9977711],[17.0187428,46.997781],[17.0188007,46.9962569],[17.0193962,46.9951267],[17.0205099,46.9951465],[17.0259487,46.9838167],[17.0276577,46.9826999],[17.0271197,46.9823122],[17.0276719,46.982322],[17.0282474,46.981954],[17.030494,46.9812311],[17.0384221,46.977558],[17.040068,46.9783495],[17.0411814,46.9783691],[17.0434418,46.977268],[17.0445551,46.9772875],[17.0456829,46.9769229],[17.0462723,46.9761769],[17.047391,46.9758121],[17.0479521,46.9758219],[17.049037,46.9766035],[17.0495466,46.9777531],[17.0506456,46.9781567],[17.0511927,46.9785445],[17.0517449,46.9785541],[17.0522827,46.9789479],[17.0545522,46.9778406],[17.0583735,46.9798167],[17.0593598,46.9832561],[17.0665223,46.9852901],[17.0779384,46.9747961],[17.0811603,46.9749081],[17.0823158,46.9716606],[17.082835,46.9717221],[17.0832352,46.9707045],[17.0855811,46.9710958],[17.0922968,46.9712265],[17.0940005,46.9703018],[17.0960337,46.9694416],[17.0971573,46.9694378],[17.0976263,46.9717272],[17.0975986,46.9724893],[17.1012134,46.9726776],[17.1016229,46.9732506],[17.1031142,46.9737303],[17.1075674,46.973806],[17.1081335,46.9734312],[17.1092468,46.9734501],[17.1109349,46.9731006],[17.1153515,46.973938],[17.1164512,46.9743347],[17.1186778,46.9743724],[17.1203568,46.9740225],[17.1209228,46.9736477],[17.125376,46.9737227],[17.1287568,46.9726389],[17.1337621,46.9727228],[17.135414,46.9731287],[17.1409714,46.9732216],[17.1426188,46.9740116],[17.1431438,46.9747829],[17.1448092,46.9748107],[17.1481222,46.9756284],[17.1509147,46.9752904],[17.1536665,46.9760986],[17.1564545,46.9761448],[17.1559066,46.9757575],[17.1559469,46.9746175],[17.1581469,46.9754103],[17.1692179,46.9771179],[17.1698101,46.975987],[17.1803337,46.9773002],[17.1809879,46.9746451],[17.1821278,46.9739012],[17.1830109,46.9740963],[17.1832411,46.9739194],[17.1832809,46.9727793],[17.1827462,46.972008],[17.1827728,46.9712459],[17.1840054,46.9678378],[17.1841379,46.9640334],[17.1870353,46.9606524],[17.1881748,46.9599084],[17.1920264,46.9611117],[17.193113,46.9618919],[17.1936741,46.961901],[17.1947518,46.9626811],[17.2107736,46.96599],[17.2114002,46.9640907],[17.2162744,46.9679816],[17.2162093,46.9698838],[17.2178096,46.9718126],[17.2183617,46.9718215],[17.2183486,46.9722056],[17.2166702,46.9725569],[17.2154657,46.9752033],[17.2204842,46.9749055],[17.2271554,46.9750121],[17.22823,46.9761699],[17.2281912,46.9773099],[17.2292141,46.979992],[17.2302886,46.9811559],[17.2348755,46.977038],[17.2370637,46.9782134],[17.2410589,46.9752328],[17.2428363,46.9722108],[17.246244,46.9699832],[17.245182,46.9684414],[17.2435553,46.9672689],[17.2458202,46.9661639],[17.2482257,46.9608704],[17.2537438,46.9620979],[17.2581582,46.9520339],[17.2587472,46.9514691],[17.2596691,46.9511436],[17.2603317,46.9481101],[17.2576687,46.9446401],[17.2587598,46.9450354],[17.2593207,46.9450442],[17.2599106,46.9439128],[17.2847114,46.9507767],[17.2905667,46.941723],[17.2867394,46.9397608],[17.2890648,46.9367466],[17.2885755,46.9348359],[17.2870022,46.9317678],[17.2870272,46.9310057],[17.2859866,46.9290802],[17.2860114,46.9283243],[17.2854758,46.9275535],[17.2823644,46.920649],[17.2840373,46.9206748],[17.2902876,46.9165805],[17.2936774,46.9147295],[17.2964781,46.91401],[17.2976151,46.9132649],[17.29764,46.9125028],[17.2999139,46.9110126],[17.3005117,46.9098811],[17.301627,46.90952],[17.3027886,46.9080128],[17.3039131,46.9076456],[17.3050745,46.9061445],[17.305087,46.9057603],[17.3034855,46.9038327],[17.3040617,46.903079],[17.3040865,46.9023168],[17.3046718,46.9015633],[17.3041113,46.9015547],[17.3041361,46.9007926],[17.3047336,46.899661],[17.3047584,46.8988989],[17.3053221,46.8985294],[17.3064464,46.8981622],[17.3081096,46.8981875],[17.3081218,46.8978096],[17.309831,46.896695],[17.3098557,46.8959328],[17.3104071,46.8959412],[17.3154547,46.894493],[17.3154425,46.8948709],[17.3159938,46.8948793],[17.3165664,46.8945098],[17.3182295,46.8945351],[17.3221527,46.8934538],[17.3221651,46.8930696],[17.3244741,46.8904389],[17.3250376,46.8900692],[17.3250621,46.8893071],[17.3261982,46.8885617],[17.3262105,46.8881776],[17.326783,46.887808],[17.3268685,46.8851436],[17.3274442,46.8843898],[17.3269296,46.8832414],[17.326954,46.8824793],[17.3264182,46.8817087],[17.3264427,46.8809465],[17.3253557,46.8801676],[17.3231664,46.879372],[17.3215315,46.8782066],[17.3187821,46.8774024],[17.3182432,46.8770161],[17.3182556,46.8766319],[17.3177076,46.8762454],[17.3188926,46.8739759],[17.3194774,46.8732222],[17.3195141,46.8720821],[17.3229124,46.869846],[17.3273573,46.8699132],[17.328505,46.8687899],[17.3296193,46.8684285],[17.3307672,46.8672989],[17.3313273,46.8673074],[17.3319148,46.8661755],[17.3319392,46.8654134],[17.3325114,46.8650438],[17.3325237,46.8646597],[17.3331112,46.8635278],[17.3336712,46.8635363],[17.3336835,46.8631521],[17.3325968,46.8623732],[17.3320367,46.8623648],[17.3320732,46.8612247],[17.3326453,46.8608551],[17.3326576,46.860471],[17.3343925,46.8582157],[17.3355035,46.8582324],[17.3339146,46.855921],[17.332828,46.8551422],[17.3306306,46.8543466],[17.330655,46.8535844],[17.3262115,46.8535174],[17.326187,46.8542795],[17.3211435,46.8557283],[17.3221932,46.8576474],[17.3194325,46.8572274],[17.3155241,46.8579306],[17.2978537,46.8549949],[17.2951185,46.853806],[17.2940325,46.8530268],[17.2918357,46.8522305],[17.286328,46.8510048],[17.2852296,46.8506096],[17.2841188,46.8505925],[17.2824698,46.8501826],[17.2802984,46.8486239],[17.2797851,46.8474752],[17.2781521,46.8463092],[17.2715978,46.8431571],[17.2699489,46.8427532],[17.2683415,46.8408249],[17.2714918,46.8294424],[17.2710546,46.8260073],[17.270272,46.8160946],[17.2719451,46.8157426],[17.2925056,46.8149144],[17.2930312,46.815685],[17.2941288,46.8160863],[17.2968995,46.8161289],[17.2980592,46.8146217],[17.2991818,46.8142546],[17.3019524,46.8142971],[17.30305,46.8146983],[17.3036839,46.8124204],[17.306043,46.8078876],[17.3071899,46.8067645],[17.3071777,46.8071424],[17.3077124,46.8079131],[17.3088011,46.8083079],[17.3087764,46.8090701],[17.3115311,46.8098746],[17.3120692,46.8102672],[17.3126411,46.8098915],[17.3131916,46.8098999],[17.3143262,46.8091547],[17.3148766,46.809163],[17.3148888,46.8087851],[17.3165952,46.8076641],[17.3166074,46.8072862],[17.31717,46.8069166],[17.3177574,46.8057786],[17.3188919,46.8050333],[17.3200629,46.8031479],[17.3201732,46.7997213],[17.3196595,46.7985729],[17.3196719,46.7981887],[17.3174524,46.798155],[17.3174646,46.797777],[17.3152943,46.796219],[17.314744,46.7962106],[17.3136711,46.7950536],[17.3125861,46.7942745],[17.3125983,46.7938966],[17.3120851,46.7927419],[17.3115504,46.7919712],[17.3110123,46.7915848],[17.3110248,46.7912006],[17.3104899,46.7904362],[17.310527,46.7892899],[17.309989,46.7889035],[17.3083292,46.7888781],[17.3083661,46.787738],[17.3068331,46.7835238],[17.307417,46.7827702],[17.3069566,46.7797131],[17.307006,46.7781888],[17.3064681,46.7778024],[17.3056218,46.7683104],[17.3040487,46.7659432],[17.3055681,46.7656779],[17.3050687,46.7644768],[17.3046318,46.7640283],[17.3023682,46.7624611],[17.3017846,46.7627382],[17.3008668,46.7624785],[17.2997824,46.7617055],[17.2987107,46.7605422],[17.298723,46.7601642],[17.2976233,46.7596482],[17.2977816,46.7592317],[17.2985616,46.7350475],[17.2897373,46.7343914],[17.2683747,46.7010497],[17.2701668,46.6998867],[17.2706939,46.6991182],[17.2717756,46.6984],[17.2799159,46.6958446],[17.2819357,46.6962564],[17.2827095,46.6954195],[17.2855913,46.6952218],[17.289161,46.696789],[17.2902812,46.696422],[17.2913888,46.6964391],[17.2936538,46.694949],[17.2958475,46.6953672],[17.2958723,46.6946051],[17.3057946,46.6958983],[17.3069022,46.6959153],[17.3080345,46.6951701],[17.3096914,46.6951954],[17.3135511,46.6956388],[17.3157787,46.6952884],[17.3191382,46.6941988],[17.3191871,46.6926745],[17.3213932,46.6927081],[17.320905,46.6907975],[17.3214787,46.6900436],[17.3209905,46.688133],[17.3210516,46.6862307],[17.3216252,46.6854769],[17.3216497,46.6847148],[17.3233641,46.6832158],[17.3233886,46.6824536],[17.3262377,46.6798311],[17.3268112,46.6790773],[17.3268353,46.6783213],[17.327967,46.6775759],[17.3279913,46.6768138],[17.3322426,46.6750055],[17.3390035,46.6688254],[17.3379064,46.6609629],[17.3369688,46.6556174],[17.3359347,46.6533142],[17.335971,46.6521741],[17.3354221,46.6521658],[17.334828,46.6532975],[17.334731,46.6563462],[17.3341458,46.657478],[17.3341215,46.6582402],[17.3335514,46.6586159],[17.3340851,46.6593865],[17.3334908,46.6605182],[17.3340367,46.6609046],[17.3339154,46.6647154],[17.3322504,46.6646902],[17.3311404,46.6650516],[17.3289142,46.6654023],[17.3278681,46.6634771],[17.3268097,46.6619422],[17.3268341,46.6611801],[17.3252391,46.6592527],[17.3252635,46.6584905],[17.3247423,46.6573357],[17.3247543,46.6569578],[17.3220772,46.6542514],[17.3209949,46.6534724],[17.3199371,46.6519313],[17.3188548,46.6511523],[17.3178059,46.6496174],[17.3156416,46.6480594],[17.315654,46.6476752],[17.3145473,46.6476583],[17.3089862,46.6487202],[17.305654,46.6490473],[17.299535,46.6500939],[17.3008268,46.6444041],[17.300901,46.6421177],[17.2987375,46.6405593],[17.2965987,46.638245],[17.2972555,46.635205],[17.2972925,46.6340649],[17.29565,46.6336551],[17.2957615,46.6302286],[17.2952532,46.6287019],[17.2958604,46.6271862],[17.2980515,46.6275982],[17.300264,46.6276322],[17.3006097,46.6169746],[17.2989552,46.6169491],[17.2990416,46.6142847],[17.2934997,46.6145773],[17.2918576,46.6141737],[17.2753744,46.6112517],[17.275387,46.6108675],[17.2748296,46.6108588],[17.275998,46.6089738],[17.2801635,46.5999008],[17.2815686,46.5907785],[17.2818986,46.5770565],[17.2814695,46.5770637],[17.2826992,46.5732764],[17.2827615,46.5713741],[17.2833345,46.5706205],[17.2833844,46.5690962],[17.2846885,46.5630225],[17.2852986,46.5611287],[17.2864905,46.5584815],[17.2861415,46.552382],[17.2890601,46.547474],[17.2907001,46.5478776],[17.291817,46.5475167],[17.2923986,46.5467632],[17.2930082,46.5448694],[17.2924853,46.5440988],[17.2925101,46.5433367],[17.2931197,46.5414429],[17.2944593,46.5342227],[17.295044,46.533091],[17.2945582,46.5311803],[17.2957366,46.5289109],[17.2979944,46.5274208],[17.2991355,46.5262977],[17.2980931,46.5243784],[17.2922603,46.5170534],[17.2922728,46.5166692],[17.2917163,46.5166606],[17.2911812,46.5162741],[17.291206,46.515512],[17.2917907,46.5143741],[17.2919516,46.5094295],[17.2937108,46.5064066],[17.2943322,46.5041349],[17.2938469,46.5022179],[17.2967743,46.4969317],[17.2987581,46.4866775],[17.2999599,46.4836522],[17.2955805,46.4828219],[17.2933988,46.4820256],[17.2896165,46.4796793],[17.2891098,46.4781526],[17.286925,46.4777343],[17.2841876,46.4769291],[17.2825747,46.4757633],[17.2770932,46.4749151],[17.2716153,46.4736886],[17.2710683,46.47368],[17.271106,46.4725337],[17.2634188,46.4716564],[17.261785,46.4708681],[17.2590447,46.4704404],[17.2590195,46.4712026],[17.2572937,46.4734629],[17.2572684,46.474225],[17.256077,46.4768719],[17.2548476,46.480659],[17.2532099,46.4802548],[17.2526412,46.480624],[17.2520941,46.4806153],[17.2517216,46.4821174],[17.2498907,46.4820959],[17.2498498,46.4817204],[17.2491847,46.48166],[17.2500029,46.4787534],[17.2459715,46.4781971],[17.2456435,46.4791771],[17.2405497,46.479669],[17.2405752,46.4789069],[17.238916,46.4788804],[17.2387993,46.4883291],[17.2380972,46.4955537],[17.2383037,46.4971592],[17.2371748,46.4978975],[17.237031,46.5000454],[17.2365508,46.5001752],[17.2341215,46.5018815],[17.2329291,46.50228],[17.2302994,46.5024469],[17.2293187,46.5032668],[17.2200152,46.4999094],[17.2194717,46.4995225],[17.2189116,46.4998916],[17.2146655,46.4948695],[17.2141311,46.4944826],[17.2124934,46.4940717],[17.2047912,46.4935684],[17.2032616,46.489737],[17.2033267,46.4878286],[17.2027925,46.4874417],[17.2022884,46.4859084],[17.2012331,46.4847504],[17.1962469,46.4854315],[17.1973021,46.4865895],[17.193975,46.4872976],[17.1928717,46.4872795],[17.1923286,46.4868925],[17.1912475,46.4864904],[17.1901704,46.4857101],[17.1907176,46.4857191],[17.1945567,46.4836339],[17.1888779,46.4750256],[17.1889433,46.4731233],[17.1895255,46.4723704],[17.1900858,46.4719952],[17.1918231,46.4697422],[17.1929826,46.4678518],[17.1919016,46.4674559],[17.1885929,46.4674015],[17.1864002,46.4669873],[17.1847503,46.4669602],[17.1826366,46.4642595],[17.1810791,46.4615618],[17.1794599,46.4603943],[17.1758289,46.4538619],[17.1705893,46.4461556],[17.1694738,46.4465153],[17.1683713,46.446497],[17.1644906,46.447195],[17.160623,46.4475149],[17.1589474,46.4482433],[17.1588807,46.4501517],[17.1582584,46.4520446],[17.1587477,46.4539561],[17.158112,46.4562331],[17.1580322,46.4585133],[17.1574452,46.4596504],[17.157432,46.4600284],[17.1568627,46.4604033],[17.1567962,46.4623054],[17.1573388,46.4626927],[17.1567695,46.4630676],[17.1608084,46.4737984],[17.1507032,46.4789612],[17.1457705,46.4781159],[17.1430574,46.4769295],[17.1425104,46.4769203],[17.1387393,46.4741909],[17.1376992,46.4726482],[17.1366096,46.4722516],[17.1338477,46.4722049],[17.1328077,46.4706622],[17.1295801,46.4683198],[17.1274014,46.4675203],[17.1257787,46.4667302],[17.1219367,46.4662866],[17.1186553,46.4654682],[17.1165042,46.4639063],[17.114868,46.4635002],[17.1066106,46.4633588],[17.1032748,46.4640641],[17.1032886,46.46368],[17.1028139,46.4636811],[17.1022348,46.4631359],[17.0996039,46.4615637],[17.0984403,46.4605525],[17.0970754,46.4600706],[17.0956921,46.4588673],[17.0955533,46.4579463],[17.0955901,46.4561862],[17.095059,46.4556594],[17.0944024,46.4552905],[17.0938184,46.4542973],[17.0936074,46.4528912],[17.0928962,46.4511818],[17.0932939,46.4505564],[17.0933212,46.4498005],[17.092954,46.4484707],[17.0907261,46.4451801],[17.0897615,46.4413567],[17.0842175,46.4424014],[17.0836708,46.4423919],[17.0831012,46.4427664],[17.0819851,46.4431252],[17.0781313,46.4430581],[17.0770152,46.4434169],[17.0753661,46.4433881],[17.0725868,46.4441022],[17.0720171,46.4444767],[17.070368,46.4444478],[17.0692797,46.4440444],[17.0661515,46.4440021],[17.0659675,46.4443708],[17.0658977,46.4462729],[17.0663885,46.4478067],[17.0669073,46.4485784],[17.0668935,46.4489563],[17.0674213,46.4497281],[17.0673654,46.4512523],[17.0678566,46.4527799],[17.0678146,46.4539261],[17.0683286,46.4550759],[17.0682169,46.4581243],[17.0687499,46.4585118],[17.068722,46.4592739],[17.0697968,46.4600553],[17.0703109,46.461205],[17.0708437,46.4615987],[17.0713627,46.4623704],[17.0719047,46.462758],[17.0718909,46.463136],[17.0713072,46.4638884],[17.0579795,46.4667051],[17.0573675,46.4682195],[17.0572554,46.4712617],[17.0561052,46.4727666],[17.056049,46.4742908],[17.0554652,46.4750369],[17.0532592,46.474998],[17.0499167,46.4760861],[17.0427376,46.4763373],[17.0398712,46.4793368],[17.0381643,46.4808317],[17.0364059,46.4834664],[17.0341287,46.4853293],[17.0340437,46.4876094],[17.034543,46.4891435],[17.0345145,46.4899055],[17.0350474,46.4902994],[17.0355186,46.4925894],[17.0370272,46.4964291],[17.0380174,46.4994909],[17.0378755,46.5033013],[17.0388659,46.5063631],[17.0381961,46.5094015],[17.0375922,46.5109098],[17.0381253,46.5113036],[17.0386816,46.5113135],[17.0391723,46.5128474],[17.0391442,46.5136033],[17.0396296,46.5155215],[17.0394456,46.5204658],[17.0388324,46.5219801],[17.0393464,46.52313],[17.039233,46.5261783],[17.0386481,46.5269305],[17.0397238,46.5277122],[17.0396814,46.5288522],[17.0402236,46.5292462],[17.0380154,46.5292071],[17.0335708,46.5298845],[17.0336274,46.5283666],[17.0330942,46.5279727],[17.0319902,46.527953],[17.0297961,46.5275358],[17.0297676,46.5282979],[17.0302815,46.5294478],[17.0302531,46.5302099],[17.029668,46.5309621],[17.0295542,46.5340042],[17.0277741,46.5374011],[17.0272121,46.5377754],[17.0244042,46.5388661],[17.0232571,46.5399864],[17.0181633,46.5433239],[17.0170534,46.5436884],[17.015949,46.5436686],[17.0148878,46.5425025],[17.0144316,46.5398284],[17.0129376,46.5356103],[17.0081457,46.5309548],[17.0049431,46.5282311],[17.0022795,46.525517],[16.9984778,46.5239231],[16.9890928,46.5241373],[16.9874761,46.5229609],[16.9869577,46.5221889],[16.9853643,46.5206408],[16.9837478,46.5194644],[16.9832295,46.5186923],[16.9821546,46.5179163],[16.9816655,46.5163822],[16.9817091,46.5152422],[16.980049,46.5152119],[16.9744952,46.5162511],[16.9742174,46.5234815],[16.9725366,46.5242134],[16.9724194,46.5272616],[16.9620974,46.5228808],[16.9614175,46.5262969],[16.9575579,46.5262258],[16.9578382,46.5189892],[16.9584003,46.5186214],[16.9589567,46.5186316],[16.959519,46.5182576],[16.9597546,46.5121673],[16.9619767,46.51183],[16.9619621,46.5122079],[16.9675009,46.5115534],[16.9745682,46.5143491],[16.9746268,46.5128249],[16.9720916,46.507062],[16.9712516,46.5001893],[16.9717988,46.5001994],[16.9714272,46.4956231],[16.9716614,46.4895328],[16.9762115,46.4858093],[16.9718224,46.4853445],[16.971837,46.4849665],[16.9695722,46.486444],[16.9679071,46.4867978],[16.9645975,46.4867369],[16.9629766,46.4859445],[16.9624205,46.4859342],[16.9613467,46.4851518],[16.9597111,46.4847435],[16.9547513,46.4846519],[16.9530864,46.4849993],[16.9519832,46.4849788],[16.949762,46.4853221],[16.936289,46.4915445],[16.9352155,46.4907618],[16.9363336,46.4904045],[16.9363932,46.4888804],[16.9349275,46.4838991],[16.9349869,46.4823812],[16.9344697,46.4816089],[16.9317315,46.4811733],[16.9302851,46.4899071],[16.9269902,46.4894672],[16.9231333,46.4893949],[16.9231034,46.4901569],[16.9219103,46.4924162],[16.9167394,46.4976573],[16.915636,46.4976365],[16.9150738,46.4980041],[16.9106691,46.4979211],[16.910624,46.4990611],[16.9078609,46.4990089],[16.9072683,46.5001447],[16.9056026,46.5004914],[16.9055573,46.5016314],[16.9060743,46.5024038],[16.9060441,46.5031658],[16.9047893,46.5069552],[16.9035952,46.5092143],[16.9013969,46.5091726],[16.8975143,46.5094834],[16.8964653,46.5083164],[16.8964957,46.5075544],[16.8959849,46.5064038],[16.8960456,46.5048797],[16.893884,46.5036978],[16.8922483,46.5032884],[16.8911752,46.5025054],[16.8911906,46.5021212],[16.8906584,46.5017329],[16.8906738,46.5013488],[16.8896005,46.5005719],[16.889631,46.4998098],[16.8902087,46.4990582],[16.8896768,46.4986637],[16.8896919,46.4982857],[16.8891357,46.4982751],[16.8897224,46.4975237],[16.8902696,46.4975341],[16.8908409,46.4971668],[16.8908562,46.4967827],[16.8914185,46.4964152],[16.8914489,46.4956531],[16.8909626,46.4941186],[16.8904216,46.4937301],[16.8905889,46.4895419],[16.8912514,46.4868884],[16.8912972,46.4857423],[16.8918443,46.4857527],[16.8930384,46.4834937],[16.8953812,46.4801096],[16.897663,46.4782495],[16.8982404,46.4774978],[16.8982557,46.4771137],[16.899389,46.4763726],[16.9005676,46.4744915],[16.8989237,46.4740821],[16.8989996,46.4721739],[16.8995856,46.4714286],[16.9014775,46.4653697],[16.8994688,46.4603776],[16.8994991,46.4596155],[16.8990129,46.458081],[16.897986,46.456158],[16.8974543,46.4557697],[16.8975149,46.4542456],[16.8969745,46.4538509],[16.896458,46.4530785],[16.8960387,46.4496418],[16.8960992,46.4481239],[16.8955981,46.4469673],[16.8950726,46.4462009],[16.8945715,46.4450443],[16.8945866,46.4446664],[16.8940399,46.444656],[16.8929529,46.4442508],[16.8918353,46.444614],[16.8895698,46.446096],[16.8890231,46.4460856],[16.8878752,46.4472045],[16.8846596,46.4448551],[16.8835573,46.4448341],[16.8819234,46.4444246],[16.8819388,46.4440404],[16.880305,46.4436309],[16.8808822,46.4428794],[16.8797799,46.4428582],[16.8798105,46.4420962],[16.8621462,46.442897],[16.8621154,46.4436591],[16.8642737,46.4448478],[16.8642429,46.4456098],[16.8658306,46.4471596],[16.8674119,46.4490935],[16.8690148,46.4502715],[16.8689995,46.4506494],[16.8695308,46.4510441],[16.8689533,46.4517956],[16.8704492,46.4556313],[16.8717612,46.4640394],[16.8717305,46.4648014],[16.8722863,46.4648121],[16.8722097,46.4667141],[16.8727566,46.4667246],[16.8733539,46.4793041],[16.8739099,46.4793147],[16.8744414,46.4797094],[16.8755445,46.4797306],[16.8731852,46.4834922],[16.8731393,46.4846322],[16.8725154,46.4865299],[16.8707795,46.4884],[16.869547,46.491805],[16.8677956,46.494053],[16.8626501,46.4985296],[16.8533312,46.4972023],[16.8522585,46.4964251],[16.8511552,46.4964037],[16.8462567,46.4947832],[16.8424152,46.494324],[16.8386514,46.4919689],[16.8348569,46.4903695],[16.8338005,46.489208],[16.832713,46.4888023],[16.8311095,46.48763],[16.8306002,46.4864792],[16.8306473,46.485333],[16.8301002,46.4853223],[16.8290439,46.4841607],[16.8274251,46.4833663],[16.8269004,46.4825934],[16.8269159,46.4822155],[16.8258129,46.4821938],[16.8252816,46.481799],[16.8247346,46.4817882],[16.8241628,46.4821614],[16.8235374,46.4840526],[16.8163403,46.4846736],[16.8146901,46.484641],[16.8124523,46.4853595],[16.8108021,46.4853269],[16.803684,46.4840389],[16.8024859,46.4863031],[16.7996851,46.4873884],[16.7766969,46.4831223],[16.7750468,46.4830892],[16.7734288,46.482294],[16.773493,46.48077],[16.773033,46.478479],[16.7730651,46.477717],[16.7725823,46.4761819],[16.7714635,46.4765377],[16.7681385,46.4768551],[16.7676078,46.47646],[16.7676718,46.4749422],[16.7671249,46.4749312],[16.7666495,46.4730118],[16.7661186,46.4726229],[16.7661345,46.472245],[16.7656108,46.4714717],[16.7650801,46.4710766],[16.7645242,46.4710654],[16.7645402,46.4706875],[16.7597112,46.4675393],[16.7586245,46.467139],[16.7564443,46.4667105],[16.7525245,46.4681564],[16.7519039,46.4696691],[16.7484751,46.4726439],[16.7484426,46.473406],[16.7467514,46.4741342],[16.7451016,46.4741007],[16.7434679,46.4736892],[16.7428959,46.4740558],[16.7406576,46.4747728],[16.7400781,46.4755237],[16.7395311,46.4755125],[16.7399642,46.4781876],[16.7393685,46.4793164],[16.739336,46.4800784],[16.7386661,46.482731],[16.736967,46.4838434],[16.7374326,46.4857565],[16.7350635,46.4895152],[16.7339202,46.490639],[16.7327519,46.4921342],[16.7327028,46.4932804],[16.733201,46.4944315],[16.7325885,46.4959443],[16.7314363,46.4970616],[16.7319346,46.4982127],[16.7323927,46.5005101],[16.7318038,46.5012607],[16.7306677,46.5020002],[16.7295243,46.5031177],[16.7273009,46.5034566],[16.725094,46.5034113],[16.7228708,46.5037439],[16.7212529,46.502948],[16.7201824,46.5021633],[16.7196023,46.5029141],[16.7179097,46.5036419],[16.7167405,46.5051432],[16.713904,46.5069884],[16.7127841,46.5073435],[16.7122369,46.5073322],[16.711697,46.5069428],[16.7085108,46.5042108],[16.7085275,46.5038267],[16.708004,46.5030594],[16.7080371,46.5022974],[16.7075229,46.5015241],[16.7059384,46.4999659],[16.7048681,46.4991811],[16.7020975,46.4995082],[16.6993346,46.4994509],[16.69717,46.4986433],[16.6960667,46.4986204],[16.6949301,46.4993594],[16.6931966,46.501227],[16.6909898,46.5011811],[16.68938,46.5000066],[16.6888829,46.4988491],[16.687299,46.4972907],[16.6845783,46.4964775],[16.6840222,46.4964659],[16.684039,46.4960818],[16.6824553,46.4945233],[16.6825218,46.4930055],[16.6815188,46.4906965],[16.6815522,46.4899345],[16.6810295,46.4891609],[16.680499,46.4887715],[16.6805324,46.4880096],[16.6800188,46.4872361],[16.6800688,46.4860962],[16.6795462,46.4853226],[16.6790494,46.4841651],[16.6768765,46.4833631],[16.6763039,46.4837293],[16.6757569,46.4837179],[16.6746704,46.4833168],[16.6730204,46.4832822],[16.6719007,46.483637],[16.6718841,46.4840149],[16.6707475,46.4847537],[16.6685414,46.4847073],[16.6685079,46.4854693],[16.669047,46.4858651],[16.6673712,46.4862081],[16.6656708,46.4873133],[16.6645507,46.4876741],[16.663987,46.4880405],[16.6639197,46.4895645],[16.6633636,46.4895528],[16.661663,46.4906579],[16.6588085,46.4928857],[16.6582691,46.4924961],[16.6577557,46.4917226]]]}}]}