{
"type": "FeatureCollection",
"name": "Gevrey-Chambertin premier cru Aux Combottes",
"crs": { "type": "name", "properties": { "name": "urn:ogc:def:crs:OGC:1.3:CRS84" } },
"features": [
{ "type": "Feature", "properties": { "Name": null, "description": null, "timestamp": null, "begin": null, "end": null, "altitudeMode": null, "tessellate": -1, "extrude": 0, "visibility": -1, "drawOrder": null, "icon": null, "id": 1278.0, "new_insee": "21295", "new_nomcom": "gevrey-chambertin", "old_insee": "21295", "old_nomcom": "gevrey-chambertin", "type_ig": "AOC", "id_app": 182.0, "appellatio": "Gevrey-Chambertin", "id_denom": 591.0, "denominati": "Gevrey-Chambertin premier cru Aux Combottes", "crinao": "Bourgogne, Beaujolais, Savoie, Jura" }, "geometry": { "type": "MultiPolygon", "coordinates": [ [ [ [ 4.96569183880895, 47.206124744424002 ], [ 4.9656867848567, 47.206029821878502 ], [ 4.96567898973305, 47.205896041966497 ], [ 4.96566622070682, 47.205796117172497 ], [ 4.96565763076248, 47.205723768432499 ], [ 4.96564503005135, 47.205624831382899 ], [ 4.96563878725658, 47.205576937847098 ], [ 4.96563388537896, 47.205525959678297 ], [ 4.96563509461982, 47.205475868424003 ], [ 4.9656316578027, 47.205342014532299 ], [ 4.96563257177867, 47.205323627745599 ], [ 4.96561492207292, 47.205209466951501 ], [ 4.96559609869832, 47.205106582977102 ], [ 4.96557155081756, 47.204803603196197 ], [ 4.9655663104076, 47.2047433550593 ], [ 4.96555091981272, 47.204647617242102 ], [ 4.96554316480954, 47.204601730561699 ], [ 4.96534515263832, 47.204639851486498 ], [ 4.96533650731725, 47.204609379356803 ], [ 4.96441410452042, 47.204724085590598 ], [ 4.96438437021036, 47.204727651688202 ], [ 4.96438341967153, 47.204745048474301 ], [ 4.96437777590376, 47.204753339207002 ], [ 4.96437050795559, 47.204760576817598 ], [ 4.96436026234461, 47.204765883704503 ], [ 4.96434832026135, 47.204768157478298 ], [ 4.96434082886086, 47.204769275117698 ], [ 4.96430943419801, 47.204770798078798 ], [ 4.9641935649524, 47.2047605152611 ], [ 4.96418738126567, 47.204797452712803 ], [ 4.96413862409577, 47.204815660075496 ], [ 4.96401124043064, 47.204815748547297 ], [ 4.96399750502801, 47.2047290780921 ], [ 4.96393149432256, 47.204727135339098 ], [ 4.96390870866465, 47.204718335995302 ], [ 4.96387129692586, 47.204638280726599 ], [ 4.96386054471824, 47.2046333298576 ], [ 4.96384696270922, 47.204630498231602 ], [ 4.96383507713843, 47.204630699723701 ], [ 4.96383045497199, 47.204630778081402 ], [ 4.96337201281874, 47.2047203191118 ], [ 4.9629553192925, 47.204766194533498 ], [ 4.96294667398995, 47.204775526661003 ], [ 4.96293327915956, 47.204777824904603 ], [ 4.96291980880524, 47.204778053155998 ], [ 4.96290933648069, 47.204777149942799 ], [ 4.9626945546237, 47.204808436083901 ], [ 4.96270580687003, 47.204870563652499 ], [ 4.96271660881257, 47.205166662293401 ], [ 4.96270904274118, 47.205372206407901 ], [ 4.96268567896149, 47.2055105668151 ], [ 4.96268590222269, 47.205516686785899 ], [ 4.96268086806177, 47.205545319573702 ], [ 4.96267296788056, 47.2055750815802 ], [ 4.96263965498645, 47.205687044243298 ], [ 4.96261878575495, 47.2057344066151 ], [ 4.96259978106942, 47.2057857898766 ], [ 4.96257246589119, 47.205902784041101 ], [ 4.96255489513127, 47.206076798146697 ], [ 4.96253104172746, 47.206408245040897 ], [ 4.96250590197969, 47.206747908692797 ], [ 4.96260293669564, 47.206738069820801 ], [ 4.9630984203611, 47.206674470805602 ], [ 4.96388676246841, 47.206542596557902 ], [ 4.96391506544592, 47.206535992996301 ], [ 4.96396151673822, 47.206534214905197 ], [ 4.96400626823542, 47.206529313681003 ], [ 4.96404504387442, 47.206523613201 ], [ 4.96408979535519, 47.206518711944497 ], [ 4.96413294623819, 47.206509785323902 ], [ 4.9641598358663, 47.206504286326798 ], [ 4.96415074076757, 47.2064614841996 ], [ 4.96433532916071, 47.206424673752601 ], [ 4.96438166532795, 47.206419745510701 ], [ 4.96442749807749, 47.206404649547501 ], [ 4.96454521874852, 47.206382300799604 ], [ 4.96456478036518, 47.2063860215533 ], [ 4.96458585447611, 47.206387735439201 ], [ 4.96460685299843, 47.206387379333101 ], [ 4.96460826628812, 47.206386274702801 ], [ 4.96464718965666, 47.206384623997998 ], [ 4.96468596183685, 47.206378833303802 ], [ 4.96470988612902, 47.206375365682 ], [ 4.96488003345047, 47.206312232975598 ], [ 4.96490609682695, 47.206331152783903 ], [ 4.96489955903783, 47.206354768088502 ], [ 4.96487634475217, 47.206377675636901 ], [ 4.96486658206533, 47.2063962124884 ], [ 4.96487931007509, 47.206415448537697 ], [ 4.96489486795107, 47.206432565317598 ], [ 4.96491031079086, 47.206446532113603 ], [ 4.96505174796993, 47.206418647435498 ], [ 4.96505785917678, 47.206419534381197 ], [ 4.96506387776502, 47.206421503560499 ], [ 4.96506706321668, 47.206425502012202 ], [ 4.96506721443209, 47.206429641987903 ], [ 4.9656290398491, 47.206337349785102 ], [ 4.96566615114175, 47.206242702405497 ], [ 4.96568073517113, 47.206193374828899 ], [ 4.96569183880895, 47.206124744424002 ] ] ] ] } }
]
}
