{"type":"FeatureCollection","crs":{"type":"name","properties":{"name":"urn:ogc:def:crs:EPSG::4326"}},"features":[{"type":"Feature","properties":{"region_id":11,"name":"Balaton-felvidék","name_hu":"Balaton-felvidéki borvidék","region_group":"Dunántúl (Transdanubia)","area_ha_approx":1500,"notable_grapes":"Olaszrizling, Rajnai Rizling, Pinot Gris, Chardonnay","notes":"Balaton Uplands; volcanic and loess soils; includes Öreghegy"},"geometry":{"type":"Polygon","coordinates":[[[17.6247626,46.899533],[17.6253231,46.89954],[17.6247526,46.899911],[17.6246919,46.9021976],[17.6240999,46.9037151],[17.6235484,46.9037083],[17.6235384,46.9040863],[17.6263037,46.9045051],[17.6262937,46.9048831],[17.6268352,46.9052679],[17.6262533,46.9064075],[17.6273553,46.9067993],[17.6272947,46.9090859],[17.6278564,46.9087086],[17.6278462,46.9090928],[17.6284068,46.9090998],[17.6294897,46.9098757],[17.6294999,46.9094915],[17.6311524,46.9102744],[17.6305617,46.9114077],[17.6300201,46.9110228],[17.6282656,46.9144289],[17.6287971,46.915198],[17.6287769,46.9159602],[17.6293185,46.9163451],[17.6298791,46.916352],[17.629869,46.9167362],[17.6315027,46.9178971],[17.6320634,46.917904],[17.6320534,46.918282],[17.632605,46.9182889],[17.6325949,46.9186731],[17.6336972,46.9190649],[17.6359219,46.9190924],[17.6385121,46.9194134],[17.6387049,46.9228065],[17.6383433,46.9236668],[17.6364798,46.9260801],[17.6321801,46.9285547],[17.6326273,46.9306082],[17.6320726,46.9314532],[17.6319803,46.9325834],[17.6315828,46.933272],[17.6313243,46.9343655],[17.631276,46.9355824],[17.6305737,46.9365186],[17.6290946,46.9376166],[17.6285793,46.9386986],[17.6261545,46.9408801],[17.6258553,46.9422004],[17.6212509,46.9482364],[17.621109,46.9535655],[17.6199046,46.9569784],[17.6198537,46.9588869],[17.6187405,46.958873],[17.6181987,46.9584819],[17.6181885,46.9588661],[17.6159928,46.9576918],[17.6160029,46.9573138],[17.6148898,46.9572999],[17.6154215,46.958069],[17.6148288,46.9595803],[17.6092924,46.9587544],[17.6092822,46.9591324],[17.6098037,46.9602796],[17.6097832,46.9610418],[17.6102739,46.9633353],[17.6155549,46.9740635],[17.6161376,46.9729302],[17.618876,46.9744894],[17.6198779,46.978686],[17.6215325,46.9794691],[17.6215222,46.9798533],[17.6209508,46.9802243],[17.6209406,46.9806085],[17.620368,46.9813638],[17.6198066,46.9813568],[17.6197966,46.9817348],[17.6192342,46.9821059],[17.6181206,46.982092],[17.6180899,46.9832384],[17.6186219,46.9840074],[17.6185711,46.9859098],[17.6289449,46.9936573],[17.6289247,46.9944195],[17.628333,46.9955527],[17.6281916,47.0008819],[17.6274976,47.0062041],[17.6262127,47.0103361],[17.6245802,47.0166277],[17.6247838,47.0175461],[17.6250962,47.018151],[17.6241672,47.0234903],[17.6238788,47.0269897],[17.619123,47.0280186],[17.615536,47.028637],[17.6130896,47.0288826],[17.610775,47.0294334],[17.6056301,47.0317244],[17.5988236,47.0365273],[17.5995196,47.0382592],[17.5994647,47.0393084],[17.6000763,47.0420064],[17.5999689,47.0433872],[17.6016855,47.0449619],[17.6030508,47.0457852],[17.6031272,47.0459762],[17.6027101,47.0476394],[17.6036495,47.0500533],[17.6037991,47.0527711],[17.6036918,47.0539375],[17.6042451,47.0551478],[17.6040099,47.0559722],[17.6031678,47.0570615],[17.6030483,47.057493],[17.6032057,47.0580525],[17.603035,47.0588846],[17.6022878,47.0598174],[17.6026937,47.0610526],[17.605384,47.0616282],[17.6069743,47.0610332],[17.6074067,47.0613226],[17.6091744,47.0618291],[17.609914,47.06174],[17.6105456,47.061258],[17.6113706,47.0610332],[17.6114939,47.0612774],[17.6118954,47.0612092],[17.6124465,47.0625544],[17.6138078,47.063563],[17.6142061,47.0645971],[17.6153916,47.0648456],[17.6155914,47.0657655],[17.6163094,47.0670653],[17.6168784,47.0679579],[17.618106,47.0693125],[17.6182683,47.0697053],[17.6178457,47.0704834],[17.6180183,47.0714083],[17.6207114,47.0717403],[17.6220865,47.0714342],[17.6202107,47.0772829],[17.618568,47.0776873],[17.6167241,47.0775715],[17.6125854,47.0796116],[17.6153744,47.0810104],[17.6197328,47.0835365],[17.6206906,47.084363],[17.6216142,47.0845103],[17.6242827,47.0854608],[17.6263064,47.0854633],[17.627397,47.0856725],[17.62353,47.0926076],[17.6345963,47.0954115],[17.6328909,47.0969139],[17.6317547,47.0976623],[17.631694,47.0999488],[17.6299841,47.1014464],[17.6405335,47.1031013],[17.6348812,47.1060814],[17.6320447,47.1079494],[17.6269755,47.1097896],[17.6224492,47.1120206],[17.617942,47.1138675],[17.6151056,47.1153569],[17.6118065,47.1137907],[17.6106594,47.1149169],[17.6095019,47.1164272],[17.608365,47.1171754],[17.6072589,47.1167771],[17.6061219,47.1175253],[17.6044001,47.1194128],[17.6026578,47.1220562],[17.599778,47.1254477],[17.5992152,47.1254406],[17.5975035,47.1269376],[17.5969407,47.1269305],[17.598109,47.1250423],[17.5969924,47.1250281],[17.5958653,47.1253982],[17.5941949,47.125377],[17.5936619,47.1246078],[17.592535,47.1249716],[17.593068,47.1257408],[17.5946542,47.1291888],[17.5951044,47.1330005],[17.5956271,47.1341538],[17.5961798,47.1345389],[17.5960865,47.1379656],[17.5971103,47.1414064],[17.5975089,47.1471266],[17.6025105,47.1479522],[17.6019359,47.1487073],[17.603607,47.1487284],[17.6028263,47.1570929],[17.5984398,47.153994],[17.5950779,47.1543296],[17.5900329,47.1554061],[17.5889051,47.155776],[17.585543,47.1561113],[17.5832876,47.156845],[17.5832561,47.1579913],[17.5805093,47.1564313],[17.5788486,47.1560257],[17.5787856,47.1583122],[17.5782224,47.158305],[17.578212,47.158683],[17.5776473,47.1590601],[17.5776159,47.1602002],[17.5770421,47.1605772],[17.5775949,47.1609624],[17.5775424,47.1628647],[17.578086,47.163256],[17.578065,47.1640181],[17.5786283,47.1640253],[17.5785759,47.1659276],[17.5796723,47.1667041],[17.5802265,47.1667112],[17.5796619,47.1670821],[17.5755346,47.1750254],[17.5794209,47.1758376],[17.5753033,47.1834029],[17.5841846,47.1854196],[17.5835793,47.1869367],[17.5907994,47.1885535],[17.5918965,47.1893298],[17.5919174,47.1885677],[17.596463,47.1855756],[17.5986883,47.185988],[17.598678,47.186366],[17.5997752,47.1871423],[17.5998749,47.1874409],[17.6003194,47.1875273],[17.6008725,47.1879185],[17.6015152,47.1889513],[17.6028635,47.1896045],[17.6036008,47.1902402],[17.6047085,47.1906322],[17.6052528,47.1910172],[17.6052901,47.1914377],[17.6055688,47.1917307],[17.6074682,47.1918075],[17.6080122,47.1921986],[17.6084367,47.1922721],[17.6097042,47.1918355],[17.6102688,47.1914645],[17.6097349,47.1906954],[17.6109042,47.1888071],[17.6120427,47.1880589],[17.612053,47.1876747],[17.6153977,47.1877165],[17.6215519,47.1874151],[17.6420703,47.1929991],[17.6414555,47.1952788],[17.6397125,47.1979227],[17.6385339,47.2001955],[17.6373755,47.2016999],[17.6368017,47.2020772],[17.6356735,47.2024414],[17.6367312,47.2047416],[17.6361564,47.205497],[17.6360858,47.2081615],[17.6366102,47.2093084],[17.6371538,47.2100775],[17.6371438,47.2104555],[17.6279722,47.2191071],[17.6268536,47.2190932],[17.6268435,47.2194712],[17.6262797,47.2194642],[17.6262696,47.2198422],[17.6257249,47.2194574],[17.6251702,47.2194505],[17.6251601,47.2198285],[17.6245962,47.2198215],[17.6238816,47.2205149],[17.6228703,47.2209121],[17.62099,47.2204871],[17.6201465,47.2196213],[17.6190123,47.2197521],[17.6184586,47.2193671],[17.618529,47.2192174],[17.6167954,47.2189683],[17.6162521,47.2181991],[17.6156973,47.2181922],[17.6156872,47.2185702],[17.6151426,47.2181853],[17.6146096,47.2170319],[17.6152143,47.2155208],[17.6152347,47.2147586],[17.6136037,47.2128353],[17.6108532,47.2112761],[17.6080927,47.2100948],[17.6063886,47.2112201],[17.6052806,47.2108219],[17.6047168,47.2108148],[17.6047271,47.2104368],[17.6041828,47.2100457],[17.6041931,47.2096677],[17.6019977,47.2081152],[17.6020079,47.2077372],[17.6014637,47.207346],[17.6014842,47.2065901],[17.5998334,47.2054225],[17.5992788,47.2054155],[17.5987253,47.2050304],[17.5981915,47.2042613],[17.597094,47.203485],[17.5971042,47.203107],[17.5949093,47.2015544],[17.5943547,47.2015474],[17.5932573,47.200771],[17.5921391,47.2007569],[17.5915951,47.2003656],[17.5865678,47.2003017],[17.5854704,47.1995315],[17.5837977,47.1995102],[17.5826691,47.1998739],[17.5809559,47.2009926],[17.5792832,47.2009712],[17.5787076,47.2017262],[17.5775684,47.202474],[17.5770655,47.2040599],[17.5774583,47.204203],[17.5777225,47.2046055],[17.5774949,47.2051385],[17.5769312,47.2051313],[17.5768996,47.2062776],[17.5761572,47.2065335],[17.5760206,47.2068054],[17.5764717,47.2071349],[17.5752386,47.208153],[17.5740821,47.2087292],[17.5753617,47.2091127],[17.5755605,47.2094853],[17.5740031,47.2100464],[17.5734485,47.2100392],[17.5700299,47.2122825],[17.568304,47.2141633],[17.5671644,47.214911],[17.5660459,47.2148966],[17.5654807,47.2152674],[17.56547,47.2156516],[17.5648957,47.2160222],[17.5654278,47.2171697],[17.5654171,47.2175538],[17.563983,47.2185504],[17.5624037,47.218785],[17.5625809,47.2196526],[17.563731,47.219699],[17.5641984,47.2195504],[17.5647256,47.2203798],[17.5645399,47.2207888],[17.5649363,47.2216734],[17.5648674,47.2219053],[17.56529,47.2221205],[17.5658448,47.2221277],[17.5658553,47.2217497],[17.5664101,47.2217569],[17.5663996,47.2221349],[17.5658343,47.2225057],[17.5658131,47.2232678],[17.5663679,47.223275],[17.5674653,47.2240516],[17.5677181,47.2244049],[17.5678876,47.2256056],[17.5677142,47.2263048],[17.5664248,47.2272305],[17.5664136,47.2276637],[17.5679022,47.2286317],[17.5681938,47.2293824],[17.5685752,47.2297377],[17.5689893,47.2297863],[17.5698038,47.2303903],[17.5706525,47.2301858],[17.571577,47.2310131],[17.5722734,47.2321096],[17.5728268,47.232501],[17.5733817,47.2325081],[17.5744794,47.2332847],[17.5739035,47.2340397],[17.5738824,47.2348018],[17.5744164,47.2355649],[17.5743953,47.2363271],[17.5738193,47.2370821],[17.5737666,47.2389844],[17.5731604,47.2405014],[17.5725843,47.2412564],[17.5724683,47.2454452],[17.571883,47.2462001],[17.572426,47.2469695],[17.5718303,47.2481023],[17.5701033,47.2499831],[17.5706584,47.2499902],[17.5717248,47.2519069],[17.5744867,47.2530891],[17.5738896,47.2546],[17.5710008,47.2579907],[17.5703625,47.2606541],[17.5720041,47.2621938],[17.5725382,47.2629631],[17.5725171,47.2637252],[17.5713448,47.2656131],[17.5713237,47.2663752],[17.5718669,47.2671446],[17.5718564,47.2675226],[17.5729969,47.266781],[17.5774136,47.2687406],[17.5812333,47.2722172],[17.5829712,47.2699521],[17.5830026,47.268812],[17.5847388,47.2669312],[17.587575,47.2654424],[17.5892916,47.2639394],[17.5903902,47.2647158],[17.5909337,47.2654851],[17.5914786,47.2658701],[17.5942416,47.2670518],[17.5947957,47.2674369],[17.5953509,47.2674439],[17.5970361,47.2670871],[17.5981764,47.2663391],[17.599296,47.2663532],[17.6015663,47.2652351],[17.6026961,47.2648712],[17.6043708,47.2648923],[17.6077501,47.2641723],[17.6088902,47.2634241],[17.6100097,47.2634382],[17.6100199,47.2630602],[17.6105751,47.2630671],[17.6105957,47.262305],[17.6100405,47.262298],[17.6089314,47.2618998],[17.6100611,47.2615359],[17.6117358,47.2615568],[17.6128347,47.262333],[17.6128142,47.2630951],[17.6122191,47.2642282],[17.6121884,47.2653683],[17.6133079,47.2653823],[17.6133181,47.2650043],[17.6144377,47.2650183],[17.6144478,47.2646403],[17.6161226,47.2646612],[17.6161329,47.264277],[17.6167074,47.2639061],[17.6161431,47.2638991],[17.6167177,47.2635219],[17.6167382,47.2627598],[17.6172934,47.2627667],[17.6167484,47.2623818],[17.6173139,47.2620045],[17.6178782,47.2620115],[17.6178883,47.2616336],[17.6184435,47.2616405],[17.6184537,47.2612625],[17.619018,47.2612695],[17.6195835,47.2608922],[17.6195732,47.2612764],[17.6201283,47.2612833],[17.6201386,47.2608991],[17.6212581,47.2609131],[17.6206926,47.2612903],[17.6212478,47.2612972],[17.621802,47.2616822],[17.6218224,47.2609201],[17.6223673,47.2613111],[17.6223776,47.260927],[17.6229316,47.2613181],[17.6234868,47.261325],[17.623497,47.2609408],[17.6229419,47.260934],[17.6235071,47.2605629],[17.6235174,47.2601787],[17.6240714,47.2605699],[17.6240918,47.2598077],[17.6246369,47.2601926],[17.625192,47.2601994],[17.6252021,47.2598215],[17.6257664,47.2598284],[17.6257563,47.2602064],[17.6263216,47.2598353],[17.6268859,47.2598423],[17.6269062,47.2590801],[17.6274614,47.259087],[17.6274513,47.259465],[17.6280359,47.2587098],[17.6280256,47.259094],[17.628591,47.2587167],[17.6302656,47.2587373],[17.6302554,47.2591215],[17.6308096,47.2595065],[17.6324842,47.2595271],[17.6330585,47.2591561],[17.6336137,47.2591629],[17.6352883,47.2591835],[17.6363977,47.2595752],[17.636972,47.2592042],[17.636962,47.2595822],[17.6386366,47.2596027],[17.6386264,47.2599869],[17.6391716,47.2603717],[17.6397359,47.2603786],[17.6397458,47.2600006],[17.6402809,47.2607696],[17.6413904,47.2611613],[17.6441343,47.2630978],[17.6537852,47.2578847],[17.6554797,47.2571428],[17.6622167,47.2560838],[17.6650493,47.2549774],[17.6656342,47.2538377],[17.6678926,47.2531025],[17.6701705,47.2516112],[17.6707256,47.2516179],[17.6730035,47.2501204],[17.6735782,47.2493648],[17.6741521,47.2489936],[17.6769752,47.2478806],[17.6780944,47.247894],[17.6781041,47.247516],[17.680353,47.2467804],[17.6820655,47.2456603],[17.6831945,47.2452894],[17.6837496,47.245296],[17.6848492,47.2460715],[17.6854139,47.2457001],[17.6865234,47.2460913],[17.6887617,47.2461178],[17.6909905,47.2465223],[17.6937645,47.2473174],[17.6943195,47.2473239],[17.695429,47.2477213],[17.6959835,47.2481059],[17.6965192,47.2488746],[17.6976192,47.24965],[17.701532,47.2496959],[17.7043063,47.2504908],[17.7054256,47.2505039],[17.706564,47.2497548],[17.7088217,47.2490187],[17.7076641,47.25053],[17.7064777,47.2531814],[17.7075587,47.2547188],[17.7064106,47.2558459],[17.7063338,47.2588946],[17.7068694,47.2600414],[17.7062475,47.2623213],[17.7056635,47.2634549],[17.7067735,47.263846],[17.7073191,47.2642367],[17.7084386,47.2642497],[17.7128696,47.2658261],[17.7133862,47.267735],[17.7139224,47.2685036],[17.7144487,47.2700283],[17.716095,47.271194],[17.7183725,47.2696956],[17.7223248,47.2682165],[17.7239997,47.2682358],[17.7262294,47.2686458],[17.7306707,47.2698373],[17.7340298,47.2698757],[17.7362879,47.2691391],[17.7402489,47.2672814],[17.7413593,47.2676721],[17.7436174,47.2665573],[17.7447649,47.2654298],[17.7453666,47.2639119],[17.7470972,47.2616443],[17.7471251,47.2605042],[17.747708,47.2597484],[17.7482632,47.2597547],[17.7488091,47.2601389],[17.7487905,47.2609011],[17.7504372,47.2624445],[17.7492991,47.263194],[17.7492619,47.2647184],[17.7486789,47.2654742],[17.7486511,47.2666143],[17.7492063,47.2669987],[17.751409,47.2680131],[17.7525466,47.2677988],[17.753111,47.2674271],[17.7540733,47.2674536],[17.7545944,47.2678315],[17.7547583,47.2685861],[17.755193,47.2686984],[17.7557513,47.2685107],[17.7561859,47.2680196],[17.7567226,47.2679714],[17.7572218,47.2681629],[17.757491,47.2683086],[17.7575344,47.2693797],[17.7569015,47.2705051],[17.7569421,47.2708978],[17.7580434,47.2716725],[17.7591539,47.2720631],[17.7613841,47.2724724],[17.7619303,47.2728566],[17.7658449,47.2729003],[17.7658358,47.2732783],[17.7675378,47.2722962],[17.7679711,47.2723911],[17.7690257,47.2733991],[17.7701011,47.2734007],[17.7707289,47.2737693],[17.770816,47.2742089],[17.7715123,47.2742213],[17.7717008,47.2744207],[17.7721172,47.2744377],[17.772527,47.2741151],[17.7734134,47.2741758],[17.7739513,47.2743885],[17.774193,47.274896],[17.7741838,47.2752802],[17.7744258,47.2756292],[17.7769773,47.2762221],[17.7779415,47.2768212],[17.7784974,47.2775372],[17.7797012,47.2783845],[17.7819591,47.277647],[17.7819772,47.2768848],[17.781458,47.2749763],[17.7809298,47.27383],[17.7815485,47.2711716],[17.7826864,47.2704217],[17.783287,47.2689036],[17.7827497,47.2677572],[17.7822396,47.2658487],[17.7839417,47.2647208],[17.7856525,47.263221],[17.7947523,47.2568435],[17.7964718,47.2553375],[17.8015847,47.2519655],[17.8095525,47.2459588],[17.8135269,47.2433364],[17.8192188,47.2388293],[17.8203379,47.2388413],[17.8214482,47.2392312],[17.8298366,47.2393205],[17.8309383,47.2400946],[17.8320395,47.2404905],[17.8331412,47.2412646],[17.8348158,47.2416603],[17.8370276,47.2424461],[17.8414523,47.2447797],[17.8419902,47.2455416],[17.8385552,47.2493173],[17.8317179,47.2545756],[17.8339307,47.2557394],[17.8345036,47.2553674],[17.8350847,47.2542331],[17.8367765,47.2534885],[17.8373234,47.2542567],[17.8367333,47.2553909],[17.8367247,47.2557689],[17.834998,47.2580378],[17.834972,47.259178],[17.835519,47.2599461],[17.8371678,47.261104],[17.8382786,47.2615],[17.8393981,47.2615118],[17.8404654,47.2634258],[17.8404567,47.26381],[17.8444142,47.2623268],[17.8449694,47.2623326],[17.8454989,47.2634786],[17.8471913,47.2631182],[17.8460976,47.2619601],[17.8466614,47.2615879],[17.8539594,47.2605235],[17.8527887,47.2627923],[17.8521479,47.2665975],[17.8515664,47.2673538],[17.8436519,47.2710768],[17.842489,47.2729674],[17.8418992,47.2744859],[17.8401459,47.2775108],[17.83953,47.2801695],[17.8406154,47.2817057],[17.8417181,47.2824796],[17.842795,47.2843937],[17.8427863,47.2847779],[17.8422044,47.2855342],[17.8455818,47.2848072],[17.8466503,47.2870993],[17.8466331,47.2878615],[17.8477274,47.2890195],[17.849343,47.2917016],[17.8527206,47.2909744],[17.8537463,47.2947906],[17.8548068,47.2974668],[17.8552861,47.3012836],[17.8625972,47.2994564],[17.8654111,47.2991011],[17.865445,47.2975767],[17.866009,47.2972044],[17.8671293,47.2972159],[17.8721972,47.2957329],[17.8739007,47.2946201],[17.8756275,47.2927349],[17.8767554,47.2919841],[17.87732,47.2919898],[17.8778923,47.2912333],[17.8784654,47.2908548],[17.8829369,47.2909002],[17.8835098,47.2905279],[17.8846382,47.2901613],[17.8851937,47.2901669],[17.8857576,47.2897883],[17.8829785,47.2889978],[17.8818834,47.2878463],[17.8813529,47.2867005],[17.881403,47.2844139],[17.8802997,47.2836403],[17.8764932,47.2786493],[17.8782018,47.2771482],[17.8793217,47.2771596],[17.8810395,47.2756523],[17.8838512,47.2749185],[17.8855763,47.2726489],[17.8856511,47.2692221],[17.8867708,47.2692334],[17.8873343,47.268861],[17.888454,47.2688723],[17.8890433,47.2677378],[17.8935871,47.264356],[17.894168,47.2635995],[17.895295,47.2628484],[17.9058448,47.2667594],[17.9092597,47.26375],[17.9103875,47.2633769],[17.9109518,47.2633825],[17.9120877,47.2626313],[17.9126347,47.263021],[17.9132153,47.2622644],[17.9176844,47.2623084],[17.9176764,47.2626864],[17.9182397,47.2623139],[17.9182478,47.2619297],[17.918804,47.2623194],[17.9188122,47.2619352],[17.9193592,47.2623249],[17.9193674,47.2619407],[17.9199317,47.2619462],[17.9199397,47.2615682],[17.9210593,47.2615792],[17.9210513,47.2619572],[17.9215984,47.2623469],[17.9216065,47.2619627],[17.9221708,47.2619682],[17.9221627,47.2623524],[17.9227179,47.2623578],[17.9227257,47.2619743],[17.9238456,47.2619846],[17.9243927,47.2623742],[17.9255204,47.262001],[17.9255123,47.2623852],[17.9260847,47.2620065],[17.9260766,47.2623907],[17.92664,47.2620119],[17.9271962,47.2624016],[17.9277514,47.262407],[17.9277435,47.262785],[17.9282987,47.2627904],[17.9282906,47.2631746],[17.928855,47.2631801],[17.9282827,47.2635526],[17.9294023,47.2635635],[17.928839,47.2639423],[17.9293942,47.2639477],[17.9293863,47.2643257],[17.9299506,47.2643312],[17.9299346,47.2650934],[17.9316095,47.2651097],[17.9310622,47.2647263],[17.9305219,47.2635744],[17.9294343,47.2620391],[17.928887,47.2616557],[17.926664,47.2608717],[17.931198,47.2582507],[17.9350719,47.2601911],[17.9356271,47.2601964],[17.9356112,47.2609586],[17.9350559,47.2609533],[17.9356031,47.2613428],[17.9355873,47.2620988],[17.9350241,47.2624777],[17.9355793,47.2624831],[17.9350162,47.2628557],[17.9355714,47.2628611],[17.9350081,47.2632399],[17.9355634,47.2632453],[17.9355475,47.2640075],[17.9361118,47.2640129],[17.9360959,47.2647751],[17.9366512,47.2647805],[17.9371985,47.2651639],[17.9377708,47.2647913],[17.9377629,47.2651693],[17.9388825,47.2651801],[17.9388747,47.2655581],[17.9399943,47.2655689],[17.9399863,47.2659531],[17.9405337,47.2663365],[17.9405416,47.2659585],[17.9416612,47.2659693],[17.9416454,47.2667315],[17.9422007,47.2667368],[17.9421848,47.267499],[17.9427492,47.2675044],[17.9427177,47.2690227],[17.9421453,47.2694014],[17.94159,47.2693961],[17.9426939,47.2701691],[17.9432492,47.2701744],[17.9432414,47.2705524],[17.9438058,47.2705578],[17.9443532,47.2709474],[17.9449176,47.2709528],[17.9449098,47.2713308],[17.9460283,47.2709634],[17.9466006,47.2705846],[17.9482757,47.2706007],[17.9482835,47.2702227],[17.9488401,47.2706061],[17.9506093,47.266055],[17.9579682,47.2619352],[17.9635802,47.2608479],[17.9603304,47.2554869],[17.9597675,47.2558596],[17.9581085,47.2550816],[17.9598063,47.2539572],[17.9592668,47.2531897],[17.9592823,47.2524275],[17.9603849,47.2528161],[17.9609646,47.2520654],[17.9643135,47.252097],[17.9665369,47.2528741],[17.9693693,47.250998],[17.969949,47.250241],[17.9794953,47.2480493],[17.9823361,47.2461729],[17.98516,47.2446744],[17.9857379,47.2435331],[17.987999,47.2424136],[17.9902524,47.241672],[17.9919568,47.2401629],[17.9942176,47.2390433],[17.9959142,47.2379184],[17.9964933,47.2371613],[17.9970934,47.2348798],[17.9976558,47.2345068],[17.9976708,47.2337446],[17.9988723,47.2295658],[17.9983474,47.2280362],[17.9989243,47.226902],[17.9978434,47.2249884],[17.9967637,47.2234538],[17.9967862,47.2223136],[17.9979259,47.2207993],[17.9968388,47.2196489],[17.9952014,47.2173469],[17.9946691,47.2162015],[17.9946842,47.2154393],[17.9963801,47.2143082],[17.9975212,47.2131782],[17.9975362,47.212416],[17.9953066,47.2120175],[17.9975887,47.2097514],[17.9981658,47.2086162],[17.9987596,47.2070969],[17.9993517,47.2051995],[17.9993667,47.2044373],[17.9999604,47.202918],[17.9994117,47.2021506],[17.9955321,47.2005966],[17.99497,47.2009695],[17.9944063,47.2009644],[17.9938592,47.2005813],[17.9938819,47.1994348],[17.9933182,47.1994297],[17.9922014,47.1998037],[17.9916453,47.1994143],[17.9888315,47.200535],[17.9871511,47.2008976],[17.9793536,47.1993005],[17.9788219,47.1981551],[17.9776961,47.1985227],[17.9776808,47.1992849],[17.9771109,47.200042],[17.9759773,47.2007937],[17.9754136,47.2007885],[17.975406,47.2011665],[17.9748437,47.2015455],[17.9731632,47.2019079],[17.9726071,47.2015246],[17.9714888,47.2015141],[17.9714966,47.2011299],[17.9709342,47.2015089],[17.9703705,47.2015036],[17.9698083,47.2018764],[17.9670171,47.2018502],[17.966461,47.2014668],[17.9647959,47.2010669],[17.9625516,47.2014299],[17.9619893,47.2018027],[17.9614256,47.2017974],[17.9614177,47.2021816],[17.9603085,47.2021711],[17.9591746,47.2029227],[17.9569303,47.2032795],[17.9569224,47.2036637],[17.9558119,47.2032688],[17.9552494,47.2036478],[17.9513398,47.2036105],[17.951332,47.2039885],[17.9502059,47.2043558],[17.950198,47.20474],[17.9496343,47.2047346],[17.9496265,47.2051126],[17.947977,47.2039564],[17.9474525,47.2020486],[17.9463906,47.1997513],[17.9463984,47.1993733],[17.9452801,47.1993625],[17.9407676,47.2012219],[17.9379606,47.2019572],[17.9362877,47.201941],[17.9362798,47.202319],[17.935724,47.2019355],[17.9351615,47.2023081],[17.9334715,47.202676],[17.932909,47.2030487],[17.9289755,47.2041508],[17.9250898,47.2029724],[17.9245501,47.2018267],[17.9240357,47.1999188],[17.9234892,47.1995292],[17.9229577,47.1979993],[17.9264084,47.193465],[17.9292471,47.1912056],[17.9303652,47.1912165],[17.9331875,47.1897254],[17.933766,47.1885844],[17.9348919,47.1882172],[17.9354713,47.1874605],[17.9428035,47.1837257],[17.9450788,47.1818385],[17.9462123,47.1810932],[17.9496522,47.1769363],[17.9513556,47.1754279],[17.954208,47.1724056],[17.9570287,47.1709139],[17.9587408,47.1694055],[17.9615691,47.1675294],[17.9638584,47.1648859],[17.9667325,47.1607231],[17.9695832,47.1577005],[17.9707314,47.1561865],[17.9729966,47.1546892],[17.976416,47.1509094],[17.9792898,47.1471306],[17.9815608,47.1448646],[17.9827083,47.1433505],[17.9838633,47.1414584],[17.9901458,47.1342834],[17.9924248,47.1320172],[17.990775,47.1304835],[17.9907826,47.1300993],[17.9891346,47.1289436],[17.9891573,47.1277972],[17.9903193,47.125527],[17.994351,47.1190871],[17.9927182,47.1171692],[17.992733,47.1164055],[17.9933171,47.1148876],[17.9906209,47.1102947],[17.9900883,47.1087651],[17.9879553,47.1041773],[17.9874381,47.1018854],[17.9885995,47.0996152],[17.9891923,47.098096],[17.9903145,47.097344],[17.9881139,47.0961832],[17.9881744,47.0931342],[17.988743,47.0923771],[17.9882348,47.0900915],[17.987695,47.0889398],[17.98771,47.0881838],[17.9882952,47.0870425],[17.9883404,47.084762],[17.9889015,47.0843829],[17.9855614,47.0824492],[17.9852217,47.0813476],[17.9843945,47.0799425],[17.9655638,47.0808819],[17.9567819,47.082008],[17.9509623,47.0829412],[17.950684,47.0828206],[17.9474692,47.0830284],[17.9469076,47.0832985],[17.9453355,47.0830106],[17.9431507,47.0829953],[17.9425914,47.0818937],[17.9421464,47.0804312],[17.9421528,47.0769861],[17.9432386,47.0742097],[17.9423546,47.0722983],[17.9417101,47.0702967],[17.9408334,47.0688369],[17.9393814,47.0678869],[17.9378823,47.0671923],[17.9379991,47.0660004],[17.938568,47.0652498],[17.938576,47.0648655],[17.9369469,47.0629469],[17.9358474,47.0621738],[17.9314029,47.0617525],[17.9315063,47.0568011],[17.9322212,47.053142],[17.9321953,47.0507583],[17.9327401,47.048818],[17.9288704,47.0483119],[17.9252346,47.0474538],[17.9229492,47.0473491],[17.9192252,47.0464498],[17.9163928,47.0464249],[17.9150393,47.0462418],[17.9150276,47.0463867],[17.9147559,47.0463408],[17.914707,47.0464535],[17.9138464,47.0463961],[17.9125103,47.0466603],[17.9083643,47.0459857],[17.9060539,47.0485396],[17.9054645,47.0495748],[17.9043644,47.0509921],[17.9032548,47.0520685],[17.9023577,47.0532134],[17.9007684,47.0543402],[17.8996418,47.0546465],[17.8993763,47.0550987],[17.8992549,47.0554321],[17.8997198,47.0576271],[17.8991258,47.059524],[17.898548,47.0606649],[17.899093,47.0610485],[17.8979367,47.0629398],[17.8979285,47.063324],[17.8984743,47.0640919],[17.8984334,47.0659943],[17.8989702,47.0667621],[17.8972687,47.0682698],[17.8961122,47.070161],[17.8949721,47.07129],[17.8938401,47.072041],[17.891031,47.0731532],[17.8887227,47.0745751],[17.887643,47.0750218],[17.8859657,47.0753891],[17.8848252,47.076518],[17.8831313,47.0776474],[17.8802968,47.0798995],[17.878007,47.0825414],[17.8746179,47.0844097],[17.8706834,47.0858941],[17.8684517,47.0858711],[17.8656581,47.0862266],[17.8667571,47.0870003],[17.862797,47.0896247],[17.8611107,47.0903696],[17.859978,47.0911141],[17.8588535,47.0914867],[17.8509484,47.0959725],[17.8486112,47.0954047],[17.8463769,47.0955606],[17.8389823,47.0988276],[17.836371,47.099247],[17.8352462,47.0996193],[17.8307821,47.0999501],[17.8296574,47.1003162],[17.8268367,47.101811],[17.8240508,47.1017813],[17.8229433,47.1013913],[17.8202011,47.0994591],[17.8179953,47.0982887],[17.8197524,47.0945018],[17.8208946,47.0933735],[17.8215094,47.0907086],[17.8215267,47.0899526],[17.8210083,47.0884223],[17.8182319,47.0880082],[17.8165447,47.0883743],[17.8154555,47.0876002],[17.813215,47.0879542],[17.8109656,47.0886923],[17.8098584,47.0883023],[17.8081714,47.0890464],[17.8059043,47.0905405],[17.8064844,47.0897905],[17.805984,47.0871136],[17.8054659,47.0855894],[17.8017604,47.0771689],[17.8007159,47.0741079],[17.8007426,47.0729677],[17.800198,47.0721993],[17.8003225,47.0668701],[17.7992604,47.0645713],[17.7992871,47.0634311],[17.805479,47.0608331],[17.8083069,47.0589609],[17.8105638,47.0578448],[17.8133651,47.0571126],[17.815622,47.0559902],[17.8167634,47.054862],[17.816781,47.0540998],[17.8181596,47.0529666],[17.8202139,47.0503308],[17.8241646,47.048086],[17.8264556,47.0454451],[17.8287632,47.0416639],[17.8350031,47.0367777],[17.8361697,47.0345028],[17.8367571,47.0329843],[17.839486,47.0296308],[17.842131,47.0285796],[17.8434237,47.0282297],[17.8442897,47.0274412],[17.8462288,47.0261088],[17.8588997,47.0255133],[17.8599164,47.0252613],[17.8622198,47.0235022],[17.8647359,47.0209597],[17.8659176,47.0175496],[17.866571,47.016458],[17.8672495,47.0156876],[17.8687906,47.0105683],[17.872039,47.0075302],[17.8740991,47.0052237],[17.8770252,47.0049658],[17.8739656,47.0022609],[17.8715521,47.0037811],[17.8706691,47.0040008],[17.8695965,47.004716],[17.8683693,47.0046209],[17.8671957,47.0055128],[17.8668107,47.0054601],[17.8652642,47.0036581],[17.8628922,47.001918],[17.8617243,47.0004335],[17.8608713,46.9990194],[17.8584727,46.9981947],[17.8543339,46.9974841],[17.8493888,46.997317],[17.8480032,46.9970544],[17.8455657,46.9961169],[17.8430997,46.9958558],[17.8396162,46.9948729],[17.838995,46.9946427],[17.8377863,46.993045],[17.8372673,46.9916183],[17.8367744,46.9911412],[17.8367088,46.990946],[17.8370205,46.9906811],[17.8368482,46.9905663],[17.8368871,46.9904208],[17.8376716,46.9898198],[17.8377032,46.9896281],[17.8395264,46.9878369],[17.8395217,46.9875213],[17.8391419,46.987263],[17.8391239,46.9870563],[17.8388304,46.9868406],[17.8384488,46.9868916],[17.8382557,46.986664],[17.8383306,46.9860114],[17.838031,46.9856351],[17.8381784,46.9856458],[17.8383562,46.9850956],[17.839173,46.9847248],[17.8387479,46.9846427],[17.8388831,46.9844595],[17.8381784,46.9837328],[17.8378473,46.9831262],[17.8381405,46.9821319],[17.8379736,46.9818343],[17.8380848,46.9815505],[17.8378404,46.9811573],[17.8381383,46.9806769],[17.8382173,46.9798931],[17.8385559,46.9792966],[17.8402552,46.9784742],[17.841305,46.977065],[17.841983,46.9767415],[17.8419669,46.9764462],[17.8422983,46.976045],[17.8422452,46.9756843],[17.8424211,46.9756102],[17.8424458,46.975192],[17.8421985,46.974131],[17.842314,46.9737328],[17.8422068,46.9734733],[17.8423286,46.9731536],[17.8422616,46.9716793],[17.8431532,46.9709882],[17.8427706,46.9706139],[17.8429484,46.9690921],[17.8434129,46.968658],[17.8432907,46.9685586],[17.8433922,46.9681095],[17.8432848,46.9679526],[17.8434907,46.9670001],[17.8426136,46.9663165],[17.84279,46.9661769],[17.8420282,46.9657824],[17.8434032,46.9638781],[17.8399844,46.9604506],[17.8396002,46.9603868],[17.8393538,46.9598227],[17.8372077,46.9580997],[17.8379687,46.9566863],[17.8370642,46.9558366],[17.8352396,46.9549214],[17.8319988,46.9509779],[17.834172,46.9494135],[17.8348282,46.9487238],[17.8361398,46.9470028],[17.8366309,46.946044],[17.8413334,46.9443013],[17.844068,46.9418556],[17.8449218,46.9405982],[17.8470748,46.9393413],[17.8490365,46.9372748],[17.8520661,46.9347137],[17.8534512,46.932063],[17.855906,46.9325885],[17.8531413,46.9314293],[17.850797,46.9300643],[17.8491344,46.9294786],[17.8492098,46.9291619],[17.8481015,46.9281788],[17.8477691,46.927176],[17.8475023,46.9268727],[17.848729,46.9256155],[17.8483011,46.9251217],[17.847926,46.9239171],[17.8486883,46.923344],[17.8474483,46.9222696],[17.8475676,46.9220679],[17.8410546,46.91754],[17.835654,46.9128719],[17.8229237,46.9025268],[17.8140873,46.9074787],[17.8104365,46.9097748],[17.8077355,46.9119214],[17.8033264,46.9164995],[17.8008449,46.9181448],[17.7994193,46.9189042],[17.7966588,46.9200517],[17.7955052,46.9207928],[17.7927493,46.9195864],[17.7898733,46.9174124],[17.7892081,46.9178586],[17.7881004,46.9175819],[17.7875693,46.9177613],[17.7860321,46.917008],[17.7857088,46.9173571],[17.7846514,46.9169795],[17.783485,46.918137],[17.7830696,46.9181383],[17.7831009,46.9183106],[17.7818254,46.9200281],[17.7809231,46.9200773],[17.780088,46.9208466],[17.779465,46.9210596],[17.7783264,46.9209597],[17.7770899,46.9206235],[17.7765635,46.9206863],[17.776239,46.9209006],[17.7756905,46.9208612],[17.7714814,46.9197246],[17.7712591,46.919607],[17.7724309,46.9189885],[17.7736004,46.9178508],[17.7757998,46.9164144],[17.7790232,46.9120655],[17.7793987,46.9114008],[17.7775723,46.9078513],[17.7768084,46.9069483],[17.7802606,46.9052002],[17.7800202,46.9049141],[17.7766189,46.9033202],[17.7756154,46.9025343],[17.7751264,46.9027968],[17.7712414,46.9062149],[17.7695117,46.9075417],[17.7685967,46.9072301],[17.7678537,46.9072246],[17.7676298,46.9071495],[17.7675077,46.9065805],[17.7677988,46.9051099],[17.767377,46.9045098],[17.7674601,46.9042407],[17.7662981,46.9040068],[17.7658112,46.9041158],[17.7655363,46.9044741],[17.7651179,46.904212],[17.7647088,46.9042028],[17.7642361,46.9038295],[17.7633516,46.9036622],[17.7633154,46.9035321],[17.7628957,46.903709],[17.7618429,46.9034717],[17.7612662,46.9035486],[17.760817,46.9030337],[17.7597651,46.9033142],[17.7584606,46.90262],[17.7574114,46.9023423],[17.7561358,46.9014141],[17.7548789,46.9012023],[17.7542014,46.9007121],[17.7544304,46.9003755],[17.7535797,46.8998118],[17.7526885,46.8998293],[17.7515191,46.9003021],[17.7506898,46.8998154],[17.7472038,46.8984184],[17.7434485,46.8999087],[17.739695,46.9003472],[17.7399322,46.9008273],[17.7390916,46.9008505],[17.7384529,46.9012303],[17.7377107,46.9019965],[17.737915,46.902537],[17.7350124,46.903979],[17.7300395,46.8992439],[17.7277427,46.9004024],[17.7229291,46.9008378],[17.7105537,46.8998476],[17.7084482,46.8985354],[17.7073391,46.8980928],[17.7009292,46.8977921],[17.6947197,46.8960736],[17.6930149,46.8953117],[17.6919249,46.8966221],[17.6916658,46.8975135],[17.6909392,46.8986184],[17.6903365,46.8992157],[17.6881509,46.9025739],[17.6850212,46.9069329],[17.682916,46.9058014],[17.6819484,46.9066254],[17.6813481,46.9063068],[17.6769098,46.9064817],[17.676092,46.9061599],[17.6733557,46.9056007],[17.6730025,46.9054092],[17.6731111,46.9049361],[17.6737799,46.9045814],[17.6746258,46.9045579],[17.6752167,46.9038275],[17.6755739,46.9038026],[17.6761776,46.9033518],[17.6771214,46.903001],[17.6774483,46.9025141],[17.6778808,46.9023176],[17.6782129,46.9023869],[17.6780709,46.9017721],[17.6754095,46.9006298],[17.6755137,46.90039],[17.6750472,46.9002235],[17.674828,46.9006842],[17.6735546,46.900392],[17.6721523,46.9004009],[17.6705468,46.8992717],[17.669591,46.8988513],[17.6668147,46.8980652],[17.6654465,46.8979317],[17.6640704,46.8965852],[17.6641458,46.8963571],[17.6633694,46.8959548],[17.6624935,46.8958625],[17.659153,46.8938297],[17.6593796,46.8935616],[17.6587942,46.8931115],[17.6591573,46.8924347],[17.6588604,46.8921087],[17.659383,46.8915119],[17.6588469,46.8911023],[17.6576547,46.8906202],[17.6570887,46.890669],[17.6567258,46.8904589],[17.6554048,46.8902132],[17.6543668,46.8895818],[17.653134,46.8890997],[17.6514807,46.8868441],[17.6511495,46.8856003],[17.6498996,46.885108],[17.6495334,46.8840961],[17.6485567,46.8840243],[17.6462056,46.8844463],[17.6440397,46.8853381],[17.6423138,46.8896726],[17.6416462,46.8903596],[17.6399696,46.891228],[17.635376,46.8926096],[17.6325766,46.8925189],[17.6278424,46.8931423],[17.6250288,46.894024],[17.624664,46.8943044],[17.6233846,46.8947443],[17.6230949,46.8949551],[17.6229367,46.8956057],[17.62316,46.8972257],[17.6242719,46.8972396],[17.6242617,46.8976238],[17.6248031,46.8980086],[17.6247626,46.899533]]]}}]}