{"type":"FeatureCollection","features":[
{"type":"Feature","geometry":{"type":"Polygon","coordinates":[[[-2.15,47.16],[-1.8,47.12],[-1.2,47.15],[-0.9,47.2],[-0.7,47.25],[-0.5,47.3],[-0.7,47.38],[-0.9,47.35],[-1.2,47.3],[-1.5,47.28],[-1.8,47.28],[-2.15,47.25],[-2.15,47.16]]]},"properties":{"NOTATION":"al-LO","DESCR":"Vallée de la Loire - Alluvions récentes et anciennes : dépôts alluviaux de la Loire (graviers, sables, limons argileux), terrasses fluviatiles. Sols profonds, bien drainés dans les levées, plus lourds en zones basses. Muscadet sur lies, Anjou. (Quaternaire)","soil_type":"clay-alluvial","zone":"Loire-Nantes-Anjou","_cx":-1.325,"_cy":47.22}},
{"type":"Feature","geometry":{"type":"Polygon","coordinates":[[[-0.5,47.22],[0.0,47.18],[0.5,47.22],[0.9,47.25],[1.3,47.3],[1.5,47.35],[1.3,47.42],[0.9,47.4],[0.5,47.38],[0.0,47.35],[-0.5,47.38],[-0.6,47.3],[-0.5,47.22]]]},"properties":{"NOTATION":"al-LT","DESCR":"Vallée de la Loire - Touraine : alluvions de la Loire et de ses affluents (Vienne, Indre, Cher), gravier sur fond argilo-sableux, tufs ennoyés. Bourgueil et Chinon bénéficient des terrasses alluviales (graviers : vins charnus et tanniques). (Quaternaire)","soil_type":"clay-alluvial","zone":"Loire-Touraine","_cx":0.45,"_cy":47.3}},
{"type":"Feature","geometry":{"type":"Polygon","coordinates":[[[3.15,46.2],[3.28,46.18],[3.45,46.25],[3.52,46.4],[3.48,46.6],[3.35,46.7],[3.15,46.65],[3.05,46.5],[3.08,46.35],[3.15,46.2]]]},"properties":{"NOTATION":"al-SP","DESCR":"Saint-Pourçain - Alluvions de l'Allier : dépôts fluviatiles de l'Allier (sables, graviers, argiles). Sols fertiles et frais, bonne rétention hydrique. Vins blancs ronds (Chardonnay, Sacy), rouges légers (Gamay, Pinot Noir). (Quaternaire)","soil_type":"clay-alluvial","zone":"Saint-Pourçain","_cx":3.28,"_cy":46.44}}
]}
