{"type":"FeatureCollection","features":[
{"type":"Feature","geometry":{"type":"Polygon","coordinates":[[[-2.05,47.0],[-1.95,46.85],[-1.5,46.8],[-1.1,46.85],[-0.75,46.95],[-0.65,47.05],[-0.7,47.2],[-0.9,47.35],[-1.1,47.4],[-1.45,47.45],[-1.8,47.4],[-2.05,47.3],[-2.05,47.0]]]},"properties":{"NOTATION":"gr-AR","DESCR":"Massif Armoricain - Granites et gneiss : roches cristallines et cristallophylliennes du socle hercynien, granites à deux micas, orthogneiss, paragneiss, micaschistes. Substrat imperméable favorisant l'acidité des sols. (Précambrien - Paléozoïque)","soil_type":"granite-schist","zone":"Pays Nantais","_cx":-1.35,"_cy":47.15}},
{"type":"Feature","geometry":{"type":"Polygon","coordinates":[[[-1.05,47.15],[-0.9,47.1],[-0.7,47.12],[-0.45,47.15],[-0.35,47.25],[-0.4,47.45],[-0.55,47.55],[-0.75,47.55],[-0.9,47.5],[-1.0,47.4],[-1.05,47.3],[-1.05,47.15]]]},"properties":{"NOTATION":"sc-AJ","DESCR":"Anjou Noir - Schistes et tufs volcaniques : schistes ordoviciens à silurien, quartzites, tufs spilitiques, cornéennes. Sols acides, filtrants, à faible réserve hydrique. Idéal pour Chenin Blanc et Cabernet Franc. (Ordovicien - Silurien)","soil_type":"granite-schist","zone":"Anjou Noirs","_cx":-0.7,"_cy":47.325}},
{"type":"Feature","geometry":{"type":"Polygon","coordinates":[[[2.9,45.35],[3.1,45.3],[3.35,45.3],[3.6,45.45],[3.65,45.65],[3.55,45.9],[3.4,46.1],[3.2,46.2],[3.0,46.15],[2.85,46.0],[2.8,45.8],[2.85,45.55],[2.9,45.35]]]},"properties":{"NOTATION":"vl-MC","DESCR":"Massif Central - Volcans d'Auvergne : roches éruptives (basaltes, andésites, trachytes, phonolites), tufs volcaniques. Sols volcaniques riches en minéraux, bien drainés, légèrement acides. Côtes d'Auvergne. (Tertiaire - Quaternaire)","soil_type":"granite-schist","zone":"Massif Central","_cx":3.25,"_cy":45.75}}
]}
