{"type":"FeatureCollection","features":[
{"type":"Feature","geometry":{"type":"Polygon","coordinates":[[[2.02,46.92],[2.15,46.9],[2.3,46.92],[2.45,47.0],[2.42,47.15],[2.3,47.22],[2.12,47.2],[1.98,47.1],[2.02,46.92]]]},"properties":{"NOTATION":"sx-QR","DESCR":"Quincy / Reuilly - Silex et sables argilo-siliceux : plateau calcaire recouvert d'argile à silex (perruche), nodules de silex gris-noir. Sols légers, bien drainés, à fort potentiel aromatique. Sauvignon Blanc expressif et minéral. (Crétacé supérieur - Rémontage)","soil_type":"silex","zone":"Quincy-Reuilly","_cx":2.215,"_cy":47.06}},
{"type":"Feature","geometry":{"type":"Polygon","coordinates":[[[2.88,47.1],[2.97,47.07],[3.1,47.1],[3.15,47.2],[3.1,47.35],[2.97,47.4],[2.85,47.35],[2.82,47.25],[2.88,47.1]]]},"properties":{"NOTATION":"sx-PF","DESCR":"Pouilly-Fumé - Silex et terres à silex : calcaires kimméridgiens recouverts de résidus à silex (chaille), silex en surface donnant une forte typicité minérale au Sauvignon Blanc. (Jurassique supérieur - Crétacé)","soil_type":"silex","zone":"Pouilly-Fumé","_cx":2.985,"_cy":47.235}},
{"type":"Feature","geometry":{"type":"Polygon","coordinates":[[[2.68,47.25],[2.78,47.22],[2.88,47.25],[2.9,47.38],[2.85,47.55],[2.72,47.58],[2.62,47.5],[2.6,47.38],[2.68,47.25]]]},"properties":{"NOTATION":"sx-SA","DESCR":"Sancerre - Caillottes (silex) : calcaires oolithiques et coquilliers du Jurassique moyen (Bajocien), fragmentés en petits cailloux blancs. Sols très filtrants, chauds, peu profonds sur les buttes. Arômes nets et tensionné pour Sauvignon Blanc et Pinot Noir. (Bajocien - Bathonien)","soil_type":"silex","zone":"Sancerre-Caillottes","_cx":2.75,"_cy":47.4}}
]}
