{"type":"FeatureCollection","features":[
{"type":"Feature","geometry":{"type":"Polygon","coordinates":[[[2.65,47.18],[2.8,47.15],[2.95,47.2],[2.98,47.35],[2.9,47.5],[2.75,47.55],[2.62,47.48],[2.58,47.35],[2.65,47.18]]]},"properties":{"NOTATION":"tb-SC","DESCR":"Sancerre - Terres Blanches : marno-calcaires kimméridgiens à chailles (silex), marnes grises à blanches riches en huîtres fossiles (Exogyra virgula). Sols lourds, frais, riches en calcaire actif. Vin de Sancerre plus charnu et complexe, vieillissement favorable. (Oxfordien - Kimméridgien)","soil_type":"terres-blanches","zone":"Sancerre-TerresBlanches","_cx":2.78,"_cy":47.35}},
{"type":"Feature","geometry":{"type":"Polygon","coordinates":[[[2.42,47.12],[2.55,47.1],[2.68,47.15],[2.7,47.28],[2.62,47.35],[2.48,47.35],[2.36,47.28],[2.35,47.18],[2.42,47.12]]]},"properties":{"NOTATION":"tb-MS","DESCR":"Menetou-Salon - Calcaires et marnes jurassiques : calcaires kimméridgiens et argileux du Callovien à l'Oxfordien, marnes à cailloux calcaires (caillottes). Sols argilo-calcaires profonds et bien équilibrés. Sauvignon Blanc floral, Pinot Noir soyeux. (Callovien - Kimméridgien)","soil_type":"terres-blanches","zone":"Menetou-Salon","_cx":2.525,"_cy":47.225}}
]}
