{"type":"FeatureCollection","features":[
{"type":"Feature","geometry":{"type":"Polygon","coordinates":[[[-0.4,47.05],[-0.25,47.0],[0.0,47.05],[0.2,47.15],[0.25,47.3],[0.2,47.45],[0.05,47.5],[-0.15,47.5],[-0.3,47.45],[-0.45,47.35],[-0.45,47.2],[-0.4,47.05]]]},"properties":{"NOTATION":"tf-SM","DESCR":"Saumurois - Tuffeau jaune et blanc : calcaire bioclastique tendre (faluns, bryozoaires, échinides), poreux et friable. Creusé pour habitations troglodytes. Retient l'humidité en été, bien drainé en hiver. Idéal pour Chenin Blanc (Savennières, Coteaux du Layon, Saumur). (Crétacé supérieur - Miocène)","soil_type":"tuffeau","zone":"Saumur","_cx":-0.1,"_cy":47.25}},
{"type":"Feature","geometry":{"type":"Polygon","coordinates":[[[-0.05,47.05],[0.2,47.0],[0.55,47.0],[0.95,47.0],[1.2,47.05],[1.35,47.15],[1.35,47.35],[1.2,47.55],[0.95,47.6],[0.65,47.55],[0.3,47.55],[0.1,47.5],[-0.05,47.4],[-0.1,47.25],[-0.05,47.05]]]},"properties":{"NOTATION":"tf-TR","DESCR":"Touraine - Tuffeau et craie tuffeau : calcaire crayeux jaune pâle à blanc, parfois gréseux, riche en silex. Falaises de la Loire et de ses affluents (Vienne, Indre, Cher). Substrat drainant et minéral pour Vouvray, Montlouis, Chinon, Bourgueil. (Crétacé supérieur - Turonien)","soil_type":"tuffeau","zone":"Touraine","_cx":0.625,"_cy":47.3}}
]}
