{"type": "FeatureCollection", "features": [{"type": "Feature", "properties": {"id": "AOC-Alsace-Grand-Cru-Kanzlerberg", "name": "Kanzlerberg", "commune": "Bergheim", "family": "黏土泥灰岩", "familyColor": "#34495e", "lessonId": "AL2M5L4"}, "geometry": {"type": "MultiPolygon", "coordinates": [[[[7.347078, 48.208077], [7.346884, 48.208104], [7.346918, 48.208227], [7.346925, 48.208311], [7.346651, 48.208384], [7.346585, 48.208403], [7.346413, 48.208449], [7.346338, 48.208522], [7.34615, 48.208661], [7.345971, 48.208806], [7.345872, 48.208878], [7.345717, 48.208996], [7.345576, 48.209093], [7.345508, 48.209146], [7.3455, 48.209151], [7.345434, 48.209195], [7.345241, 48.209345], [7.345122, 48.209436], [7.34512, 48.209443], [7.345126, 48.209448], [7.345248, 48.209492], [7.345226, 48.209587], [7.34517, 48.209792], [7.34514, 48.209916], [7.345118, 48.210005], [7.34511, 48.210004], [7.345059, 48.21011], [7.34501, 48.210208], [7.34492, 48.210357], [7.344855, 48.210484], [7.344841, 48.210544], [7.34482, 48.210615], [7.344828, 48.210649], [7.34485, 48.210754], [7.344877, 48.210874], [7.344975, 48.210863], [7.345074, 48.21085], [7.345326, 48.210628], [7.345351, 48.210608], [7.345455, 48.210433], [7.345534, 48.210345], [7.345618, 48.21025], [7.345686, 48.210125], [7.345707, 48.209962], [7.34571, 48.209928], [7.345839, 48.209824], [7.345892, 48.209782], [7.345987, 48.209858], [7.346158, 48.209992], [7.346256, 48.210072], [7.346357, 48.210151], [7.346417, 48.210197], [7.346461, 48.210233], [7.346543, 48.21029], [7.346712, 48.210406], [7.346876, 48.210492], [7.347008, 48.210563], [7.347183, 48.210654], [7.347215, 48.210651], [7.347332, 48.210567], [7.34736, 48.210546], [7.347496, 48.210397], [7.347555, 48.21033], [7.347567, 48.21024], [7.347575, 48.210086], [7.347557, 48.209926], [7.347516, 48.209818], [7.347486, 48.209747], [7.347447, 48.209671], [7.347398, 48.209573], [7.347379, 48.209473], [7.347378, 48.20943], [7.347379, 48.209407], [7.347334, 48.209318], [7.347322, 48.209295], [7.347362, 48.209294], [7.347405, 48.209296], [7.347421, 48.209165], [7.347426, 48.209129], [7.347418, 48.209032], [7.347409, 48.208883], [7.347407, 48.208832], [7.347396, 48.208635], [7.347385, 48.208435], [7.347321, 48.208181], [7.347289, 48.208047], [7.347078, 48.208077]]]]}}]}