{"type": "FeatureCollection", "features": [{"type": "Feature", "properties": {"id": "AOC-Alsace-Grand-Cru-Froehn", "name": "Froehn", "commune": "Zellenberg", "family": "黏土泥灰岩", "familyColor": "#2471a3", "lessonId": "AL2M5L4"}, "geometry": {"type": "MultiPolygon", "coordinates": [[[[7.318527, 48.165313], [7.318181, 48.165266], [7.318026, 48.165256], [7.31793, 48.16529], [7.31783, 48.165322], [7.31768, 48.165373], [7.317601, 48.165394], [7.317531, 48.165422], [7.317405, 48.165437], [7.317237, 48.165452], [7.317086, 48.165485], [7.317036, 48.165499], [7.316956, 48.16554], [7.316895, 48.165585], [7.31681, 48.16563], [7.316593, 48.165748], [7.316328, 48.165864], [7.316202, 48.16591], [7.316126, 48.165938], [7.31603, 48.165976], [7.315924, 48.165996], [7.315747, 48.165981], [7.315687, 48.16597], [7.315528, 48.16594], [7.315704, 48.166404], [7.315922, 48.166333], [7.315848, 48.166357], [7.315871, 48.166407], [7.315917, 48.166476], [7.31596, 48.166604], [7.316034, 48.166756], [7.316016, 48.166762], [7.315763, 48.16686], [7.315616, 48.166917], [7.315324, 48.167033], [7.315165, 48.167096], [7.315201, 48.167147], [7.31548, 48.167616], [7.315649, 48.167871], [7.31576, 48.168015], [7.315927, 48.167948], [7.316078, 48.167886], [7.316256, 48.167815], [7.316365, 48.167771], [7.316475, 48.167726], [7.316484, 48.167743], [7.316504, 48.167723], [7.316973, 48.167598], [7.317317, 48.167482], [7.317231, 48.167392], [7.317176, 48.167336], [7.317143, 48.167301], [7.317126, 48.167093], [7.317219, 48.166878], [7.317306, 48.166785], [7.317412, 48.166668], [7.317545, 48.166584], [7.317625, 48.166545], [7.317817, 48.166444], [7.317928, 48.16642], [7.318018, 48.166402], [7.318108, 48.166385], [7.318179, 48.166367], [7.318209, 48.166363], [7.318338, 48.166336], [7.318525, 48.166348], [7.318679, 48.166382], [7.318783, 48.166403], [7.318885, 48.166425], [7.319074, 48.166466], [7.319186, 48.166491], [7.31931, 48.166519], [7.319324, 48.166524], [7.319375, 48.166558], [7.319384, 48.166568], [7.319431, 48.166623], [7.319465, 48.166672], [7.319498, 48.166712], [7.319504, 48.166723], [7.319607, 48.166894], [7.319636, 48.166983], [7.319667, 48.167093], [7.3199, 48.167474], [7.319991, 48.167561], [7.320163, 48.167729], [7.320103, 48.167748], [7.32005, 48.167696], [7.319853, 48.167757], [7.319868, 48.167775], [7.32004, 48.167997], [7.320055, 48.168016], [7.320076, 48.168041], [7.320089, 48.168037], [7.320203, 48.168177], [7.320379, 48.168125], [7.320461, 48.168102], [7.320519, 48.168086], [7.320776, 48.168012], [7.320914, 48.167981], [7.320925, 48.167979], [7.320874, 48.167925], [7.320797, 48.167834], [7.320778, 48.167838], [7.320766, 48.167817], [7.320638, 48.1676], [7.321116, 48.16752], [7.321214, 48.16757], [7.321181, 48.167687], [7.321518, 48.167622], [7.321556, 48.167695], [7.3217, 48.167969], [7.32199, 48.167922], [7.321976, 48.167924], [7.32198, 48.167935], [7.321589, 48.167996], [7.321453, 48.168019], [7.321479, 48.168072], [7.321538, 48.168196], [7.321567, 48.16819], [7.321577, 48.168213], [7.321561, 48.168217], [7.321677, 48.168442], [7.321679, 48.168443], [7.321574, 48.168467], [7.321766, 48.16884], [7.321867, 48.168824], [7.322082, 48.168787], [7.322326, 48.168777], [7.32259, 48.168767], [7.323066, 48.168723], [7.323455, 48.168674], [7.323783, 48.168662], [7.323762, 48.16847], [7.323749, 48.168443], [7.323735, 48.168413], [7.323719, 48.16838], [7.323694, 48.168337], [7.323666, 48.168293], [7.323632, 48.168239], [7.323611, 48.168207], [7.323573, 48.168147], [7.323564, 48.168129], [7.323429, 48.167927], [7.323335, 48.167698], [7.323313, 48.167594], [7.323304, 48.167452], [7.323305, 48.167047], [7.323274, 48.167019], [7.322816, 48.166924], [7.322673, 48.166888], [7.322234, 48.166731], [7.322075, 48.166697], [7.321907, 48.166586], [7.321907, 48.16659], [7.321903, 48.166564], [7.321752, 48.166429], [7.321699, 48.166385], [7.321577, 48.166275], [7.321382, 48.166099], [7.32131, 48.166037], [7.321065, 48.165806], [7.320885, 48.165618], [7.320499, 48.165214], [7.320464, 48.165211], [7.320298, 48.165299], [7.320216, 48.165341], [7.320177, 48.165363], [7.320087, 48.165411], [7.319916, 48.165502], [7.319839, 48.165544], [7.319593, 48.165698], [7.319593, 48.165728], [7.319712, 48.16587], [7.32001, 48.166048], [7.32014, 48.166132], [7.320112, 48.166151], [7.319981, 48.166064], [7.319706, 48.165901], [7.319653, 48.165845], [7.319594, 48.165779], [7.319523, 48.165696], [7.319533, 48.165689], [7.319633, 48.165628], [7.319689, 48.165591], [7.319743, 48.165559], [7.3198, 48.165524], [7.319924, 48.165458], [7.320022, 48.165406], [7.320112, 48.165359], [7.320187, 48.165319], [7.320383, 48.165214], [7.32044, 48.165185], [7.320446, 48.165162], [7.320197, 48.164848], [7.319985, 48.164531], [7.319936, 48.164521], [7.319847, 48.164555], [7.319507, 48.164688], [7.319382, 48.164737], [7.319286, 48.164775], [7.319194, 48.164811], [7.319184, 48.164815], [7.319039, 48.164916], [7.318993, 48.16495], [7.318942, 48.164988], [7.318843, 48.165058], [7.318685, 48.165199], [7.318535, 48.165414], [7.318595, 48.165325], [7.318527, 48.165313]]], [[[7.31928, 48.166581], [7.319299, 48.166552], [7.318528, 48.166384], [7.318363, 48.16637], [7.318095, 48.166425], [7.317862, 48.166473], [7.317663, 48.166576], [7.317596, 48.166611], [7.317473, 48.166685], [7.317277, 48.166894], [7.317189, 48.167105], [7.317204, 48.167257], [7.317207, 48.16729], [7.317327, 48.167413], [7.317457, 48.167549], [7.317566, 48.167661], [7.317664, 48.167769], [7.317669, 48.167774], [7.317791, 48.167845], [7.317913, 48.167718], [7.318163, 48.167449], [7.318296, 48.167362], [7.318273, 48.167317], [7.318261, 48.167294], [7.318229, 48.167234], [7.318175, 48.16724], [7.318167, 48.167233], [7.318144, 48.167214], [7.318059, 48.167199], [7.318106, 48.167183], [7.318071, 48.167155], [7.318063, 48.167149], [7.318019, 48.167112], [7.318002, 48.167098], [7.318013, 48.167098], [7.318085, 48.167092], [7.318104, 48.167089], [7.318083, 48.167004], [7.318072, 48.167004], [7.318061, 48.166967], [7.318046, 48.166911], [7.318043, 48.166911], [7.317971, 48.166919], [7.31795, 48.166922], [7.317942, 48.166895], [7.317934, 48.166858], [7.317931, 48.166856], [7.317926, 48.166831], [7.317899, 48.166722], [7.318152, 48.166696], [7.318155, 48.166696], [7.318166, 48.166759], [7.318167, 48.166773], [7.318377, 48.166741], [7.318523, 48.166775], [7.318784, 48.166974], [7.318606, 48.16704], [7.318706, 48.167201], [7.318732, 48.167189], [7.319037, 48.167068], [7.319094, 48.167046], [7.31928, 48.166978], [7.31952, 48.166911], [7.319559, 48.166903], [7.319448, 48.166725], [7.319405, 48.166661], [7.319256, 48.166622], [7.31928, 48.166581]]], [[[7.319562, 48.167301], [7.319573, 48.167299], [7.319631, 48.167385], [7.319659, 48.167427], [7.319649, 48.167431], [7.319673, 48.16747], [7.31971, 48.167461], [7.319752, 48.167449], [7.319808, 48.167434], [7.319783, 48.167392], [7.319702, 48.167265], [7.319621, 48.167131], [7.319583, 48.167118], [7.319478, 48.167154], [7.319562, 48.167301]]], [[[7.323581, 48.168936], [7.323617, 48.16881], [7.323603, 48.168775], [7.323495, 48.16877], [7.32319, 48.168795], [7.322803, 48.168842], [7.322326, 48.16887], [7.321903, 48.168899], [7.321667, 48.168954], [7.321493, 48.169063], [7.321494, 48.169081], [7.32151, 48.169207], [7.321525, 48.169318], [7.321536, 48.169422], [7.32156, 48.169421], [7.322318, 48.16933], [7.322919, 48.169242], [7.322931, 48.169284], [7.323456, 48.169245], [7.323475, 48.169117], [7.323581, 48.168936]]]]}}]}