{"type": "FeatureCollection", "features": [{"type": "Feature", "properties": {"id": "AOC-Alsace-Grand-Cru-Altenberg-de-Bergbieten", "name": "Altenberg de Bergbieten", "commune": "Bergbieten", "family": "黏土泥灰岩", "familyColor": "#154360", "lessonId": "AL2M5L4"}, "geometry": {"type": "MultiPolygon", "coordinates": [[[[7.459942, 48.582686], [7.459886, 48.582349], [7.459877, 48.582288], [7.459936, 48.582192], [7.459845, 48.582168], [7.459761, 48.582146], [7.459654, 48.582117], [7.459599, 48.582103], [7.459554, 48.582092], [7.459327, 48.582365], [7.459218, 48.582335], [7.459105, 48.582305], [7.459025, 48.582283], [7.458944, 48.582262], [7.458721, 48.582227], [7.458729, 48.582213], [7.458774, 48.582144], [7.458819, 48.582066], [7.458884, 48.581962], [7.458372, 48.581839], [7.458096, 48.581794], [7.45793, 48.581766], [7.457919, 48.581852], [7.457912, 48.581894], [7.457894, 48.581944], [7.457883, 48.581977], [7.457884, 48.582044], [7.457826, 48.582033], [7.457719, 48.582013], [7.457708, 48.582061], [7.457691, 48.582115], [7.457689, 48.582223], [7.45769, 48.582324], [7.457697, 48.582426], [7.45774, 48.582529], [7.457743, 48.582557], [7.457743, 48.582692], [7.457764, 48.582768], [7.457788, 48.582845], [7.45783, 48.582984], [7.45787, 48.583123], [7.457927, 48.583257], [7.457993, 48.583327], [7.458091, 48.58345], [7.458134, 48.583446], [7.458183, 48.583442], [7.45821, 48.58344], [7.458248, 48.583437], [7.45854, 48.583455], [7.458573, 48.583689], [7.458598, 48.583846], [7.458653, 48.584203], [7.458752, 48.584222], [7.458847, 48.584242], [7.458943, 48.584261], [7.458984, 48.584269], [7.459041, 48.584285], [7.459093, 48.584301], [7.459139, 48.584315], [7.459196, 48.584333], [7.459236, 48.584346], [7.459353, 48.584382], [7.459399, 48.584407], [7.459537, 48.584094], [7.459582, 48.584005], [7.459734, 48.583724], [7.459808, 48.583586], [7.459883, 48.583446], [7.459924, 48.58332], [7.459943, 48.583337], [7.459886, 48.58354], [7.459793, 48.583711], [7.459576, 48.584108], [7.459443, 48.584433], [7.459427, 48.584473], [7.459515, 48.584538], [7.459623, 48.584674], [7.45964, 48.584726], [7.459675, 48.584853], [7.459664, 48.584883], [7.459644, 48.584924], [7.459622, 48.584967], [7.459602, 48.585007], [7.45958, 48.585051], [7.459539, 48.585135], [7.459499, 48.585216], [7.45947, 48.585276], [7.459467, 48.585301], [7.459441, 48.58543], [7.459423, 48.58549], [7.459389, 48.585607], [7.45936, 48.585699], [7.459321, 48.585774], [7.45929, 48.585835], [7.459279, 48.585884], [7.459271, 48.585924], [7.459255, 48.586], [7.459241, 48.58606], [7.459265, 48.586066], [7.459259, 48.586103], [7.459318, 48.586113], [7.459382, 48.586129], [7.459359, 48.586195], [7.459336, 48.586267], [7.459328, 48.586289], [7.459328, 48.586306], [7.459322, 48.586385], [7.459317, 48.586459], [7.459312, 48.586544], [7.459253, 48.586771], [7.459155, 48.587031], [7.459015, 48.587374], [7.459003, 48.587404], [7.458877, 48.587802], [7.458913, 48.587807], [7.458938, 48.587811], [7.458993, 48.587819], [7.459024, 48.587824], [7.45915, 48.587842], [7.459289, 48.587855], [7.459353, 48.587861], [7.459387, 48.587865], [7.459514, 48.587877], [7.459562, 48.587872], [7.459557, 48.587881], [7.459599, 48.587885], [7.459638, 48.587888], [7.459846, 48.587908], [7.459929, 48.587915], [7.460045, 48.587926], [7.460167, 48.587938], [7.460299, 48.58795], [7.460404, 48.58796], [7.460508, 48.587969], [7.460564, 48.587975], [7.46059, 48.587977], [7.460628, 48.587982], [7.460687, 48.587989], [7.46074, 48.587996], [7.460869, 48.588013], [7.460914, 48.588018], [7.460987, 48.588028], [7.461021, 48.588032], [7.461082, 48.58804], [7.461133, 48.588046], [7.461179, 48.588052], [7.461228, 48.588058], [7.46137, 48.588075], [7.461415, 48.588081], [7.461476, 48.588089], [7.461511, 48.588093], [7.461555, 48.588099], [7.461648, 48.58811], [7.461718, 48.588119], [7.461775, 48.588126], [7.461963, 48.588149], [7.462023, 48.588157], [7.462084, 48.588164], [7.462166, 48.588174], [7.462259, 48.588186], [7.462346, 48.588197], [7.462448, 48.588209], [7.46255, 48.588222], [7.463069, 48.588254], [7.463622, 48.588304], [7.463754, 48.588304], [7.463827, 48.588292], [7.464012, 48.588261], [7.464158, 48.588237], [7.464337, 48.588208], [7.464405, 48.588197], [7.464629, 48.588155], [7.464818, 48.58812], [7.46502, 48.588083], [7.465242, 48.58807], [7.465637, 48.588073], [7.4661, 48.588106], [7.46634, 48.588114], [7.466757, 48.588093], [7.466792, 48.588092], [7.467056, 48.58809], [7.467106, 48.588094], [7.467212, 48.588104], [7.467294, 48.588111], [7.467325, 48.588114], [7.467468, 48.588129], [7.467491, 48.588132], [7.467628, 48.58815], [7.467769, 48.588168], [7.467841, 48.588177], [7.467879, 48.588182], [7.467985, 48.588195], [7.468091, 48.588208], [7.468239, 48.588225], [7.468314, 48.588234], [7.468362, 48.58824], [7.468394, 48.588244], [7.468516, 48.587441], [7.468453, 48.587428], [7.468396, 48.587417], [7.46831, 48.5874], [7.468282, 48.587394], [7.46823, 48.587385], [7.468191, 48.587375], [7.468109, 48.587351], [7.468084, 48.587345], [7.468058, 48.587337], [7.468024, 48.587328], [7.468004, 48.587321], [7.467915, 48.587302], [7.467861, 48.58729], [7.467805, 48.58728], [7.467692, 48.587261], [7.46765, 48.587257], [7.467592, 48.587248], [7.467509, 48.587237], [7.467501, 48.587236], [7.467429, 48.587221], [7.467403, 48.587214], [7.467355, 48.587204], [7.467309, 48.587193], [7.467277, 48.587186], [7.467177, 48.587161], [7.467115, 48.587144], [7.467079, 48.587135], [7.46703, 48.587123], [7.466981, 48.587109], [7.46685, 48.587073], [7.466831, 48.587066], [7.46723, 48.586448], [7.46713, 48.586447], [7.467019, 48.586445], [7.466945, 48.586424], [7.466888, 48.586408], [7.466767, 48.586374], [7.466711, 48.586357], [7.466598, 48.586312], [7.46646, 48.586256], [7.46636, 48.586216], [7.466178, 48.58615], [7.466042, 48.586101], [7.466013, 48.586089], [7.465913, 48.586052], [7.465901, 48.586048], [7.465849, 48.586026], [7.46578, 48.585997], [7.46571, 48.585966], [7.465671, 48.58595], [7.465636, 48.585936], [7.465597, 48.585921], [7.465506, 48.585883], [7.46546, 48.585865], [7.465419, 48.585847], [7.465344, 48.585817], [7.465306, 48.585801], [7.465236, 48.585771], [7.465164, 48.58574], [7.465094, 48.585709], [7.465021, 48.585679], [7.464943, 48.585644], [7.464872, 48.585614], [7.464594, 48.585495], [7.464272, 48.585327], [7.464239, 48.585309], [7.46427, 48.585277], [7.464492, 48.585038], [7.464406, 48.585011], [7.464317, 48.584981], [7.464237, 48.584951], [7.464168, 48.584924], [7.464108, 48.584898], [7.464043, 48.584868], [7.463985, 48.584844], [7.463919, 48.584817], [7.463836, 48.584785], [7.463757, 48.584755], [7.463692, 48.584731], [7.463641, 48.584712], [7.463628, 48.584707], [7.463596, 48.584695], [7.463567, 48.584684], [7.463514, 48.584663], [7.463511, 48.584662], [7.463504, 48.58466], [7.463445, 48.584636], [7.463344, 48.584596], [7.463287, 48.584575], [7.46326, 48.584565], [7.463227, 48.584552], [7.463207, 48.584544], [7.463252, 48.584486], [7.463749, 48.583848], [7.463597, 48.583791], [7.463558, 48.583776], [7.463521, 48.583762], [7.463399, 48.583717], [7.463343, 48.583696], [7.463282, 48.583673], [7.463224, 48.583653], [7.463154, 48.583626], [7.463088, 48.583603], [7.463036, 48.583583], [7.462857, 48.583824], [7.462828, 48.583815], [7.462792, 48.583803], [7.462725, 48.583781], [7.462715, 48.583778], [7.462648, 48.583756], [7.462574, 48.583731], [7.462535, 48.583717], [7.462502, 48.583708], [7.462429, 48.583682], [7.462517, 48.58357], [7.46264, 48.583417], [7.462672, 48.583376], [7.462708, 48.583329], [7.462776, 48.583246], [7.46213, 48.582944], [7.462039, 48.582888], [7.461963, 48.582846], [7.461929, 48.582829], [7.461732, 48.582735], [7.461641, 48.582691], [7.461557, 48.58265], [7.461543, 48.582643], [7.46149, 48.582617], [7.461454, 48.582599], [7.461439, 48.582593], [7.461417, 48.582582], [7.461375, 48.582562], [7.461358, 48.582554], [7.461337, 48.582544], [7.461271, 48.582513], [7.461229, 48.582496], [7.4612, 48.582484], [7.461167, 48.582471], [7.461069, 48.582436], [7.461117, 48.582367], [7.460992, 48.582307], [7.460906, 48.582265], [7.460788, 48.582401], [7.460693, 48.582363], [7.460646, 48.582345], [7.460602, 48.582328], [7.460833, 48.582082], [7.460722, 48.582049], [7.460669, 48.582035], [7.460658, 48.582032], [7.460613, 48.582022], [7.460505, 48.582], [7.460489, 48.581996], [7.46033, 48.581963], [7.460323, 48.581961], [7.4602, 48.581935], [7.460033, 48.582142], [7.459952, 48.582399], [7.459972, 48.582616], [7.459973, 48.582622], [7.459942, 48.582686]]]]}}]}