{"type": "FeatureCollection", "features": [{"type": "Feature", "properties": {"id": "AOC-Alsace-Grand-Cru-Sporen", "name": "Sporen", "commune": "Riquewihr", "family": "黏土泥灰岩", "familyColor": "#1a5276", "lessonId": "AL2M5L4"}, "geometry": {"type": "MultiPolygon", "coordinates": [[[[7.30502, 48.154766], [7.304976, 48.15465], [7.304601, 48.154747], [7.303729, 48.154984], [7.303272, 48.15519], [7.302971, 48.155367], [7.302925, 48.155403], [7.302713, 48.155468], [7.302779, 48.155552], [7.302811, 48.155647], [7.302787, 48.155653], [7.302861, 48.155832], [7.302905, 48.155943], [7.302918, 48.156], [7.302959, 48.156184], [7.302975, 48.156245], [7.302999, 48.156337], [7.303015, 48.156396], [7.303026, 48.156439], [7.30303, 48.156459], [7.303073, 48.156681], [7.303094, 48.156743], [7.303178, 48.156982], [7.303202, 48.157047], [7.303245, 48.157172], [7.303273, 48.157286], [7.303314, 48.157496], [7.303535, 48.157495], [7.303633, 48.157468], [7.303693, 48.157476], [7.303676, 48.157509], [7.303673, 48.157535], [7.30361, 48.157681], [7.303589, 48.157729], [7.303566, 48.157804], [7.303537, 48.157911], [7.303513, 48.157986], [7.303466, 48.158135], [7.303453, 48.158174], [7.303451, 48.158215], [7.30344, 48.158308], [7.30343, 48.158387], [7.303422, 48.158456], [7.303414, 48.158521], [7.303414, 48.158588], [7.303415, 48.158667], [7.303414, 48.158754], [7.30342, 48.158831], [7.30344, 48.158909], [7.303459, 48.158979], [7.303479, 48.159056], [7.303492, 48.159115], [7.303506, 48.159259], [7.303523, 48.159429], [7.303521, 48.159436], [7.303515, 48.159527], [7.303508, 48.159547], [7.303478, 48.159633], [7.303441, 48.159717], [7.303409, 48.159785], [7.303439, 48.159816], [7.303751, 48.159882], [7.304145, 48.160014], [7.304475, 48.160104], [7.304626, 48.16011], [7.305169, 48.16002], [7.305192, 48.159972], [7.305277, 48.159963], [7.305382, 48.159956], [7.30539, 48.159994], [7.30606, 48.159953], [7.30704, 48.159908], [7.307381, 48.159894], [7.307844, 48.159855], [7.308146, 48.159833], [7.308306, 48.159813], [7.308644, 48.159797], [7.309575, 48.159808], [7.310359, 48.159844], [7.310886, 48.159895], [7.310911, 48.159804], [7.310934, 48.159728], [7.310958, 48.159662], [7.310977, 48.1596], [7.311081, 48.159281], [7.311157, 48.159067], [7.311168, 48.159038], [7.311162, 48.158932], [7.311159, 48.158887], [7.31115, 48.158777], [7.311142, 48.158709], [7.311109, 48.158568], [7.31108, 48.158456], [7.31108, 48.158448], [7.311056, 48.158352], [7.311039, 48.158279], [7.311019, 48.1582], [7.310994, 48.158118], [7.310929, 48.15792], [7.310911, 48.15786], [7.310867, 48.157724], [7.310836, 48.157634], [7.31067, 48.15762], [7.310537, 48.157608], [7.310415, 48.1576], [7.310302, 48.157594], [7.310212, 48.157588], [7.310012, 48.157579], [7.309771, 48.157561], [7.309643, 48.157549], [7.309592, 48.157548], [7.309506, 48.157543], [7.309397, 48.157535], [7.309183, 48.157519], [7.309179, 48.157501], [7.309176, 48.157438], [7.309176, 48.157395], [7.308633, 48.157442], [7.307085, 48.157661], [7.307022, 48.15767], [7.307018, 48.157656], [7.306977, 48.157454], [7.30702, 48.157452], [7.307044, 48.157379], [7.307065, 48.157314], [7.307111, 48.15718], [7.307136, 48.157095], [7.307167, 48.157005], [7.306517, 48.157096], [7.306508, 48.157022], [7.306495, 48.156931], [7.306467, 48.15678], [7.306466, 48.156699], [7.306469, 48.156672], [7.306463, 48.156633], [7.305517, 48.156822], [7.305264, 48.156866], [7.304941, 48.156897], [7.304876, 48.156889], [7.304876, 48.156898], [7.304859, 48.156787], [7.304846, 48.15669], [7.304829, 48.156586], [7.304817, 48.156498], [7.30481, 48.156446], [7.304812, 48.156403], [7.304815, 48.156316], [7.30482, 48.156276], [7.304829, 48.156224], [7.304856, 48.156125], [7.30488, 48.156047], [7.304906, 48.155978], [7.304951, 48.155859], [7.304977, 48.155793], [7.304997, 48.155733], [7.304998, 48.155717], [7.305005, 48.155574], [7.305016, 48.155437], [7.30503, 48.155276], [7.305047, 48.155124], [7.305055, 48.155026], [7.305034, 48.154805], [7.30502, 48.154766]]], [[[7.303524, 48.157719], [7.303585, 48.157574], [7.303522, 48.157537], [7.303156, 48.157539], [7.302863, 48.157606], [7.302582, 48.157737], [7.302514, 48.157784], [7.30234, 48.157902], [7.302174, 48.158013], [7.302081, 48.158098], [7.301988, 48.15818], [7.301883, 48.158278], [7.301786, 48.158371], [7.301708, 48.158448], [7.301637, 48.158534], [7.301556, 48.158632], [7.301458, 48.158748], [7.301344, 48.158907], [7.301255, 48.159031], [7.301202, 48.159207], [7.301179, 48.159295], [7.301164, 48.159369], [7.301091, 48.159466], [7.30078, 48.159619], [7.300715, 48.159683], [7.300645, 48.15975], [7.300653, 48.159775], [7.301326, 48.15974], [7.301711, 48.159739], [7.302029, 48.15977], [7.302203, 48.159787], [7.302639, 48.159784], [7.3033, 48.159794], [7.303346, 48.159771], [7.303412, 48.159624], [7.303439, 48.159519], [7.303453, 48.159459], [7.303461, 48.159426], [7.303444, 48.159288], [7.30344, 48.15923], [7.303431, 48.159126], [7.303415, 48.159062], [7.303364, 48.158837], [7.303358, 48.158757], [7.303355, 48.158651], [7.303352, 48.158523], [7.303362, 48.158415], [7.303374, 48.158324], [7.303383, 48.158236], [7.303393, 48.15816], [7.303425, 48.158058], [7.303448, 48.157977], [7.303473, 48.157895], [7.303495, 48.157824], [7.303524, 48.157719]]]]}}]}