{"type": "FeatureCollection", "features": [{"type": "Feature", "properties": {"id": "AOC-Alsace-Grand-Cru-Schoenenbourg", "name": "Schoenenbourg", "commune": "Riquewihr & Zellenberg", "family": "黏土泥灰岩", "familyColor": "#2980b9", "lessonId": "AL2M5L4"}, "geometry": {"type": "MultiPolygon", "coordinates": [[[[7.297992, 48.168121], [7.297962, 48.167746], [7.29766, 48.167818], [7.297571, 48.167841], [7.297475, 48.167865], [7.29742, 48.167877], [7.297054, 48.16795], [7.297004, 48.167959], [7.296964, 48.167964], [7.296868, 48.167975], [7.296812, 48.167982], [7.296618, 48.167993], [7.29638, 48.168007], [7.296189, 48.168018], [7.296026, 48.168027], [7.29575, 48.168043], [7.295753, 48.168057], [7.296002, 48.168138], [7.296158, 48.168331], [7.296254, 48.168448], [7.296259, 48.168471], [7.296352, 48.168659], [7.296494, 48.168816], [7.296578, 48.168959], [7.296724, 48.169292], [7.296921, 48.169655], [7.296967, 48.169696], [7.297201, 48.16979], [7.297277, 48.169822], [7.29766, 48.169997], [7.298233, 48.170189], [7.298334, 48.170129], [7.298457, 48.170055], [7.298513, 48.17002], [7.298611, 48.169963], [7.298726, 48.169926], [7.298868, 48.169904], [7.298953, 48.169892], [7.29924, 48.169877], [7.299248, 48.169876], [7.299469, 48.169875], [7.299701, 48.169878], [7.299857, 48.169877], [7.300008, 48.169877], [7.299983, 48.170075], [7.299993, 48.170199], [7.300112, 48.170457], [7.300252, 48.170461], [7.300409, 48.170466], [7.3005, 48.170469], [7.300649, 48.170472], [7.300785, 48.17046], [7.300924, 48.170448], [7.301023, 48.170439], [7.301128, 48.170431], [7.301274, 48.170444], [7.301369, 48.170451], [7.301396, 48.170452], [7.301663, 48.170478], [7.301793, 48.170493], [7.301913, 48.170507], [7.302024, 48.170519], [7.302161, 48.17054], [7.302256, 48.170556], [7.302264, 48.170557], [7.302483, 48.170591], [7.302593, 48.170585], [7.302714, 48.170581], [7.302926, 48.170571], [7.303058, 48.170579], [7.303069, 48.17058], [7.303188, 48.170589], [7.303327, 48.170598], [7.303451, 48.170608], [7.30366, 48.170622], [7.303812, 48.170633], [7.303888, 48.170637], [7.304095, 48.170637], [7.304235, 48.170637], [7.304364, 48.170638], [7.304456, 48.170638], [7.304602, 48.170638], [7.304688, 48.170638], [7.304793, 48.17064], [7.304887, 48.17064], [7.305006, 48.170641], [7.3051, 48.170641], [7.305144, 48.170485], [7.305243, 48.170514], [7.305343, 48.170542], [7.305561, 48.170605], [7.305693, 48.170643], [7.305878, 48.170698], [7.305978, 48.170726], [7.306091, 48.17076], [7.306403, 48.17085], [7.306618, 48.17091], [7.306863, 48.170948], [7.306986, 48.170967], [7.307114, 48.170986], [7.30727, 48.171009], [7.307433, 48.171034], [7.307695, 48.171073], [7.307973, 48.170947], [7.308181, 48.170857], [7.3087, 48.170643], [7.309186, 48.17046], [7.30922, 48.170446], [7.309544, 48.170315], [7.309713, 48.17028], [7.309818, 48.170282], [7.310002, 48.170286], [7.310056, 48.170284], [7.310061, 48.170282], [7.310099, 48.170251], [7.310124, 48.170233], [7.310163, 48.170206], [7.31017, 48.1702], [7.31017, 48.170198], [7.31003, 48.170137], [7.309883, 48.170079], [7.309752, 48.170028], [7.309768, 48.169995], [7.309774, 48.169997], [7.309947, 48.169675], [7.309947, 48.169673], [7.310166, 48.169157], [7.310168, 48.169155], [7.310174, 48.169153], [7.310184, 48.169144], [7.310188, 48.169104], [7.310214, 48.168894], [7.310208, 48.168748], [7.310207, 48.168734], [7.310207, 48.168638], [7.310207, 48.168242], [7.310179, 48.167904], [7.310179, 48.167902], [7.310177, 48.167882], [7.310082, 48.167869], [7.309959, 48.167847], [7.309844, 48.167828], [7.309554, 48.167775], [7.309453, 48.167757], [7.309193, 48.167709], [7.309046, 48.167682], [7.308909, 48.167653], [7.308676, 48.167604], [7.308393, 48.167473], [7.308037, 48.167274], [7.307963, 48.167228], [7.307941, 48.167216], [7.307876, 48.167179], [7.307743, 48.167104], [7.307447, 48.166913], [7.307295, 48.166796], [7.307269, 48.166776], [7.307123, 48.166673], [7.307025, 48.166624], [7.306828, 48.166527], [7.306692, 48.166478], [7.306612, 48.166446], [7.306579, 48.166438], [7.306457, 48.166405], [7.306392, 48.166395], [7.306269, 48.16637], [7.305942, 48.166332], [7.305724, 48.166327], [7.305506, 48.166339], [7.305288, 48.166332], [7.305174, 48.166331], [7.304935, 48.166298], [7.304694, 48.166251], [7.304573, 48.166225], [7.304341, 48.166156], [7.304278, 48.166468], [7.304202, 48.166835], [7.304083, 48.166825], [7.303999, 48.166817], [7.303893, 48.166809], [7.303774, 48.166799], [7.30373, 48.166795], [7.303607, 48.166799], [7.303543, 48.166803], [7.303401, 48.166814], [7.303016, 48.166828], [7.30295, 48.166602], [7.302865, 48.166322], [7.302861, 48.166311], [7.302857, 48.166299], [7.302842, 48.166312], [7.302787, 48.16633], [7.302449, 48.166382], [7.302163, 48.16641], [7.302081, 48.166428], [7.301964, 48.16647], [7.301854, 48.166515], [7.301706, 48.166622], [7.301648, 48.166662], [7.301589, 48.166707], [7.301568, 48.166744], [7.301564, 48.166795], [7.30157, 48.166893], [7.301572, 48.166919], [7.301634, 48.167024], [7.30168, 48.167095], [7.301657, 48.167101], [7.301501, 48.167139], [7.301139, 48.167228], [7.300967, 48.16727], [7.300872, 48.167294], [7.300798, 48.167311], [7.300465, 48.167392], [7.300439, 48.167398], [7.300469, 48.167509], [7.300424, 48.167343], [7.300401, 48.167302], [7.300365, 48.167224], [7.300326, 48.167171], [7.300241, 48.167059], [7.300149, 48.167084], [7.299725, 48.1672], [7.299665, 48.167226], [7.299514, 48.167289], [7.299386, 48.167344], [7.299095, 48.167467], [7.298915, 48.167544], [7.298826, 48.167576], [7.298677, 48.16763], [7.298613, 48.167645], [7.298576, 48.167651], [7.298847, 48.168235], [7.298849, 48.168258], [7.298975, 48.168578], [7.298765, 48.168611], [7.298746, 48.168615], [7.298656, 48.168629], [7.298685, 48.16872], [7.298367, 48.168755], [7.298203, 48.168427], [7.298199, 48.168417], [7.298063, 48.168427], [7.297972, 48.168434], [7.298015, 48.168431], [7.29801, 48.168413], [7.298008, 48.168413], [7.298007, 48.168366], [7.297992, 48.168121]], [[7.298477, 48.169274], [7.298489, 48.169295], [7.298421, 48.169348], [7.2984, 48.169321], [7.298477, 48.169274]]], [[[7.315648, 48.169416], [7.315575, 48.169375], [7.315473, 48.16932], [7.315405, 48.16927], [7.315253, 48.169162], [7.31521, 48.169126], [7.315195, 48.169112], [7.315131, 48.169053], [7.31507, 48.168997], [7.314959, 48.168895], [7.31482, 48.16877], [7.3147, 48.168663], [7.314622, 48.168592], [7.314558, 48.168533], [7.314473, 48.168482], [7.314396, 48.168434], [7.314225, 48.168354], [7.314147, 48.168316], [7.314074, 48.168282], [7.314071, 48.168282], [7.313885, 48.168244], [7.313813, 48.168229], [7.313717, 48.168209], [7.313549, 48.168186], [7.313183, 48.168135], [7.313082, 48.168118], [7.312984, 48.1681], [7.312888, 48.168086], [7.312812, 48.168072], [7.312754, 48.168028], [7.312366, 48.167961], [7.31235, 48.167958], [7.311867, 48.16792], [7.311337, 48.167892], [7.310987, 48.167901], [7.31077, 48.167907], [7.310444, 48.167917], [7.310177, 48.167882], [7.310179, 48.167902], [7.310179, 48.167904], [7.310207, 48.168242], [7.310205, 48.168447], [7.310206, 48.168559], [7.310207, 48.168638], [7.310207, 48.168734], [7.310208, 48.168748], [7.310218, 48.168807], [7.310239, 48.168898], [7.310238, 48.168915], [7.310213, 48.169106], [7.310208, 48.169145], [7.310176, 48.169153], [7.310174, 48.169153], [7.310168, 48.169155], [7.310166, 48.169157], [7.309947, 48.169673], [7.309947, 48.169675], [7.309774, 48.169997], [7.309846, 48.170026], [7.309919, 48.170056], [7.309985, 48.170083], [7.310113, 48.170128], [7.310194, 48.170158], [7.310283, 48.1702], [7.310398, 48.170253], [7.310647, 48.1703], [7.310729, 48.170308], [7.310831, 48.170344], [7.310925, 48.170474], [7.310968, 48.170532], [7.310974, 48.170544], [7.311068, 48.170668], [7.311268, 48.170941], [7.311291, 48.170996], [7.31132, 48.171054], [7.311378, 48.171169], [7.311446, 48.171307], [7.312012, 48.171112], [7.312139, 48.17108], [7.312163, 48.171074], [7.312289, 48.171033], [7.312519, 48.170954], [7.312606, 48.170931], [7.312688, 48.170908], [7.312791, 48.170881], [7.313091, 48.170798], [7.313185, 48.17076], [7.313303, 48.170783], [7.313368, 48.170795], [7.313433, 48.170764], [7.313491, 48.170812], [7.313534, 48.170847], [7.313601, 48.170904], [7.313863, 48.170947], [7.313985, 48.170991], [7.314014, 48.171046], [7.314062, 48.171138], [7.314102, 48.171132], [7.31497, 48.171005], [7.315434, 48.170943], [7.315538, 48.170929], [7.31574, 48.170896], [7.316021, 48.170844], [7.316165, 48.170952], [7.316206, 48.1709], [7.316779, 48.170624], [7.316633, 48.170447], [7.316585, 48.170389], [7.316536, 48.17029], [7.316478, 48.170171], [7.31633, 48.170038], [7.316266, 48.169981], [7.316167, 48.169891], [7.31606, 48.169769], [7.316243, 48.169675], [7.31614, 48.169634], [7.316057, 48.169597], [7.315967, 48.169561], [7.315827, 48.169498], [7.315718, 48.169449], [7.315648, 48.169416]]], [[[7.316679, 48.169834], [7.316379, 48.169719], [7.316271, 48.169678], [7.3161, 48.169767], [7.316196, 48.169881], [7.316361, 48.170026], [7.316509, 48.170158], [7.31658, 48.170305], [7.316619, 48.170379], [7.316724, 48.170512], [7.316805, 48.170612], [7.316812, 48.170626], [7.316796, 48.170634], [7.316231, 48.170912], [7.316304, 48.170978], [7.31636, 48.17103], [7.317006, 48.170731], [7.317132, 48.170652], [7.317206, 48.170601], [7.317565, 48.170283], [7.317483, 48.170237], [7.317378, 48.170178], [7.317359, 48.170168], [7.317254, 48.170109], [7.31704, 48.169992], [7.316955, 48.169945], [7.31688, 48.169913], [7.316679, 48.169834]]], [[[7.310616, 48.17035], [7.31058, 48.170335], [7.310455, 48.170325], [7.310256, 48.170323], [7.309819, 48.170327], [7.309614, 48.17035], [7.30931, 48.170455], [7.308871, 48.170623], [7.309004, 48.170805], [7.309068, 48.170886], [7.30927, 48.171154], [7.309454, 48.171394], [7.309475, 48.171426], [7.309506, 48.171466], [7.309539, 48.171508], [7.309629, 48.171628], [7.309809, 48.171583], [7.309872, 48.171666], [7.309929, 48.171739], [7.310014, 48.171815], [7.310124, 48.171916], [7.311446, 48.171467], [7.311377, 48.171322], [7.311319, 48.171202], [7.31129, 48.171142], [7.311203, 48.170968], [7.3112, 48.170961], [7.311169, 48.170921], [7.311142, 48.17088], [7.311117, 48.170847], [7.310957, 48.170629], [7.310841, 48.170468], [7.310808, 48.17042], [7.310805, 48.170417], [7.310658, 48.170364], [7.310616, 48.17035]]]]}}]}