{"type":"FeatureCollection","crs":{"type":"name","properties":{"name":"urn:ogc:def:crs:EPSG::4326"}},"features":[{"type":"Feature","properties":{"region_id":7,"name":"Pannonhalma","name_hu":"Pannonhalma-Sokoróalja borvidék","region_group":"Dunántúl (Transdanubia)","area_ha_approx":400,"notable_grapes":"Rajnai Rizling, Tramini, Pinot Gris, Sauvignon Blanc","notes":"Benedictine abbey wines since 996 AD; limestone soils"},"geometry":{"type":"Polygon","coordinates":[[[17.5353394,47.4304323],[17.5314898,47.4277102],[17.5298442,47.42617],[17.5287213,47.4261552],[17.5264627,47.4268878],[17.5229737,47.4310256],[17.5206946,47.4321421],[17.5195277,47.4336514],[17.5166588,47.4358943],[17.5115321,47.4384914],[17.5080944,47.4411108],[17.5064824,47.4384239],[17.5032217,47.4349526],[17.5020874,47.4353217],[17.5015213,47.4353141],[17.4993619,47.4326198],[17.4982279,47.4329827],[17.4976728,47.4325971],[17.4971158,47.4325896],[17.4960151,47.4318124],[17.4938026,47.4306359],[17.4921337,47.4302353],[17.4904761,47.4294505],[17.4888206,47.4282876],[17.4877424,47.4267482],[17.4849957,47.4248081],[17.482806,47.4228754],[17.4805358,47.4239851],[17.4765766,47.4250717],[17.4737308,47.4261795],[17.4658229,47.4279742],[17.4646772,47.4287208],[17.4640975,47.4294753],[17.4629973,47.4286977],[17.45864,47.4244476],[17.4540914,47.4262877],[17.4529342,47.4274122],[17.4483941,47.4292584],[17.4449564,47.4314916],[17.4465099,47.4357034],[17.4464065,47.4391297],[17.4480385,47.4410553],[17.4462571,47.4440802],[17.443916,47.4474754],[17.4444387,47.4486231],[17.4443696,47.4509094],[17.4488887,47.4498254],[17.4494664,47.4494554],[17.4505898,47.4494709],[17.4517247,47.4491023],[17.4522819,47.4491101],[17.4533823,47.4498877],[17.4550629,47.4499109],[17.4589446,47.4514893],[17.462838,47.4526834],[17.4639387,47.4534609],[17.4633588,47.4542153],[17.4621556,47.4568641],[17.4637909,47.4584114],[17.4681378,47.4634235],[17.4708632,47.4661261],[17.4725104,47.4672891],[17.4773937,47.4730706],[17.4854961,47.4815059],[17.4901149,47.4797141],[17.496326,47.4786574],[17.4991648,47.477555],[17.4996426,47.4806048],[17.4973388,47.4824767],[17.4955122,47.4874046],[17.4949121,47.488537],[17.4926168,47.4904152],[17.4903348,47.4915249],[17.4874726,47.4933891],[17.4757845,47.4894246],[17.4687646,47.4988494],[17.4787854,47.5020294],[17.4770581,47.5035307],[17.4730475,47.5061413],[17.4741607,47.5065408],[17.469515,47.5114236],[17.4700613,47.5118153],[17.4694808,47.5125698],[17.4647409,47.5208787],[17.4618443,47.5235042],[17.4623885,47.5242741],[17.4612179,47.5257828],[17.4595007,47.5268996],[17.4594892,47.5272838],[17.4571933,47.5287769],[17.4537265,47.5317725],[17.4513614,47.5355517],[17.4490627,47.5374228],[17.4450712,47.5392703],[17.4439114,47.5403947],[17.4427399,47.5419032],[17.4421726,47.5418953],[17.441045,47.5422577],[17.446559,47.545762],[17.4436462,47.5491492],[17.4419763,47.5483698],[17.4373677,47.5521113],[17.4395379,47.5548068],[17.4411756,47.5563544],[17.4422781,47.5571321],[17.4545254,47.5614916],[17.454514,47.5618696],[17.4589281,47.5645956],[17.4600426,47.564989],[17.4605781,47.5657587],[17.4616924,47.5661583],[17.4622486,47.5665441],[17.4622258,47.5673061],[17.4627385,47.5688379],[17.4627272,47.5692158],[17.4632719,47.5699857],[17.4683818,47.5681528],[17.4717483,47.5685769],[17.47341,47.5693619],[17.4745018,47.5705234],[17.4756166,47.5709167],[17.4766973,47.5724561],[17.4794288,47.5751585],[17.4827508,47.5771063],[17.4832642,47.578638],[17.4854267,47.5817105],[17.4865304,47.5824878],[17.4876453,47.5828872],[17.4835956,47.5866381],[17.4830278,47.5866304],[17.4830165,47.5870145],[17.4824355,47.5877628],[17.480728,47.588502],[17.4795791,47.5892488],[17.4795451,47.590395],[17.4800925,47.5907805],[17.4795113,47.591535],[17.4800473,47.5923047],[17.4794211,47.5945771],[17.480491,47.5965006],[17.4815859,47.5972778],[17.4764285,47.6006292],[17.4752225,47.6032841],[17.4734601,47.6055411],[17.4716952,47.6081822],[17.4699641,47.6096833],[17.4699528,47.6100612],[17.468258,47.6100381],[17.4648639,47.6107541],[17.4625646,47.6122473],[17.4607989,47.6148883],[17.455824,47.6117766],[17.4517812,47.6151484],[17.4511673,47.6166585],[17.4528393,47.6174439],[17.4510982,47.6189446],[17.4527589,47.620108],[17.452621,47.6246803],[17.4531686,47.6250659],[17.4475076,47.6261282],[17.4418138,47.6279583],[17.4400234,47.631361],[17.4438142,47.6363597],[17.4449185,47.6371373],[17.4465126,47.6402089],[17.4481531,47.6417563],[17.44978,47.6440596],[17.453096,47.6460082],[17.4523542,47.6513303],[17.4495036,47.6531979],[17.4483413,47.6543223],[17.4494131,47.6554734],[17.4493554,47.6573816],[17.4482047,47.6581218],[17.4487524,47.6585137],[17.4492864,47.6596615],[17.4504026,47.6600612],[17.4509506,47.6604468],[17.4509045,47.6619709],[17.4519864,47.6635105],[17.4525343,47.6638961],[17.4524883,47.6654202],[17.4529765,47.6680921],[17.4523388,47.6703704],[17.4523044,47.6715103],[17.4517219,47.6722646],[17.4538403,47.6768617],[17.4554937,47.6780249],[17.4577616,47.677678],[17.4588899,47.6776935],[17.4605548,47.6784787],[17.4639283,47.6789029],[17.4639054,47.679665],[17.4644421,47.6804347],[17.4626856,47.6826977],[17.4626743,47.6830756],[17.4632224,47.6834674],[17.4626401,47.6842156],[17.4603375,47.6857087],[17.4608957,47.6864829],[17.4608728,47.6872449],[17.462513,47.6891702],[17.4652955,47.6903487],[17.4646922,47.691487],[17.4640642,47.6937593],[17.4640413,47.6945213],[17.4651812,47.6941588],[17.465741,47.6941665],[17.4657296,47.6945444],[17.4651471,47.6952988],[17.4645666,47.6956751],[17.4645438,47.6964371],[17.4651014,47.6968228],[17.4667898,47.6968459],[17.4679298,47.6964834],[17.4696069,47.6968843],[17.4707583,47.6961377],[17.4707696,47.6957597],[17.471887,47.696153],[17.4718755,47.6965371],[17.4712817,47.6976695],[17.4701417,47.698032],[17.468419,47.6991552],[17.4683962,47.6999172],[17.4706445,47.6999478],[17.4723877,47.6984469],[17.4746359,47.6984774],[17.4752163,47.698101],[17.475239,47.697339],[17.47581,47.6969687],[17.4763789,47.6969764],[17.478022,47.6985234],[17.4791395,47.6989166],[17.4802682,47.6989318],[17.4813743,47.6997091],[17.4846611,47.7028029],[17.4846273,47.7039429],[17.485711,47.7054822],[17.48514,47.7058525],[17.4851174,47.7066146],[17.4845372,47.7069848],[17.4856322,47.7081462],[17.4878675,47.7089386],[17.4895563,47.7089614],[17.4872422,47.7108329],[17.4872085,47.7119729],[17.4866486,47.7119654],[17.4860661,47.7127198],[17.484368,47.7126969],[17.4832276,47.7130658],[17.4826565,47.7134362],[17.4815275,47.7134209],[17.4803872,47.7137836],[17.4798159,47.7141601],[17.4786756,47.7145227],[17.4763721,47.7160162],[17.4740912,47.7167476],[17.4735085,47.717502],[17.4734858,47.718264],[17.4723454,47.7186266],[17.4717739,47.7190031],[17.4700188,47.7208819],[17.4694474,47.7212522],[17.4744448,47.7239853],[17.4708635,47.7304133],[17.4628298,47.7348715],[17.4628183,47.7352557],[17.4611173,47.7356105],[17.4611059,47.7359884],[17.4593726,47.7371112],[17.459919,47.737881],[17.4598962,47.7386369],[17.4604335,47.7394066],[17.4609227,47.7420783],[17.4523284,47.7461501],[17.449451,47.7480132],[17.448148,47.7537096],[17.4486944,47.7544795],[17.4388626,47.7619606],[17.4359839,47.7638234],[17.4324653,47.7679641],[17.4313236,47.7683263],[17.4352513,47.7691433],[17.4363698,47.7695431],[17.4374769,47.7703146],[17.4385606,47.7718543],[17.4390862,47.7730082],[17.4388668,47.7735897],[17.4413005,47.7745573],[17.44307,47.772301],[17.4459491,47.7704319],[17.4488161,47.768953],[17.4505416,47.7678302],[17.456684,47.7702016],[17.4611132,47.7733116],[17.4650076,47.7752675],[17.4655682,47.7752752],[17.4654882,47.7779391],[17.4660122,47.7794709],[17.4676463,47.7813959],[17.4687539,47.7821733],[17.4709808,47.7833439],[17.4737685,47.7845222],[17.4760089,47.7849368],[17.4782701,47.7849674],[17.4805538,47.784236],[17.4822565,47.7838747],[17.4879315,47.783195],[17.4901834,47.7832253],[17.4924221,47.7840114],[17.4969666,47.7833161],[17.4981195,47.7825692],[17.5003826,47.7822152],[17.5043348,47.7822678],[17.5071544,47.7826896],[17.5099429,47.7838669],[17.5121708,47.7850368],[17.5140704,47.7871484],[17.5148476,47.7892438],[17.5150315,47.7908919],[17.5146919,47.7920641],[17.515007,47.7920968],[17.5155365,47.7920285],[17.5266515,47.7795803],[17.5236101,47.7755215],[17.5172254,47.7664486],[17.5162281,47.7618616],[17.51625,47.7611057],[17.5179718,47.7603661],[17.5190596,47.7615209],[17.5234918,47.7646285],[17.5251606,47.7654065],[17.5268493,47.7658129],[17.5308003,47.7658647],[17.5325129,47.7651247],[17.5353555,47.7643995],[17.5382307,47.7625343],[17.5405127,47.7618017],[17.5416645,47.7610543],[17.5433768,47.7603142],[17.5491461,47.7561993],[17.5508904,47.7543192],[17.5514399,47.7547105],[17.5519878,47.7554799],[17.5502651,47.756598],[17.5502544,47.756976],[17.5507932,47.7577452],[17.5519015,47.7585218],[17.5530315,47.7585364],[17.5557982,47.7604747],[17.5557657,47.7616209],[17.5568744,47.7623912],[17.5579722,47.7635519],[17.5601802,47.7651049],[17.5623763,47.7674137],[17.5629031,47.7689451],[17.5622798,47.7708398],[17.5650688,47.7720158],[17.5656171,47.7727851],[17.5672224,47.7758548],[17.5699585,47.7789327],[17.5739637,47.777081],[17.5794674,47.7824807],[17.5800385,47.7821099],[17.582892,47.7810056],[17.5834725,47.7806287],[17.5840648,47.7794958],[17.5928682,47.7879856],[17.5854376,47.7913194],[17.5859774,47.7920823],[17.5876372,47.7932498],[17.5898672,47.7944182],[17.5954792,47.7960131],[17.5988625,47.7960554],[17.6000039,47.7956854],[17.599962,47.7972095],[17.6027949,47.7968667],[17.6044958,47.7968879],[17.6061666,47.7976709],[17.6083869,47.7992169],[17.6071935,47.8014889],[17.6026384,47.8025726],[17.6014865,47.8033206],[17.6008941,47.8044597],[17.6008837,47.8048376],[17.6019729,47.8063758],[17.603644,47.8071589],[17.6035397,47.8109628],[17.6069435,47.8106271],[17.610898,47.8106761],[17.6185899,47.8139211],[17.630927,47.803402],[17.633435,47.801929],[17.638714,47.799197],[17.660157,47.789457],[17.679427,47.778452],[17.685951,47.776052],[17.687793,47.775193],[17.691233,47.773261],[17.694306,47.771066],[17.696623,47.768962],[17.702039,47.762095],[17.703741,47.760485],[17.707338,47.75736],[17.709914,47.756082],[17.712816,47.755175],[17.718313,47.754182],[17.722004,47.75396],[17.72707,47.754049],[17.730902,47.753698],[17.738336,47.752143],[17.743248,47.750745],[17.74566,47.750277],[17.748155,47.750093],[17.758628,47.749977],[17.762956,47.749363],[17.76563,47.748519],[17.768709,47.746861],[17.771674,47.744628],[17.774106,47.74212],[17.775542,47.741032],[17.777274,47.740162],[17.779874,47.739487],[17.78402,47.739188],[17.786773,47.739481],[17.792008,47.74063],[17.7951338,47.7417578],[17.794024,47.739311],[17.7895235,47.7384999],[17.7844904,47.7365364],[17.7743698,47.7349073],[17.7761697,47.7307376],[17.7785111,47.7269519],[17.7849277,47.718265],[17.7861297,47.7152352],[17.7884153,47.7141135],[17.7907642,47.7103338],[17.7971406,47.7031704],[17.8012131,47.6978783],[17.801249,47.6963604],[17.8024314,47.6937082],[17.8081732,47.6895803],[17.8008958,47.6872153],[17.798124,47.6852828],[17.7950623,47.684073],[17.7869754,47.6798321],[17.7851014,47.6767654],[17.7825986,47.6744546],[17.7831582,47.6744607],[17.7820482,47.6736863],[17.7826169,47.6736925],[17.779278,47.6717471],[17.7759482,47.6694299],[17.772087,47.6659602],[17.7681986,47.6636304],[17.7654385,47.6613191],[17.7654478,47.660935],[17.7621193,47.6586174],[17.7610377,47.6570807],[17.7578307,47.6498063],[17.7578399,47.6494283],[17.7623787,47.6479542],[17.7558171,47.6398862],[17.7569725,47.6387588],[17.7575316,47.638765],[17.7575502,47.6380029],[17.7564505,47.6372283],[17.7542608,47.6345389],[17.7542702,47.6341547],[17.7554068,47.6337894],[17.7538044,47.6299599],[17.7455977,47.6203482],[17.7490166,47.618484],[17.7490354,47.6177219],[17.7512987,47.6173692],[17.7535436,47.6177724],[17.7551923,47.6193155],[17.7574371,47.6197248],[17.7597192,47.6186037],[17.7620197,47.6167266],[17.7648511,47.6159957],[17.7626248,47.6148306],[17.7740874,47.6065782],[17.7775318,47.603573],[17.7772327,47.6027617],[17.7776735,47.602547],[17.7700018,47.5980905],[17.7680175,47.5976938],[17.765244,47.5963926],[17.7636909,47.5958426],[17.7651207,47.5948977],[17.7682428,47.5920147],[17.7696394,47.5901082],[17.771876,47.5882141],[17.7689411,47.5863417],[17.7657217,47.5850971],[17.7673719,47.5841417],[17.7686006,47.5830497],[17.7689659,47.5823274],[17.7673958,47.5812947],[17.7687614,47.5798417],[17.7654222,47.577787],[17.7647367,47.5769626],[17.7601119,47.5744977],[17.7595322,47.5739872],[17.7595811,47.5734405],[17.7569259,47.5716892],[17.7575209,47.5708859],[17.7571489,47.5692603],[17.7573931,47.5674773],[17.7589636,47.5654825],[17.7593986,47.5641884],[17.7603726,47.5625041],[17.7648073,47.5609768],[17.7666733,47.5594775],[17.7672064,47.5584386],[17.7691002,47.5566378],[17.7698425,47.5554597],[17.7718366,47.5535527],[17.771612,47.5533521],[17.771898,47.5531714],[17.7723102,47.553522],[17.7738875,47.5522266],[17.7739772,47.5519198],[17.7743964,47.5515317],[17.7749929,47.5511998],[17.7756956,47.5511141],[17.776744,47.5504573],[17.7765683,47.5502497],[17.7765776,47.5498656],[17.7760102,47.5498593],[17.7769142,47.5480593],[17.7783206,47.5474412],[17.7786204,47.5478328],[17.7793474,47.5475848],[17.7798003,47.5480672],[17.7811699,47.5473637],[17.7811529,47.5464884],[17.7809315,47.5459634],[17.7797991,47.544597],[17.7828765,47.5384277],[17.7853326,47.5362583],[17.7887629,47.5340088],[17.7925025,47.5320108],[17.7973057,47.5291496],[17.7955595,47.526788],[17.7972318,47.5263697],[17.7979806,47.5245891],[17.7980166,47.5230648],[17.7974944,47.5211565],[17.7958655,47.5188518],[17.7918334,47.5229977],[17.7900294,47.527996],[17.7814806,47.5240007],[17.7838894,47.5213819],[17.7818172,47.5186986],[17.7807105,47.5179242],[17.7767642,47.5176125],[17.7667527,47.5135672],[17.7702026,47.5109536],[17.7713274,47.510966],[17.774153,47.5102411],[17.7741713,47.5094789],[17.7747566,47.5083388],[17.7747657,47.5079608],[17.7753326,47.5079671],[17.7753692,47.5064428],[17.7714923,47.5041192],[17.7749486,47.5003457],[17.7732938,47.499187],[17.7699751,47.4972476],[17.7621961,47.4933495],[17.7782753,47.4790555],[17.776621,47.4775188],[17.7766302,47.4771346],[17.776091,47.4763663],[17.7755335,47.4759821],[17.7744278,47.4755856],[17.7738886,47.4744392],[17.7739069,47.4736771],[17.7744825,47.4733054],[17.7688994,47.4717189],[17.7706907,47.467549],[17.7668261,47.464463],[17.7657483,47.4629263],[17.7546683,47.45671],[17.7558197,47.4555825],[17.7558291,47.4551983],[17.7564234,47.4536803],[17.7598957,47.4495355],[17.7616872,47.4449814],[17.7622904,47.4430853],[17.7623089,47.4423232],[17.7617702,47.4415548],[17.7606654,47.4407801],[17.7607022,47.439262],[17.7624379,47.4369944],[17.7630317,47.4358606],[17.7676073,47.4320997],[17.7704654,47.4302286],[17.7710774,47.4279484],[17.7710956,47.4271924],[17.7727848,47.4268268],[17.7738704,47.4245324],[17.7749325,47.4233681],[17.7755309,47.4229322],[17.7770403,47.422461],[17.7788118,47.4206843],[17.7811482,47.4166645],[17.7841033,47.4133045],[17.7844418,47.4125606],[17.7851889,47.410116],[17.7863124,47.4082064],[17.7868632,47.4066203],[17.7871354,47.4050638],[17.7848805,47.4038706],[17.781158,47.4015388],[17.7806922,47.4012027],[17.7798361,47.4001226],[17.7782368,47.39891],[17.7775615,47.398989],[17.7769211,47.3992762],[17.7767107,47.39921],[17.7771052,47.3991828],[17.7773116,47.3987319],[17.7783983,47.397524],[17.7785416,47.3971194],[17.778299,47.3970388],[17.7784322,47.3966831],[17.7791018,47.3964164],[17.7791393,47.3961668],[17.7796551,47.3961143],[17.7803283,47.3958045],[17.7804808,47.3954275],[17.7809966,47.3951275],[17.7815202,47.3943772],[17.7825973,47.3935063],[17.7828612,47.3932309],[17.782785,47.3931486],[17.7837726,47.3924899],[17.7842658,47.3916889],[17.7846776,47.3904901],[17.7848721,47.3892781],[17.7834521,47.3885849],[17.7797526,47.3884549],[17.7769938,47.3860683],[17.7740339,47.3847688],[17.7710659,47.383224],[17.7688861,47.3825123],[17.7658947,47.3838074],[17.7646042,47.3840946],[17.7620031,47.3855769],[17.7630975,47.3867358],[17.7658524,47.3886693],[17.7641093,47.391315],[17.7565879,47.4007511],[17.7654663,47.4046621],[17.7625817,47.4080513],[17.7614683,47.4076608],[17.7591399,47.4110623],[17.7574697,47.4106655],[17.7539904,47.4151944],[17.7533872,47.4170904],[17.7516426,47.419736],[17.7510672,47.4201138],[17.7504918,47.4208635],[17.7554845,47.4232066],[17.7560414,47.4232129],[17.7582596,47.4243782],[17.7576842,47.4251341],[17.7565426,47.4258836],[17.755958,47.4266394],[17.7553918,47.4270174],[17.7514473,47.4277292],[17.7486444,47.4276977],[17.7480876,47.4273133],[17.7469459,47.4280628],[17.7469366,47.4284408],[17.7463702,47.4288186],[17.7434924,47.4318293],[17.7307884,47.4461572],[17.722434,47.4433964],[17.7236048,47.441507],[17.7169315,47.4391431],[17.7181501,47.4353516],[17.7164608,47.4353321],[17.7170748,47.4334302],[17.7165467,47.4319055],[17.7154519,47.4311305],[17.7154997,47.4292283],[17.7149432,47.4288376],[17.7132633,47.4288181],[17.7127067,47.4284336],[17.7109693,47.4306943],[17.709779,47.4333457],[17.7069758,47.4333131],[17.7024827,47.433645],[17.6974332,47.433586],[17.6974526,47.4328239],[17.6964361,47.428622],[17.6958991,47.4274753],[17.6959089,47.4270911],[17.6937016,47.4255467],[17.6942969,47.424407],[17.6943454,47.4225048],[17.6971965,47.4206354],[17.6977915,47.4195019],[17.6978108,47.4187398],[17.6955652,47.4187135],[17.6938959,47.4179315],[17.6939638,47.4152671],[17.6934265,47.4144984],[17.6917275,47.4152408],[17.6916789,47.4171431],[17.6928017,47.4171563],[17.6916108,47.4198074],[17.6916011,47.4201854],[17.6860454,47.417839],[17.6837504,47.4200927],[17.682647,47.4193235],[17.6815341,47.418926],[17.6809778,47.4185414],[17.6809877,47.4181572],[17.6782147,47.4169838],[17.6771116,47.4162083],[17.675432,47.4161883],[17.67261,47.416917],[17.6703842,47.4161281],[17.6721131,47.4142459],[17.6715563,47.4142393],[17.672123,47.4138618],[17.6715662,47.4138551],[17.6721426,47.4131058],[17.6726987,47.4134905],[17.6738412,47.4127418],[17.6705127,47.4111773],[17.6664888,47.414941],[17.6676017,47.4153324],[17.6653661,47.4149275],[17.6648193,47.4145367],[17.6620377,47.4133628],[17.6581427,47.4121754],[17.657566,47.4129308],[17.6569694,47.4144422],[17.6558067,47.4159529],[17.6530153,47.4151568],[17.6502431,47.4139827],[17.6452861,47.4104949],[17.6425546,47.4077964],[17.6387009,47.4050841],[17.6304087,47.4004081],[17.6263624,47.4049325],[17.6241674,47.4033806],[17.623004,47.404891],[17.6202332,47.40371],[17.6158048,47.4013741],[17.6129519,47.4032414],[17.6122214,47.4093252],[17.611644,47.4100804],[17.6093886,47.4104304],[17.6088421,47.4100454],[17.6065969,47.4100174],[17.6060194,47.4107725],[17.6048761,47.4115206],[17.6043102,47.4115135],[17.6020857,47.4107232],[17.5987686,47.4091568],[17.5987789,47.4087788],[17.5976668,47.4083805],[17.5965442,47.4083664],[17.5960083,47.4075973],[17.5943512,47.4064359],[17.5909614,47.4075335],[17.5903956,47.4075264],[17.590385,47.4079105],[17.5898074,47.4086656],[17.587489,47.4113015],[17.5852543,47.4108889],[17.5830392,47.4100983],[17.5819166,47.4100841],[17.5796293,47.4115797],[17.5779499,47.4115583],[17.5762507,47.4119209],[17.5734487,47.4118851],[17.5717588,47.4122415],[17.5706467,47.4118492],[17.569524,47.4118348],[17.5667645,47.4102746],[17.5634607,47.4079449],[17.559579,47.40637],[17.5567237,47.4082421],[17.5544145,47.4104932],[17.5520942,47.4131284],[17.5520727,47.4138905],[17.5486062,47.4176574],[17.5491308,47.4188047],[17.547965,47.4203143],[17.5468206,47.4210618],[17.5456639,47.4225653],[17.5445086,47.423697],[17.5353394,47.4304323]]]}}]}