{"type":"FeatureCollection","crs":{"type":"name","properties":{"name":"urn:ogc:def:crs:EPSG::4326"}},"features":[{"type":"Feature","properties":{"region_id":12,"name":"Balatonboglár","name_hu":"Balatonboglári borvidék","region_group":"Dunántúl (Transdanubia)","area_ha_approx":6000,"notable_grapes":"Olaszrizling, Chardonnay, Sauvignon Blanc, Merlot","notes":"Lake Balaton S shore; sandy soils; largest Balaton region"},"geometry":{"type":"Polygon","coordinates":[[[17.5893156,46.4873657],[17.5865834,46.4861898],[17.5865936,46.4858118],[17.5822408,46.4838463],[17.5784664,46.4807537],[17.5680733,46.4775684],[17.5664124,46.477931],[17.5609159,46.4774746],[17.5559349,46.4781715],[17.5537495,46.4773802],[17.5488107,46.4765524],[17.5466044,46.4765232],[17.5449434,46.4768855],[17.5432718,46.4776258],[17.5432294,46.4791502],[17.5426203,46.4810452],[17.5436388,46.4841024],[17.5430067,46.4871439],[17.5412623,46.4901645],[17.5406618,46.4920658],[17.539987,46.4966255],[17.5370958,46.5011556],[17.5370639,46.5022958],[17.5316077,46.5003198],[17.5272252,46.4991204],[17.5255957,46.498336],[17.5222848,46.4982915],[17.5222955,46.4979135],[17.5217482,46.4979061],[17.521759,46.4975219],[17.522317,46.4971513],[17.5212439,46.4963743],[17.5217912,46.4963817],[17.5212655,46.4956121],[17.5218128,46.4956195],[17.5212763,46.4952279],[17.5218236,46.4952353],[17.521845,46.4944793],[17.5212977,46.4944719],[17.5218558,46.4940951],[17.5218665,46.4937171],[17.5213192,46.4937097],[17.5213301,46.4933255],[17.5207845,46.49294],[17.5213517,46.4925634],[17.5213623,46.4921854],[17.5208168,46.4917999],[17.5208492,46.4906535],[17.520302,46.4906461],[17.5203451,46.4891217],[17.5219849,46.4895282],[17.5225536,46.4887733],[17.5237323,46.4861236],[17.5237538,46.4853614],[17.5249108,46.4834739],[17.5249322,46.4827117],[17.5232818,46.4826895],[17.5205389,46.4822682],[17.5194463,46.4818753],[17.5194678,46.4811131],[17.5213335,46.4735196],[17.5191272,46.4734899],[17.5191379,46.4731119],[17.5180438,46.4730971],[17.5180115,46.4742373],[17.5168868,46.4749845],[17.513599,46.4741775],[17.5119812,46.473015],[17.5075905,46.4721928],[17.5037668,46.4710001],[17.4971903,46.4697633],[17.4835591,46.4646289],[17.4803276,46.4619185],[17.473775,46.4599182],[17.4688723,46.4579468],[17.4667335,46.4556357],[17.4645706,46.4544586],[17.4597938,46.4528647],[17.4575996,46.4524558],[17.4454793,46.4522847],[17.4196123,46.4511529],[17.4172568,46.4518834],[17.4164367,46.4606311],[17.4163332,46.4640578],[17.4135688,46.4644022],[17.4091893,46.4635764],[17.4080633,46.4643226],[17.4074728,46.4654547],[17.4063235,46.466963],[17.4051717,46.4688495],[17.4035128,46.4688254],[17.4017933,46.4710817],[17.4001432,46.4710577],[17.3968108,46.4717716],[17.3934666,46.4728697],[17.392317,46.4743717],[17.3917582,46.4747478],[17.3900496,46.476626],[17.3900146,46.4777661],[17.3888647,46.4792743],[17.3888178,46.4807987],[17.3882383,46.4815527],[17.3881565,46.4842171],[17.387504,46.4876358],[17.3879693,46.4903083],[17.3879458,46.4910705],[17.3868542,46.4906701],[17.3830084,46.4902354],[17.3813461,46.4905891],[17.3725276,46.490459],[17.3686345,46.4915482],[17.3642208,46.4914826],[17.3598518,46.4902707],[17.3576925,46.4887197],[17.3555217,46.4875403],[17.3489822,46.485161],[17.3478789,46.4851445],[17.3457293,46.4835871],[17.3446261,46.4835705],[17.340249,46.4823639],[17.3391821,46.4812009],[17.338103,46.4804221],[17.3364526,46.4803972],[17.3364405,46.4807814],[17.3358814,46.4811511],[17.3358692,46.4815352],[17.334766,46.4815186],[17.3342099,46.4815101],[17.3331188,46.4811093],[17.3325837,46.480723],[17.3303773,46.4806895],[17.3292863,46.4802886],[17.3281831,46.4802719],[17.3276603,46.4795014],[17.3271252,46.4791151],[17.3265691,46.4791066],[17.3265812,46.4787287],[17.3260341,46.4787203],[17.3266055,46.4779665],[17.326642,46.4768202],[17.326119,46.4760559],[17.3261313,46.4756717],[17.3234023,46.4748677],[17.3228463,46.4748592],[17.3206766,46.4736854],[17.3163222,46.4720938],[17.3064285,46.4711795],[17.3053131,46.4715467],[17.3047539,46.4719162],[17.2987581,46.4866775],[17.2967743,46.4969317],[17.2938469,46.5022179],[17.2943322,46.5041349],[17.2937108,46.5064066],[17.2919516,46.5094295],[17.2917907,46.5143741],[17.291206,46.515512],[17.2911812,46.5162741],[17.2917163,46.5166606],[17.2922728,46.5166692],[17.2922603,46.5170534],[17.2980931,46.5243784],[17.2991355,46.5262977],[17.2979944,46.5274208],[17.2957366,46.5289109],[17.2945582,46.5311803],[17.295044,46.533091],[17.2944593,46.5342227],[17.2931197,46.5414429],[17.2925101,46.5433367],[17.2924853,46.5440988],[17.2930082,46.5448694],[17.2923986,46.5467632],[17.291817,46.5475167],[17.2907001,46.5478776],[17.2890601,46.547474],[17.2861415,46.552382],[17.2864905,46.5584815],[17.2852986,46.5611287],[17.2846885,46.5630225],[17.2833844,46.5690962],[17.2833345,46.5706205],[17.2827615,46.5713741],[17.2826992,46.5732764],[17.2814695,46.5770637],[17.2818986,46.5770565],[17.2815686,46.5907785],[17.2801635,46.5999008],[17.275998,46.6089738],[17.2748296,46.6108588],[17.275387,46.6108675],[17.2753744,46.6112517],[17.2918576,46.6141737],[17.2934997,46.6145773],[17.2990416,46.6142847],[17.2989552,46.6169491],[17.3006097,46.6169746],[17.300264,46.6276322],[17.2980515,46.6275982],[17.2958604,46.6271862],[17.2952532,46.6287019],[17.2957615,46.6302286],[17.29565,46.6336551],[17.2972925,46.6340649],[17.2972555,46.635205],[17.2965987,46.638245],[17.2987375,46.6405593],[17.300901,46.6421177],[17.3008268,46.6444041],[17.299535,46.6500939],[17.305654,46.6490473],[17.3089862,46.6487202],[17.3145473,46.6476583],[17.315654,46.6476752],[17.3156416,46.6480594],[17.3178059,46.6496174],[17.3188548,46.6511523],[17.3199371,46.6519313],[17.3209949,46.6534724],[17.3220772,46.6542514],[17.3247543,46.6569578],[17.3247423,46.6573357],[17.3252635,46.6584905],[17.3252391,46.6592527],[17.3268341,46.6611801],[17.3268097,46.6619422],[17.3278681,46.6634771],[17.3289142,46.6654023],[17.3311404,46.6650516],[17.3322504,46.6646902],[17.3339154,46.6647154],[17.3340367,46.6609046],[17.3334908,46.6605182],[17.3340851,46.6593865],[17.3335514,46.6586159],[17.3341215,46.6582402],[17.3341458,46.657478],[17.334731,46.6563462],[17.334828,46.6532975],[17.3354221,46.6521658],[17.335971,46.6521741],[17.3359347,46.6533142],[17.3369688,46.6556174],[17.3379064,46.6609629],[17.3390035,46.6688254],[17.3322426,46.6750055],[17.3279913,46.6768138],[17.327967,46.6775759],[17.3268353,46.6783213],[17.3268112,46.6790773],[17.3262377,46.6798311],[17.3233886,46.6824536],[17.3233641,46.6832158],[17.3216497,46.6847148],[17.3216252,46.6854769],[17.3210516,46.6862307],[17.3209905,46.688133],[17.3214787,46.6900436],[17.320905,46.6907975],[17.3213932,46.6927081],[17.3191871,46.6926745],[17.3191382,46.6941988],[17.3157787,46.6952884],[17.3135511,46.6956388],[17.3096914,46.6951954],[17.3080345,46.6951701],[17.3069022,46.6959153],[17.3057946,46.6958983],[17.2958723,46.6946051],[17.2958475,46.6953672],[17.2936538,46.694949],[17.2913888,46.6964391],[17.2902812,46.696422],[17.289161,46.696789],[17.2855913,46.6952218],[17.2827095,46.6954195],[17.2819357,46.6962564],[17.2799159,46.6958446],[17.2717756,46.6984],[17.2706939,46.6991182],[17.2701668,46.6998867],[17.2683747,46.7010497],[17.2897373,46.7343914],[17.2985616,46.7350475],[17.3106733,46.7331155],[17.3407753,46.7321946],[17.3501574,46.7316119],[17.3614537,46.7316558],[17.3722287,46.734195],[17.3585285,46.7074192],[17.3652383,46.7052312],[17.3687253,46.7048178],[17.370605,46.7048366],[17.3704616,46.7040034],[17.3913063,46.7003047],[17.391021,46.701697],[17.4119505,46.7011291],[17.4116617,46.7002805],[17.4118404,46.7002938],[17.4118471,46.7001158],[17.4230116,46.7011866],[17.4388071,46.7030178],[17.4384181,46.7051014],[17.4379199,46.7063414],[17.4364311,46.7487717],[17.4454774,46.7477886],[17.4536726,46.7487065],[17.4649645,46.7529006],[17.4747956,46.752965],[17.4783316,46.7520162],[17.4850162,46.7518965],[17.4918651,46.7530279],[17.5091832,46.7589944],[17.5135189,46.7250493],[17.5170381,46.7209117],[17.5088533,46.7182571],[17.5146021,46.7107162],[17.5637427,46.7155588],[17.575242,46.7000931],[17.5884955,46.7014047],[17.5855559,46.7074604],[17.5855455,46.7078446],[17.5976315,46.7114275],[17.598181,46.7114345],[17.6014847,46.7122328],[17.6003253,46.7141273],[17.6001922,46.7190724],[17.5990326,46.7209669],[17.5937106,46.7334641],[17.5896702,46.7395059],[17.5913272,46.7399115],[17.5928208,46.7460241],[17.5933604,46.7464092],[17.597785,46.74685],[17.5996079,46.7407735],[17.6014084,46.7358497],[17.6019684,46.7354725],[17.6019786,46.7350945],[17.60615,46.724101],[17.6062113,46.7218144],[17.6101974,46.7176806],[17.6135828,46.7154359],[17.6169792,46.7124289],[17.6191851,46.7128409],[17.6285389,46.7152393],[17.6389725,46.7184189],[17.6522123,46.7204852],[17.6577147,46.7216993],[17.6559584,46.7254839],[17.6608629,46.7285875],[17.6647083,46.7297811],[17.6680049,46.7305836],[17.6674163,46.7320951],[17.6673868,46.7332416],[17.6679366,46.7332482],[17.6702512,46.729464],[17.6724485,46.7302531],[17.6730079,46.7298817],[17.6752927,46.7272438],[17.6764205,46.726495],[17.6769994,46.7253552],[17.6775483,46.7257461],[17.6791967,46.7261441],[17.6802856,46.7269196],[17.6830423,46.7273371],[17.6841506,46.7273504],[17.68471,46.7269728],[17.6852687,46.7269795],[17.6863964,46.7262305],[17.6886233,46.7254947],[17.6913987,46.7255278],[17.6986179,46.7244731],[17.7019714,46.7233723],[17.7036578,46.7222517],[17.7053438,46.7215091],[17.706471,46.72076],[17.7075798,46.7203887],[17.7081478,46.7200173],[17.7103832,46.7192812],[17.7104116,46.7181409],[17.7109707,46.7177632],[17.7154223,46.717053],[17.7176296,46.7170788],[17.7214942,46.7175083],[17.7259082,46.7183221],[17.7319616,46.719911],[17.7336195,46.7199302],[17.7347183,46.7203272],[17.7369441,46.7199686],[17.7391422,46.7203782],[17.7473943,46.7227602],[17.7479348,46.7231445],[17.7528809,46.7247258],[17.7561968,46.7251416],[17.7689201,46.7256697],[17.7754801,46.7291712],[17.7754712,46.7295492],[17.7760299,46.7295554],[17.7766337,46.7272749],[17.7766468,46.7267219],[17.7778602,46.7250675],[17.78113,46.7246596],[17.7850226,46.7239405],[17.7916812,46.723258],[17.7938801,46.7240385],[17.7960524,46.7259716],[17.7976928,46.7267459],[17.7993597,46.726386],[17.7993685,46.726008],[17.8016029,46.7252701],[17.8032698,46.724904],[17.8070857,46.7237097],[17.8064216,46.7225433],[17.8062177,46.7204471],[17.8085115,46.7198733],[17.8095308,46.7197924],[17.8109234,46.720247],[17.8121701,46.7198145],[17.8138652,46.7198733],[17.8145948,46.7200793],[17.8152278,46.7198733],[17.8166333,46.7199616],[17.8172151,46.7204874],[17.8239536,46.720981],[17.8388098,46.7231317],[17.840006,46.7165415],[17.8411056,46.7169375],[17.8422224,46.716565],[17.843322,46.716961],[17.8433732,46.7146742],[17.8500708,46.7148435],[17.8599617,46.7165082],[17.8576035,46.7249843],[17.8613915,46.7259095],[17.8625335,46.7243965],[17.8631005,46.7240243],[17.8642089,46.7240359],[17.8653089,46.7244254],[17.8658669,46.7240531],[17.8664417,46.7229124],[17.8714246,46.722964],[17.8796994,46.7245741],[17.8819162,46.7245969],[17.8835824,46.7242358],[17.8863817,46.7227396],[17.8896821,46.7239138],[17.8868417,46.7273126],[17.8884834,46.7280918],[17.8901334,46.7284867],[17.8928844,46.7296614],[17.893426,46.730045],[17.8939267,46.7323373],[17.8944855,46.732343],[17.8944283,46.7350078],[17.8949536,46.7361536],[17.8937879,46.7388072],[17.8932217,46.7395638],[17.8932134,46.7399481],[17.8915387,46.7406873],[17.8904136,46.7414382],[17.8904053,46.7418225],[17.9025021,46.7457508],[17.9042103,46.743865],[17.9124401,46.7473752],[17.9152728,46.7447381],[17.9181522,46.739436],[17.9215171,46.7371821],[17.9182802,46.7333442],[17.9211667,46.7276578],[17.9241162,46.7189285],[17.92756,46.7132475],[17.9344677,46.7003667],[17.9350485,46.6988537],[17.9361878,46.6973401],[17.9395269,46.6966103],[17.9417582,46.6958696],[17.9434076,46.6962637],[17.9472257,46.6989723],[17.9516417,46.6997712],[17.960457,46.7017649],[17.9626638,46.701786],[17.9676526,46.7014492],[17.9765067,46.701533],[17.9803723,46.7019536],[17.9836809,46.7027471],[17.9870047,46.7027781],[17.9914499,46.7016728],[17.9914649,46.7009105],[17.9920307,46.7005377],[17.9920531,46.6993974],[17.9964755,46.6994384],[17.9975686,46.7002047],[17.9981032,46.700972],[18.0047727,46.6998929],[18.0058805,46.699903],[18.0185566,46.7026838],[18.0285046,46.7035358],[18.0312556,46.7043228],[18.0337083,46.6917744],[18.0342863,46.690261],[18.0354155,46.6891244],[18.0354656,46.6864595],[18.0366019,46.6849448],[18.0377308,46.6838144],[18.0394305,46.6815422],[18.0405521,46.680796],[18.0405593,46.6804118],[18.0383657,46.6792518],[18.0401792,46.6708877],[18.0435578,46.6678742],[18.043565,46.66749],[18.0227127,46.6585454],[18.0249847,46.6555163],[18.0283776,46.651741],[18.0300622,46.6502313],[18.0312338,46.6468141],[18.0334831,46.6449313],[18.0368373,46.642674],[18.0374093,46.6419229],[18.0385303,46.6411705],[18.0385518,46.6400239],[18.0374736,46.6384958],[18.0369516,46.636582],[18.036417,46.6358211],[18.0309507,46.6327226],[18.030275,46.6321551],[18.0276673,46.6307903],[18.0276746,46.630406],[18.0249274,46.6296189],[18.0205161,46.6288229],[18.0194242,46.6280506],[18.0188901,46.6272834],[18.0189555,46.6238563],[18.0206468,46.6219687],[18.0217675,46.6212164],[18.0228956,46.6200799],[18.0251369,46.6185815],[18.0262648,46.6174449],[18.0274485,46.6128874],[18.0320091,46.6056947],[18.0331437,46.6041801],[18.0353913,46.6022973],[18.0387355,46.6004241],[18.0420814,46.598929],[18.0432086,46.5977923],[18.043244,46.5958897],[18.0426867,46.5958848],[18.0427292,46.5936042],[18.042188,46.5932151],[18.0416591,46.5916856],[18.0395422,46.5870986],[18.0412813,46.5825458],[18.0413168,46.5806432],[18.0419006,46.5787393],[18.0419503,46.5760745],[18.0414376,46.574167],[18.0414518,46.5734047],[18.0381929,46.5703324],[18.0365968,46.5672685],[18.036611,46.5665063],[18.037816,46.5611864],[18.0428479,46.5578034],[18.0501031,46.5536774],[18.052952,46.5487561],[18.0558214,46.5426882],[18.057017,46.5377462],[18.0560174,46.5320226],[18.0549689,46.52897],[18.0538716,46.5285761],[18.0528304,46.5251392],[18.0528374,46.5247612],[18.0490192,46.5224404],[18.0490333,46.5216781],[18.0473814,46.5216636],[18.0479713,46.5193878],[18.0469942,46.5125238],[18.0464679,46.5113724],[18.046496,46.5098541],[18.0448213,46.5061188],[18.0442041,46.5060179],[18.0444136,46.5057181],[18.0416121,46.5051228],[18.0399638,46.5045874],[18.0353185,46.5038101],[18.0319655,46.5023876],[18.0308205,46.5015291],[18.0297118,46.5020446],[18.0283436,46.5017512],[18.0271942,46.5000278],[18.0248041,46.4975966],[18.0238878,46.4969462],[18.0235779,46.4970788],[18.0224813,46.4966908],[18.0219178,46.4970638],[18.0208141,46.4970538],[18.019712,46.4974281],[18.0175046,46.4974081],[18.0197918,46.4932387],[18.0258267,46.4944339],[18.0310324,46.4815323],[18.0205998,46.4795352],[18.0129217,46.4775624],[18.0129291,46.4771782],[18.0019566,46.474412],[18.0002398,46.4778239],[17.9991069,46.4793382],[17.9986609,46.4803455],[17.9985211,46.4808576],[17.998462,46.4839005],[17.9979,46.4846577],[17.9869268,46.4818901],[17.9856662,46.4898742],[17.9855988,46.4933013],[17.9850291,46.4944365],[17.9850141,46.4951988],[17.9844352,46.49634],[17.9805918,46.4955415],[17.9799918,46.4982012],[17.9695655,46.4958151],[17.9662773,46.4946433],[17.9657452,46.4938758],[17.9657377,46.4942538],[17.9652042,46.4931082],[17.9635915,46.4911899],[17.9603268,46.4888713],[17.9597948,46.4881038],[17.9598102,46.4873415],[17.9576108,46.4869423],[17.9532354,46.4849971],[17.9515615,46.4861215],[17.9487531,46.4887596],[17.9481271,46.4921813],[17.9447553,46.4955762],[17.9436205,46.49709],[17.9430654,46.4974627],[17.9408658,46.4970631],[17.9386584,46.4970415],[17.9364275,46.4981602],[17.9358801,46.4981548],[17.9336491,46.4992796],[17.9325453,46.4992687],[17.9309179,46.498106],[17.9309337,46.4973437],[17.9293062,46.4961871],[17.9265425,46.4961598],[17.9265346,46.496544],[17.9259952,46.4961544],[17.9248994,46.4957654],[17.924352,46.49576],[17.9238037,46.4953702],[17.9238116,46.4949922],[17.9232642,46.4949868],[17.921041,46.4957271],[17.9199374,46.4957161],[17.9188258,46.4960832],[17.9171748,46.4960667],[17.9138638,46.4960336],[17.912768,46.4956445],[17.9072748,46.4948269],[17.9067517,46.4936749],[17.9056481,46.4936638],[17.903473,46.4921232],[17.8996959,46.4882729],[17.8942027,46.4870765],[17.8865446,46.4843328],[17.883807,46.4835423],[17.8810776,46.4823737],[17.8788708,46.4823509],[17.8783319,46.481961],[17.876059,46.4849872],[17.8743339,46.4883972],[17.863897,46.4863794],[17.8606122,46.4855888],[17.8561984,46.4855424],[17.8512628,46.4843436],[17.852147,46.4942583],[17.8515828,46.4950148],[17.8532338,46.4950322],[17.8526275,46.4976912],[17.8416082,46.49719],[17.8377924,46.4952464],[17.8350544,46.4940765],[17.8334121,46.4936746],[17.8312306,46.4925107],[17.8312563,46.4913704],[17.8318297,46.4906141],[17.8319155,46.4868029],[17.8291699,46.4863953],[17.8258509,46.4867376],[17.82195,46.4886046],[17.8142433,46.4881366],[17.8070077,46.4872961],[17.7938867,46.4863882],[17.7922447,46.4856075],[17.7927566,46.4875224],[17.7927213,46.4890407],[17.7916001,46.4897907],[17.7915646,46.4913151],[17.7909818,46.4924492],[17.7898693,46.4928212],[17.7870793,46.494315],[17.785949,46.495443],[17.7842714,46.4965649],[17.7837062,46.497321],[17.7825935,46.4976929],[17.7826114,46.4969306],[17.7832033,46.4950343],[17.7837686,46.4946563],[17.7843694,46.4923756],[17.7843871,46.4916196],[17.7772723,46.4892527],[17.7750833,46.4888438],[17.7706783,46.4884161],[17.7662733,46.4883663],[17.7657261,46.487982],[17.7646317,46.4875853],[17.76299,46.4871885],[17.7613393,46.4871698],[17.760245,46.486773],[17.7597251,46.4852422],[17.7597795,46.4829617],[17.7588306,46.4764733],[17.7582835,46.4764671],[17.7577272,46.476845],[17.7543992,46.4775695],[17.748956,46.4748417],[17.7478437,46.4752071],[17.7479078,46.4725424],[17.7473792,46.4713957],[17.7419093,46.4698079],[17.7408062,46.4697951],[17.7358745,46.4685975],[17.7248995,46.4665606],[17.7200713,46.4611731],[17.7113794,46.456118],[17.7097673,46.4545802],[17.7086834,46.453805],[17.7087023,46.4530427],[17.7076184,46.4522674],[17.7059877,46.4514857],[17.705394,46.4530035],[17.7048282,46.4537593],[17.7048093,46.4545215],[17.7042719,46.4541308],[17.702509,46.4583002],[17.6984824,46.4651081],[17.6968039,46.4662287],[17.6956627,46.4677399],[17.6895047,46.4714785],[17.6805732,46.4759395],[17.6783668,46.4759128],[17.6766875,46.477033],[17.6755166,46.4796843],[17.669453,46.4796107],[17.6683594,46.4792192],[17.6673041,46.4776815],[17.6679291,46.4746393],[17.6685247,46.4727435],[17.6686219,46.4689386],[17.6592593,46.4688241],[17.6570728,46.4680348],[17.6559601,46.4683992],[17.6548078,46.4702943],[17.6542707,46.4699034],[17.6537236,46.4698966],[17.6531577,46.470274],[17.6515075,46.4702536],[17.6515272,46.4694914],[17.6509909,46.4687224],[17.6476907,46.4686816],[17.6471447,46.4682905],[17.6460416,46.4682768],[17.6438543,46.4678716],[17.6427018,46.4697603],[17.642682,46.4705226],[17.6420566,46.4731803],[17.6414897,46.4739357],[17.640327,46.4762087],[17.6276537,46.4760504],[17.6276737,46.4752881],[17.6282309,46.4749108],[17.6217012,46.4717851],[17.6201012,46.4698618],[17.6184422,46.4698409],[17.6156588,46.4709463],[17.6133818,46.473583],[17.6122674,46.4743313],[17.6105879,46.4750725],[17.6127235,46.4777651],[17.6136245,46.485395],[17.6252268,46.4843946],[17.6234457,46.4893251],[17.61242,46.4891859],[17.6063352,46.489871],[17.6052418,46.489479],[17.6024979,46.4890596],[17.5958963,46.488597],[17.5893156,46.4873657]]]}}]}