{"type":"FeatureCollection","crs":{"type":"name","properties":{"name":"urn:ogc:def:crs:EPSG::4326"}},"features":[{"type":"Feature","properties":{"region_id":10,"name":"Balatonfüred-Csopak","name_hu":"Balatonfüred-Csopaki borvidék","region_group":"Dunántúl (Transdanubia)","area_ha_approx":2000,"notable_grapes":"Olaszrizling, Chardonnay, Cabernet Sauvignon","notes":"Lake Balaton N shore E section; red clay (vöröshomokkő) soils"},"geometry":{"type":"Polygon","coordinates":[[[17.8410546,46.91754],[17.8475676,46.9220679],[17.8474483,46.9222696],[17.8486883,46.923344],[17.847926,46.9239171],[17.8483011,46.9251217],[17.848729,46.9256155],[17.8475023,46.9268727],[17.8477691,46.927176],[17.8481015,46.9281788],[17.8492098,46.9291619],[17.8491344,46.9294786],[17.850797,46.9300643],[17.8531413,46.9314293],[17.855906,46.9325885],[17.8534512,46.932063],[17.8520661,46.9347137],[17.8490365,46.9372748],[17.8470748,46.9393413],[17.8449218,46.9405982],[17.844068,46.9418556],[17.8413334,46.9443013],[17.8366309,46.946044],[17.8361398,46.9470028],[17.8348282,46.9487238],[17.834172,46.9494135],[17.8319988,46.9509779],[17.8352396,46.9549214],[17.8370642,46.9558366],[17.8379687,46.9566863],[17.8372077,46.9580997],[17.8393538,46.9598227],[17.8396002,46.9603868],[17.8399844,46.9604506],[17.8434032,46.9638781],[17.8420282,46.9657824],[17.84279,46.9661769],[17.8426136,46.9663165],[17.8434907,46.9670001],[17.8432848,46.9679526],[17.8433922,46.9681095],[17.8432907,46.9685586],[17.8434129,46.968658],[17.8429484,46.9690921],[17.8427706,46.9706139],[17.8431532,46.9709882],[17.8422616,46.9716793],[17.8423286,46.9731536],[17.8422068,46.9734733],[17.842314,46.9737328],[17.8421985,46.974131],[17.8424458,46.975192],[17.8424211,46.9756102],[17.8422452,46.9756843],[17.8422983,46.976045],[17.8419669,46.9764462],[17.841983,46.9767415],[17.841305,46.977065],[17.8402552,46.9784742],[17.8385559,46.9792966],[17.8382173,46.9798931],[17.8381383,46.9806769],[17.8378404,46.9811573],[17.8380848,46.9815505],[17.8379736,46.9818343],[17.8381405,46.9821319],[17.8378473,46.9831262],[17.8381784,46.9837328],[17.8388831,46.9844595],[17.8387479,46.9846427],[17.839173,46.9847248],[17.8383562,46.9850956],[17.8381784,46.9856458],[17.838031,46.9856351],[17.8383306,46.9860114],[17.8382557,46.986664],[17.8384488,46.9868916],[17.8388304,46.9868406],[17.8391239,46.9870563],[17.8391419,46.987263],[17.8395217,46.9875213],[17.8395264,46.9878369],[17.8377032,46.9896281],[17.8376716,46.9898198],[17.8368871,46.9904208],[17.8368482,46.9905663],[17.8370205,46.9906811],[17.8367088,46.990946],[17.8367744,46.9911412],[17.8372673,46.9916183],[17.8377863,46.993045],[17.838995,46.9946427],[17.8396162,46.9948729],[17.8430997,46.9958558],[17.8455657,46.9961169],[17.8480032,46.9970544],[17.8493888,46.997317],[17.8543339,46.9974841],[17.8584727,46.9981947],[17.8608713,46.9990194],[17.8617243,47.0004335],[17.8628922,47.001918],[17.8652642,47.0036581],[17.8668107,47.0054601],[17.8671957,47.0055128],[17.8683693,47.0046209],[17.8695965,47.004716],[17.8706691,47.0040008],[17.8715521,47.0037811],[17.8739656,47.0022609],[17.8770252,47.0049658],[17.8740991,47.0052237],[17.872039,47.0075302],[17.8687906,47.0105683],[17.8672495,47.0156876],[17.866571,47.016458],[17.8659176,47.0175496],[17.8647359,47.0209597],[17.8622198,47.0235022],[17.8599164,47.0252613],[17.8588997,47.0255133],[17.8462288,47.0261088],[17.8442897,47.0274412],[17.8434237,47.0282297],[17.842131,47.0285796],[17.839486,47.0296308],[17.8367571,47.0329843],[17.8361697,47.0345028],[17.8350031,47.0367777],[17.8287632,47.0416639],[17.8264556,47.0454451],[17.8241646,47.048086],[17.8202139,47.0503308],[17.8181596,47.0529666],[17.816781,47.0540998],[17.8167634,47.054862],[17.815622,47.0559902],[17.8133651,47.0571126],[17.8105638,47.0578448],[17.8083069,47.0589609],[17.805479,47.0608331],[17.7992871,47.0634311],[17.7992604,47.0645713],[17.8003225,47.0668701],[17.800198,47.0721993],[17.8007426,47.0729677],[17.8007159,47.0741079],[17.8017604,47.0771689],[17.8054659,47.0855894],[17.805984,47.0871136],[17.8064844,47.0897905],[17.8059043,47.0905405],[17.8081714,47.0890464],[17.8098584,47.0883023],[17.8109656,47.0886923],[17.813215,47.0879542],[17.8154555,47.0876002],[17.8165447,47.0883743],[17.8182319,47.0880082],[17.8210083,47.0884223],[17.8215267,47.0899526],[17.8215094,47.0907086],[17.8208946,47.0933735],[17.8197524,47.0945018],[17.8179953,47.0982887],[17.8202011,47.0994591],[17.8229433,47.1013913],[17.8240508,47.1017813],[17.8268367,47.101811],[17.8296574,47.1003162],[17.8307821,47.0999501],[17.8352462,47.0996193],[17.836371,47.099247],[17.8389823,47.0988276],[17.8463769,47.0955606],[17.8486112,47.0954047],[17.8509484,47.0959725],[17.8588535,47.0914867],[17.859978,47.0911141],[17.8611107,47.0903696],[17.862797,47.0896247],[17.8667571,47.0870003],[17.8656581,47.0862266],[17.8684517,47.0858711],[17.8706834,47.0858941],[17.8746179,47.0844097],[17.878007,47.0825414],[17.8802968,47.0798995],[17.8831313,47.0776474],[17.8848252,47.076518],[17.8859657,47.0753891],[17.887643,47.0750218],[17.8887227,47.0745751],[17.891031,47.0731532],[17.8938401,47.072041],[17.8949721,47.07129],[17.8961122,47.070161],[17.8972687,47.0682698],[17.8989702,47.0667621],[17.8984334,47.0659943],[17.8984743,47.0640919],[17.8979285,47.063324],[17.8979367,47.0629398],[17.899093,47.0610485],[17.898548,47.0606649],[17.8991258,47.059524],[17.8997198,47.0576271],[17.8992549,47.0554321],[17.8993763,47.0550987],[17.8996418,47.0546465],[17.9007684,47.0543402],[17.9023577,47.0532134],[17.9032548,47.0520685],[17.9043644,47.0509921],[17.9054645,47.0495748],[17.9060539,47.0485396],[17.9083643,47.0459857],[17.9125103,47.0466603],[17.9138464,47.0463961],[17.914707,47.0464535],[17.9147559,47.0463408],[17.9150276,47.0463867],[17.9150393,47.0462418],[17.9163928,47.0464249],[17.9192252,47.0464498],[17.9229492,47.0473491],[17.9252346,47.0474538],[17.9288704,47.0483119],[17.9327401,47.048818],[17.9321953,47.0507583],[17.9322212,47.053142],[17.9315063,47.0568011],[17.9314029,47.0617525],[17.9358474,47.0621738],[17.9369469,47.0629469],[17.938576,47.0648655],[17.938568,47.0652498],[17.9379991,47.0660004],[17.9378823,47.0671923],[17.9393814,47.0678869],[17.9408334,47.0688369],[17.9417101,47.0702967],[17.9423546,47.0722983],[17.9432386,47.0742097],[17.9421528,47.0769861],[17.9421464,47.0804312],[17.9425914,47.0818937],[17.9431507,47.0829953],[17.9453355,47.0830106],[17.9469076,47.0832985],[17.9474692,47.0830284],[17.950684,47.0828206],[17.9509623,47.0829412],[17.9567819,47.082008],[17.9655638,47.0808819],[17.9843945,47.0799425],[17.9852217,47.0813476],[17.9855614,47.0824492],[17.9889015,47.0843829],[17.9883404,47.084762],[17.9882952,47.0870425],[17.98771,47.0881838],[17.987695,47.0889398],[17.9882348,47.0900915],[17.988743,47.0923771],[17.9881744,47.0931342],[17.9881139,47.0961832],[17.9903145,47.097344],[17.9891923,47.098096],[17.9885995,47.0996152],[17.9874381,47.1018854],[17.9879553,47.1041773],[17.9900883,47.1087651],[17.9906209,47.1102947],[17.9933171,47.1148876],[17.992733,47.1164055],[17.9949422,47.1171897],[18.0083613,47.1157874],[18.0105943,47.1158077],[18.0156213,47.115475],[18.0167453,47.1151008],[18.0184155,47.1151158],[18.0222966,47.1162973],[18.0245517,47.1151708],[18.0256536,47.115943],[18.0262073,47.1159479],[18.0306153,47.1190366],[18.035583,47.1213615],[18.0361459,47.1213665],[18.041684,47.1233242],[18.0422828,47.1214205],[18.0462365,47.1187899],[18.0467902,47.1187947],[18.0473316,47.1199461],[18.0500617,47.1230132],[18.0500474,47.1237754],[18.058296,47.1299396],[18.0594057,47.1303335],[18.0643709,47.1334194],[18.0649198,47.1341865],[18.0648777,47.1364732],[18.0643006,47.1372306],[18.0642727,47.1387489],[18.0653826,47.1391427],[18.0653616,47.1402829],[18.0630713,47.1433127],[18.068587,47.1471656],[18.0713823,47.1468113],[18.0764466,47.1445673],[18.0792487,47.1438286],[18.091446,47.1484989],[18.096989,47.150454],[18.099237,47.1497103],[18.1059582,47.148241],[18.1087668,47.1471236],[18.1099041,47.1459862],[18.1104672,47.1459908],[18.1121518,47.1452422],[18.1132689,47.1452514],[18.1143927,47.1448824],[18.1155098,47.1448915],[18.1166337,47.1445164],[18.1194152,47.1449232],[18.1233207,47.1449548],[18.1249853,47.1453462],[18.1277802,47.1449906],[18.1478577,47.1459123],[18.1489749,47.1459211],[18.1518515,47.1453491],[18.1506717,47.1444097],[18.1490069,47.1440185],[18.1580682,47.1360876],[18.1603464,47.1334402],[18.1706271,47.1190533],[18.1767204,47.1217649],[18.1778157,47.1225293],[18.1794829,47.1233043],[18.1795509,47.1191212],[18.1845711,47.1191591],[18.1874869,47.1111795],[18.1886768,47.1066205],[18.1904873,47.0978764],[18.191634,47.0959822],[18.193389,47.0906588],[18.1956877,47.0864923],[18.1974237,47.0823154],[18.1980285,47.0796547],[18.2008255,47.0789131],[18.2024947,47.0789254],[18.2036045,47.0793117],[18.2042029,47.0770352],[18.2059259,47.0736204],[18.2071255,47.0682928],[18.2082769,47.0660204],[18.2094163,47.064504],[18.2094461,47.0626015],[18.2100171,47.0614652],[18.2106002,47.0595605],[18.211216,47.0561375],[18.212367,47.053865],[18.212932,47.0531068],[18.2129617,47.0512042],[18.2135417,47.0500618],[18.2130033,47.0485394],[18.2119179,47.0466225],[18.2113708,47.0462404],[18.2108326,47.0447118],[18.2080735,47.0431669],[18.2075443,47.0416445],[18.2064413,47.040874],[18.2064533,47.0401118],[18.2036945,47.0385667],[18.2042534,47.0381928],[18.2042835,47.036284],[18.2048634,47.0351478],[18.2037486,47.0351396],[18.2037546,47.0347616],[18.2048995,47.032861],[18.2049234,47.0313427],[18.2066091,47.0302085],[18.2060622,47.0298264],[18.2066209,47.0294524],[18.2077417,47.0290764],[18.2082946,47.0290804],[18.2071977,47.0279319],[18.2033308,47.0260007],[18.2033249,47.0263787],[18.202778,47.0259966],[18.2022162,47.0259924],[18.2005669,47.0248336],[18.200008,47.0252137],[18.1955858,47.0228938],[18.193882,47.0251682],[18.1927187,47.0282027],[18.186629,47.0258762],[18.1860701,47.0262501],[18.1849992,47.0258417],[18.1838408,47.0262332],[18.1814146,47.0253663],[18.1794254,47.0235347],[18.1799935,47.0231547],[18.1805708,47.0216405],[18.1822842,47.0193664],[18.1817224,47.0193622],[18.1828739,47.0170838],[18.1839884,47.0170922],[18.1828985,47.0155655],[18.1773663,47.0136145],[18.1712665,47.0120494],[18.174678,47.0078856],[18.1685978,47.0051739],[18.1699861,46.9973768],[18.1671804,46.9972091],[18.1681132,46.9971817],[18.1683242,46.9964322],[18.1679386,46.995309],[18.1673436,46.995092],[18.1672828,46.9946023],[18.1693016,46.9946186],[18.169601,46.9944988],[18.1697022,46.9938216],[18.1699911,46.9938011],[18.1699807,46.9952623],[18.1757986,46.9936978],[18.1809178,46.9891125],[18.1804695,46.988779],[18.181036,46.9882697],[18.1894387,46.9897193],[18.190571,46.9885811],[18.1925739,46.9852218],[18.1939807,46.9837526],[18.1970899,46.9811083],[18.1983129,46.9804012],[18.2009647,46.9777894],[18.2033562,46.9747299],[18.2052486,46.9716309],[18.204882,46.9713344],[18.2039124,46.9698267],[18.2017647,46.9686255],[18.200448,46.967388],[18.1957874,46.9641036],[18.1934681,46.9618761],[18.1937471,46.9617546],[18.1929303,46.9610755],[18.1889438,46.9584212],[18.1837368,46.953168],[18.1799291,46.9497576],[18.1761405,46.9470902],[18.1742278,46.9462089],[18.1775375,46.943731],[18.179298,46.9426602],[18.18204,46.9402636],[18.1839819,46.9381437],[18.1864892,46.9350111],[18.189338,46.9326942],[18.1937645,46.9280559],[18.1910148,46.9257544],[18.1915818,46.9253744],[18.1921639,46.9234759],[18.1933129,46.9211974],[18.1944495,46.9196874],[18.1944557,46.9193031],[18.1961681,46.9162726],[18.1961802,46.9155104],[18.1984351,46.9136243],[18.20072,46.9098295],[18.2030164,46.9052785],[18.2069821,46.9003555],[18.2103567,46.897337],[18.2081657,46.8957962],[18.2110064,46.8916271],[18.2115875,46.8897285],[18.2121658,46.8885861],[18.212723,46.8882121],[18.2132863,46.8874539],[18.2055726,46.8835915],[18.2000833,46.879739],[18.1978782,46.8785822],[18.1892871,46.8732947],[18.1860716,46.874118],[18.1834823,46.8761869],[18.1825046,46.8764533],[18.1775463,46.8763893],[18.172407,46.8741997],[18.170822,46.8738492],[18.168865,46.873929],[18.1678697,46.8742306],[18.1618549,46.8777749],[18.1584573,46.8782817],[18.1551288,46.8778777],[18.1529147,46.8778603],[18.1517905,46.8786077],[18.1495354,46.880499],[18.1489714,46.8812507],[18.1484111,46.8812463],[18.147293,46.8816218],[18.1445184,46.8815998],[18.1378187,46.8838337],[18.136707,46.8838249],[18.1344966,46.8830448],[18.1328271,46.8834095],[18.1266847,46.885263],[18.1149324,46.8905041],[18.1143852,46.8897373],[18.1082971,46.8889249],[18.1077968,46.8854932],[18.1083839,46.8839733],[18.1112583,46.8782822],[18.1123964,46.8767729],[18.1124164,46.8756264],[18.1135984,46.871068],[18.114776,46.867272],[18.1159205,46.8653723],[18.0910812,46.8571709],[18.0839271,46.8540673],[18.0712465,46.8493851],[18.0624307,46.8458816],[18.0624237,46.8462658],[18.059663,46.8450953],[18.0580082,46.8447028],[18.0530773,46.8412323],[18.0525405,46.8404652],[18.0519876,46.8400823],[18.0520089,46.8389358],[18.0415274,46.8358003],[18.0426951,46.8327611],[18.0273888,46.8208235],[18.0250593,46.8265113],[18.0239124,46.82841],[18.0238835,46.8299284],[18.0215749,46.834482],[18.0209877,46.8363796],[18.0198479,46.8378941],[18.0192589,46.8394074],[18.0192369,46.8405539],[18.0186714,46.8413112],[18.0175461,46.8420572],[18.0151706,46.8500377],[18.0123537,46.8522932],[18.0122948,46.8553422],[18.0099991,46.8591271],[18.0094038,46.8614089],[18.0082557,46.8633013],[18.0081966,46.8663504],[18.0046348,46.8715857],[18.0034732,46.8746185],[18.001102,46.8779651],[18.000623,46.8780201],[18.0000643,46.8783993],[17.9988857,46.8818161],[17.998856,46.8833345],[17.9934398,46.8921502],[17.993045,46.8925875],[17.9914888,46.895936],[17.9702683,46.9320593],[17.945233,46.9271676],[17.9256102,46.9218133],[17.9075575,46.9159057],[17.9124167,46.907271],[17.9102737,46.894094],[17.9011603,46.8855916],[17.8890579,46.8798677],[17.8782322,46.8781272],[17.8696074,46.8797676],[17.85411,46.8843673],[17.8229237,46.9025268],[17.835654,46.9128719],[17.8410546,46.91754]]]}}]}