{
"type": "FeatureCollection",
"name": "Chambolle-Musigny premier cru Aux Beaux Bruns",
"crs": { "type": "name", "properties": { "name": "urn:ogc:def:crs:OGC:1.3:CRS84" } },
"features": [
{ "type": "Feature", "properties": { "Name": null, "description": null, "timestamp": null, "begin": null, "end": null, "altitudeMode": null, "tessellate": -1, "extrude": 0, "visibility": -1, "drawOrder": null, "icon": null, "id": 991.0, "new_insee": "21133", "new_nomcom": "chambolle-musigny", "old_insee": "21133", "old_nomcom": "chambolle-musigny", "type_ig": "AOC", "id_app": 150.0, "appellatio": "Chambolle-Musigny", "id_denom": 450.0, "denominati": "Chambolle-Musigny premier cru Aux Beaux Bruns", "crinao": "Bourgogne, Beaujolais, Savoie, Jura" }, "geometry": { "type": "MultiPolygon", "coordinates": [ [ [ [ 4.96173627805973, 47.186670648487301 ], [ 4.96139782260453, 47.186637567461801 ], [ 4.96107100733259, 47.186594021972098 ], [ 4.96096678154227, 47.186572282377 ], [ 4.96084147407189, 47.1865447758641 ], [ 4.96067653213734, 47.186502630796703 ], [ 4.96059174932123, 47.186481552288903 ], [ 4.96026997260092, 47.186369566917101 ], [ 4.96025501531571, 47.186368739438898 ], [ 4.9602311750218, 47.186374276174298 ], [ 4.96025633215948, 47.186448416517898 ], [ 4.96025057860249, 47.186743806809801 ], [ 4.96024024880497, 47.186953451386501 ], [ 4.96023847433943, 47.187067942299599 ], [ 4.96027259740856, 47.187388233351697 ], [ 4.96029259438034, 47.187483894284298 ], [ 4.96039730490771, 47.187888813493998 ], [ 4.96053336366131, 47.187881376992998 ], [ 4.96084165805986, 47.187865981018497 ], [ 4.96086406226194, 47.187864520996101 ], [ 4.96127911792155, 47.187820749634902 ], [ 4.96127878337978, 47.187811569612599 ], [ 4.96174259804909, 47.187746438068203 ], [ 4.96173261679469, 47.187719050080702 ], [ 4.96170628285178, 47.187656186956602 ], [ 4.96167918664247, 47.187489052137302 ], [ 4.96168002743541, 47.187388895855698 ], [ 4.96169521313728, 47.187269134576397 ], [ 4.96170570042006, 47.187187186259401 ], [ 4.96171830081217, 47.186833413715298 ], [ 4.96173627805973, 47.186670648487301 ] ] ] ] } }
]
}
