{
  "type": "FeatureCollection",
  "features": [
    {
      "type": "Feature",
      "geometry": {
        "type": "Polygon",
        "coordinates": [
          [
            [
              3.806501517608116,
              47.81842464073549,
              0.0
            ],
            [
              3.806194307124504,
              47.81823186563726,
              0.0
            ],
            [
              3.806509287687017,
              47.81794139373942,
              0.0
            ],
            [
              3.806763178831505,
              47.81771331935991,
              0.0
            ],
            [
              3.806963276647441,
              47.81755062254785,
              0.0
            ],
            [
              3.807105494022358,
              47.81742687717679,
              0.0
            ],
            [
              3.807225380683876,
              47.81732464771516,
              0.0
            ],
            [
              3.807354545412049,
              47.81717998384032,
              0.0
            ],
            [
              3.807440687824633,
              47.81706948258447,
              0.0
            ],
            [
              3.807606640653771,
              47.81719023162671,
              0.0
            ],
            [
              3.806501517608116,
              47.81842464073549,
              0.0
            ]
          ]
        ]
      },
      "properties": {
        "folder": "01 Christian Moreau Père et Fils.kmz",
        "name": "01 Christian Moreau Père et Fils"
      }
    }
  ]
}