{
  "type": "FeatureCollection",
  "features": [
    {
      "type": "Feature",
      "geometry": {
        "type": "Polygon",
        "coordinates": [
          [
            [
              3.807631939445613,
              47.82063392577899,
              0.0
            ],
            [
              3.80597259805644,
              47.81951160112808,
              0.0
            ],
            [
              3.805542030207845,
              47.81979104485897,
              0.0
            ],
            [
              3.804860674871393,
              47.81938955807112,
              0.0
            ],
            [
              3.806049317849278,
              47.81837063867001,
              0.0
            ],
            [
              3.808545467710167,
              47.82004993171632,
              0.0
            ],
            [
              3.807631939445613,
              47.82063392577899,
              0.0
            ]
          ]
        ]
      },
      "properties": {
        "folder": "011b Christian Moreau Père et Fils.kmz",
        "name": "011b Christian Moreau Père et Fils"
      }
    }
  ]
}