{
  "type": "FeatureCollection",
  "features": [
    {
      "type": "Feature",
      "geometry": {
        "type": "Polygon",
        "coordinates": [
          [
            [
              3.806506954152791,
              47.81842376732169,
              0.0
            ],
            [
              3.807605233289866,
              47.81718334474967,
              0.0
            ],
            [
              3.807844470904205,
              47.81735083438833,
              0.0
            ],
            [
              3.806754550641502,
              47.81858634587116,
              0.0
            ],
            [
              3.806506954152791,
              47.81842376732169,
              0.0
            ]
          ]
        ]
      },
      "properties": {
        "folder": "02 Louis Moreau.kmz",
        "name": "02 Louis Moreau"
      }
    }
  ]
}