{
  "type": "FeatureCollection",
  "features": [
    {
      "type": "Feature",
      "geometry": {
        "type": "Polygon",
        "coordinates": [
          [
            [
              3.808568834782504,
              47.82005646301148,
              0.0
            ],
            [
              3.806050125073825,
              47.81836562211775,
              0.0
            ],
            [
              3.806178140917811,
              47.81825271390925,
              0.0
            ],
            [
              3.806915355138341,
              47.81870979367646,
              0.0
            ],
            [
              3.807467940096692,
              47.81903739219517,
              0.0
            ],
            [
              3.807566042030888,
              47.81904079376868,
              0.0
            ],
            [
              3.808839940729496,
              47.8199185658279,
              0.0
            ],
            [
              3.808568834782504,
              47.82005646301148,
              0.0
            ]
          ]
        ]
      },
      "properties": {
        "folder": "022b Louis Moreau.kmz / 022b Louis Moreau",
        "name": "022b Louis Moreau"
      }
    },
    {
      "type": "Feature",
      "geometry": {
        "type": "Polygon",
        "coordinates": [
          [
            [
              3.807503812714608,
              47.81703643896261,
              0.0
            ],
            [
              3.807799349795895,
              47.81672969337762,
              0.0
            ],
            [
              3.807890497187469,
              47.81668663182772,
              0.0
            ],
            [
              3.808485187827162,
              47.81695219822777,
              0.0
            ],
            [
              3.808603644261004,
              47.81704049175646,
              0.0
            ],
            [
              3.808196285186831,
              47.81753952780956,
              0.0
            ],
            [
              3.807503812714608,
              47.81703643896261,
              0.0
            ]
          ]
        ]
      },
      "properties": {
        "folder": "022b Louis Moreau.kmz / 022b Louis Moreau",
        "name": "022b Louis Moreau"
      }
    },
    {
      "type": "Feature",
      "geometry": {
        "type": "Polygon",
        "coordinates": [
          [
            [
              3.810100433619381,
              47.81858207940989,
              0.0
            ],
            [
              3.809640197649327,
              47.8183202337452,
              0.0
            ],
            [
              3.808956105041366,
              47.81792698156222,
              0.0
            ],
            [
              3.809551658352752,
              47.81742688260518,
              0.0
            ],
            [
              3.809940792830113,
              47.81764953767222,
              0.0
            ],
            [
              3.810248404978787,
              47.81781868053523,
              0.0
            ],
            [
              3.81037697335695,
              47.81793135322268,
              0.0
            ],
            [
              3.81081599164885,
              47.81832392235091,
              0.0
            ],
            [
              3.810950360263006,
              47.81847235584848,
              0.0
            ],
            [
              3.810397760940785,
              47.81878162365087,
              0.0
            ],
            [
              3.810100433619381,
              47.81858207940989,
              0.0
            ]
          ]
        ]
      },
      "properties": {
        "folder": "022b Louis Moreau.kmz / 022b Louis Moreau",
        "name": "022b Louis Moreau"
      }
    },
    {
      "type": "Feature",
      "geometry": {
        "type": "Polygon",
        "coordinates": [
          [
            [
              3.811426772417272,
              47.81835722413297,
              0.0
            ],
            [
              3.811422557410069,
              47.81835358860087,
              0.0
            ],
            [
              3.810743301066837,
              47.81764384533365,
              0.0
            ],
            [
              3.811053190311282,
              47.8174879208411,
              0.0
            ],
            [
              3.811461258468047,
              47.81792443281775,
              0.0
            ],
            [
              3.811809484928514,
              47.8182678259343,
              0.0
            ],
            [
              3.811426772417272,
              47.81835722413297,
              0.0
            ]
          ]
        ]
      },
      "properties": {
        "folder": "022b Louis Moreau.kmz / 022b Louis Moreau",
        "name": "022b Louis Moreau"
      }
    },
    {
      "type": "Feature",
      "geometry": {
        "type": "Polygon",
        "coordinates": [
          [
            [
              3.812507010154154,
              47.81893916117529,
              0.0
            ],
            [
              3.811860024271945,
              47.81829909805169,
              0.0
            ],
            [
              3.812179718527633,
              47.8181700330537,
              0.0
            ],
            [
              3.812855516476794,
              47.81883914001447,
              0.0
            ],
            [
              3.812507010154154,
              47.81893916117529,
              0.0
            ]
          ]
        ]
      },
      "properties": {
        "folder": "022b Louis Moreau.kmz / 022b Louis Moreau",
        "name": "022b Louis Moreau"
      }
    },
    {
      "type": "Feature",
      "geometry": {
        "type": "Polygon",
        "coordinates": [
          [
            [
              3.813548884230367,
              47.81996892415989,
              0.0
            ],
            [
              3.813076277740723,
              47.81942886604142,
              0.0
            ],
            [
              3.81307931449715,
              47.81937056111575,
              0.0
            ],
            [
              3.812734333960393,
              47.81896321100821,
              0.0
            ],
            [
              3.812945264440895,
              47.81885702179426,
              0.0
            ],
            [
              3.813883853389537,
              47.81985191220881,
              0.0
            ],
            [
              3.813548884230367,
              47.81996892415989,
              0.0
            ]
          ]
        ]
      },
      "properties": {
        "folder": "022b Louis Moreau.kmz / 022b Louis Moreau",
        "name": "022b Louis Moreau"
      }
    }
  ]
}