{
  "type": "FeatureCollection",
  "features": [
    {
      "type": "Feature",
      "geometry": {
        "type": "Polygon",
        "coordinates": [
          [
            [
              3.812980586657846,
              47.82036649259194,
              0.0
            ],
            [
              3.811877737105904,
              47.8205942485801,
              0.0
            ],
            [
              3.811747519673228,
              47.82055563274624,
              0.0
            ],
            [
              3.81166479216936,
              47.82038392380249,
              0.0
            ],
            [
              3.81158541360334,
              47.82015393224042,
              0.0
            ],
            [
              3.811540984305439,
              47.8198102803283,
              0.0
            ],
            [
              3.81189170995804,
              47.81970509481434,
              0.0
            ],
            [
              3.81259102242981,
              47.81952998057844,
              0.0
            ],
            [
              3.812980586657846,
              47.82036649259194,
              0.0
            ]
          ]
        ]
      },
      "properties": {
        "folder": "03 William Fèvre.kmz / 03 William Fèvre",
        "name": "03 William Fèvre"
      }
    },
    {
      "type": "Feature",
      "geometry": {
        "type": "Polygon",
        "coordinates": [
          [
            [
              3.808984529326191,
              47.82168724919803,
              0.0
            ],
            [
              3.808686754356629,
              47.82165522601011,
              0.0
            ],
            [
              3.807963199138249,
              47.82148399926877,
              0.0
            ],
            [
              3.806985652199453,
              47.82124805363371,
              0.0
            ],
            [
              3.807115547498849,
              47.82112824164313,
              0.0
            ],
            [
              3.807180747920291,
              47.82105999126504,
              0.0
            ],
            [
              3.807306493453138,
              47.82094069483124,
              0.0
            ],
            [
              3.807449441299497,
              47.82084814264289,
              0.0
            ],
            [
              3.807539153578183,
              47.82082046083181,
              0.0
            ],
            [
              3.807546862310995,
              47.82082356934485,
              0.0
            ],
            [
              3.807676212133289,
              47.82070888223874,
              0.0
            ],
            [
              3.809091665987114,
              47.82140569517779,
              0.0
            ],
            [
              3.808984529326191,
              47.82168724919803,
              0.0
            ]
          ]
        ]
      },
      "properties": {
        "folder": "03 William Fèvre.kmz / 03 William Fèvre",
        "name": "03 William Fèvre"
      }
    },
    {
      "type": "Feature",
      "geometry": {
        "type": "Polygon",
        "coordinates": [
          [
            [
              3.809498852422504,
              47.82113100744967,
              0.0
            ],
            [
              3.808803295635956,
              47.82061580782431,
              0.0
            ],
            [
              3.808307970282763,
              47.82025958882167,
              0.0
            ],
            [
              3.808520864768643,
              47.82012725312208,
              0.0
            ],
            [
              3.80900366798343,
              47.82047947600099,
              0.0
            ],
            [
              3.809681617828533,
              47.82097231183204,
              0.0
            ],
            [
              3.809498852422504,
              47.82113100744967,
              0.0
            ]
          ]
        ]
      },
      "properties": {
        "folder": "03 William Fèvre.kmz / 03 William Fèvre",
        "name": "03 William Fèvre"
      }
    },
    {
      "type": "Feature",
      "geometry": {
        "type": "Polygon",
        "coordinates": [
          [
            [
              3.807076467343997,
              47.82111632734279,
              0.0
            ],
            [
              3.806361043522912,
              47.82075919473773,
              0.0
            ],
            [
              3.806678241226376,
              47.82050413649625,
              0.0
            ],
            [
              3.806684391777964,
              47.82050611506666,
              0.0
            ],
            [
              3.807328720503658,
              47.82088730447388,
              0.0
            ],
            [
              3.807076467343997,
              47.82111632734279,
              0.0
            ]
          ]
        ]
      },
      "properties": {
        "folder": "03 William Fèvre.kmz / 03 William Fèvre",
        "name": "03 William Fèvre"
      }
    },
    {
      "type": "Feature",
      "geometry": {
        "type": "Polygon",
        "coordinates": [
          [
            [
              3.805503249194004,
              47.82065500159952,
              0.0
            ],
            [
              3.806131943911351,
              47.82093649119854,
              0.0
            ],
            [
              3.806045247431475,
              47.8211024488721,
              0.0
            ],
            [
              3.805339297648325,
              47.82081030227485,
              0.0
            ],
            [
              3.804462084541052,
              47.82041518551275,
              0.0
            ],
            [
              3.804654490791644,
              47.82022364510988,
              0.0
            ],
            [
              3.805503249194004,
              47.82065500159952,
              0.0
            ]
          ]
        ]
      },
      "properties": {
        "folder": "03 William Fèvre.kmz / 03 William Fèvre",
        "name": "03 William Fèvre"
      }
    },
    {
      "type": "Feature",
      "geometry": {
        "type": "Polygon",
        "coordinates": [
          [
            [
              3.811802909360644,
              47.81965726866498,
              0.0
            ],
            [
              3.810723195610817,
              47.81864347055329,
              0.0
            ],
            [
              3.811013792834261,
              47.8184981118383,
              0.0
            ],
            [
              3.811398948719527,
              47.81840528421031,
              0.0
            ],
            [
              3.811803816592954,
              47.81888097610767,
              0.0
            ],
            [
              3.811999243541258,
              47.81912746835359,
              0.0
            ],
            [
              3.812251486232832,
              47.81954315940908,
              0.0
            ],
            [
              3.811802909360644,
              47.81965726866498,
              0.0
            ]
          ]
        ]
      },
      "properties": {
        "folder": "03 William Fèvre.kmz / 03 William Fèvre",
        "name": "03 William Fèvre"
      }
    }
  ]
}