{
  "type": "FeatureCollection",
  "features": [
    {
      "type": "Feature",
      "geometry": {
        "type": "Polygon",
        "coordinates": [
          [
            [
              3.809252166338704,
              47.81647117251835,
              0.0
            ],
            [
              3.809587640760326,
              47.81677872213584,
              0.0
            ],
            [
              3.809300878328825,
              47.81694381305838,
              0.0
            ],
            [
              3.809059942286528,
              47.81711554076927,
              0.0
            ],
            [
              3.808546708252876,
              47.81690118125593,
              0.0
            ],
            [
              3.808333120399312,
              47.81680800779833,
              0.0
            ],
            [
              3.808176972272344,
              47.81675379959088,
              0.0
            ],
            [
              3.808051055164803,
              47.81664238596463,
              0.0
            ],
            [
              3.808477461350024,
              47.81641185117067,
              0.0
            ],
            [
              3.808903865999753,
              47.81620002551869,
              0.0
            ],
            [
              3.809252166338704,
              47.81647117251835,
              0.0
            ]
          ]
        ]
      },
      "properties": {
        "folder": "04 Domaine Pinson.kmz / 04 Domaine Pinson",
        "name": "04 Domaine Pinson"
      }
    },
    {
      "type": "Feature",
      "geometry": {
        "type": "Polygon",
        "coordinates": [
          [
            [
              3.808156443862252,
              47.81850608981738,
              0.0
            ],
            [
              3.807282186467094,
              47.81804450236199,
              0.0
            ],
            [
              3.807464229625821,
              47.817833034476,
              0.0
            ],
            [
              3.807698226157232,
              47.81757381000582,
              0.0
            ],
            [
              3.808626622741003,
              47.81806511167328,
              0.0
            ],
            [
              3.808156443862252,
              47.81850608981738,
              0.0
            ]
          ]
        ]
      },
      "properties": {
        "folder": "04 Domaine Pinson.kmz / 04 Domaine Pinson",
        "name": "04 Domaine Pinson"
      }
    },
    {
      "type": "Feature",
      "geometry": {
        "type": "Polygon",
        "coordinates": [
          [
            [
              3.812005895023423,
              47.81914605660762,
              0.0
            ],
            [
              3.811885575721821,
              47.81896520735566,
              0.0
            ],
            [
              3.811592596929394,
              47.81862553270832,
              0.0
            ],
            [
              3.811423255691262,
              47.81840420672476,
              0.0
            ],
            [
              3.811768764961616,
              47.81833986250616,
              0.0
            ],
            [
              3.812440309452931,
              47.81900194964763,
              0.0
            ],
            [
              3.812681566916418,
              47.81892687960156,
              0.0
            ],
            [
              3.813097224736521,
              47.81936975209999,
              0.0
            ],
            [
              3.813050692653974,
              47.81943351766925,
              0.0
            ],
            [
              3.812282387811627,
              47.81957388897305,
              0.0
            ],
            [
              3.812005895023423,
              47.81914605660762,
              0.0
            ]
          ]
        ]
      },
      "properties": {
        "folder": "04 Domaine Pinson.kmz / 04 Domaine Pinson",
        "name": "04 Domaine Pinson"
      }
    },
    {
      "type": "Feature",
      "geometry": {
        "type": "Polygon",
        "coordinates": [
          [
            [
              3.813417705688218,
              47.82040058225065,
              0.0
            ],
            [
              3.813423631468404,
              47.82039798720518,
              0.0
            ],
            [
              3.813014496898142,
              47.82042221192315,
              0.0
            ],
            [
              3.812580439349278,
              47.81952416206737,
              0.0
            ],
            [
              3.812584505382688,
              47.81952396970494,
              0.0
            ],
            [
              3.812862829525041,
              47.81947154084691,
              0.0
            ],
            [
              3.8130840937788,
              47.81943627717029,
              0.0
            ],
            [
              3.813520690657271,
              47.81994276290754,
              0.0
            ],
            [
              3.813782900590517,
              47.82044281262756,
              0.0
            ],
            [
              3.813417705688218,
              47.82040058225065,
              0.0
            ]
          ]
        ]
      },
      "properties": {
        "folder": "04 Domaine Pinson.kmz / 04 Domaine Pinson",
        "name": "04 Domaine Pinson"
      }
    }
  ]
}