{
  "type": "FeatureCollection",
  "features": [
    {
      "type": "Feature",
      "geometry": {
        "type": "Polygon",
        "coordinates": [
          [
            [
              3.812436189998973,
              47.81899210897537,
              0.0
            ],
            [
              3.811766796868088,
              47.81833316156028,
              0.0
            ],
            [
              3.811868309366755,
              47.81830216410928,
              0.0
            ],
            [
              3.81252888931124,
              47.81896084329158,
              0.0
            ],
            [
              3.812436189998973,
              47.81899210897537,
              0.0
            ]
          ]
        ]
      },
      "properties": {
        "folder": "05 Christophe Camu.kmz",
        "name": "05 Christophe Camu"
      }
    }
  ]
}