{
  "type": "FeatureCollection",
  "features": [
    {
      "type": "Feature",
      "geometry": {
        "type": "Polygon",
        "coordinates": [
          [
            [
              3.80870112803126,
              47.81889641056271,
              0.0
            ],
            [
              3.808156933398523,
              47.81858484751659,
              0.0
            ],
            [
              3.808570361353933,
              47.81820313077617,
              0.0
            ],
            [
              3.809055055582526,
              47.81847624678576,
              0.0
            ],
            [
              3.808876245815294,
              47.81870422600398,
              0.0
            ],
            [
              3.80870112803126,
              47.81889641056271,
              0.0
            ]
          ]
        ]
      },
      "properties": {
        "folder": "06 Jean-Paul et Benoît Droin.kmz / 06 Jean-Paul et Benoît Droin",
        "name": "06 Jean-Paul et Benoît Droin"
      }
    },
    {
      "type": "Feature",
      "geometry": {
        "type": "Polygon",
        "coordinates": [
          [
            [
              3.812988309133925,
              47.81882914846236,
              0.0
            ],
            [
              3.813041005721738,
              47.81880972668991,
              0.0
            ],
            [
              3.813125784667981,
              47.81888111506062,
              0.0
            ],
            [
              3.813239016699992,
              47.81897036145462,
              0.0
            ],
            [
              3.813416029226229,
              47.8190768744676,
              0.0
            ],
            [
              3.813571470199681,
              47.81918504379317,
              0.0
            ],
            [
              3.813707879912767,
              47.81931323056176,
              0.0
            ],
            [
              3.813795585480635,
              47.81943094354828,
              0.0
            ],
            [
              3.813874490810565,
              47.81960697629522,
              0.0
            ],
            [
              3.814038893680463,
              47.81981511904486,
              0.0
            ],
            [
              3.813837740204866,
              47.81986031775847,
              0.0
            ],
            [
              3.812939370876798,
              47.81884984684449,
              0.0
            ],
            [
              3.812988309133925,
              47.81882914846236,
              0.0
            ]
          ]
        ]
      },
      "properties": {
        "folder": "06 Jean-Paul et Benoît Droin.kmz / 06 Jean-Paul et Benoît Droin",
        "name": "06 Jean-Paul et Benoît Droin"
      }
    },
    {
      "type": "Feature",
      "geometry": {
        "type": "Polygon",
        "coordinates": [
          [
            [
              3.812855444117955,
              47.81886078694825,
              0.0
            ],
            [
              3.812176610431013,
              47.81816837732503,
              0.0
            ],
            [
              3.81225716973588,
              47.81813259846789,
              0.0
            ],
            [
              3.812382935926022,
              47.81810302547454,
              0.0
            ],
            [
              3.813072582944694,
              47.81877725775271,
              0.0
            ],
            [
              3.812980747750185,
              47.81881304164302,
              0.0
            ],
            [
              3.812855444117955,
              47.81886078694825,
              0.0
            ]
          ]
        ]
      },
      "properties": {
        "folder": "06 Jean-Paul et Benoît Droin.kmz / 06 Jean-Paul et Benoît Droin",
        "name": "06 Jean-Paul et Benoît Droin"
      }
    }
  ]
}