{
  "type": "FeatureCollection",
  "features": [
    {
      "type": "Feature",
      "geometry": {
        "type": "Polygon",
        "coordinates": [
          [
            [
              3.809943644414462,
              47.81932135512496,
              0.0
            ],
            [
              3.809473458696622,
              47.81958793568921,
              0.0
            ],
            [
              3.808961277718552,
              47.81984750023963,
              0.0
            ],
            [
              3.807668519137928,
              47.81896225422832,
              0.0
            ],
            [
              3.807738205393094,
              47.81888667342125,
              0.0
            ],
            [
              3.807810815358954,
              47.8188836633564,
              0.0
            ],
            [
              3.808387257820858,
              47.81927281170925,
              0.0
            ],
            [
              3.808734761308343,
              47.81905350621077,
              0.0
            ],
            [
              3.808955884295304,
              47.81865356064722,
              0.0
            ],
            [
              3.808951670962841,
              47.81864211297207,
              0.0
            ],
            [
              3.808954831622475,
              47.8186385064989,
              0.0
            ],
            [
              3.809943644414462,
              47.81932135512496,
              0.0
            ]
          ]
        ]
      },
      "properties": {
        "folder": "07 Domaine Long Depaquit .kmz / 07 Domaine Long Depaquit",
        "name": "07 Domaine Long Depaquit"
      }
    },
    {
      "type": "Feature",
      "geometry": {
        "type": "Polygon",
        "coordinates": [
          [
            [
              3.810700043809461,
              47.82094092674362,
              0.0
            ],
            [
              3.81023540400401,
              47.82107462117054,
              0.0
            ],
            [
              3.810105244165143,
              47.82090374683852,
              0.0
            ],
            [
              3.809975217220132,
              47.82081271585295,
              0.0
            ],
            [
              3.809857501505036,
              47.8207172770373,
              0.0
            ],
            [
              3.809739296140759,
              47.82059129708274,
              0.0
            ],
            [
              3.810047333084652,
              47.82044859044691,
              0.0
            ],
            [
              3.810340719835206,
              47.82033703081844,
              0.0
            ],
            [
              3.810726892174252,
              47.82021414091079,
              0.0
            ],
            [
              3.811186948601426,
              47.82079331978265,
              0.0
            ],
            [
              3.810700043809461,
              47.82094092674362,
              0.0
            ]
          ]
        ]
      },
      "properties": {
        "folder": "07 Domaine Long Depaquit .kmz / 07 Domaine Long Depaquit",
        "name": "07 Domaine Long Depaquit"
      }
    }
  ]
}