{
  "type": "FeatureCollection",
  "features": [
    {
      "type": "Feature",
      "geometry": {
        "type": "Polygon",
        "coordinates": [
          [
            [
              3.809088942228456,
              47.8213947896492,
              0.0
            ],
            [
              3.807682304341626,
              47.82070674807976,
              0.0
            ],
            [
              3.807999178090307,
              47.82044869264885,
              0.0
            ],
            [
              3.808302309784872,
              47.8202573993245,
              0.0
            ],
            [
              3.809502287580842,
              47.8211233226513,
              0.0
            ],
            [
              3.80924695609123,
              47.8212735872005,
              0.0
            ],
            [
              3.809088942228456,
              47.8213947896492,
              0.0
            ]
          ]
        ]
      },
      "properties": {
        "folder": "08 Vincent Dauvissat.kmz / 08 Vincent Dauvissat",
        "name": "08 Vincent Dauvissat"
      }
    },
    {
      "type": "Feature",
      "geometry": {
        "type": "Polygon",
        "coordinates": [
          [
            [
              3.809664666189401,
              47.82095172738475,
              0.0
            ],
            [
              3.808526541656323,
              47.82011486858839,
              0.0
            ],
            [
              3.808713717915595,
              47.82001503701391,
              0.0
            ],
            [
              3.808867280855139,
              47.81993390427805,
              0.0
            ],
            [
              3.809376228091494,
              47.82033668407205,
              0.0
            ],
            [
              3.809674775701548,
              47.82057650477632,
              0.0
            ],
            [
              3.809932023952749,
              47.82082775773615,
              0.0
            ],
            [
              3.809664666189401,
              47.82095172738475,
              0.0
            ]
          ]
        ]
      },
      "properties": {
        "folder": "08 Vincent Dauvissat.kmz / 08 Vincent Dauvissat",
        "name": "08 Vincent Dauvissat"
      }
    },
    {
      "type": "Feature",
      "geometry": {
        "type": "Polygon",
        "coordinates": [
          [
            [
              3.810622950006839,
              47.81956438656994,
              0.0
            ],
            [
              3.810160116760231,
              47.81913324991245,
              0.0
            ],
            [
              3.810245289872594,
              47.81901018963892,
              0.0
            ],
            [
              3.810301717640532,
              47.81894640159152,
              0.0
            ],
            [
              3.8108556823453,
              47.81944137160551,
              0.0
            ],
            [
              3.810622950006839,
              47.81956438656994,
              0.0
            ]
          ]
        ]
      },
      "properties": {
        "folder": "08 Vincent Dauvissat.kmz / 08 Vincent Dauvissat",
        "name": "08 Vincent Dauvissat"
      }
    },
    {
      "type": "Feature",
      "geometry": {
        "type": "Polygon",
        "coordinates": [
          [
            [
              3.810058980305759,
              47.81916730270452,
              0.0
            ],
            [
              3.809488524273648,
              47.81875561343552,
              0.0
            ],
            [
              3.809099411742052,
              47.81852063233257,
              0.0
            ],
            [
              3.809200331481097,
              47.81838295019036,
              0.0
            ],
            [
              3.809651371785403,
              47.81864926400247,
              0.0
            ],
            [
              3.810193919395961,
              47.81899401855608,
              0.0
            ],
            [
              3.810058980305759,
              47.81916730270452,
              0.0
            ]
          ]
        ]
      },
      "properties": {
        "folder": "08 Vincent Dauvissat.kmz / 08 Vincent Dauvissat",
        "name": "08 Vincent Dauvissat"
      }
    },
    {
      "type": "Feature",
      "geometry": {
        "type": "Polygon",
        "coordinates": [
          [
            [
              3.811018204833367,
              47.81847714895289,
              0.0
            ],
            [
              3.810359637177718,
              47.81787480943031,
              0.0
            ],
            [
              3.810740158609842,
              47.81763952002822,
              0.0
            ],
            [
              3.811425323274846,
              47.81836469141576,
              0.0
            ],
            [
              3.811018204833367,
              47.81847714895289,
              0.0
            ]
          ]
        ]
      },
      "properties": {
        "folder": "08 Vincent Dauvissat.kmz / 08 Vincent Dauvissat",
        "name": "08 Vincent Dauvissat"
      }
    }
  ]
}