{
  "type": "FeatureCollection",
  "features": [
    {
      "type": "Feature",
      "geometry": {
        "type": "Polygon",
        "coordinates": [
          [
            [
              3.809698411306162,
              47.82058428745449,
              0.0
            ],
            [
              3.808940809235084,
              47.81995784141377,
              0.0
            ],
            [
              3.808936803572043,
              47.81988609526343,
              0.0
            ],
            [
              3.809934767329715,
              47.81935835987129,
              0.0
            ],
            [
              3.810339340927378,
              47.81970952408845,
              0.0
            ],
            [
              3.810329518435238,
              47.81971007765794,
              0.0
            ],
            [
              3.810207064951945,
              47.81978453096559,
              0.0
            ],
            [
              3.810198576857977,
              47.81983319239284,
              0.0
            ],
            [
              3.810609907331919,
              47.82022884967524,
              0.0
            ],
            [
              3.809698411306162,
              47.82058428745449,
              0.0
            ]
          ]
        ]
      },
      "properties": {
        "folder": "09 Joseph Drouhin.kmz",
        "name": "09 Joseph Drouhin"
      }
    },
    {
      "type": "Feature",
      "geometry": {
        "type": "Polygon",
        "coordinates": [
          [
            [
              3.810895867413893,
              47.81751344770403,
              0.0
            ],
            [
              3.81082457603831,
              47.81755846756342,
              0.0
            ],
            [
              3.809671098457659,
              47.81678708741799,
              0.0
            ],
            [
              3.81010452073133,
              47.81661146595876,
              0.0
            ],
            [
              3.811054260109852,
              47.81740252256061,
              0.0
            ],
            [
              3.810895867413893,
              47.81751344770403,
              0.0
            ]
          ]
        ]
      },
      "properties": {
        "folder": "09 Joseph Drouhin.kmz",
        "name": "09 Joseph Drouhin"
      }
    }
  ]
}