{
  "type": "FeatureCollection",
  "features": [
    {
      "type": "Feature",
      "geometry": {
        "type": "Polygon",
        "coordinates": [
          [
            [
              3.808949159563952,
              47.81620015793832,
              0.0
            ],
            [
              3.809398365116667,
              47.81596443849069,
              0.0
            ],
            [
              3.80962788214575,
              47.81590246307138,
              0.0
            ],
            [
              3.809944476968288,
              47.815977898828,
              0.0
            ],
            [
              3.810516623280435,
              47.81637200702888,
              0.0
            ],
            [
              3.811160415056105,
              47.81694738531597,
              0.0
            ],
            [
              3.811612621958689,
              47.81738148428807,
              0.0
            ],
            [
              3.811969431872664,
              47.81767112450508,
              0.0
            ],
            [
              3.811793902659499,
              47.81778000459382,
              0.0
            ],
            [
              3.811438681066359,
              47.81747591424121,
              0.0
            ],
            [
              3.810760872564314,
              47.81689117241747,
              0.0
            ],
            [
              3.810310953643354,
              47.81651705223047,
              0.0
            ],
            [
              3.810081306988862,
              47.81659953228088,
              0.0
            ],
            [
              3.809611367581653,
              47.81677981791761,
              0.0
            ],
            [
              3.809256797428275,
              47.81649949053649,
              0.0
            ],
            [
              3.808949159563952,
              47.81620015793832,
              0.0
            ]
          ]
        ]
      },
      "properties": {
        "folder": "10 Domaine Laroche.kmz",
        "name": "10 Domaine Laroche"
      }
    }
  ]
}