{
  "type": "FeatureCollection",
  "features": [
    {
      "type": "Feature",
      "geometry": {
        "type": "Polygon",
        "coordinates": [
          [
            [
              3.812340770668856,
              47.8180693631599,
              0.0
            ],
            [
              3.811788655284905,
              47.81828152285224,
              0.0
            ],
            [
              3.810994233614857,
              47.81743711172125,
              0.0
            ],
            [
              3.811067202824532,
              47.81740736881344,
              0.0
            ],
            [
              3.810114643517719,
              47.81660600838971,
              0.0
            ],
            [
              3.810301961938214,
              47.81652468993874,
              0.0
            ],
            [
              3.811184608125073,
              47.81728877177695,
              0.0
            ],
            [
              3.811767636945835,
              47.8178085039788,
              0.0
            ],
            [
              3.811997525931623,
              47.81773695986082,
              0.0
            ],
            [
              3.812340770668856,
              47.8180693631599,
              0.0
            ]
          ]
        ]
      },
      "properties": {
        "folder": "11 Domaine Vocoret et Fils.kmz / 11 Domaine Vocoret et Fils",
        "name": "11 Domaine Vocoret et Fils"
      }
    },
    {
      "type": "Feature",
      "geometry": {
        "type": "Polygon",
        "coordinates": [
          [
            [
              3.811509435597253,
              47.81975657753921,
              0.0
            ],
            [
              3.810726450954292,
              47.81895663423236,
              0.0
            ],
            [
              3.810648384353768,
              47.81897947236754,
              0.0
            ],
            [
              3.810457219857395,
              47.81880944590101,
              0.0
            ],
            [
              3.810732937816899,
              47.8186571121589,
              0.0
            ],
            [
              3.811804351088162,
              47.81965764491355,
              0.0
            ],
            [
              3.811509435597253,
              47.81975657753921,
              0.0
            ]
          ]
        ]
      },
      "properties": {
        "folder": "11 Domaine Vocoret et Fils.kmz / 11 Domaine Vocoret et Fils",
        "name": "11 Domaine Vocoret et Fils"
      }
    },
    {
      "type": "Feature",
      "geometry": {
        "type": "Polygon",
        "coordinates": [
          [
            [
              3.804453493200233,
              47.81975623834828,
              0.0
            ],
            [
              3.8050770916385,
              47.82012916989454,
              0.0
            ],
            [
              3.80573704298699,
              47.8204530358431,
              0.0
            ],
            [
              3.80641024169339,
              47.82078530315329,
              0.0
            ],
            [
              3.807084466585626,
              47.82111838405823,
              0.0
            ],
            [
              3.806970553357856,
              47.82123170943382,
              0.0
            ],
            [
              3.805952188934167,
              47.82084862864782,
              0.0
            ],
            [
              3.805481338183438,
              47.82064986331404,
              0.0
            ],
            [
              3.80463711050979,
              47.82020439722823,
              0.0
            ],
            [
              3.80450987916549,
              47.82031361333956,
              0.0
            ],
            [
              3.804059308168597,
              47.8201150540779,
              0.0
            ],
            [
              3.804453493200233,
              47.81975623834828,
              0.0
            ]
          ]
        ]
      },
      "properties": {
        "folder": "11 Domaine Vocoret et Fils.kmz / 11 Domaine Vocoret et Fils",
        "name": "11 Domaine Vocoret et Fils"
      }
    }
  ]
}