{
  "type": "FeatureCollection",
  "features": [
    {
      "type": "Feature",
      "geometry": {
        "type": "Polygon",
        "coordinates": [
          [
            [
              3.806288339383863,
              47.82072694882936,
              0.0
            ],
            [
              3.805759188942839,
              47.82047537903285,
              0.0
            ],
            [
              3.805154256387631,
              47.82016122909528,
              0.0
            ],
            [
              3.80531219907386,
              47.82000558311259,
              0.0
            ],
            [
              3.805508162655362,
              47.81981802075085,
              0.0
            ],
            [
              3.806014550717884,
              47.8201106013434,
              0.0
            ],
            [
              3.806609237296705,
              47.8204593330676,
              0.0
            ],
            [
              3.806470353000282,
              47.82059691543945,
              0.0
            ],
            [
              3.806288339383863,
              47.82072694882936,
              0.0
            ]
          ]
        ]
      },
      "properties": {
        "folder": "12 Louis Michel et Fils .kmz",
        "name": "12 Louis Michel et Fils"
      }
    }
  ]
}