{
  "type": "FeatureCollection",
  "features": [
    {
      "type": "Feature",
      "geometry": {
        "type": "Polygon",
        "coordinates": [
          [
            [
              3.80734389233337,
              47.8208606521214,
              0.0
            ],
            [
              3.807338289629809,
              47.8208564092393,
              0.0
            ],
            [
              3.806311735706562,
              47.82025930368563,
              0.0
            ],
            [
              3.805598444945806,
              47.81981856826929,
              0.0
            ],
            [
              3.805989615714522,
              47.81953810663211,
              0.0
            ],
            [
              3.807622424377199,
              47.82063296183492,
              0.0
            ],
            [
              3.80734389233337,
              47.8208606521214,
              0.0
            ]
          ]
        ]
      },
      "properties": {
        "folder": "13 Domaine de Bréchain.kmz",
        "name": "13 Domaine de Bréchain"
      }
    }
  ]
}