{
  "type": "FeatureCollection",
  "features": [
    {
      "type": "Feature",
      "geometry": {
        "type": "Polygon",
        "coordinates": [
          [
            [
              3.808938496847363,
              47.81791748320077,
              0.0
            ],
            [
              3.808623412002048,
              47.81778893833952,
              0.0
            ],
            [
              3.808279099745682,
              47.81760895060227,
              0.0
            ],
            [
              3.808221620082393,
              47.81754000213802,
              0.0
            ],
            [
              3.808671018090459,
              47.81702474471154,
              0.0
            ],
            [
              3.809056979826591,
              47.81718104045144,
              0.0
            ],
            [
              3.809506700434084,
              47.81741199832432,
              0.0
            ],
            [
              3.808938496847363,
              47.81791748320077,
              0.0
            ]
          ]
        ]
      },
      "properties": {
        "folder": "14 Domaine des Malandes.kmz",
        "name": "14 Domaine des Malandes"
      }
    }
  ]
}