{
  "type": "FeatureCollection",
  "features": [
    {
      "type": "Feature",
      "geometry": {
        "type": "Polygon",
        "coordinates": [
          [
            [
              3.810359987198151,
              47.81785559926615,
              0.0
            ],
            [
              3.809994680135971,
              47.81765603720256,
              0.0
            ],
            [
              3.809587572159441,
              47.81741598856091,
              0.0
            ],
            [
              3.809078115524203,
              47.81716998967201,
              0.0
            ],
            [
              3.809442720806628,
              47.81691675569952,
              0.0
            ],
            [
              3.809667970375625,
              47.81678337086106,
              0.0
            ],
            [
              3.810808678481359,
              47.81754788451326,
              0.0
            ],
            [
              3.810359987198151,
              47.81785559926615,
              0.0
            ]
          ]
        ]
      },
      "properties": {
        "folder": "15 Pascal Bouchard.kmz",
        "name": "15 Pascal Bouchard"
      }
    }
  ]
}