{
  "type": "FeatureCollection",
  "features": [
    {
      "type": "Feature",
      "geometry": {
        "type": "Polygon",
        "coordinates": [
          [
            [
              3.811296831625066,
              47.82076966170228,
              0.0
            ],
            [
              3.811176287021247,
              47.82079080510001,
              0.0
            ],
            [
              3.811176182163605,
              47.82078615862908,
              0.0
            ],
            [
              3.810750944814612,
              47.82023847657747,
              0.0
            ],
            [
              3.810988854046606,
              47.82017156278345,
              0.0
            ],
            [
              3.810524145265251,
              47.81971161136616,
              0.0
            ],
            [
              3.810684567550966,
              47.81962851336281,
              0.0
            ],
            [
              3.810782788422562,
              47.8195819024706,
              0.0
            ],
            [
              3.811288091673044,
              47.82007664448658,
              0.0
            ],
            [
              3.811732132773613,
              47.82065125694725,
              0.0
            ],
            [
              3.811296831625066,
              47.82076966170228,
              0.0
            ]
          ]
        ]
      },
      "properties": {
        "folder": "16 Domaine Garnier.kmz",
        "name": "16 Domaine Garnier"
      }
    },
    {
      "type": "Feature",
      "geometry": {
        "type": "Polygon",
        "coordinates": [
          [
            [
              3.810651535346474,
              47.82020200478804,
              0.0
            ],
            [
              3.810262800390989,
              47.81981954573038,
              0.0
            ],
            [
              3.81030413714307,
              47.81979352512352,
              0.0
            ],
            [
              3.810708162760692,
              47.82018324551341,
              0.0
            ],
            [
              3.810651535346474,
              47.82020200478804,
              0.0
            ]
          ]
        ]
      },
      "properties": {
        "folder": "16 Domaine Garnier.kmz",
        "name": "16 Domaine Garnier"
      }
    }
  ]
}