{
  "type": "FeatureCollection",
  "features": [
    {
      "type": "Feature",
      "geometry": {
        "type": "Polygon",
        "coordinates": [
          [
            [
              3.813699364860323,
              47.81995398650898,
              0.0
            ],
            [
              3.81387263893689,
              47.8199053493427,
              0.0
            ],
            [
              3.814019336931842,
              47.81985859218162,
              0.0
            ],
            [
              3.81413467401037,
              47.81988268790423,
              0.0
            ],
            [
              3.814329642789231,
              47.82001161373383,
              0.0
            ],
            [
              3.814602396357423,
              47.8206198310675,
              0.0
            ],
            [
              3.814350976071292,
              47.82056917565413,
              0.0
            ],
            [
              3.813979818677573,
              47.820485166373,
              0.0
            ],
            [
              3.813699364860323,
              47.81995398650898,
              0.0
            ]
          ]
        ]
      },
      "properties": {
        "folder": "17 Domaine Billaud-Simon.kmz",
        "name": "17 Domaine Billaud-Simon"
      }
    }
  ]
}