{
  "type": "FeatureCollection",
  "features": [
    {
      "type": "Feature",
      "geometry": {
        "type": "Polygon",
        "coordinates": [
          [
            [
              3.813964273516275,
              47.82048251929574,
              0.0
            ],
            [
              3.813852022758546,
              47.82046717087602,
              0.0
            ],
            [
              3.813785975585136,
              47.82044137371639,
              0.0
            ],
            [
              3.813560149888213,
              47.81999928812278,
              0.0
            ],
            [
              3.813700385891003,
              47.81995744935502,
              0.0
            ],
            [
              3.813854589424186,
              47.82022609805957,
              0.0
            ],
            [
              3.813964273516275,
              47.82048251929574,
              0.0
            ]
          ]
        ]
      },
      "properties": {
        "folder": "18 Samuel Billaud.kmz",
        "name": "18 Samuel Billaud"
      }
    }
  ]
}