{
  "type": "FeatureCollection",
  "features": [
    {
      "type": "Feature",
      "geometry": {
        "type": "Polygon",
        "coordinates": [
          [
            [
              3.808842707844013,
              47.81790985584056,
              0.0
            ],
            [
              3.809011907808733,
              47.81798582857231,
              0.0
            ],
            [
              3.809852573507706,
              47.81846510404896,
              0.0
            ],
            [
              3.810364026541551,
              47.81879308772915,
              0.0
            ],
            [
              3.810349291539072,
              47.81884556121344,
              0.0
            ],
            [
              3.810194263819251,
              47.81902883440209,
              0.0
            ],
            [
              3.809656231748355,
              47.81863223008035,
              0.0
            ],
            [
              3.808685550722977,
              47.81809018298593,
              0.0
            ],
            [
              3.808842707844013,
              47.81790985584056,
              0.0
            ]
          ]
        ]
      },
      "properties": {
        "folder": "19 Domaine Duplessis .kmz",
        "name": "19 Domaine Duplessis"
      }
    }
  ]
}