{
  "type": "FeatureCollection",
  "features": [
    {
      "type": "Feature",
      "geometry": {
        "type": "Polygon",
        "coordinates": [
          [
            [
              3.80790416072599,
              47.81875789307517,
              0.0
            ],
            [
              3.807508621455533,
              47.81901108817075,
              0.0
            ],
            [
              3.807437942367751,
              47.81899358646482,
              0.0
            ],
            [
              3.807227489814207,
              47.81885984867863,
              0.0
            ],
            [
              3.806782301758647,
              47.81861116005474,
              0.0
            ],
            [
              3.807313761423643,
              47.81808051476562,
              0.0
            ],
            [
              3.808120932978418,
              47.81850571460826,
              0.0
            ],
            [
              3.80790416072599,
              47.81875789307517,
              0.0
            ]
          ]
        ]
      },
      "properties": {
        "folder": "20 Domaine Servin.kmz / 20 Domaine Servin",
        "name": "20 Domaine Servin"
      }
    },
    {
      "type": "Feature",
      "geometry": {
        "type": "Polygon",
        "coordinates": [
          [
            [
              3.808356935033537,
              47.8192653432768,
              0.0
            ],
            [
              3.807763888060687,
              47.81887879068299,
              0.0
            ],
            [
              3.808156945785475,
              47.81858504065481,
              0.0
            ],
            [
              3.808408621713233,
              47.81873183610972,
              0.0
            ],
            [
              3.808597277325025,
              47.81883984767856,
              0.0
            ],
            [
              3.808765919603188,
              47.81893458950906,
              0.0
            ],
            [
              3.808689194725356,
              47.81905054750612,
              0.0
            ],
            [
              3.808356935033537,
              47.8192653432768,
              0.0
            ]
          ]
        ]
      },
      "properties": {
        "folder": "20 Domaine Servin.kmz / 20 Domaine Servin",
        "name": "20 Domaine Servin"
      }
    }
  ]
}