{
  "type": "FeatureCollection",
  "features": [
    {
      "type": "Feature",
      "geometry": {
        "type": "Polygon",
        "coordinates": [
          [
            [
              3.808654185154794,
              47.81806732121082,
              0.0
            ],
            [
              3.807713905290044,
              47.81757305026946,
              0.0
            ],
            [
              3.807853195840238,
              47.81742496230918,
              0.0
            ],
            [
              3.808577235565254,
              47.81780776151484,
              0.0
            ],
            [
              3.808782555769952,
              47.81790408914308,
              0.0
            ],
            [
              3.808793981122316,
              47.81794559489103,
              0.0
            ],
            [
              3.808654185154794,
              47.81806732121082,
              0.0
            ]
          ]
        ]
      },
      "properties": {
        "folder": "21 Domaine Feuillebois.kmz",
        "name": "21 Domaine Feuillebois"
      }
    }
  ]
}