{
  "type": "FeatureCollection",
  "features": [
    {
      "type": "Feature",
      "geometry": {
        "type": "Polygon",
        "coordinates": [
          [
            [
              3.805098921500178,
              47.82012764795877,
              0.0
            ],
            [
              3.804461549015727,
              47.81978632709241,
              0.0
            ],
            [
              3.80465802352439,
              47.81961840927886,
              0.0
            ],
            [
              3.805288736330312,
              47.8199522941059,
              0.0
            ],
            [
              3.805098921500178,
              47.82012764795877,
              0.0
            ]
          ]
        ]
      },
      "properties": {
        "folder": "22 Jean Collet et Fils.kmz",
        "name": "22 Jean Collet et Fils"
      }
    }
  ]
}