{
  "type": "FeatureCollection",
  "features": [
    {
      "type": "Feature",
      "geometry": {
        "type": "Polygon",
        "coordinates": [
          [
            [
              3.80528091749863,
              47.81993803790833,
              0.0
            ],
            [
              3.804657193254537,
              47.81961356245399,
              0.0
            ],
            [
              3.804853955651193,
              47.81942935731382,
              0.0
            ],
            [
              3.805473304863709,
              47.81978454682864,
              0.0
            ],
            [
              3.80528091749863,
              47.81993803790833,
              0.0
            ]
          ]
        ]
      },
      "properties": {
        "folder": "23 Domaine Guitton-Michel.kmz",
        "name": "23 Domaine Guitton-Michel"
      }
    }
  ]
}