{
  "type": "FeatureCollection",
  "features": [
    {
      "type": "Feature",
      "geometry": {
        "type": "Polygon",
        "coordinates": [
          [
            [
              3.806923738332,
              47.82133929909556,
              0.0
            ],
            [
              3.806903572364684,
              47.8215278474102,
              0.0
            ],
            [
              3.806464907560823,
              47.82138452446148,
              0.0
            ],
            [
              3.806053249492309,
              47.82123442984638,
              0.0
            ],
            [
              3.806038811519092,
              47.82120101132407,
              0.0
            ],
            [
              3.806185930922152,
              47.8209526782366,
              0.0
            ],
            [
              3.806970183855807,
              47.82122412714407,
              0.0
            ],
            [
              3.806923738332,
              47.82133929909556,
              0.0
            ]
          ]
        ]
      },
      "properties": {
        "folder": "24 Guy Robin.kmz",
        "name": "24 Guy Robin"
      }
    }
  ]
}