{
  "type": "FeatureCollection",
  "features": [
    {
      "type": "Feature",
      "geometry": {
        "type": "Polygon",
        "coordinates": [
          [
            [
              3.809049838464469,
              47.81847936257826,
              0.0
            ],
            [
              3.808589962710551,
              47.81821387085596,
              0.0
            ],
            [
              3.808680344462694,
              47.81810909087686,
              0.0
            ],
            [
              3.80913686592117,
              47.8183707501967,
              0.0
            ],
            [
              3.809049838464469,
              47.81847936257826,
              0.0
            ]
          ]
        ]
      },
      "properties": {
        "folder": "25 François Raveneau.kmz / 25 François Raveneau",
        "name": "25 François Raveneau"
      }
    },
    {
      "type": "Feature",
      "geometry": {
        "type": "Polygon",
        "coordinates": [
          [
            [
              3.809929130012841,
              47.81933501749106,
              0.0
            ],
            [
              3.8089643158738,
              47.8186483395777,
              0.0
            ],
            [
              3.809078727797095,
              47.81850395841459,
              0.0
            ],
            [
              3.810075174284238,
              47.81919145285421,
              0.0
            ],
            [
              3.809929130012841,
              47.81933501749106,
              0.0
            ]
          ]
        ]
      },
      "properties": {
        "folder": "25 François Raveneau.kmz / 25 François Raveneau",
        "name": "25 François Raveneau"
      }
    },
    {
      "type": "Feature",
      "geometry": {
        "type": "Polygon",
        "coordinates": [
          [
            [
              3.810366954299487,
              47.81969460300169,
              0.0
            ],
            [
              3.809998159707342,
              47.81937737429228,
              0.0
            ],
            [
              3.810003630929037,
              47.81931859485804,
              0.0
            ],
            [
              3.810146463436759,
              47.81915118685504,
              0.0
            ],
            [
              3.810605326908718,
              47.81956803750331,
              0.0
            ],
            [
              3.810366954299487,
              47.81969460300169,
              0.0
            ]
          ]
        ]
      },
      "properties": {
        "folder": "25 François Raveneau.kmz / 25 François Raveneau",
        "name": "25 François Raveneau"
      }
    },
    {
      "type": "Feature",
      "geometry": {
        "type": "Polygon",
        "coordinates": [
          [
            [
              3.81073702602573,
              47.82021111865188,
              0.0
            ],
            [
              3.810732661128167,
              47.8202072147393,
              0.0
            ],
            [
              3.810286261525744,
              47.81977764862939,
              0.0
            ],
            [
              3.810505143182783,
              47.81968828214559,
              0.0
            ],
            [
              3.810948673471379,
              47.8201186778373,
              0.0
            ],
            [
              3.81073702602573,
              47.82021111865188,
              0.0
            ]
          ]
        ]
      },
      "properties": {
        "folder": "25 François Raveneau.kmz / 25 François Raveneau",
        "name": "25 François Raveneau"
      }
    }
  ]
}