{
  "type": "FeatureCollection",
  "features": [
    {
      "type": "Feature",
      "geometry": {
        "type": "Polygon",
        "coordinates": [
          [
            [
              3.810793628789766,
              47.81956216848717,
              0.0
            ],
            [
              3.810916321600637,
              47.81950665923085,
              0.0
            ],
            [
              3.811529736088162,
              47.82014369809224,
              0.0
            ],
            [
              3.811570354457929,
              47.82024180923228,
              0.0
            ],
            [
              3.811590104630507,
              47.82031697939524,
              0.0
            ],
            [
              3.811645332636575,
              47.82044223379632,
              0.0
            ],
            [
              3.811625026602201,
              47.82049852227313,
              0.0
            ],
            [
              3.811343694579903,
              47.82014181678673,
              0.0
            ],
            [
              3.810793628789766,
              47.81956216848717,
              0.0
            ]
          ]
        ]
      },
      "properties": {
        "folder": "26 Domaine De Oliveira.kmz / 26 Domaine De Oliveira",
        "name": "26 Domaine De Oliveira"
      }
    },
    {
      "type": "Feature",
      "geometry": {
        "type": "Polygon",
        "coordinates": [
          [
            [
              3.811506054074612,
              47.81997304475316,
              0.0
            ],
            [
              3.810951758333665,
              47.81940968631375,
              0.0
            ],
            [
              3.810369716552033,
              47.81890363228208,
              0.0
            ],
            [
              3.810453536498637,
              47.81887368586256,
              0.0
            ],
            [
              3.810676448984527,
              47.81903685421821,
              0.0
            ],
            [
              3.810775789034853,
              47.81908843178182,
              0.0
            ],
            [
              3.811028086172574,
              47.81930728917862,
              0.0
            ],
            [
              3.811482831595252,
              47.81976373314175,
              0.0
            ],
            [
              3.811506054074612,
              47.81997304475316,
              0.0
            ]
          ]
        ]
      },
      "properties": {
        "folder": "26 Domaine De Oliveira.kmz / 26 Domaine De Oliveira",
        "name": "26 Domaine De Oliveira"
      }
    }
  ]
}