{
  "type": "FeatureCollection",
  "features": [
    {
      "type": "Feature",
      "geometry": {
        "type": "Polygon",
        "coordinates": [
          [
            [
              3.810609369568045,
              47.8202260767985,
              0.0
            ],
            [
              3.810230573860784,
              47.81985106790194,
              0.0
            ],
            [
              3.810264677835029,
              47.81982804718713,
              0.0
            ],
            [
              3.810649001262512,
              47.82020106233441,
              0.0
            ],
            [
              3.810609369568045,
              47.8202260767985,
              0.0
            ]
          ]
        ]
      },
      "properties": {
        "folder": "27 Domaine Besson .kmz",
        "name": "27 Domaine Besson"
      }
    },
    {
      "type": "Feature",
      "geometry": {
        "type": "Polygon",
        "coordinates": [
          [
            [
              3.81148124315827,
              47.82007759125448,
              0.0
            ],
            [
              3.810847514002378,
              47.81945317252568,
              0.0
            ],
            [
              3.810308590657687,
              47.81895097740124,
              0.0
            ],
            [
              3.81035326431618,
              47.81888463889186,
              0.0
            ],
            [
              3.810937301571837,
              47.81939229791325,
              0.0
            ],
            [
              3.811461139963561,
              47.81993359120536,
              0.0
            ],
            [
              3.81148124315827,
              47.82007759125448,
              0.0
            ]
          ]
        ]
      },
      "properties": {
        "folder": "27 Domaine Besson .kmz",
        "name": "27 Domaine Besson"
      }
    }
  ]
}