{
  "type": "FeatureCollection",
  "features": [
    {
      "type": "Feature",
      "geometry": {
        "type": "Polygon",
        "coordinates": [
          [
            [
              3.808831182992081,
              47.8199242682249,
              0.0
            ],
            [
              3.80755307563563,
              47.81904778579426,
              0.0
            ],
            [
              3.807689128348266,
              47.81896961144894,
              0.0
            ],
            [
              3.80769671382917,
              47.81896984158089,
              0.0
            ],
            [
              3.80896040650637,
              47.81985654612738,
              0.0
            ],
            [
              3.808831182992081,
              47.8199242682249,
              0.0
            ]
          ]
        ]
      },
      "properties": {
        "folder": "28 Raoul Gautherin et Fils.kmz",
        "name": "28 Raoul Gautherin et Fils"
      }
    }
  ]
}