{"type":"FeatureCollection","crs":{"type":"name","properties":{"name":"urn:ogc:def:crs:EPSG::4326"}},"features":[{"type":"Feature","properties":{"region_id":18,"name":"Pécs","name_hu":"Pécsi borvidék","region_group":"Dél-Dunántúl (South Transdanubia)","area_ha_approx":1600,"notable_grapes":"Olaszrizling, Cirfandli (Zierfandler), Chardonnay","notes":"Mecsek Hills; Mediterranean climate; unique Cirfandli variety"},"geometry":{"type":"Polygon","coordinates":[[[18.0622955,46.1581027],[18.0638949,46.1604038],[18.0665776,46.1634768],[18.0671148,46.1638595],[18.0681432,46.1676742],[18.0697452,46.1703534],[18.0697246,46.1714998],[18.0686137,46.1722526],[18.0686,46.1730148],[18.0696629,46.1749269],[18.0772459,46.1799387],[18.077239,46.1803229],[18.0783159,46.1814727],[18.0804948,46.1818757],[18.0820979,46.1845547],[18.0820911,46.1849327],[18.0815312,46.1853122],[18.0815109,46.1864525],[18.0831479,46.1872289],[18.0853338,46.1872476],[18.0853271,46.1876257],[18.0864246,46.187635],[18.0875152,46.1880286],[18.0885791,46.1899405],[18.0874614,46.1910715],[18.0879675,46.193741],[18.0868161,46.1967807],[18.0862493,46.1975383],[18.0862089,46.1998189],[18.0866881,46.2040129],[18.0866611,46.2055375],[18.0871,46.2058142],[18.0888411,46.2059341],[18.0899321,46.2063277],[18.0904788,46.2067104],[18.0915901,46.2059575],[18.0943234,46.206365],[18.0981346,46.2079219],[18.1035885,46.2094863],[18.1046665,46.210642],[18.1046599,46.21102],[18.1052199,46.2106466],[18.1051803,46.2129272],[18.1057116,46.2136941],[18.1057049,46.2140783],[18.1051472,46.214836],[18.1083993,46.216766],[18.111107,46.2186914],[18.110523,46.2209737],[18.108821,46.2243871],[18.1082544,46.2251386],[18.1088013,46.2255274],[18.1082346,46.2262851],[18.1087684,46.22743],[18.108742,46.2289545],[18.1092867,46.2289591],[18.1092802,46.2293371],[18.1098338,46.2293417],[18.1098403,46.2289637],[18.1103916,46.228584],[18.1109363,46.2285885],[18.1109231,46.2293508],[18.1103653,46.2301085],[18.11091,46.230113],[18.1103587,46.2304927],[18.1092604,46.2304836],[18.1092472,46.2312459],[18.1043092,46.2312047],[18.0932949,46.2333929],[18.091087,46.2345146],[18.0899819,46.2348895],[18.08887,46.2356425],[18.0849963,46.2375123],[18.0838776,46.2386432],[18.0833329,46.2386386],[18.0788982,46.2408877],[18.0788914,46.2412657],[18.0772072,46.2435384],[18.0766466,46.2439178],[18.0771868,46.2446787],[18.0765989,46.2465827],[18.0760473,46.246956],[18.0749214,46.2484711],[18.073809,46.2492239],[18.0732505,46.2499814],[18.072145,46.25035],[18.0715363,46.2533942],[18.0709778,46.2541456],[18.0709709,46.2545298],[18.0714883,46.2560591],[18.0714747,46.2568151],[18.0730727,46.2598785],[18.0741559,46.260266],[18.074149,46.2606502],[18.0752479,46.2606597],[18.0752411,46.2610377],[18.075795,46.2610425],[18.0757881,46.2614267],[18.0774184,46.2622031],[18.0774117,46.2625812],[18.0785106,46.2625906],[18.0784697,46.2648774],[18.0790148,46.2648821],[18.0790012,46.2656444],[18.0734741,46.2678777],[18.0701837,46.2674712],[18.0700122,46.2769902],[18.069419,46.2796503],[18.0682991,46.2807811],[18.0682921,46.2811653],[18.065997,46.2864759],[18.0626524,46.2894901],[18.0531924,46.2958844],[18.0618628,46.3024315],[18.0645801,46.3039799],[18.06842,46.3047757],[18.0706107,46.3047947],[18.0717173,46.3044262],[18.0717105,46.3048042],[18.0722511,46.3055713],[18.0727966,46.305576],[18.0749757,46.3067353],[18.0744213,46.3067305],[18.0755075,46.3075023],[18.0760346,46.3090316],[18.075446,46.3109294],[18.0753982,46.3135942],[18.0748254,46.3151141],[18.0748049,46.3162544],[18.0753163,46.3181617],[18.0758571,46.3189287],[18.079094,46.3220061],[18.0790872,46.3223841],[18.0877582,46.3293135],[18.0859702,46.3373003],[18.0859229,46.3399651],[18.0853636,46.3407165],[18.0842156,46.3433782],[18.0830811,46.3452714],[18.083566,46.3487032],[18.0835118,46.3517461],[18.0817836,46.3563057],[18.0817565,46.357824],[18.0812037,46.3582036],[18.0806351,46.3589611],[18.0821463,46.3665856],[18.0819561,46.3772512],[18.0830167,46.3795413],[18.0829896,46.3810658],[18.0818677,46.3822029],[18.0817659,46.3879107],[18.0795378,46.3897945],[18.0799683,46.3962754],[18.0782316,46.401213],[18.0771094,46.4023439],[18.0771026,46.4027219],[18.0781498,46.4057805],[18.0781089,46.4080611],[18.0775125,46.4103432],[18.075782,46.4148965],[18.0762122,46.4213774],[18.0745566,46.4217413],[18.0739963,46.4224989],[18.0739688,46.4240234],[18.0668227,46.4231993],[18.0644106,46.4346019],[18.0688134,46.4350243],[18.0676765,46.4369174],[18.068252,46.4373165],[18.0753576,46.4385084],[18.0719195,46.4457123],[18.0713313,46.4479944],[18.0712902,46.4502751],[18.0706998,46.452179],[18.0706724,46.4536974],[18.0689674,46.4567323],[18.0683721,46.4593924],[18.0683307,46.4616792],[18.0677541,46.4628147],[18.0676851,46.4666199],[18.0682203,46.4677712],[18.0693304,46.4673965],[18.0772688,46.4549008],[18.0784468,46.4507209],[18.0834116,46.450379],[18.0883696,46.4504211],[18.090026,46.4500571],[18.0971895,46.4501175],[18.0977631,46.4485975],[18.0983836,46.4444126],[18.1005622,46.4459557],[18.1010913,46.4474849],[18.1010447,46.4501498],[18.1004754,46.4509074],[18.1059695,46.4520937],[18.1031082,46.4577847],[18.1042111,46.4577939],[18.1013117,46.4661436],[18.1040848,46.4650263],[18.1073212,46.4692433],[18.1128938,46.4654837],[18.1151198,46.4643554],[18.1173586,46.4624709],[18.1184616,46.46248],[18.1201182,46.4621155],[18.1206521,46.4628822],[18.1206392,46.4636383],[18.1216769,46.4674587],[18.1210907,46.4697349],[18.1221873,46.4701282],[18.1187862,46.4754309],[18.1176698,46.4761841],[18.1171095,46.4769419],[18.1165533,46.4769373],[18.1165468,46.4773153],[18.115993,46.4776951],[18.1120436,46.4829931],[18.1097244,46.4894449],[18.1085876,46.4913446],[18.1079807,46.4947672],[18.1074178,46.4951406],[18.1074112,46.4955187],[18.100818,46.4943232],[18.087646,46.491169],[18.0854457,46.490766],[18.0848214,46.4945727],[18.0848011,46.495713],[18.0870018,46.4961098],[18.080102,46.512049],[18.0800953,46.512427],[18.0795182,46.5135688],[18.0789365,46.5154667],[18.0761945,46.5146808],[18.0731157,46.5325552],[18.0730883,46.5340735],[18.0725247,46.534453],[18.0724835,46.5367336],[18.0719012,46.5386377],[18.0678393,46.5496419],[18.0666929,46.5519192],[18.0644277,46.5549492],[18.0632881,46.5568422],[18.0643791,46.5576141],[18.0659975,46.559531],[18.0687278,46.5610794],[18.0719809,46.5645351],[18.0730586,46.566063],[18.0740949,46.5698838],[18.0751658,46.5717959],[18.0767987,46.5729504],[18.0773284,46.5744797],[18.0783905,46.5763917],[18.078322,46.5802031],[18.078852,46.5817262],[18.0799369,46.5828822],[18.084907,46.5829245],[18.0843362,46.583682],[18.0843226,46.5844443],[18.0854077,46.585594],[18.0848458,46.5863516],[18.0853805,46.5871186],[18.0848186,46.5878762],[18.0863843,46.5928357],[18.0874493,46.5951319],[18.0874222,46.5966565],[18.0868377,46.5981701],[18.0845943,46.6004383],[18.0845874,46.6008225],[18.0828901,46.602711],[18.0794857,46.6080126],[18.0783523,46.6095277],[18.076684,46.6102758],[18.076106,46.6114114],[18.0755506,46.6117847],[18.0749793,46.6125422],[18.0738595,46.613295],[18.0732971,46.6140526],[18.072712,46.6155724],[18.0726845,46.6170907],[18.0715528,46.6189901],[18.0715253,46.6205085],[18.0709538,46.6212659],[18.0720531,46.6216597],[18.0742451,46.622819],[18.0747594,46.6247263],[18.0752964,46.6258776],[18.0769514,46.6258918],[18.0868386,46.6294035],[18.0884803,46.6301736],[18.0892125,46.6318253],[18.0905917,46.6359063],[18.0905375,46.6389554],[18.089982,46.6393288],[18.0894039,46.6404644],[18.0893835,46.6416109],[18.0926901,46.6424012],[18.0937834,46.6431666],[18.0981744,46.6447282],[18.1042036,46.647828],[18.1080465,46.6493784],[18.1162446,46.6551608],[18.1178742,46.6566989],[18.1178809,46.6563147],[18.1200686,46.6578573],[18.123361,46.6590308],[18.1255491,46.6605672],[18.1311468,46.6564225],[18.1317242,46.6552866],[18.1334061,46.6537754],[18.137821,46.6545732],[18.1394833,46.6542084],[18.1405839,46.6545953],[18.144441,46.6553884],[18.1449835,46.655777],[18.1466677,46.6546437],[18.149494,46.6508604],[18.1495132,46.6497139],[18.1523264,46.6466927],[18.1534964,46.6428962],[18.1551772,46.6413846],[18.1585664,46.6372212],[18.1647544,46.6307923],[18.1735293,46.6350502],[18.1790223,46.6370014],[18.1789549,46.6411847],[18.1783323,46.6457543],[18.1931699,46.6515754],[18.1897824,46.6557399],[18.1958544,46.656548],[18.2002614,46.6573433],[18.2046836,46.6577543],[18.2063397,46.6577666],[18.2068917,46.6581549],[18.2096489,46.6585534],[18.2096548,46.6581753],[18.2118689,46.6581916],[18.2151693,46.6589783],[18.2151634,46.6593563],[18.2162646,46.6597487],[18.2162587,46.6601267],[18.2206637,46.6616836],[18.2218027,46.6590267],[18.2218086,46.6586424],[18.2252228,46.6525744],[18.2257807,46.6525784],[18.2274772,46.6499254],[18.2285957,46.6491711],[18.2314218,46.6450015],[18.2325401,46.6442471],[18.233089,46.6442511],[18.2381678,46.6374384],[18.2359833,46.6355137],[18.2343739,46.6324589],[18.2305806,46.6274793],[18.2445506,46.6172962],[18.2500727,46.6173351],[18.2501571,46.6116272],[18.2562362,46.6116697],[18.2567994,46.6112894],[18.2579055,46.6112971],[18.2606606,46.6117005],[18.2628472,46.6128561],[18.2650705,46.6121091],[18.265628,46.6121129],[18.2645385,46.6109649],[18.2645496,46.6102026],[18.2662539,46.6067868],[18.2668169,46.6064064],[18.2673654,46.6064101],[18.2673874,46.6048917],[18.2668445,46.6045037],[18.2668555,46.6037414],[18.2657551,46.6033558],[18.2663035,46.6033595],[18.2674205,46.6026048],[18.267426,46.6022268],[18.2707437,46.6022495],[18.2718441,46.6026352],[18.2718222,46.6041598],[18.2723652,46.6045416],[18.2729137,46.6045453],[18.2723816,46.6034012],[18.2724145,46.6011143],[18.270793,46.5988223],[18.2708205,46.5969135],[18.2697312,46.5957655],[18.270318,46.5931043],[18.270362,46.5900551],[18.2709467,46.5881563],[18.2709795,46.5858756],[18.2704607,46.5832006],[18.2699234,46.5824408],[18.2716264,46.5790248],[18.2722384,46.5752172],[18.2722712,46.5729365],[18.2733675,46.5729439],[18.273373,46.5725597],[18.2799669,46.5752697],[18.2832577,46.5764386],[18.2889507,46.5646693],[18.2889667,46.563529],[18.2900879,46.5623898],[18.2911947,46.5616348],[18.2934474,46.5586065],[18.2984789,46.5540718],[18.3018253,46.5518068],[18.3034729,46.5521957],[18.3134337,46.5503578],[18.3167328,46.5515196],[18.3127095,46.563301],[18.3059219,46.57468],[18.3191153,46.5793397],[18.3174255,46.5819941],[18.3168632,46.5823685],[18.315737,46.583886],[18.3157163,46.5854106],[18.3151474,46.5869255],[18.315137,46.5876878],[18.3139952,46.5903456],[18.3134119,46.5922509],[18.3122892,46.5941464],[18.3100361,46.5971751],[18.3083087,46.6025004],[18.307182,46.6040116],[18.3060655,46.6047667],[18.3330394,46.6117949],[18.3379974,46.6129664],[18.3385599,46.6125918],[18.3396561,46.613361],[18.3412808,46.6156583],[18.3407232,46.6156548],[18.3423771,46.6164213],[18.3423721,46.6168055],[18.3406833,46.6186978],[18.3473208,46.618739],[18.347306,46.6198793],[18.347825,46.6221696],[18.3494849,46.6218018],[18.352799,46.6222002],[18.3566812,46.6210834],[18.358307,46.6233742],[18.3649789,46.6207493],[18.3665953,46.6238085],[18.3643729,46.6245575],[18.3603887,46.6336694],[18.3569901,46.6405039],[18.3564323,46.6405005],[18.3558785,46.6408814],[18.3492185,46.6423592],[18.3552717,46.6446834],[18.3662343,46.6523671],[18.3667833,46.6523704],[18.3684386,46.6531427],[18.371192,46.6539215],[18.3723181,46.6524034],[18.3723229,46.6520192],[18.3684818,46.6497154],[18.36905,46.6481941],[18.3701664,46.6474384],[18.3723563,46.6493542],[18.3751095,46.6501329],[18.3767795,46.6490023],[18.3812259,46.6475038],[18.3829005,46.6459888],[18.3840308,46.6440926],[18.3834913,46.6433271],[18.3835147,46.6414245],[18.3840636,46.6414277],[18.3840682,46.6410496],[18.386277,46.6414406],[18.3868305,46.6410657],[18.3873977,46.6403066],[18.3874071,46.6395443],[18.3879606,46.6391633],[18.3896161,46.6391729],[18.3912853,46.6388044],[18.3923781,46.6399512],[18.393494,46.6391953],[18.3951403,46.6399671],[18.395703,46.6388299],[18.4039576,46.6423045],[18.4037251,46.6417722],[18.4034426,46.6391207],[18.403919,46.6374945],[18.4049261,46.635664],[18.4057039,46.6346969],[18.4062572,46.6350843],[18.4068105,46.6347032],[18.4151099,46.6343716],[18.4289244,46.6348258],[18.4322786,46.6310384],[18.4411604,46.6276586],[18.4450965,46.6215869],[18.4451221,46.6193],[18.4462454,46.6177812],[18.4462623,46.6162628],[18.4473855,46.614744],[18.44796,46.6132223],[18.4479685,46.61246],[18.4490826,46.6109412],[18.4507547,46.6101876],[18.4513116,46.6094344],[18.4452582,46.6071153],[18.444714,46.6067282],[18.4458582,46.6033129],[18.4447608,46.6025447],[18.4425532,46.6021487],[18.440367,46.5998562],[18.4403756,46.5990938],[18.4392959,46.5975633],[18.4387385,46.5975603],[18.439326,46.5948983],[18.4393474,46.5929957],[18.4387987,46.5922303],[18.4382633,46.5910808],[18.4371618,46.5906968],[18.4366088,46.5903158],[18.4360648,46.5899286],[18.4355161,46.5891633],[18.4305629,46.5883741],[18.4311199,46.5876147],[18.4316725,46.5872397],[18.431703,46.5845747],[18.4306281,46.582666],[18.4300709,46.582663],[18.4334568,46.5765887],[18.434005,46.5765916],[18.4362504,46.5735543],[18.4368114,46.5724169],[18.436846,46.5693676],[18.437416,46.5682303],[18.4374246,46.567468],[18.4396436,46.5667175],[18.441314,46.5652017],[18.4435584,46.5621705],[18.4457639,46.5617979],[18.4474261,46.5618067],[18.4479699,46.5621939],[18.4474049,46.5637156],[18.4473795,46.5659963],[18.4490201,46.5671516],[18.4523273,46.5679314],[18.4561994,46.5671893],[18.4578528,46.5671979],[18.4578736,46.565289],[18.4584258,46.5649138],[18.4589829,46.5649167],[18.4595434,46.5637792],[18.4595476,46.5633949],[18.460113,46.5626355],[18.4606775,46.5611199],[18.4617992,46.5596009],[18.4618116,46.5584606],[18.4623768,46.5577011],[18.4774008,46.5455923],[18.4774049,46.5452081],[18.476861,46.5448272],[18.4779859,46.5429239],[18.4790865,46.5433137],[18.4796264,46.5440788],[18.4852017,46.5391543],[18.4862934,46.5395378],[18.4924075,46.5353843],[18.4940844,46.5338677],[18.4957484,46.5327354],[18.4979652,46.5319838],[18.4968762,46.5304538],[18.4974279,46.5300722],[18.4968879,46.5293135],[18.4996599,46.5278022],[18.4985672,46.5266503],[18.4963739,46.5251211],[18.4969383,46.5243615],[18.4947531,46.5220638],[18.4931285,46.5193907],[18.4920712,46.5148176],[18.4899219,46.5090925],[18.4915813,46.5083383],[18.4921221,46.5098656],[18.4926618,46.5106306],[18.4926462,46.5121553],[18.4942795,46.5148284],[18.4986948,46.5140875],[18.5014584,46.5133385],[18.503119,46.5133465],[18.5042653,46.5091621],[18.5059626,46.5046023],[18.5016161,46.4977265],[18.5060619,46.4946984],[18.5093716,46.493958],[18.5110733,46.4897762],[18.5110808,46.4890139],[18.5055513,46.490128],[18.504472,46.4885981],[18.5072341,46.4878552],[18.5061496,46.485941],[18.502284,46.4866848],[18.5011958,46.4851549],[18.5028466,46.4851628],[18.502307,46.4844041],[18.5011996,46.4847768],[18.5012073,46.4840145],[18.4967739,46.4858958],[18.4962382,46.4847528],[18.4978929,46.4843827],[18.4962693,46.4817035],[18.4957092,46.4820851],[18.4951542,46.4828447],[18.4940507,46.4828393],[18.4896536,46.4820554],[18.488558,46.4812876],[18.4869141,46.4797548],[18.4819532,46.4797301],[18.4775525,46.47933],[18.4753537,46.4785566],[18.4737071,46.4781701],[18.473155,46.4777831],[18.4726159,46.477018],[18.4726564,46.4732126],[18.4721255,46.4716852],[18.4726726,46.471688],[18.4699474,46.4690089],[18.4694402,46.4644384],[18.4689135,46.4625267],[18.4683746,46.4617678],[18.4678186,46.461765],[18.4689339,46.460624],[18.4694809,46.4606268],[18.4700532,46.459105],[18.4700613,46.4583489],[18.4711765,46.457208],[18.4717681,46.4530211],[18.472879,46.4522706],[18.4767547,46.4503812],[18.4756519,46.4503757],[18.4778936,46.4469595],[18.4740425,46.4465619],[18.4746297,46.4427593],[18.4751935,46.4419998],[18.470787,46.4415932],[18.4724778,46.4385586],[18.4730449,46.4366525],[18.4736038,46.4355149],[18.4747023,46.4359047],[18.4747184,46.4343801],[18.4753064,46.4313336],[18.476437,46.4286742],[18.4769876,46.4282989],[18.4770037,46.4267743],[18.4792404,46.4237361],[18.4808973,46.4229882],[18.484216,46.4218582],[18.4858926,46.4192014],[18.4875611,46.4173069],[18.4897771,46.4161774],[18.4908832,46.4157985],[18.4931069,46.4139067],[18.494209,46.4139121],[18.4953149,46.4135394],[18.4947672,46.4127744],[18.4931147,46.4131444],[18.4925631,46.4127636],[18.4920361,46.410852],[18.4958926,46.4104928],[18.4980966,46.4105035],[18.4981043,46.4097412],[18.4992218,46.4082219],[18.4975643,46.4082139],[18.49481,46.4085847],[18.4931654,46.4081924],[18.4903993,46.4097035],[18.4909889,46.4055166],[18.488789,46.4051277],[18.4843944,46.4047216],[18.4789049,46.4027913],[18.4794683,46.4020318],[18.4783824,46.4005078],[18.477852,46.3989805],[18.4762069,46.3978317],[18.474583,46.3955365],[18.4745871,46.3951522],[18.4735096,46.3928659],[18.4718899,46.3901925],[18.4680877,46.385599],[18.4670107,46.3833126],[18.4664555,46.3833097],[18.4664596,46.3829255],[18.4681611,46.3787443],[18.469829,46.3768501],[18.4703792,46.3764748],[18.4725818,46.376486],[18.4742374,46.3757321],[18.476444,46.375359],[18.476448,46.3749809],[18.4759018,46.3749782],[18.4726142,46.3734368],[18.4704319,46.3715229],[18.4687968,46.3703741],[18.4677079,46.3692219],[18.4655219,46.3676921],[18.4644338,46.3673023],[18.4739211,46.3540251],[18.4722865,46.3528702],[18.4722905,46.3524921],[18.4728404,46.3521168],[18.4750421,46.352128],[18.475592,46.3517465],[18.4778017,46.3509953],[18.4794564,46.3502413],[18.4805651,46.3494907],[18.4816659,46.3494963],[18.4822247,46.3491148],[18.4822287,46.3487367],[18.4855378,46.3472285],[18.4860926,46.3472313],[18.4877314,46.3480018],[18.4927582,46.3404093],[18.4905609,46.3400204],[18.4878101,46.3403848],[18.4812155,46.340352],[18.4763235,46.3349971],[18.4807643,46.3304454],[18.4813468,46.3277831],[18.4830364,46.323608],[18.479218,46.3209175],[18.4803222,46.320545],[18.4797716,46.3201641],[18.4803302,46.3197827],[18.4786964,46.318634],[18.4797996,46.3174929],[18.48037,46.3159773],[18.4809235,46.3152177],[18.482594,46.3137014],[18.483693,46.3129445],[18.4842633,46.3114227],[18.4859285,46.3095282],[18.485383,46.3095255],[18.485387,46.3091474],[18.4842989,46.3079954],[18.483199,46.3079899],[18.4832227,46.3057092],[18.4827011,46.3034195],[18.4832584,46.3022819],[18.4777843,46.3007297],[18.4755888,46.3003405],[18.4784216,46.2919752],[18.4795412,46.2900781],[18.4806686,46.2874186],[18.4807322,46.2813263],[18.4802059,46.2786586],[18.480776,46.2771367],[18.4808038,46.2744718],[18.4802577,46.2737067],[18.4802976,46.2698951],[18.4792113,46.2695116],[18.4792153,46.2691335],[18.4781321,46.2676034],[18.4775822,46.2672163],[18.4743019,46.2664374],[18.4721037,46.2664262],[18.4682654,46.2660285],[18.4644395,46.264484],[18.4628111,46.2621948],[18.4617162,46.2618048],[18.4606262,46.2617992],[18.4606303,46.2614211],[18.4645172,46.2572514],[18.4650622,46.2572543],[18.4678294,46.2549815],[18.4662019,46.2534484],[18.465657,46.2534456],[18.4656529,46.2538298],[18.4596138,46.2537985],[18.4596221,46.2530362],[18.4601753,46.2522768],[18.4579818,46.2518872],[18.4552269,46.2530132],[18.4546819,46.2530104],[18.4546778,46.2533884],[18.4442435,46.2533331],[18.4442732,46.2506681],[18.445393,46.2487713],[18.4459638,46.2472497],[18.4470708,46.2464994],[18.4476157,46.2465023],[18.4492719,46.2453645],[18.4514817,46.2442358],[18.4536873,46.2434851],[18.4531252,46.2442445],[18.453121,46.2446225],[18.4553141,46.2450183],[18.4640616,46.2481071],[18.466259,46.2481185],[18.4689932,46.2488949],[18.4695429,46.249282],[18.4711987,46.2481438],[18.473937,46.2485421],[18.4783319,46.2485643],[18.4794346,46.2481856],[18.4810782,46.2481939],[18.481627,46.2478186],[18.4838244,46.2478296],[18.4843733,46.247448],[18.485468,46.2478378],[18.4882193,46.2478514],[18.4915259,46.245965],[18.4948374,46.2444566],[18.4953862,46.244075],[18.4970347,46.2444674],[18.4981437,46.24257],[18.4986936,46.2429508],[18.5003371,46.2429587],[18.5074546,46.2448958],[18.5079919,46.2456607],[18.5079692,46.2479477],[18.5085079,46.2494749],[18.5090453,46.2502336],[18.5101365,46.2510012],[18.5106828,46.2517661],[18.5128639,46.2525388],[18.5150577,46.2529335],[18.5172331,46.2552246],[18.5194234,46.2559972],[18.5199609,46.256762],[18.5221513,46.2575346],[18.5232392,46.2586801],[18.5243198,46.2605879],[18.5237585,46.2613476],[18.5242978,46.2628748],[18.5242941,46.2632528],[18.5270226,46.2647901],[18.528118,46.2651795],[18.5275567,46.2659392],[18.527553,46.2663173],[18.5259089,46.2663097],[18.5258942,46.2678343],[18.5253366,46.2682098],[18.5258796,46.2693589],[18.5280852,46.2686068],[18.5302745,46.2686168],[18.5308249,46.2689974],[18.5313628,46.2697622],[18.5313592,46.2701403],[18.5319132,46.2701428],[18.5313519,46.2709026],[18.5319023,46.2712894],[18.5318915,46.2724297],[18.5313157,46.2747141],[18.530725,46.2781893],[18.5307306,46.2789013],[18.5312722,46.2792818],[18.5312794,46.2785195],[18.5340413,46.2766293],[18.5345954,46.2766319],[18.5340485,46.275867],[18.5346098,46.2751072],[18.5346134,46.2747292],[18.5351586,46.2747317],[18.5362614,46.2743524],[18.5368119,46.2747392],[18.5373607,46.2743574],[18.5379112,46.2747441],[18.5390015,46.274749],[18.5417612,46.2739991],[18.5423099,46.2736173],[18.5423312,46.2713365],[18.5412427,46.2701851],[18.5406976,46.2701826],[18.5396091,46.2690373],[18.5396197,46.2678969],[18.5390729,46.2671321],[18.539634,46.2663723],[18.5397088,46.2583773],[18.5408326,46.2557173],[18.5408575,46.2530523],[18.5403072,46.2526656],[18.5403179,46.2515252],[18.5397979,46.2488578],[18.5392476,46.248471],[18.538717,46.2469501],[18.5387456,46.2439009],[18.537672,46.241231],[18.5371343,46.2404662],[18.5360465,46.2393208],[18.5349516,46.2389316],[18.533871,46.2370239],[18.5316813,46.2362516],[18.5284166,46.2339558],[18.5289796,46.2320494],[18.527351,46.2305234],[18.52626,46.2297561],[18.5246243,46.2289861],[18.5191697,46.225149],[18.5180752,46.2247658],[18.5164434,46.2236177],[18.515349,46.2232283],[18.5131563,46.2228398],[18.5093435,46.2201566],[18.5038617,46.2201303],[18.501117,46.2204951],[18.4989245,46.2201064],[18.4978418,46.2185764],[18.4962145,46.2170438],[18.4956688,46.2162788],[18.4951242,46.2162761],[18.4913088,46.2139765],[18.4869167,46.2139548],[18.4858148,46.2143273],[18.4852742,46.2139466],[18.4841761,46.2139411],[18.4814435,46.2131651],[18.4798209,46.2112541],[18.4787429,46.2093397],[18.4787588,46.2078213],[18.4782094,46.2074343],[18.4782254,46.2059097],[18.4804489,46.2032558],[18.4815467,46.2032613],[18.4826484,46.2028888],[18.48707,46.1990992],[18.4898606,46.1941671],[18.490966,46.1934102],[18.49097,46.193026],[18.4931884,46.1907561],[18.4926441,46.1907534],[18.4937572,46.1892342],[18.4943131,46.1880965],[18.4937688,46.1880938],[18.4943286,46.1865719],[18.4937999,46.1850446],[18.4938193,46.183142],[18.494379,46.18162],[18.4943946,46.1800954],[18.4954919,46.1801008],[18.4960477,46.1789631],[18.4960631,46.1774385],[18.4977635,46.1725009],[18.4977828,46.1705921],[18.4972298,46.1705894],[18.4972529,46.1683087],[18.4950433,46.1698163],[18.4944914,46.170576],[18.4939434,46.1709576],[18.4928462,46.1709522],[18.4911883,46.1717063],[18.488999,46.1720735],[18.4879018,46.1720681],[18.4879096,46.1713058],[18.4890146,46.1705489],[18.4890302,46.1690305],[18.4901419,46.166749],[18.4907222,46.1640868],[18.4912779,46.1629492],[18.4912935,46.1614246],[18.4918581,46.1602807],[18.491862,46.1599027],[18.490216,46.1595165],[18.4907807,46.1583727],[18.4907963,46.1568481],[18.4913441,46.1564727],[18.495747,46.1549697],[18.4962987,46.1542101],[18.4968554,46.1538347],[18.4968516,46.1542128],[18.4984885,46.154605],[18.4979714,46.1519374],[18.4968978,46.1496452],[18.4974533,46.1485075],[18.4974687,46.1469829],[18.4963913,46.1450749],[18.496399,46.1443126],[18.4958745,46.1424073],[18.4958784,46.142023],[18.4969903,46.14051],[18.4969942,46.1401258],[18.4959015,46.1397423],[18.4953565,46.1389773],[18.4948166,46.1385904],[18.4950256,46.1377963],[18.4893509,46.1378011],[18.489347,46.1381854],[18.4898869,46.1385661],[18.4898751,46.1397126],[18.4876742,46.1404641],[18.4865777,46.1404586],[18.4844093,46.1389231],[18.4800432,46.1369984],[18.4784229,46.1350813],[18.4789786,46.1339437],[18.4740774,46.1312538],[18.4729971,46.1297236],[18.4719338,46.1274373],[18.4713853,46.1270503],[18.4713934,46.126288],[18.4708578,46.1255229],[18.4675691,46.125506],[18.4670579,46.1224602],[18.4670905,46.119411],[18.4676502,46.1178954],[18.4654622,46.1174999],[18.4643743,46.1167319],[18.4622157,46.1144399],[18.4638716,46.1129238],[18.4633191,46.112921],[18.4644437,46.1102617],[18.4639043,46.1098747],[18.4644682,46.1079748],[18.4644845,46.1064503],[18.4666762,46.1064616],[18.4672407,46.1053241],[18.4672529,46.1041838],[18.4667087,46.1034186],[18.466729,46.101516],[18.4656536,46.0996015],[18.4656862,46.0965585],[18.4651428,46.0965557],[18.4645987,46.0957906],[18.4646068,46.0950283],[18.4640757,46.0938851],[18.464088,46.0927386],[18.4646354,46.0923634],[18.465208,46.0904636],[18.4652324,46.0881767],[18.4614027,46.0881568],[18.4586643,46.0885268],[18.458652,46.0896671],[18.4405896,46.0895711],[18.4373074,46.089169],[18.4372817,46.0914559],[18.4356471,46.091069],[18.4340083,46.09106],[18.4334776,46.0891482],[18.433499,46.0872456],[18.4318905,46.0845717],[18.4318991,46.0838094],[18.4302647,46.0834224],[18.4291607,46.0841787],[18.4280697,46.0837884],[18.4275178,46.0845477],[18.4280523,46.085313],[18.4263963,46.0868285],[18.4236707,46.0852887],[18.423675,46.0849107],[18.4214931,46.0848986],[18.4209278,46.0860358],[18.4209235,46.0864139],[18.4192803,46.086789],[18.4181849,46.0867828],[18.4170851,46.0871547],[18.4176284,46.0879201],[18.4148587,46.0901916],[18.4143199,46.0898043],[18.4137721,46.0901855],[18.4126766,46.0901793],[18.4115722,46.0909354],[18.4093812,46.090923],[18.4093767,46.091301],[18.4060811,46.0920446],[18.4033512,46.0916509],[18.4005942,46.0935378],[18.3973257,46.0919943],[18.3962119,46.0935125],[18.3983849,46.0950498],[18.3972847,46.0954215],[18.3901168,46.1003319],[18.3873131,46.1052614],[18.3867788,46.1045021],[18.3856923,46.1037334],[18.3851488,46.1037302],[18.3851535,46.1033459],[18.3840577,46.1033395],[18.3818708,46.1029485],[18.3807798,46.1025577],[18.3807844,46.1021797],[18.3796746,46.1033135],[18.3785835,46.102929],[18.3785648,46.1044535],[18.3753005,46.1032875],[18.3736524,46.1032776],[18.3714603,46.1040268],[18.3703503,46.1051605],[18.3692545,46.1051539],[18.3654379,46.1039904],[18.3643421,46.1039838],[18.3620978,46.1081599],[18.3604344,46.1100525],[18.3587757,46.111567],[18.3559878,46.1149774],[18.3554395,46.1153521],[18.3532183,46.1176254],[18.3509725,46.1218013],[18.3492839,46.1255964],[18.3487305,46.1263553],[18.3465183,46.1278662],[18.3437624,46.1293737],[18.3437575,46.1297518],[18.3431999,46.1301325],[18.3431902,46.1308886],[18.3426415,46.1312695],[18.3431753,46.1320352],[18.3420642,46.1331686],[18.3420444,46.1346932],[18.3415006,46.1346898],[18.3414957,46.1350678],[18.340947,46.1354487],[18.3409371,46.1362109],[18.3403795,46.1365855],[18.3392533,46.1388655],[18.335898,46.1445526],[18.3336648,46.1475879],[18.3325532,46.1487212],[18.3280858,46.1547854],[18.3263945,46.1585863],[18.3258405,46.1593389],[18.3252825,46.1597196],[18.3252723,46.1604819],[18.3230722,46.1616082],[18.308308,46.1592251],[18.2973743,46.15725],[18.296288,46.1564804],[18.2951964,46.156095],[18.2924852,46.1541741],[18.291943,46.1534081],[18.290297,46.1537751],[18.2903129,46.1526348],[18.2842745,46.1533564],[18.2804779,46.1506654],[18.2805101,46.1483786],[18.2767248,46.1449252],[18.2723691,46.1433706],[18.2712562,46.1445095],[18.2706871,46.145646],[18.2695959,46.1452604],[18.2685082,46.1452529],[18.267961,46.1448648],[18.266326,46.1444754],[18.2663533,46.1425728],[18.2652568,46.1425652],[18.2647075,46.1429394],[18.2641602,46.1425576],[18.2647239,46.1417991],[18.2609037,46.1402478],[18.2603654,46.1398597],[18.2603709,46.1394817],[18.259291,46.1383337],[18.2565709,46.137168],[18.2546391,46.1392412],[18.2532649,46.1382913],[18.2507892,46.137161],[18.2507331,46.1367727],[18.2423464,46.1363047],[18.2407029,46.1359149],[18.2401705,46.1351487],[18.2374226,46.1358913],[18.2368756,46.1355093],[18.2363092,46.1370237],[18.2346373,46.1385363],[18.23298,46.1396648],[18.2324362,46.1396609],[18.2313454,46.1392749],[18.2296962,46.1392629],[18.2280502,46.139629],[18.2275006,46.1400093],[18.2252961,46.1407555],[18.2247434,46.1407515],[18.2236617,46.1403593],[18.2225478,46.1414978],[18.2192524,46.1418517],[18.2176121,46.1418396],[18.2159686,46.1414494],[18.2154307,46.1410611],[18.2143342,46.141053],[18.211036,46.1421751],[18.209375,46.142919],[18.2082785,46.1429108],[18.2055769,46.1406097],[18.2028579,46.1394427],[18.200665,46.1394262],[18.200133,46.138666],[18.1968615,46.1374947],[18.1930404,46.1367034],[18.1897512,46.1366783],[18.1892014,46.1370584],[18.1891954,46.1374365],[18.1875552,46.1374239],[18.1864527,46.1377998],[18.1831695,46.1373903],[18.180451,46.136229],[18.1793546,46.1362205],[18.1777389,46.1346833],[18.1771862,46.134679],[18.1750207,46.1335218],[18.1761265,46.1323837],[18.1750574,46.131235],[18.1750818,46.1297105],[18.17401,46.1281836],[18.1734636,46.1277951],[18.172404,46.125506],[18.1729628,46.125126],[18.1724163,46.1247437],[18.1751856,46.1232405],[18.1757354,46.1228605],[18.1762911,46.1221086],[18.1773934,46.1217329],[18.1790786,46.1194588],[18.1796282,46.119085],[18.1834842,46.1175899],[18.1845923,46.1168361],[18.1851539,46.1156999],[18.1846346,46.1141712],[18.1846708,46.1118906],[18.1848498,46.1107725],[18.165496,46.1128823],[18.1529124,46.1124048],[18.1528936,46.1135451],[18.1523412,46.1135407],[18.152335,46.1139187],[18.1517851,46.1142986],[18.1484784,46.1154127],[18.1451967,46.1150083],[18.1446658,46.1142417],[18.1441287,46.1138531],[18.144135,46.1134751],[18.1391949,46.1141977],[18.1381104,46.1134256],[18.1353611,46.1137823],[18.1325232,46.119852],[18.130845,46.1221254],[18.1280576,46.1251522],[18.1274729,46.1270502],[18.1269228,46.1274238],[18.1241997,46.1266391],[18.1056414,46.1230576],[18.1050954,46.122675],[18.1039861,46.123428],[18.1039729,46.1241903],[18.0946556,46.1248741],[18.0930292,46.124098],[18.0930627,46.1221892],[18.0903045,46.1229281],[18.087374,46.1223655],[18.0854476,46.1217461],[18.0842959,46.1224988],[18.0826485,46.1230348],[18.0770057,46.1319565],[18.0657421,46.1489967],[18.063542,46.1493556],[18.0635351,46.1497398],[18.0624473,46.1497303],[18.0618877,46.1501035],[18.0624198,46.1512486],[18.0622955,46.1581027]]]}}]}