{
  "type": "FeatureCollection",
  "features": [
    {
      "type": "Feature",
      "geometry": {
        "type": "Polygon",
        "coordinates": [
          [
            [
              3.804557702984175,
              47.82031767113026,
              0.0
            ],
            [
              3.804449301604302,
              47.82042501313126,
              0.0
            ],
            [
              3.80536924567862,
              47.8208154636344,
              0.0
            ],
            [
              3.80605250989019,
              47.82113407777835,
              0.0
            ],
            [
              3.806009931297658,
              47.82125163004182,
              0.0
            ],
            [
              3.805819671702599,
              47.82135353318139,
              0.0
            ],
            [
              3.80523170292949,
              47.82116164521593,
              0.0
            ],
            [
              3.804836275365597,
              47.82104451611346,
              0.0
            ],
            [
              3.803906935675094,
              47.82071769864098,
              0.0
            ],
            [
              3.803861950120573,
              47.82049126327092,
              0.0
            ],
            [
              3.803867874101579,
              47.82035168233173,
              0.0
            ],
            [
              3.803924514009842,
              47.8201891009757,
              0.0
            ],
            [
              3.804027659144475,
              47.82007177631953,
              0.0
            ],
            [
              3.804557702984175,
              47.82031767113026,
              0.0
            ]
          ]
        ]
      },
      "properties": {
        "folder": "01 Domaine Guy Robin.kmz / 01 Domaine Guy Robin",
        "name": "01 Domaine Guy Robin"
      }
    },
    {
      "type": "Feature",
      "geometry": {
        "type": "Polygon",
        "coordinates": [
          [
            [
              3.807354223561803,
              47.82237495703666,
              0.0
            ],
            [
              3.807151562129107,
              47.82206395258321,
              0.0
            ],
            [
              3.807166107778752,
              47.82206254920187,
              0.0
            ],
            [
              3.80764330718768,
              47.82195266299254,
              0.0
            ],
            [
              3.808262327077327,
              47.82189528603653,
              0.0
            ],
            [
              3.80879577281521,
              47.8218567925298,
              0.0
            ],
            [
              3.808914799026637,
              47.82209340564609,
              0.0
            ],
            [
              3.807502638159914,
              47.82245755739422,
              0.0
            ],
            [
              3.807354223561803,
              47.82237495703666,
              0.0
            ]
          ]
        ]
      },
      "properties": {
        "folder": "01 Domaine Guy Robin.kmz / 01 Domaine Guy Robin",
        "name": "01 Domaine Guy Robin"
      }
    },
    {
      "type": "Feature",
      "geometry": {
        "type": "Polygon",
        "coordinates": [
          [
            [
              3.806740182784638,
              47.82287491568295,
              0.0
            ],
            [
              3.806203792217635,
              47.82234544934045,
              0.0
            ],
            [
              3.805206883966485,
              47.82171129023678,
              0.0
            ],
            [
              3.805313522119653,
              47.82157096444255,
              0.0
            ],
            [
              3.805801986870401,
              47.82136613132661,
              0.0
            ],
            [
              3.805938484581215,
              47.82133174379285,
              0.0
            ],
            [
              3.80601656126961,
              47.82125906444456,
              0.0
            ],
            [
              3.806217962132097,
              47.8213267140485,
              0.0
            ],
            [
              3.806614146168874,
              47.82143809433896,
              0.0
            ],
            [
              3.806899464935007,
              47.82152252962558,
              0.0
            ],
            [
              3.806946819962147,
              47.82177051116302,
              0.0
            ],
            [
              3.807129207695523,
              47.82206872737885,
              0.0
            ],
            [
              3.807256768552401,
              47.82225466602427,
              0.0
            ],
            [
              3.807359186012613,
              47.82239449850313,
              0.0
            ],
            [
              3.807479304891477,
              47.82245436438114,
              0.0
            ],
            [
              3.807328187909749,
              47.82255092327425,
              0.0
            ],
            [
              3.806740182784638,
              47.82287491568295,
              0.0
            ]
          ]
        ]
      },
      "properties": {
        "folder": "01 Domaine Guy Robin.kmz / 01 Domaine Guy Robin",
        "name": "01 Domaine Guy Robin"
      }
    }
  ]
}