{
  "type": "FeatureCollection",
  "features": [
    {
      "type": "Feature",
      "geometry": {
        "type": "Polygon",
        "coordinates": [
          [
            [
              3.807087248892571,
              47.82314094343898,
              0.0
            ],
            [
              3.806964275211813,
              47.82306836930382,
              0.0
            ],
            [
              3.807697599776365,
              47.82259467129778,
              0.0
            ],
            [
              3.807838599134874,
              47.82269064594715,
              0.0
            ],
            [
              3.807087248892571,
              47.82314094343898,
              0.0
            ]
          ]
        ]
      },
      "properties": {
        "folder": "02 Domaine Bessin.kmz / 02 Domaine Bessin",
        "name": "02 Domaine Bessin"
      }
    },
    {
      "type": "Feature",
      "geometry": {
        "type": "Polygon",
        "coordinates": [
          [
            [
              3.809628234197757,
              47.82392325549225,
              0.0
            ],
            [
              3.809414399547451,
              47.82383854371977,
              0.0
            ],
            [
              3.808810403732068,
              47.82366855078994,
              0.0
            ],
            [
              3.808244870188773,
              47.82348981327753,
              0.0
            ],
            [
              3.807484267582895,
              47.82329848258961,
              0.0
            ],
            [
              3.807717229888741,
              47.82311626214628,
              0.0
            ],
            [
              3.808048407861087,
              47.82286773569989,
              0.0
            ],
            [
              3.808008307185227,
              47.82280495948648,
              0.0
            ],
            [
              3.807869404975692,
              47.82267608993675,
              0.0
            ],
            [
              3.80824164824668,
              47.82252599332256,
              0.0
            ],
            [
              3.808978060369801,
              47.82223860227528,
              0.0
            ],
            [
              3.809243236563824,
              47.82247933018709,
              0.0
            ],
            [
              3.809794233547863,
              47.82331009791483,
              0.0
            ],
            [
              3.810152328108347,
              47.82394371171031,
              0.0
            ],
            [
              3.810206545239112,
              47.82411272979191,
              0.0
            ],
            [
              3.809628234197757,
              47.82392325549225,
              0.0
            ]
          ]
        ]
      },
      "properties": {
        "folder": "02 Domaine Bessin.kmz / 02 Domaine Bessin",
        "name": "02 Domaine Bessin"
      }
    }
  ]
}