{
  "type": "FeatureCollection",
  "features": [
    {
      "type": "Feature",
      "geometry": {
        "type": "Polygon",
        "coordinates": [
          [
            [
              3.80568977741935,
              47.82414091392064,
              0.0
            ],
            [
              3.804864118404192,
              47.82389154376813,
              0.0
            ],
            [
              3.804919674285607,
              47.82352834657745,
              0.0
            ],
            [
              3.805085923271285,
              47.82354489117492,
              0.0
            ],
            [
              3.805477640443684,
              47.82364197304261,
              0.0
            ],
            [
              3.806022504914606,
              47.82376644524327,
              0.0
            ],
            [
              3.80708127830141,
              47.82402965334154,
              0.0
            ],
            [
              3.80819140992104,
              47.82424540656873,
              0.0
            ],
            [
              3.808144748283926,
              47.8242875046103,
              0.0
            ],
            [
              3.807849274264254,
              47.82430863376097,
              0.0
            ],
            [
              3.807359076652552,
              47.82438151016106,
              0.0
            ],
            [
              3.807072761937296,
              47.82449581500212,
              0.0
            ],
            [
              3.806954976387822,
              47.82458854774232,
              0.0
            ],
            [
              3.80568977741935,
              47.82414091392064,
              0.0
            ]
          ]
        ]
      },
      "properties": {
        "folder": "03 Domaine William Fèvre.kmz / 03 Domaine William Fèvre",
        "name": "03 Domaine William Fèvre"
      }
    },
    {
      "type": "Feature",
      "geometry": {
        "type": "Polygon",
        "coordinates": [
          [
            [
              3.808678182077823,
              47.82166236704786,
              0.0
            ],
            [
              3.808993634046249,
              47.82169104632833,
              0.0
            ],
            [
              3.808915447998613,
              47.82183037173996,
              0.0
            ],
            [
              3.808692796162245,
              47.82184825871294,
              0.0
            ],
            [
              3.807126638513456,
              47.82206210028379,
              0.0
            ],
            [
              3.807029435345861,
              47.82189289760251,
              0.0
            ],
            [
              3.806944252160216,
              47.8216432391073,
              0.0
            ],
            [
              3.806943234752178,
              47.82143424810676,
              0.0
            ],
            [
              3.806996389460473,
              47.8212311989828,
              0.0
            ],
            [
              3.80754378154825,
              47.8213783314995,
              0.0
            ],
            [
              3.808154950058031,
              47.82152123195092,
              0.0
            ],
            [
              3.808678182077823,
              47.82166236704786,
              0.0
            ]
          ]
        ]
      },
      "properties": {
        "folder": "03 Domaine William Fèvre.kmz / 03 Domaine William Fèvre",
        "name": "03 Domaine William Fèvre"
      }
    }
  ]
}