{
  "type": "FeatureCollection",
  "features": [
    {
      "type": "Feature",
      "geometry": {
        "type": "Polygon",
        "coordinates": [
          [
            [
              3.805771824464868,
              47.82134213911054,
              0.0
            ],
            [
              3.805767860800391,
              47.82136243370302,
              0.0
            ],
            [
              3.805415020610026,
              47.82148615791872,
              0.0
            ],
            [
              3.805175743567646,
              47.82162097163667,
              0.0
            ],
            [
              3.804984630937485,
              47.82158179772043,
              0.0
            ],
            [
              3.804631494761483,
              47.82143584342712,
              0.0
            ],
            [
              3.804372124871638,
              47.82131126111889,
              0.0
            ],
            [
              3.803999082662974,
              47.82101644655352,
              0.0
            ],
            [
              3.803910317694419,
              47.8207300058106,
              0.0
            ],
            [
              3.805771824464868,
              47.82134213911054,
              0.0
            ]
          ]
        ]
      },
      "properties": {
        "folder": "04 Domaine Jean-Paul et Benoit Droin.kmz / 04 Domaine Jean-Paul et Benoit Droin",
        "name": "04 Domaine Jean-Paul et Benoit Droin"
      }
    },
    {
      "type": "Feature",
      "geometry": {
        "type": "Polygon",
        "coordinates": [
          [
            [
              3.805298349942898,
              47.82353963483388,
              0.0
            ],
            [
              3.804888478451012,
              47.82346434902173,
              0.0
            ],
            [
              3.804980877575603,
              47.82273442506115,
              0.0
            ],
            [
              3.805096471521539,
              47.82203037456443,
              0.0
            ],
            [
              3.805184979317151,
              47.82183925162545,
              0.0
            ],
            [
              3.805381372302645,
              47.8219099489937,
              0.0
            ],
            [
              3.805378479361339,
              47.82190006442595,
              0.0
            ],
            [
              3.805976582312425,
              47.82228594880265,
              0.0
            ],
            [
              3.805298349942898,
              47.82353963483388,
              0.0
            ]
          ]
        ]
      },
      "properties": {
        "folder": "04 Domaine Jean-Paul et Benoit Droin.kmz / 04 Domaine Jean-Paul et Benoit Droin",
        "name": "04 Domaine Jean-Paul et Benoit Droin"
      }
    }
  ]
}