{
  "type": "FeatureCollection",
  "features": [
    {
      "type": "Feature",
      "geometry": {
        "type": "Polygon",
        "coordinates": [
          [
            [
              3.808232957191084,
              47.82425157165552,
              0.0
            ],
            [
              3.808344269504931,
              47.82356912063462,
              0.0
            ],
            [
              3.809833947295613,
              47.8240113732837,
              0.0
            ],
            [
              3.809840163583937,
              47.82419294214468,
              0.0
            ],
            [
              3.809788137753713,
              47.82427352583051,
              0.0
            ],
            [
              3.809699942142,
              47.82430721893094,
              0.0
            ],
            [
              3.808232957191084,
              47.82425157165552,
              0.0
            ]
          ]
        ]
      },
      "properties": {
        "folder": "05 Domaine Christian Moreau pére et fils .kmz / 05 Domaine Christian Moreau pére et fils",
        "name": "05 Domaine Christian Moreau pére et fils"
      }
    },
    {
      "type": "Feature",
      "geometry": {
        "type": "Polygon",
        "coordinates": [
          [
            [
              3.805681832829704,
              47.82473691204684,
              0.0
            ],
            [
              3.805943246482408,
              47.82458270057779,
              0.0
            ],
            [
              3.806230803747268,
              47.82473634337278,
              0.0
            ],
            [
              3.806564957497198,
              47.82492890081962,
              0.0
            ],
            [
              3.80601389861813,
              47.82513511026252,
              0.0
            ],
            [
              3.805838430876813,
              47.82492396094923,
              0.0
            ],
            [
              3.805681832829704,
              47.82473691204684,
              0.0
            ]
          ]
        ]
      },
      "properties": {
        "folder": "05 Domaine Christian Moreau pére et fils .kmz / 05 Domaine Christian Moreau pére et fils",
        "name": "05 Domaine Christian Moreau pére et fils"
      }
    },
    {
      "type": "Feature",
      "geometry": {
        "type": "Polygon",
        "coordinates": [
          [
            [
              3.807149474370661,
              47.82319782970802,
              0.0
            ],
            [
              3.807149477028855,
              47.82319338638499,
              0.0
            ],
            [
              3.80707813653844,
              47.82314515331972,
              0.0
            ],
            [
              3.807815405370525,
              47.82268281194286,
              0.0
            ],
            [
              3.8079300556689,
              47.82279508087765,
              0.0
            ],
            [
              3.807268270939643,
              47.82322067995048,
              0.0
            ],
            [
              3.807149474370661,
              47.82319782970802,
              0.0
            ]
          ]
        ]
      },
      "properties": {
        "folder": "05 Domaine Christian Moreau pére et fils .kmz / 05 Domaine Christian Moreau pére et fils",
        "name": "05 Domaine Christian Moreau pére et fils"
      }
    }
  ]
}