{
  "type": "FeatureCollection",
  "features": [
    {
      "type": "Feature",
      "geometry": {
        "type": "Polygon",
        "coordinates": [
          [
            [
              3.805679862327962,
              47.82473187720072,
              0.0
            ],
            [
              3.805508410061258,
              47.82460078369635,
              0.0
            ],
            [
              3.805297012118567,
              47.82445893898679,
              0.0
            ],
            [
              3.805074804797584,
              47.82429808351836,
              0.0
            ],
            [
              3.804869899379371,
              47.8240751230998,
              0.0
            ],
            [
              3.804997882785384,
              47.82402528316924,
              0.0
            ],
            [
              3.805173738253151,
              47.82415424919777,
              0.0
            ],
            [
              3.805950063830215,
              47.82457143464732,
              0.0
            ],
            [
              3.805679862327962,
              47.82473187720072,
              0.0
            ]
          ]
        ]
      },
      "properties": {
        "folder": "06 Domaine Louis Moreau.kmz / 06 Domaine Louis Moreau",
        "name": "06 Domaine Louis Moreau"
      }
    },
    {
      "type": "Feature",
      "geometry": {
        "type": "Polygon",
        "coordinates": [
          [
            [
              3.807182718236621,
              47.82402672076947,
              0.0
            ],
            [
              3.80728608038748,
              47.82329467744784,
              0.0
            ],
            [
              3.808336277557047,
              47.82356373623791,
              0.0
            ],
            [
              3.808248475154659,
              47.82422694927645,
              0.0
            ],
            [
              3.807727033807418,
              47.82413802551577,
              0.0
            ],
            [
              3.807182718236621,
              47.82402672076947,
              0.0
            ]
          ]
        ]
      },
      "properties": {
        "folder": "06 Domaine Louis Moreau.kmz / 06 Domaine Louis Moreau",
        "name": "06 Domaine Louis Moreau"
      }
    },
    {
      "type": "Feature",
      "geometry": {
        "type": "Polygon",
        "coordinates": [
          [
            [
              3.80745325277783,
              47.82327847756527,
              0.0
            ],
            [
              3.80727953488484,
              47.82323347381522,
              0.0
            ],
            [
              3.807278910892742,
              47.82323670149187,
              0.0
            ],
            [
              3.807937525538923,
              47.82280672007288,
              0.0
            ],
            [
              3.808011794910875,
              47.82287590387369,
              0.0
            ],
            [
              3.807780795845719,
              47.82304412230063,
              0.0
            ],
            [
              3.80745325277783,
              47.82327847756527,
              0.0
            ]
          ]
        ]
      },
      "properties": {
        "folder": "06 Domaine Louis Moreau.kmz / 06 Domaine Louis Moreau",
        "name": "06 Domaine Louis Moreau"
      }
    }
  ]
}