{
  "type": "FeatureCollection",
  "features": [
    {
      "type": "Feature",
      "geometry": {
        "type": "Polygon",
        "coordinates": [
          [
            [
              3.806067893025455,
              47.82374688171787,
              0.0
            ],
            [
              3.806563911232184,
              47.82277850272091,
              0.0
            ],
            [
              3.806878845383401,
              47.82307647902012,
              0.0
            ],
            [
              3.80709755664822,
              47.82322442349148,
              0.0
            ],
            [
              3.807304592758616,
              47.82329998909734,
              0.0
            ],
            [
              3.807228787388774,
              47.82361823612457,
              0.0
            ],
            [
              3.807188295146675,
              47.82402860939122,
              0.0
            ],
            [
              3.806614190191719,
              47.82389125430723,
              0.0
            ],
            [
              3.806067893025455,
              47.82374688171787,
              0.0
            ]
          ]
        ]
      },
      "properties": {
        "folder": "07 Domaine François Raveneau.kmz",
        "name": "07 Domaine François Raveneau"
      }
    }
  ]
}