{
  "type": "FeatureCollection",
  "features": [
    {
      "type": "Feature",
      "geometry": {
        "type": "Polygon",
        "coordinates": [
          [
            [
              3.805565233585924,
              47.82361853797756,
              0.0
            ],
            [
              3.806185026099116,
              47.82243872945191,
              0.0
            ],
            [
              3.806566619299134,
              47.82275025099977,
              0.0
            ],
            [
              3.806058729140864,
              47.82375095859275,
              0.0
            ],
            [
              3.805565233585924,
              47.82361853797756,
              0.0
            ]
          ]
        ]
      },
      "properties": {
        "folder": "08 Domaine Moreau-Naudet.kmz",
        "name": "08 Domaine Moreau-Naudet"
      }
    }
  ]
}