{
  "type": "FeatureCollection",
  "features": [
    {
      "type": "Feature",
      "geometry": {
        "type": "Polygon",
        "coordinates": [
          [
            [
              3.807517602894306,
              47.82245584605193,
              0.0
            ],
            [
              3.80891378844368,
              47.82209854809918,
              0.0
            ],
            [
              3.808983518674669,
              47.82223311598857,
              0.0
            ],
            [
              3.807860823780098,
              47.822675150322,
              0.0
            ],
            [
              3.807517602894306,
              47.82245584605193,
              0.0
            ]
          ]
        ]
      },
      "properties": {
        "folder": "09 Domaine Jean Collet et Fils.kmz / 09 Domaine Jean Collet et Fils",
        "name": "09 Domaine Jean Collet et Fils"
      }
    },
    {
      "type": "Feature",
      "geometry": {
        "type": "Polygon",
        "coordinates": [
          [
            [
              3.806962398105243,
              47.8230588042524,
              0.0
            ],
            [
              3.80686987905678,
              47.82299062828649,
              0.0
            ],
            [
              3.806751900390424,
              47.82286611428847,
              0.0
            ],
            [
              3.807483485616103,
              47.82245549833942,
              0.0
            ],
            [
              3.807490635451287,
              47.82245602908716,
              0.0
            ],
            [
              3.807700266559819,
              47.8225881244587,
              0.0
            ],
            [
              3.806962398105243,
              47.8230588042524,
              0.0
            ]
          ]
        ]
      },
      "properties": {
        "folder": "09 Domaine Jean Collet et Fils.kmz / 09 Domaine Jean Collet et Fils",
        "name": "09 Domaine Jean Collet et Fils"
      }
    }
  ]
}