{
  "type": "FeatureCollection",
  "features": [
    {
      "type": "Feature",
      "geometry": {
        "type": "Polygon",
        "coordinates": [
          [
            [
              3.804858887335554,
              47.82390236705277,
              0.0
            ],
            [
              3.805182320848346,
              47.82398642065116,
              0.0
            ],
            [
              3.805751762357052,
              47.82416202767531,
              0.0
            ],
            [
              3.806335560409073,
              47.82440054760487,
              0.0
            ],
            [
              3.806706333685974,
              47.82453081087449,
              0.0
            ],
            [
              3.806895085063602,
              47.82465494233717,
              0.0
            ],
            [
              3.806872586314038,
              47.82475607291003,
              0.0
            ],
            [
              3.806773595127491,
              47.82484040793442,
              0.0
            ],
            [
              3.806631863334449,
              47.82485250789026,
              0.0
            ],
            [
              3.805994560559556,
              47.82454132936856,
              0.0
            ],
            [
              3.805663958405363,
              47.82439855091094,
              0.0
            ],
            [
              3.805290225932114,
              47.82420011314633,
              0.0
            ],
            [
              3.805067949934546,
              47.82401136277173,
              0.0
            ],
            [
              3.804843805572036,
              47.82393220552586,
              0.0
            ],
            [
              3.804858887335554,
              47.82390236705277,
              0.0
            ]
          ]
        ]
      },
      "properties": {
        "folder": "10 Domaine des Malandes.kmz",
        "name": "10 Domaine des Malandes"
      }
    }
  ]
}