{
  "type": "FeatureCollection",
  "features": [
    {
      "type": "Feature",
      "geometry": {
        "type": "Polygon",
        "coordinates": [
          [
            [
              3.805287336911751,
              47.82356144019024,
              0.0
            ],
            [
              3.805974906661127,
              47.8222928502411,
              0.0
            ],
            [
              3.80618017255381,
              47.82243929513955,
              0.0
            ],
            [
              3.805547803213718,
              47.82362000844167,
              0.0
            ],
            [
              3.805424327107838,
              47.82359628766965,
              0.0
            ],
            [
              3.805287336911751,
              47.82356144019024,
              0.0
            ]
          ]
        ]
      },
      "properties": {
        "folder": "11 Domaine Vocoret et Fils.kmz",
        "name": "11 Domaine Vocoret et Fils"
      }
    }
  ]
}