{
  "type": "FeatureCollection",
  "features": [
    {
      "type": "Feature",
      "geometry": {
        "type": "Polygon",
        "coordinates": [
          [
            [
              3.806957143887921,
              47.82493151245887,
              0.0
            ],
            [
              3.806679172841261,
              47.82504911355694,
              0.0
            ],
            [
              3.805960025358737,
              47.82532368496849,
              0.0
            ],
            [
              3.805875464096884,
              47.82523910988444,
              0.0
            ],
            [
              3.806010440716046,
              47.82513399328743,
              0.0
            ],
            [
              3.806904533045199,
              47.82481524206234,
              0.0
            ],
            [
              3.806957143887921,
              47.82493151245887,
              0.0
            ]
          ]
        ]
      },
      "properties": {
        "folder": "12 Domaine Fourrey.kmz",
        "name": "12 Domaine Fourrey"
      }
    }
  ]
}