{"type": "FeatureCollection", "features": [{"type": "Feature", "properties": {"id": "AOC-Alsace-Grand-Cru-Kastelberg", "name": "Kastelberg", "commune": "Andlau", "family": "片岩", "familyColor": "#2d3436", "lessonId": "AL2M2L1"}, "geometry": {"type": "MultiPolygon", "coordinates": [[[[7.417049, 48.38911], [7.417253, 48.38905], [7.417276, 48.389104], [7.417334, 48.389238], [7.417273, 48.389263], [7.417239, 48.389278], [7.417338, 48.38954], [7.417468, 48.389527], [7.417662, 48.389467], [7.417641, 48.389437], [7.417729, 48.389421], [7.417737, 48.389419], [7.417942, 48.389404], [7.41818, 48.389402], [7.418337, 48.389407], [7.418449, 48.389417], [7.418628, 48.389494], [7.418742, 48.389594], [7.418844, 48.389662], [7.418863, 48.389721], [7.419008, 48.389763], [7.419203, 48.38975], [7.419293, 48.389723], [7.41943, 48.389637], [7.419543, 48.389528], [7.419688, 48.389389], [7.419831, 48.389297], [7.419995, 48.389193], [7.419957, 48.389132], [7.419922, 48.3891], [7.419909, 48.389089], [7.419889, 48.389077], [7.419857, 48.389065], [7.419815, 48.389057], [7.419744, 48.389046], [7.419789, 48.389015], [7.420053, 48.388878], [7.420204, 48.388974], [7.420371, 48.389047], [7.420313, 48.389078], [7.420379, 48.389142], [7.420443, 48.389203], [7.420394, 48.389237], [7.42045, 48.389286], [7.420688, 48.389132], [7.420766, 48.389094], [7.420877, 48.389058], [7.420859, 48.38899], [7.420842, 48.388922], [7.420809, 48.388867], [7.420801, 48.38886], [7.420584, 48.388649], [7.420488, 48.388502], [7.42038, 48.388339], [7.420328, 48.388285], [7.420246, 48.388232], [7.420082, 48.388127], [7.419927, 48.388042], [7.419827, 48.388001], [7.419746, 48.387967], [7.419627, 48.387873], [7.419446, 48.387605], [7.419286, 48.387618], [7.419261, 48.38761], [7.418998, 48.387623], [7.418745, 48.387648], [7.418647, 48.38766], [7.418542, 48.387674], [7.418415, 48.387697], [7.418183, 48.38775], [7.418185, 48.38776], [7.41807, 48.387775], [7.417875, 48.387791], [7.417645, 48.387826], [7.417555, 48.387855], [7.417524, 48.387865], [7.417491, 48.387876], [7.417467, 48.387879], [7.417217, 48.387958], [7.417098, 48.387997], [7.416991, 48.388032], [7.416983, 48.388035], [7.41684, 48.388077], [7.416704, 48.388118], [7.416701, 48.388118], [7.41656, 48.388151], [7.416539, 48.388157], [7.416249, 48.38824], [7.416169, 48.388269], [7.416155, 48.388275], [7.41604, 48.388338], [7.415957, 48.388385], [7.415768, 48.388447], [7.41578, 48.388474], [7.415766, 48.388491], [7.415821, 48.38852], [7.41578, 48.388561], [7.415778, 48.388563], [7.415753, 48.388598], [7.415759, 48.388621], [7.415753, 48.388633], [7.415719, 48.388647], [7.415689, 48.388644], [7.415618, 48.388655], [7.415606, 48.388669], [7.415584, 48.388696], [7.415651, 48.388721], [7.415626, 48.388746], [7.415551, 48.388818], [7.41552, 48.3888], [7.415435, 48.388929], [7.415461, 48.38894], [7.415709, 48.389026], [7.415791, 48.389054], [7.41591, 48.389096], [7.41587, 48.389178], [7.415882, 48.38921], [7.416157, 48.389276], [7.416234, 48.389213], [7.416284, 48.389135], [7.41646, 48.388948], [7.416664, 48.388891], [7.416713, 48.388856], [7.416888, 48.388852], [7.416996, 48.388813], [7.417048, 48.388795], [7.417058, 48.388791], [7.41708, 48.388783], [7.417049, 48.38911]]], [[[7.421583, 48.388569], [7.421451, 48.388492], [7.421311, 48.38841], [7.421306, 48.388407], [7.42107, 48.388628], [7.42085, 48.388835], [7.420899, 48.388913], [7.420936, 48.389045], [7.420945, 48.38922], [7.420949, 48.389282], [7.420977, 48.389275], [7.421416, 48.388828], [7.421638, 48.388601], [7.421623, 48.388592], [7.421583, 48.388569]]]]}}]}