{"type": "FeatureCollection", "features": [{"type": "Feature", "properties": {"id": "AOC-Alsace-Grand-Cru-Kaefferkopf", "name": "Kaefferkopf", "commune": "Ammerschwihr", "family": "混釀特例", "familyColor": "#c9a227", "lessonId": "AL3M4L2"}, "geometry": {"type": "MultiPolygon", "coordinates": [[[[7.282873, 48.114182], [7.282818, 48.114172], [7.28268, 48.11413], [7.282393, 48.114045], [7.282183, 48.113939], [7.281552, 48.114194], [7.281651, 48.114153], [7.281329, 48.113936], [7.281234, 48.113954], [7.280886, 48.114083], [7.280845, 48.114042], [7.280795, 48.113824], [7.280663, 48.113854], [7.280209, 48.11369], [7.280142, 48.113665], [7.280056, 48.113771], [7.279951, 48.113899], [7.280023, 48.113929], [7.280104, 48.114161], [7.280117, 48.114184], [7.280379, 48.114599], [7.28077, 48.114639], [7.281029, 48.114751], [7.28099, 48.114867], [7.281125, 48.115039], [7.28111, 48.115151], [7.281068, 48.115466], [7.281222, 48.115531], [7.281374, 48.115551], [7.281578, 48.115581], [7.281832, 48.115619], [7.282052, 48.115651], [7.282502, 48.115683], [7.282762, 48.1157], [7.283411, 48.115747], [7.283465, 48.115747], [7.283485, 48.115598], [7.28346, 48.115787], [7.283462, 48.115947], [7.283442, 48.116153], [7.283412, 48.116326], [7.283367, 48.116398], [7.283249, 48.116535], [7.283225, 48.116601], [7.283164, 48.11694], [7.283254, 48.117033], [7.283261, 48.117184], [7.283402, 48.117288], [7.283416, 48.117297], [7.283608, 48.117445], [7.283751, 48.117548], [7.28388, 48.117642], [7.283847, 48.11773], [7.283769, 48.117837], [7.283754, 48.117854], [7.283742, 48.117873], [7.283578, 48.117808], [7.283583, 48.117796], [7.28318, 48.117635], [7.28318, 48.117707], [7.283136, 48.117835], [7.283106, 48.117887], [7.283029, 48.118], [7.28295, 48.11812], [7.282816, 48.118326], [7.283318, 48.118452], [7.283833, 48.118561], [7.284242, 48.118628], [7.284465, 48.11869], [7.284994, 48.118772], [7.2851, 48.118784], [7.285098, 48.118721], [7.285034, 48.118597], [7.285009, 48.118492], [7.285165, 48.118484], [7.285188, 48.118402], [7.285185, 48.118307], [7.285276, 48.1183], [7.285314, 48.1183], [7.285434, 48.118152], [7.285611, 48.117913], [7.285809, 48.117664], [7.285903, 48.117567], [7.28598, 48.117483], [7.286209, 48.117289], [7.286491, 48.117081], [7.286587, 48.117009], [7.286751, 48.116867], [7.286796, 48.116828], [7.28686, 48.116748], [7.286956, 48.116637], [7.287022, 48.116562], [7.287085, 48.116477], [7.287103, 48.116435], [7.287128, 48.11638], [7.287125, 48.116331], [7.287176, 48.116335], [7.287183, 48.116383], [7.287137, 48.116488], [7.287072, 48.116576], [7.286904, 48.11677], [7.286965, 48.116789], [7.287258, 48.116678], [7.287455, 48.116555], [7.287616, 48.116418], [7.287624, 48.116412], [7.287745, 48.116285], [7.287833, 48.116168], [7.287849, 48.116135], [7.287911, 48.116005], [7.287901, 48.115751], [7.287893, 48.115624], [7.287912, 48.115618], [7.287897, 48.115499], [7.287866, 48.115257], [7.287855, 48.115184], [7.288613, 48.115104], [7.288642, 48.115101], [7.288618, 48.11503], [7.288599, 48.114965], [7.288588, 48.11493], [7.288563, 48.114855], [7.28856, 48.11485], [7.28856, 48.114846], [7.288545, 48.114793], [7.288495, 48.114618], [7.288457, 48.114482], [7.288405, 48.114306], [7.288418, 48.114165], [7.288419, 48.114143], [7.288416, 48.114138], [7.28841, 48.114125], [7.288363, 48.114053], [7.288314, 48.113977], [7.2882, 48.113801], [7.288171, 48.113766], [7.288084, 48.113665], [7.288055, 48.113632], [7.28801, 48.113577], [7.287956, 48.113448], [7.287941, 48.11343], [7.288194, 48.113226], [7.288346, 48.113106], [7.288358, 48.113094], [7.288394, 48.113068], [7.288601, 48.113037], [7.288843, 48.112895], [7.288811, 48.112804], [7.288768, 48.112706], [7.288729, 48.112618], [7.288722, 48.1126], [7.288599, 48.112314], [7.288541, 48.112197], [7.288496, 48.112107], [7.288467, 48.112049], [7.288439, 48.111994], [7.288396, 48.111907], [7.288389, 48.111887], [7.288042, 48.111916], [7.28799, 48.111808], [7.287861, 48.111548], [7.287858, 48.111541], [7.287844, 48.111536], [7.287852, 48.11153], [7.287839, 48.111534], [7.287832, 48.111524], [7.287553, 48.111067], [7.287531, 48.11103], [7.287522, 48.111016], [7.287506, 48.11102], [7.287134, 48.110509], [7.287125, 48.110502], [7.286948, 48.110574], [7.286885, 48.110599], [7.28687, 48.110607], [7.286758, 48.110653], [7.286688, 48.110681], [7.286583, 48.11072], [7.286492, 48.110662], [7.286415, 48.110609], [7.286171, 48.11071], [7.285963, 48.110447], [7.285955, 48.110437], [7.285943, 48.110423], [7.285797, 48.11025], [7.285776, 48.110223], [7.285753, 48.110235], [7.285608, 48.110312], [7.285525, 48.110344], [7.285407, 48.110423], [7.285388, 48.110456], [7.285538, 48.110638], [7.285568, 48.11068], [7.285749, 48.110918], [7.285767, 48.110945], [7.28579, 48.111], [7.285873, 48.111191], [7.285895, 48.111266], [7.285907, 48.111306], [7.285922, 48.111368], [7.286033, 48.111806], [7.286035, 48.11186], [7.286044, 48.111933], [7.286048, 48.111949], [7.286039, 48.112009], [7.286038, 48.112024], [7.286031, 48.112078], [7.286028, 48.112103], [7.286019, 48.112154], [7.28601, 48.11221], [7.285983, 48.112308], [7.285937, 48.112438], [7.285912, 48.112533], [7.28588, 48.11264], [7.285818, 48.112637], [7.285794, 48.112636], [7.285272, 48.11261], [7.284475, 48.112574], [7.284446, 48.112573], [7.284444, 48.11259], [7.284446, 48.112348], [7.284556, 48.112079], [7.284603, 48.111895], [7.284702, 48.111751], [7.284664, 48.111745], [7.284042, 48.111642], [7.283955, 48.111627], [7.283925, 48.111623], [7.283844, 48.111691], [7.283796, 48.111669], [7.283578, 48.111565], [7.283517, 48.111537], [7.283354, 48.111454], [7.283139, 48.11139], [7.283085, 48.111392], [7.28246, 48.111617], [7.282438, 48.111648], [7.282416, 48.111674], [7.282515, 48.111795], [7.282584, 48.111881], [7.282641, 48.111952], [7.282695, 48.11219], [7.282702, 48.11221], [7.28269, 48.112298], [7.282687, 48.112356], [7.282641, 48.112426], [7.282541, 48.112481], [7.282287, 48.112506], [7.28214, 48.11252], [7.281838, 48.11247], [7.28179, 48.112517], [7.281664, 48.112489], [7.281654, 48.112497], [7.28202, 48.112662], [7.282361, 48.112891], [7.282423, 48.112887], [7.28253, 48.112879], [7.282685, 48.11287], [7.282836, 48.112837], [7.283048, 48.112763], [7.283243, 48.11288], [7.283782, 48.113187], [7.283764, 48.113298], [7.283881, 48.113304], [7.28431, 48.113252], [7.284497, 48.11321], [7.284695, 48.113186], [7.284719, 48.113191], [7.285723, 48.113194], [7.285785, 48.113455], [7.285799, 48.113528], [7.28585, 48.11349], [7.285756, 48.113562], [7.285678, 48.113662], [7.285659, 48.113694], [7.285606, 48.113802], [7.285552, 48.113872], [7.285396, 48.114069], [7.285333, 48.114149], [7.285315, 48.114168], [7.285271, 48.114254], [7.285268, 48.114377], [7.285277, 48.114387], [7.285398, 48.114718], [7.285476, 48.114922], [7.28574, 48.114891], [7.286047, 48.114889], [7.286232, 48.114879], [7.286515, 48.114861], [7.286582, 48.114853], [7.28668, 48.114839], [7.287, 48.114834], [7.287047, 48.114851], [7.287222, 48.11485], [7.287689, 48.114835], [7.287746, 48.114834], [7.287745, 48.114852], [7.287224, 48.114869], [7.287156, 48.114989], [7.287134, 48.115024], [7.287094, 48.115092], [7.287037, 48.115082], [7.287046, 48.114862], [7.286988, 48.114847], [7.286673, 48.114852], [7.286519, 48.114872], [7.286431, 48.114877], [7.286233, 48.114891], [7.286045, 48.1149], [7.285803, 48.114903], [7.285744, 48.114904], [7.285477, 48.114931], [7.285394, 48.114945], [7.285333, 48.114782], [7.285132, 48.114264], [7.285129, 48.114257], [7.284614, 48.114249], [7.284333, 48.114266], [7.284327, 48.114267], [7.284097, 48.114318], [7.284046, 48.11432], [7.283759, 48.114325], [7.283632, 48.114319], [7.28354, 48.114315], [7.283387, 48.114285], [7.283242, 48.114257], [7.282957, 48.114199], [7.282914, 48.114192], [7.282873, 48.114182]]], [[[7.280367, 48.121995], [7.280373, 48.121967], [7.28004, 48.122007], [7.279222, 48.122105], [7.279211, 48.122107], [7.279218, 48.122058], [7.279068, 48.122038], [7.278898, 48.122026], [7.278876, 48.122025], [7.278684, 48.122013], [7.278519, 48.122001], [7.278414, 48.122006], [7.278167, 48.122015], [7.278033, 48.122022], [7.277907, 48.122032], [7.277886, 48.122033], [7.277629, 48.122013], [7.277466, 48.122001], [7.277438, 48.122148], [7.277435, 48.122217], [7.277461, 48.122331], [7.277557, 48.122486], [7.277677, 48.122673], [7.277701, 48.122807], [7.277658, 48.122913], [7.278389, 48.122962], [7.278837, 48.123011], [7.278889, 48.123018], [7.278857, 48.123153], [7.278794, 48.123371], [7.278713, 48.123542], [7.278639, 48.123717], [7.278589, 48.123899], [7.278588, 48.123955], [7.278599, 48.124051], [7.278606, 48.124205], [7.278969, 48.124203], [7.279186, 48.124188], [7.279454, 48.124171], [7.279757, 48.124165], [7.279786, 48.124157], [7.27979, 48.124036], [7.279792, 48.123998], [7.28003, 48.124015], [7.280063, 48.124017], [7.280244, 48.12403], [7.280271, 48.124033], [7.280353, 48.124037], [7.280367, 48.123817], [7.280334, 48.123672], [7.280325, 48.123431], [7.280362, 48.123222], [7.280415, 48.122815], [7.280398, 48.122677], [7.280377, 48.122508], [7.280373, 48.122497], [7.28035, 48.122376], [7.280346, 48.122102], [7.280359, 48.122056], [7.280367, 48.121995]]], [[[7.283974, 48.118603], [7.283816, 48.118578], [7.283772, 48.118569], [7.283703, 48.118554], [7.283619, 48.118537], [7.283545, 48.11852], [7.283452, 48.118501], [7.283306, 48.118469], [7.283194, 48.118444], [7.282806, 48.118343], [7.282474, 48.118723], [7.282232, 48.118998], [7.281926, 48.119345], [7.281855, 48.11932], [7.281923, 48.119238], [7.282005, 48.119147], [7.282093, 48.119045], [7.282345, 48.118762], [7.282498, 48.118588], [7.282616, 48.118456], [7.282717, 48.118344], [7.282736, 48.118304], [7.282743, 48.118293], [7.282856, 48.118121], [7.28299, 48.117916], [7.283014, 48.117849], [7.283064, 48.117569], [7.283067, 48.117542], [7.282845, 48.117457], [7.282553, 48.117345], [7.282459, 48.117308], [7.282375, 48.117279], [7.282279, 48.117248], [7.282248, 48.117235], [7.282131, 48.117185], [7.281958, 48.11711], [7.28169, 48.116994], [7.281539, 48.116925], [7.281472, 48.116894], [7.281307, 48.116811], [7.281248, 48.116785], [7.281237, 48.116778], [7.280877, 48.116627], [7.280751, 48.116563], [7.280602, 48.116491], [7.280376, 48.116384], [7.280117, 48.116314], [7.27998, 48.116283], [7.279769, 48.11617], [7.279634, 48.116099], [7.279441, 48.115982], [7.27916, 48.115862], [7.279146, 48.115855], [7.278962, 48.115777], [7.278657, 48.115632], [7.278634, 48.115622], [7.278332, 48.115479], [7.277963, 48.115374], [7.277728, 48.115296], [7.277386, 48.115597], [7.277245, 48.115719], [7.277204, 48.115767], [7.277184, 48.115759], [7.277234, 48.115712], [7.277443, 48.115531], [7.277714, 48.115293], [7.277541, 48.115216], [7.277392, 48.115175], [7.277357, 48.115163], [7.277395, 48.115138], [7.277143, 48.115021], [7.276975, 48.11521], [7.276869, 48.115325], [7.276963, 48.115356], [7.276726, 48.115552], [7.276597, 48.115486], [7.276442, 48.115409], [7.27616, 48.115616], [7.275715, 48.115994], [7.276122, 48.116207], [7.276289, 48.116309], [7.276397, 48.116375], [7.2767, 48.116564], [7.276921, 48.116729], [7.27705, 48.116831], [7.277175, 48.116915], [7.277258, 48.116969], [7.277397, 48.117058], [7.277454, 48.117097], [7.277688, 48.117195], [7.278083, 48.117282], [7.278294, 48.11733], [7.278535, 48.117415], [7.278733, 48.117537], [7.278846, 48.117598], [7.27905, 48.117667], [7.279129, 48.117709], [7.279092, 48.117753], [7.278949, 48.117905], [7.278747, 48.118009], [7.278721, 48.118021], [7.278506, 48.118121], [7.278358, 48.118187], [7.278787, 48.118534], [7.278193, 48.118878], [7.278524, 48.119146], [7.278514, 48.119151], [7.278368, 48.11924], [7.278299, 48.119285], [7.27865, 48.119534], [7.278684, 48.119529], [7.278802, 48.119382], [7.27896, 48.119139], [7.279212, 48.118929], [7.279402, 48.118778], [7.279232, 48.118914], [7.279316, 48.118949], [7.27923, 48.119024], [7.279145, 48.119098], [7.279104, 48.11913], [7.279015, 48.119227], [7.279005, 48.119236], [7.278852, 48.119436], [7.278772, 48.119583], [7.278682, 48.119798], [7.278666, 48.119834], [7.27858, 48.119967], [7.27841, 48.120224], [7.278309, 48.12041], [7.278152, 48.120693], [7.278174, 48.120735], [7.278572, 48.120831], [7.278899, 48.120911], [7.278977, 48.120881], [7.279016, 48.120867], [7.279195, 48.120851], [7.279363, 48.12086], [7.279785, 48.12092], [7.280116, 48.120987], [7.280458, 48.121083], [7.280816, 48.121121], [7.280904, 48.121139], [7.280881, 48.121192], [7.281176, 48.12128], [7.281471, 48.121398], [7.28164, 48.121451], [7.281744, 48.121305], [7.281753, 48.12129], [7.281892, 48.121144], [7.281946, 48.12111], [7.281992, 48.12108], [7.282116, 48.12092], [7.28216, 48.120863], [7.282208, 48.120798], [7.282253, 48.120746], [7.282301, 48.120683], [7.2824, 48.12054], [7.282952, 48.120634], [7.282985, 48.120553], [7.283043, 48.120362], [7.283504, 48.120379], [7.283889, 48.120409], [7.284031, 48.120429], [7.284098, 48.120397], [7.284209, 48.120338], [7.284243, 48.120257], [7.284254, 48.120233], [7.284257, 48.120233], [7.284326, 48.120223], [7.284477, 48.120198], [7.284626, 48.120175], [7.284732, 48.120156], [7.28484, 48.12016], [7.284962, 48.120161], [7.285077, 48.12016], [7.285308, 48.120146], [7.28534, 48.120113], [7.28519, 48.119586], [7.285176, 48.119589], [7.285085, 48.119154], [7.285096, 48.118802], [7.284991, 48.118793], [7.284901, 48.118779], [7.284453, 48.118707], [7.284385, 48.118689], [7.284233, 48.118646], [7.284059, 48.118618], [7.283974, 48.118603]]], [[[7.272003, 48.120453], [7.271944, 48.120356], [7.271598, 48.120475], [7.271482, 48.120367], [7.271304, 48.120429], [7.271217, 48.120458], [7.271152, 48.12048], [7.270843, 48.120594], [7.2707, 48.12065], [7.270828, 48.12074], [7.270861, 48.120779], [7.270969, 48.12091], [7.270732, 48.120985], [7.270959, 48.12112], [7.270951, 48.121127], [7.270731, 48.121461], [7.270718, 48.121478], [7.270777, 48.121501], [7.271035, 48.121596], [7.271102, 48.121623], [7.271399, 48.121733], [7.271509, 48.121628], [7.271792, 48.121733], [7.272213, 48.121889], [7.272284, 48.12196], [7.272323, 48.121975], [7.272359, 48.121992], [7.272489, 48.122068], [7.272646, 48.122149], [7.272865, 48.122197], [7.273075, 48.122222], [7.27312, 48.122218], [7.273422, 48.122319], [7.273567, 48.122379], [7.274004, 48.122559], [7.274146, 48.122615], [7.274278, 48.122656], [7.274537, 48.122724], [7.274919, 48.122823], [7.274976, 48.122836], [7.275058, 48.122842], [7.27506, 48.122809], [7.275779, 48.122871], [7.276182, 48.122936], [7.276219, 48.12289], [7.276221, 48.12285], [7.276318, 48.122845], [7.276918, 48.122873], [7.276945, 48.122874], [7.277508, 48.12292], [7.277571, 48.122927], [7.2776, 48.12289], [7.277642, 48.122771], [7.277618, 48.122677], [7.27758, 48.122615], [7.277308, 48.122609], [7.276825, 48.122599], [7.276379, 48.122574], [7.276168, 48.122592], [7.275867, 48.12256], [7.275413, 48.12251], [7.27516, 48.122481], [7.27509, 48.122473], [7.274909, 48.122406], [7.274828, 48.122371], [7.274644, 48.122293], [7.274172, 48.122148], [7.274043, 48.122049], [7.27388, 48.121929], [7.273694, 48.12179], [7.273565, 48.121694], [7.273488, 48.121646], [7.273412, 48.1216], [7.273339, 48.121558], [7.273282, 48.121522], [7.273239, 48.121491], [7.273078, 48.121367], [7.272844, 48.121194], [7.272695, 48.121084], [7.27266, 48.121058], [7.272629, 48.121032], [7.27256, 48.120977], [7.272522, 48.120944], [7.272427, 48.120868], [7.272413, 48.12086], [7.272285, 48.120776], [7.272199, 48.120707], [7.272155, 48.120672], [7.272114, 48.120631], [7.272068, 48.120555], [7.272003, 48.120453]]], [[[7.272836, 48.12114], [7.272917, 48.1212], [7.273363, 48.121521], [7.273385, 48.121536], [7.273578, 48.12165], [7.273617, 48.121676], [7.27364, 48.121689], [7.274126, 48.122039], [7.27423, 48.122095], [7.274291, 48.122116], [7.274446, 48.122166], [7.274678, 48.122245], [7.27486, 48.122332], [7.275082, 48.122408], [7.27524, 48.122439], [7.275481, 48.122479], [7.275646, 48.122496], [7.275915, 48.122528], [7.276032, 48.122536], [7.276381, 48.122563], [7.276606, 48.122576], [7.276825, 48.12259], [7.277016, 48.122594], [7.277572, 48.122608], [7.277501, 48.122503], [7.277402, 48.122339], [7.277369, 48.122192], [7.277399, 48.122036], [7.277223, 48.122026], [7.277108, 48.122001], [7.27691, 48.121947], [7.27679, 48.121932], [7.276684, 48.121919], [7.276281, 48.121891], [7.276174, 48.121869], [7.276046, 48.121845], [7.275938, 48.121808], [7.275838, 48.121773], [7.275664, 48.122185], [7.275615, 48.122174], [7.275468, 48.122128], [7.275137, 48.122021], [7.275134, 48.122019], [7.274828, 48.121902], [7.274753, 48.121872], [7.274659, 48.121834], [7.274595, 48.12181], [7.274269, 48.121648], [7.274153, 48.121609], [7.274116, 48.12162], [7.274072, 48.1216], [7.273945, 48.121529], [7.273897, 48.1215], [7.273678, 48.12136], [7.273468, 48.121225], [7.273296, 48.121125], [7.273144, 48.120983], [7.272836, 48.12114]]], [[[7.276987, 48.131673], [7.27698, 48.131659], [7.276947, 48.131644], [7.27687, 48.131629], [7.276765, 48.131626], [7.276668, 48.131595], [7.276586, 48.131616], [7.276536, 48.131623], [7.276397, 48.131639], [7.276176, 48.13164], [7.276161, 48.13162], [7.276128, 48.131605], [7.275965, 48.131583], [7.275993, 48.131641], [7.276141, 48.132072], [7.276198, 48.132367], [7.276333, 48.132373], [7.276365, 48.13237], [7.276404, 48.132354], [7.276457, 48.132347], [7.276581, 48.132317], [7.27667, 48.132285], [7.276749, 48.132259], [7.276911, 48.132231], [7.277028, 48.132245], [7.277113, 48.132233], [7.27723, 48.132212], [7.277265, 48.13222], [7.277309, 48.132264], [7.277363, 48.132265], [7.277373, 48.132223], [7.277371, 48.132159], [7.277345, 48.132077], [7.277296, 48.131729], [7.277293, 48.131569], [7.277278, 48.131573], [7.276987, 48.131673]]], [[[7.280392, 48.127451], [7.280407, 48.127431], [7.280138, 48.127336], [7.279995, 48.127266], [7.27996, 48.127269], [7.279789, 48.127286], [7.279266, 48.127335], [7.279371, 48.127537], [7.27943, 48.127735], [7.280242, 48.127686], [7.28027, 48.127603], [7.280392, 48.127451]]], [[[7.280097, 48.128223], [7.28013, 48.128065], [7.280243, 48.127696], [7.279439, 48.127749], [7.279525, 48.128106], [7.279552, 48.128277], [7.279646, 48.128443], [7.27967, 48.128465], [7.279805, 48.128604], [7.279919, 48.128786], [7.27993, 48.128894], [7.279902, 48.129178], [7.279925, 48.129222], [7.279961, 48.129237], [7.280307, 48.129222], [7.280694, 48.129181], [7.280639, 48.128971], [7.28044, 48.128974], [7.280421, 48.128863], [7.280589, 48.128852], [7.280645, 48.12874], [7.280658, 48.128665], [7.280673, 48.128595], [7.280681, 48.128558], [7.280179, 48.128542], [7.280111, 48.128528], [7.280073, 48.128488], [7.280066, 48.128442], [7.280079, 48.128301], [7.280097, 48.128223]]], [[[7.277156, 48.127374], [7.276963, 48.127286], [7.276516, 48.12756], [7.27658, 48.127649], [7.276628, 48.127736], [7.27664, 48.127784], [7.276244, 48.127849], [7.276225, 48.127849], [7.27623, 48.127884], [7.275868, 48.128095], [7.275562, 48.128272], [7.275513, 48.128299], [7.275587, 48.128377], [7.275469, 48.128255], [7.275109, 48.128431], [7.274865, 48.128512], [7.274853, 48.128494], [7.274413, 48.128616], [7.274357, 48.128557], [7.274308, 48.128512], [7.274253, 48.128467], [7.274201, 48.128422], [7.274133, 48.12845], [7.274083, 48.128565], [7.273978, 48.128656], [7.273826, 48.128712], [7.273752, 48.12873], [7.273508, 48.128811], [7.273661, 48.129004], [7.273766, 48.128966], [7.273817, 48.129069], [7.273825, 48.129095], [7.273804, 48.129102], [7.273547, 48.129151], [7.273179, 48.129227], [7.273191, 48.129243], [7.273257, 48.129332], [7.273288, 48.129376], [7.273296, 48.129387], [7.27333, 48.129432], [7.273533, 48.129712], [7.273742, 48.129697], [7.274111, 48.129676], [7.27427, 48.12967], [7.27455, 48.129677], [7.274717, 48.129679], [7.274837, 48.129666], [7.275149, 48.12963], [7.275148, 48.129644], [7.275136, 48.129897], [7.27511, 48.130008], [7.275234, 48.129945], [7.275372, 48.129913], [7.275626, 48.129892], [7.275701, 48.129885], [7.275841, 48.129819], [7.276011, 48.12976], [7.276106, 48.129701], [7.276124, 48.129666], [7.276119, 48.129634], [7.27608, 48.129553], [7.276055, 48.129471], [7.276046, 48.129433], [7.27603, 48.129434], [7.275999, 48.129244], [7.275965, 48.129133], [7.276001, 48.129103], [7.276027, 48.129061], [7.276035, 48.129068], [7.276049, 48.129072], [7.276033, 48.1291], [7.276001, 48.129146], [7.276022, 48.129239], [7.276069, 48.12942], [7.276104, 48.129552], [7.276143, 48.12963], [7.276149, 48.129667], [7.276137, 48.129691], [7.276188, 48.129686], [7.276222, 48.129681], [7.276269, 48.129829], [7.276281, 48.129935], [7.276264, 48.130092], [7.276491, 48.130075], [7.276694, 48.130056], [7.276693, 48.130042], [7.276898, 48.13004], [7.276919, 48.130039], [7.276911, 48.130101], [7.276907, 48.130124], [7.276906, 48.130141], [7.276901, 48.13022], [7.276896, 48.13028], [7.276893, 48.13032], [7.276889, 48.130363], [7.27704, 48.130367], [7.277255, 48.130335], [7.277352, 48.130299], [7.277362, 48.130285], [7.277417, 48.130297], [7.277427, 48.130327], [7.277466, 48.130445], [7.277554, 48.130499], [7.277919, 48.130652], [7.27849, 48.130889], [7.278586, 48.130839], [7.278697, 48.130752], [7.278749, 48.130661], [7.278751, 48.130485], [7.278747, 48.130463], [7.278816, 48.130462], [7.279132, 48.130465], [7.27911, 48.130562], [7.279118, 48.130561], [7.279404, 48.130567], [7.279628, 48.130577], [7.279647, 48.130577], [7.279934, 48.130597], [7.280298, 48.130636], [7.280398, 48.130645], [7.280526, 48.130523], [7.280561, 48.130489], [7.280407, 48.130482], [7.280471, 48.130379], [7.280473, 48.130375], [7.280476, 48.130372], [7.28052, 48.130287], [7.280507, 48.130259], [7.280649, 48.129457], [7.280661, 48.129242], [7.280633, 48.129223], [7.280395, 48.129246], [7.280312, 48.129255], [7.279961, 48.129269], [7.279806, 48.129278], [7.279725, 48.129283], [7.27966, 48.12928], [7.279431, 48.12927], [7.279312, 48.129271], [7.278968, 48.129278], [7.27846, 48.129322], [7.278127, 48.129361], [7.27813, 48.12937], [7.277694, 48.129402], [7.277693, 48.129456], [7.277402, 48.129452], [7.277361, 48.12945], [7.277362, 48.129486], [7.277361, 48.129447], [7.277349, 48.129263], [7.277317, 48.129136], [7.277181, 48.12912], [7.277133, 48.129118], [7.27714, 48.12911], [7.277142, 48.129105], [7.27718, 48.129107], [7.277307, 48.12911], [7.277334, 48.12911], [7.277333, 48.129103], [7.277368, 48.129266], [7.277492, 48.129271], [7.277492, 48.129303], [7.277519, 48.129306], [7.277762, 48.129315], [7.278143, 48.129328], [7.278444, 48.129292], [7.278682, 48.129272], [7.278958, 48.129248], [7.279409, 48.129239], [7.279722, 48.129251], [7.279798, 48.12925], [7.27983, 48.12922], [7.279843, 48.129174], [7.279843, 48.129144], [7.279855, 48.129032], [7.279862, 48.128975], [7.279866, 48.128894], [7.279855, 48.128795], [7.279837, 48.128765], [7.279754, 48.128642], [7.279735, 48.128611], [7.279697, 48.128572], [7.279591, 48.128461], [7.279473, 48.128297], [7.279472, 48.12829], [7.27946, 48.12811], [7.279375, 48.127748], [7.279341, 48.127637], [7.279313, 48.127552], [7.279297, 48.127518], [7.279268, 48.127469], [7.279243, 48.127417], [7.279119, 48.127182], [7.27901, 48.12704], [7.278926, 48.126967], [7.27872, 48.126883], [7.278597, 48.126862], [7.278102, 48.126832], [7.277946, 48.126825], [7.277838, 48.126956], [7.277806, 48.127033], [7.277798, 48.127061], [7.277794, 48.127113], [7.277704, 48.127127], [7.277669, 48.127128], [7.277564, 48.127132], [7.277446, 48.127174], [7.277323, 48.127218], [7.277205, 48.127282], [7.277193, 48.127304], [7.277156, 48.127374]]]]}}]}