{"type": "FeatureCollection", "features": [{"type": "Feature", "properties": {"id": "AOC-Alsace-Grand-Cru-Muenchberg", "name": "Muenchberg", "commune": "Nothalten", "family": "火山沉積岩", "familyColor": "#8e44ad", "lessonId": "AL2M2L2"}, "geometry": {"type": "MultiPolygon", "coordinates": [[[[7.417265, 48.357698], [7.417303, 48.357611], [7.417419, 48.357402], [7.417546, 48.357239], [7.417689, 48.357062], [7.417656, 48.357035], [7.417269, 48.357219], [7.416978, 48.357398], [7.416868, 48.357486], [7.416612, 48.357699], [7.416487, 48.357807], [7.416376, 48.357907], [7.416246, 48.358023], [7.416191, 48.358068], [7.416108, 48.358134], [7.416041, 48.358187], [7.415893, 48.358304], [7.41583, 48.358355], [7.415752, 48.358418], [7.415597, 48.358536], [7.415558, 48.358565], [7.415511, 48.358596], [7.415431, 48.358646], [7.415221, 48.35877], [7.415156, 48.35881], [7.415113, 48.358836], [7.414987, 48.358904], [7.414928, 48.35893], [7.414841, 48.358967], [7.414784, 48.358991], [7.414704, 48.359017], [7.414549, 48.359068], [7.414384, 48.359122], [7.414208, 48.359195], [7.414019, 48.359276], [7.413945, 48.359307], [7.413971, 48.359337], [7.41387, 48.3594], [7.413831, 48.359355], [7.413417, 48.359475], [7.4132, 48.359532], [7.413181, 48.359535], [7.413042, 48.359568], [7.412873, 48.359607], [7.412748, 48.359636], [7.412628, 48.359664], [7.412585, 48.359693], [7.41251, 48.359757], [7.412456, 48.359796], [7.412371, 48.359849], [7.412305, 48.35988], [7.412094, 48.359975], [7.411985, 48.360004], [7.411873, 48.360007], [7.411737, 48.360026], [7.411658, 48.360056], [7.411601, 48.360104], [7.411404, 48.360309], [7.41118, 48.360648], [7.411129, 48.360698], [7.411378, 48.36119], [7.411714, 48.361101], [7.41205, 48.361048], [7.412196, 48.361016], [7.412268, 48.361], [7.412343, 48.360984], [7.412566, 48.360955], [7.412649, 48.360946], [7.412735, 48.360939], [7.412826, 48.360936], [7.413027, 48.360945], [7.413159, 48.360946], [7.413326, 48.360949], [7.413468, 48.360935], [7.413526, 48.360929], [7.413656, 48.360924], [7.413781, 48.360932], [7.414087, 48.360976], [7.41417, 48.360987], [7.414317, 48.361006], [7.414336, 48.361007], [7.414445, 48.361015], [7.414671, 48.361012], [7.414866, 48.361011], [7.415237, 48.36101], [7.41543, 48.361019], [7.415625, 48.361029], [7.415715, 48.361033], [7.415812, 48.361038], [7.416053, 48.361046], [7.416175, 48.361051], [7.416388, 48.361051], [7.416601, 48.361053], [7.416753, 48.361043], [7.416978, 48.361038], [7.417082, 48.361052], [7.417274, 48.361068], [7.417394, 48.361061], [7.417428, 48.361015], [7.417397, 48.360753], [7.417405, 48.360517], [7.417411, 48.360448], [7.417238, 48.359994], [7.417227, 48.359963], [7.417252, 48.359954], [7.417382, 48.359925], [7.417526, 48.359901], [7.417608, 48.359882], [7.417625, 48.359877], [7.417741, 48.359784], [7.417814, 48.359724], [7.417943, 48.359595], [7.418037, 48.359486], [7.418045, 48.359407], [7.418032, 48.359289], [7.418007, 48.359241], [7.417953, 48.359143], [7.417933, 48.359116], [7.417797, 48.358931], [7.417598, 48.358664], [7.417315, 48.358377], [7.41725, 48.358281], [7.41722, 48.358235], [7.417191, 48.358152], [7.417179, 48.358111], [7.41719, 48.357986], [7.417265, 48.357698]]], [[[7.407509, 48.359733], [7.407593, 48.359778], [7.407666, 48.359829], [7.407715, 48.359873], [7.407785, 48.359902], [7.407853, 48.359933], [7.407947, 48.359974], [7.408213, 48.360057], [7.408387, 48.360104], [7.408578, 48.360137], [7.408671, 48.360159], [7.408755, 48.360181], [7.408833, 48.360203], [7.408916, 48.360227], [7.409098, 48.36028], [7.409186, 48.360305], [7.409264, 48.360327], [7.409372, 48.360358], [7.409449, 48.360384], [7.409547, 48.360416], [7.40978, 48.360515], [7.40986, 48.36055], [7.409976, 48.360598], [7.410069, 48.360623], [7.41017, 48.360652], [7.410257, 48.360684], [7.410342, 48.360713], [7.410484, 48.360745], [7.410531, 48.360743], [7.410642, 48.360736], [7.410706, 48.360732], [7.410808, 48.360726], [7.410919, 48.360719], [7.411065, 48.360694], [7.41115, 48.360643], [7.411365, 48.360306], [7.411572, 48.360094], [7.411638, 48.360042], [7.411727, 48.360007], [7.411941, 48.359979], [7.412047, 48.359965], [7.412164, 48.359928], [7.412411, 48.359797], [7.412548, 48.359691], [7.412569, 48.359644], [7.412187, 48.359586], [7.412087, 48.35956], [7.411929, 48.359519], [7.411789, 48.359479], [7.411624, 48.359433], [7.411541, 48.359411], [7.411453, 48.359387], [7.41138, 48.359366], [7.411321, 48.35935], [7.411138, 48.3593], [7.411058, 48.359279], [7.41098, 48.359256], [7.410901, 48.359235], [7.410816, 48.35921], [7.410738, 48.359192], [7.410653, 48.359171], [7.410575, 48.359152], [7.410493, 48.359132], [7.410413, 48.359115], [7.410332, 48.359098], [7.410246, 48.359078], [7.410166, 48.359061], [7.410078, 48.359041], [7.41, 48.359024], [7.409817, 48.358985], [7.40972, 48.358963], [7.409634, 48.358944], [7.409542, 48.358931], [7.409448, 48.358918], [7.409266, 48.358891], [7.409086, 48.358864], [7.408786, 48.358807], [7.408693, 48.358785], [7.408615, 48.358765], [7.408537, 48.358745], [7.408463, 48.358723], [7.408387, 48.358702], [7.408305, 48.358669], [7.408117, 48.358597], [7.407952, 48.358551], [7.407774, 48.358514], [7.407664, 48.358493], [7.407492, 48.358467], [7.407431, 48.358459], [7.407292, 48.358444], [7.407193, 48.358434], [7.407101, 48.358415], [7.406784, 48.358353], [7.406558, 48.358309], [7.406452, 48.358288], [7.40634, 48.358267], [7.406282, 48.358254], [7.406175, 48.358231], [7.40598, 48.358179], [7.405046, 48.358865], [7.405502, 48.359033], [7.4056, 48.359065], [7.405665, 48.359086], [7.405768, 48.359119], [7.405865, 48.359151], [7.406078, 48.35922], [7.40618, 48.359253], [7.406369, 48.359313], [7.406449, 48.359356], [7.406533, 48.359397], [7.406642, 48.35945], [7.406691, 48.35947], [7.40688, 48.359543], [7.406986, 48.35958], [7.407167, 48.359643], [7.407329, 48.359675], [7.407509, 48.359733]]]]}}]}