{"type": "FeatureCollection", "features": [{"type": "Feature", "properties": {"id": "AOC-Alsace-Grand-Cru-Rangen", "name": "Rangen", "commune": "Thann & Vieux-Thann", "family": "火山沉積岩", "familyColor": "#c0392b", "lessonId": "AL2M2L2"}, "geometry": {"type": "MultiPolygon", "coordinates": [[[[7.111606, 47.810303], [7.111358, 47.810412], [7.111108, 47.810576], [7.11084, 47.810842], [7.110782, 47.810898], [7.110678, 47.810966], [7.110597, 47.81102], [7.110387, 47.811115], [7.110222, 47.81119], [7.110177, 47.811204], [7.109898, 47.811295], [7.10971, 47.811355], [7.109692, 47.811363], [7.109506, 47.811411], [7.109361, 47.811445], [7.109324, 47.811455], [7.108787, 47.811595], [7.107862, 47.811855], [7.107676, 47.811908], [7.107274, 47.812028], [7.106824, 47.812163], [7.106703, 47.812194], [7.106719, 47.812223], [7.106808, 47.812378], [7.106376, 47.812492], [7.106355, 47.812499], [7.106466, 47.812659], [7.106546, 47.8128], [7.106408, 47.812814], [7.106302, 47.812823], [7.106277, 47.812846], [7.106205, 47.812854], [7.106092, 47.812876], [7.10568, 47.813013], [7.105931, 47.813141], [7.105753, 47.813266], [7.105682, 47.813322], [7.105567, 47.81339], [7.105508, 47.813455], [7.105479, 47.813463], [7.105494, 47.813477], [7.105556, 47.813525], [7.1056, 47.813533], [7.105721, 47.813541], [7.105983, 47.813544], [7.106099, 47.813555], [7.106213, 47.813571], [7.106256, 47.813578], [7.106329, 47.813592], [7.106387, 47.813608], [7.106653, 47.813692], [7.106699, 47.813698], [7.106544, 47.813837], [7.106721, 47.813805], [7.106738, 47.813821], [7.107068, 47.813829], [7.107501, 47.813868], [7.107567, 47.813779], [7.107649, 47.813666], [7.10778, 47.813487], [7.10783, 47.813171], [7.107839, 47.813141], [7.108107, 47.813082], [7.108741, 47.812977], [7.109522, 47.812768], [7.109986, 47.812672], [7.110166, 47.812614], [7.110458, 47.812519], [7.110513, 47.812499], [7.110531, 47.812494], [7.11053, 47.812513], [7.110531, 47.812561], [7.110706, 47.812575], [7.111153, 47.812707], [7.111719, 47.812801], [7.111971, 47.812803], [7.112091, 47.812867], [7.112239, 47.812876], [7.112554, 47.812771], [7.112894, 47.812521], [7.112676, 47.812371], [7.112415, 47.812488], [7.112295, 47.812326], [7.11257, 47.812012], [7.112901, 47.812208], [7.113174, 47.812203], [7.113471, 47.812202], [7.113476, 47.8122], [7.11492, 47.812182], [7.1149, 47.811997], [7.114793, 47.812004], [7.114785, 47.811963], [7.114759, 47.811798], [7.114732, 47.811621], [7.114899, 47.811607], [7.114902, 47.811607], [7.11491, 47.811607], [7.114815, 47.811344], [7.114777, 47.811242], [7.114747, 47.81116], [7.114734, 47.81113], [7.114703, 47.811039], [7.11455, 47.810688], [7.114819, 47.810673], [7.114833, 47.810267], [7.114798, 47.81009], [7.114685, 47.810115], [7.114435, 47.810171], [7.113857, 47.810211], [7.113554, 47.810231], [7.11301, 47.810263], [7.11288, 47.810271], [7.112856, 47.810272], [7.112624, 47.810285], [7.112509, 47.810278], [7.112053, 47.810267], [7.111964, 47.810263], [7.111606, 47.810303]], [[7.111919, 47.812238], [7.112056, 47.812174], [7.112101, 47.811897], [7.112118, 47.8119], [7.112062, 47.812185], [7.111897, 47.812259], [7.111783, 47.812315], [7.111675, 47.812341], [7.111666, 47.812328], [7.11179, 47.812301], [7.111919, 47.812238]], [[7.107027, 47.812266], [7.106984, 47.812197], [7.107008, 47.812189], [7.106989, 47.812159], [7.107034, 47.812145], [7.107033, 47.812141], [7.107107, 47.812119], [7.107107, 47.812124], [7.107157, 47.812112], [7.107218, 47.812212], [7.107027, 47.812266]]], [[[7.115159, 47.810025], [7.114798, 47.81009], [7.114833, 47.810267], [7.114819, 47.810673], [7.11455, 47.810688], [7.114703, 47.811039], [7.114734, 47.81113], [7.115138, 47.811096], [7.114737, 47.81113], [7.114749, 47.811159], [7.11475, 47.81116], [7.114747, 47.81116], [7.114777, 47.811242], [7.114815, 47.811344], [7.11491, 47.811607], [7.114902, 47.811607], [7.114899, 47.811607], [7.114732, 47.811621], [7.114759, 47.811798], [7.114785, 47.811963], [7.114793, 47.812004], [7.1149, 47.811997], [7.11492, 47.812182], [7.115102, 47.812193], [7.115221, 47.812202], [7.115363, 47.812209], [7.115525, 47.81222], [7.11557, 47.812224], [7.115718, 47.812231], [7.116074, 47.812195], [7.116379, 47.812165], [7.116677, 47.812172], [7.116787, 47.812176], [7.116854, 47.812177], [7.117173, 47.812185], [7.117522, 47.8122], [7.117742, 47.812211], [7.118115, 47.812255], [7.11835, 47.812359], [7.118373, 47.81234], [7.11859, 47.812172], [7.11882, 47.811958], [7.118687, 47.811864], [7.118712, 47.81185], [7.119075, 47.81159], [7.119103, 47.811573], [7.11912, 47.811587], [7.119285, 47.811441], [7.11928, 47.811399], [7.119274, 47.811356], [7.11903, 47.811248], [7.118988, 47.810954], [7.118892, 47.81078], [7.118966, 47.810698], [7.118922, 47.810448], [7.118902, 47.81032], [7.11853, 47.810361], [7.118339, 47.810376], [7.118003, 47.810356], [7.117905, 47.810337], [7.117566, 47.810212], [7.117445, 47.810172], [7.11728, 47.810149], [7.117137, 47.810132], [7.117075, 47.810123], [7.116507, 47.81005], [7.116264, 47.810017], [7.116119, 47.810007], [7.116014, 47.810002], [7.115767, 47.81], [7.115553, 47.809998], [7.11531, 47.809996], [7.115159, 47.810025]]]]}}]}