{"type": "FeatureCollection", "features": [{"type": "Feature", "properties": {"id": "AOC-Alsace-Grand-Cru-Florimont", "name": "Florimont", "commune": "Ingersheim & Katzenthal", "family": "泥灰石灰岩", "familyColor": "#7d3c98", "lessonId": "AL2M5L3"}, "geometry": {"type": "MultiPolygon", "coordinates": [[[[7.297162, 48.101985], [7.297073, 48.101782], [7.29705, 48.101664], [7.29705, 48.101655], [7.297058, 48.101628], [7.297071, 48.10162], [7.297337, 48.101511], [7.297351, 48.101455], [7.297291, 48.101385], [7.297196, 48.101277], [7.297081, 48.101142], [7.296959, 48.101002], [7.296849, 48.100879], [7.296748, 48.100761], [7.296699, 48.100716], [7.296563, 48.100597], [7.296505, 48.100545], [7.296447, 48.100495], [7.296386, 48.100439], [7.296301, 48.100361], [7.296298, 48.100358], [7.296293, 48.100353], [7.296132, 48.100202], [7.296042, 48.100115], [7.295848, 48.099945], [7.295801, 48.099906], [7.295619, 48.099745], [7.295419, 48.099638], [7.294878, 48.099469], [7.294756, 48.09943], [7.294707, 48.099412], [7.294627, 48.099388], [7.294593, 48.099377], [7.294593, 48.099369], [7.294508, 48.099358], [7.294358, 48.099327], [7.294266, 48.09932], [7.294236, 48.099317], [7.294041, 48.099303], [7.293657, 48.099247], [7.293547, 48.099213], [7.293407, 48.099178], [7.293286, 48.099147], [7.293177, 48.099133], [7.293066, 48.099128], [7.292838, 48.09917], [7.292597, 48.099244], [7.292507, 48.099271], [7.292408, 48.099301], [7.292311, 48.09933], [7.291913, 48.099507], [7.29191, 48.099507], [7.291913, 48.09951], [7.292049, 48.099723], [7.292099, 48.099801], [7.292147, 48.099799], [7.292451, 48.099763], [7.292557, 48.09975], [7.292661, 48.099737], [7.292805, 48.099721], [7.293294, 48.099743], [7.293606, 48.099906], [7.293467, 48.100025], [7.293524, 48.100063], [7.29366, 48.100148], [7.293706, 48.100178], [7.293871, 48.100519], [7.293953, 48.100663], [7.294002, 48.100744], [7.293999, 48.100743], [7.293931, 48.100758], [7.293788, 48.100787], [7.29377, 48.100872], [7.293756, 48.100957], [7.293731, 48.101082], [7.293715, 48.101178], [7.293696, 48.101276], [7.29367, 48.101387], [7.293642, 48.101506], [7.293624, 48.101582], [7.293601, 48.101673], [7.293542, 48.101935], [7.292983, 48.102139], [7.293025, 48.102191], [7.293241, 48.102474], [7.293271, 48.102514], [7.293325, 48.10258], [7.293344, 48.102607], [7.293371, 48.102642], [7.293431, 48.102717], [7.293425, 48.102753], [7.293402, 48.103091], [7.293923, 48.103278], [7.294435, 48.103156], [7.294633, 48.103603], [7.294833, 48.103578], [7.294886, 48.103672], [7.29492, 48.10373], [7.294949, 48.103783], [7.294984, 48.103847], [7.295029, 48.103771], [7.294986, 48.103845], [7.295051, 48.103812], [7.295953, 48.10366], [7.295957, 48.103703], [7.295961, 48.103724], [7.295954, 48.103865], [7.295949, 48.103938], [7.296341, 48.103898], [7.296365, 48.103991], [7.296389, 48.104093], [7.296413, 48.104178], [7.296446, 48.104255], [7.296479, 48.104335], [7.296511, 48.104434], [7.296553, 48.104545], [7.296905, 48.104472], [7.296904, 48.104434], [7.297504, 48.104398], [7.297491, 48.104303], [7.297462, 48.104017], [7.297441, 48.10402], [7.297424, 48.10381], [7.297456, 48.103807], [7.297458, 48.103792], [7.297492, 48.103726], [7.297539, 48.103642], [7.297529, 48.103582], [7.29751, 48.10348], [7.297476, 48.103294], [7.297462, 48.103224], [7.297378, 48.103045], [7.297431, 48.103033], [7.297405, 48.102753], [7.297305, 48.102509], [7.297306, 48.102486], [7.297381, 48.102483], [7.297364, 48.102415], [7.297303, 48.102284], [7.297162, 48.101985]]], [[[7.296335, 48.10034], [7.296401, 48.100399], [7.296459, 48.100453], [7.296535, 48.100519], [7.29659, 48.100569], [7.296744, 48.100704], [7.296778, 48.100735], [7.296787, 48.100744], [7.296805, 48.100767], [7.296835, 48.1008], [7.296864, 48.100835], [7.296912, 48.100889], [7.296971, 48.100959], [7.297129, 48.101139], [7.297173, 48.101193], [7.297218, 48.101245], [7.297268, 48.101301], [7.297313, 48.101354], [7.297357, 48.101404], [7.297387, 48.101441], [7.297437, 48.101459], [7.297446, 48.101498], [7.297365, 48.10153], [7.297193, 48.101704], [7.297116, 48.101781], [7.297145, 48.101837], [7.297197, 48.101944], [7.297307, 48.102172], [7.297336, 48.102232], [7.297417, 48.102404], [7.29742, 48.102444], [7.297433, 48.10256], [7.297449, 48.102758], [7.297453, 48.102816], [7.297479, 48.103029], [7.297512, 48.103208], [7.297552, 48.103398], [7.29758, 48.103546], [7.297581, 48.103563], [7.297602, 48.103677], [7.297622, 48.103799], [7.297499, 48.103805], [7.297503, 48.104016], [7.297514, 48.10412], [7.297519, 48.104152], [7.297533, 48.104262], [7.297556, 48.104468], [7.297559, 48.104475], [7.297584, 48.104617], [7.297626, 48.104839], [7.297711, 48.10489], [7.297823, 48.104877], [7.298039, 48.104853], [7.298167, 48.104837], [7.298831, 48.10486], [7.298888, 48.104805], [7.298913, 48.104677], [7.29892, 48.104665], [7.299024, 48.104528], [7.299083, 48.104452], [7.299082, 48.104441], [7.299091, 48.104355], [7.299094, 48.104295], [7.299101, 48.104212], [7.299116, 48.104029], [7.299118, 48.103988], [7.299121, 48.10387], [7.299126, 48.103789], [7.29913, 48.103677], [7.299091, 48.103498], [7.299077, 48.103425], [7.299052, 48.103318], [7.299046, 48.103268], [7.299006, 48.102979], [7.298995, 48.102913], [7.298988, 48.102862], [7.298978, 48.102803], [7.298932, 48.102565], [7.298918, 48.102494], [7.298912, 48.102456], [7.298903, 48.102413], [7.298883, 48.102198], [7.29887, 48.102065], [7.298828, 48.101852], [7.298716, 48.10163], [7.29857, 48.101429], [7.298287, 48.101093], [7.298201, 48.101125], [7.298133, 48.101248], [7.298097, 48.101228], [7.298092, 48.101235], [7.298114, 48.101184], [7.29813, 48.101147], [7.29813, 48.101115], [7.298128, 48.10105], [7.298125, 48.100982], [7.29811, 48.10093], [7.298094, 48.100869], [7.298061, 48.100759], [7.298035, 48.100668], [7.298016, 48.100602], [7.297998, 48.100543], [7.297982, 48.100477], [7.297963, 48.100413], [7.297944, 48.10035], [7.297925, 48.100282], [7.297915, 48.100254], [7.297907, 48.100225], [7.297891, 48.100161], [7.297859, 48.100032], [7.297844, 48.099979], [7.297833, 48.099936], [7.297821, 48.099886], [7.297789, 48.099761], [7.297786, 48.099725], [7.297188, 48.100015], [7.296883, 48.100131], [7.296852, 48.100087], [7.296865, 48.100081], [7.296753, 48.099966], [7.296379, 48.100128], [7.296195, 48.100207], [7.296256, 48.100264], [7.296335, 48.10034]]], [[[7.291916, 48.099508], [7.291916, 48.09951], [7.291913, 48.09951], [7.291711, 48.099604], [7.291413, 48.099703], [7.291448, 48.09981], [7.291518, 48.099847], [7.291645, 48.09985], [7.291907, 48.099824], [7.292059, 48.09981], [7.292077, 48.099807], [7.292099, 48.099806], [7.292099, 48.099801], [7.29209, 48.09979], [7.292049, 48.099723], [7.292049, 48.099722], [7.291916, 48.099508]]], [[[7.290628, 48.099954], [7.290539, 48.099986], [7.290528, 48.099975], [7.290447, 48.100005], [7.290355, 48.100039], [7.290204, 48.100095], [7.290178, 48.100107], [7.290058, 48.100155], [7.289933, 48.100204], [7.289829, 48.100246], [7.289711, 48.100293], [7.289701, 48.100297], [7.289599, 48.100332], [7.289505, 48.100364], [7.289413, 48.100393], [7.289342, 48.100417], [7.289334, 48.100419], [7.289244, 48.100438], [7.289173, 48.100452], [7.289107, 48.100467], [7.289072, 48.100473], [7.288958, 48.10049], [7.288836, 48.100509], [7.288711, 48.100528], [7.288788, 48.100915], [7.288922, 48.101411], [7.289037, 48.101426], [7.289169, 48.10147], [7.289218, 48.101476], [7.289232, 48.101477], [7.289356, 48.101451], [7.289345, 48.101419], [7.289449, 48.101401], [7.289535, 48.101399], [7.28971, 48.101402], [7.289815, 48.101333], [7.289856, 48.101247], [7.28989, 48.101166], [7.289941, 48.101067], [7.290017, 48.100976], [7.290093, 48.100914], [7.290201, 48.100852], [7.290314, 48.100785], [7.290422, 48.100722], [7.290524, 48.100662], [7.290607, 48.100616], [7.290677, 48.100556], [7.290786, 48.100467], [7.290889, 48.100384], [7.290867, 48.10034], [7.290901, 48.100326], [7.291169, 48.100211], [7.291451, 48.099945], [7.291421, 48.099872], [7.291313, 48.099738], [7.291266, 48.099723], [7.290628, 48.099954]]]]}}]}