{"type": "FeatureCollection", "features": [{"type": "Feature", "properties": {"id": "AOC-Alsace-Grand-Cru-Eichberg", "name": "Eichberg", "commune": "Eguisheim", "family": "泥灰石灰岩", "familyColor": "#9b59b6", "lessonId": "AL2M5L3"}, "geometry": {"type": "MultiPolygon", "coordinates": [[[[7.283324, 48.028794], [7.283333, 48.028936], [7.283333, 48.028974], [7.28334, 48.029094], [7.283349, 48.029274], [7.283355, 48.029377], [7.283358, 48.029453], [7.283153, 48.029446], [7.283136, 48.029461], [7.283092, 48.029516], [7.283091, 48.029605], [7.283105, 48.029642], [7.283166, 48.029806], [7.283269, 48.030078], [7.283291, 48.030246], [7.283284, 48.03036], [7.28328, 48.030382], [7.283274, 48.030438], [7.283271, 48.030503], [7.28325, 48.030738], [7.283243, 48.030785], [7.283209, 48.030797], [7.283011, 48.031071], [7.282909, 48.031275], [7.282831, 48.031433], [7.283155, 48.031553], [7.28349, 48.031706], [7.283752, 48.031799], [7.283824, 48.031817], [7.283838, 48.031821], [7.284021, 48.031867], [7.284144, 48.03192], [7.284236, 48.031958], [7.284388, 48.032052], [7.284418, 48.032082], [7.284503, 48.032178], [7.284518, 48.03219], [7.28458, 48.032231], [7.284833, 48.032396], [7.284918, 48.03242], [7.284985, 48.032385], [7.285169, 48.032296], [7.285238, 48.032252], [7.285527, 48.032072], [7.285609, 48.032022], [7.285964, 48.0318], [7.285958, 48.031753], [7.286031, 48.031729], [7.286066, 48.031737], [7.286284, 48.03177], [7.286655, 48.031865], [7.286704, 48.031849], [7.286726, 48.031713], [7.286741, 48.031609], [7.286737, 48.031361], [7.286739, 48.031287], [7.286737, 48.031155], [7.286736, 48.03111], [7.286736, 48.031042], [7.286727, 48.030862], [7.286728, 48.030844], [7.286724, 48.030792], [7.286684, 48.030607], [7.286632, 48.030492], [7.28659, 48.030402], [7.286563, 48.030367], [7.286216, 48.030401], [7.285796, 48.030454], [7.28579, 48.030447], [7.286215, 48.03039], [7.286554, 48.030358], [7.286348, 48.030101], [7.28581, 48.030167], [7.285616, 48.030219], [7.285473, 48.030113], [7.285381, 48.030042], [7.285361, 48.03], [7.285326, 48.029922], [7.285893, 48.029798], [7.285846, 48.029641], [7.285838, 48.029609], [7.285812, 48.029527], [7.285722, 48.029545], [7.285645, 48.029414], [7.285552, 48.0293], [7.285462, 48.029183], [7.285427, 48.029112], [7.285405, 48.029072], [7.285259, 48.029097], [7.285202, 48.02903], [7.285162, 48.028925], [7.285148, 48.02889], [7.285094, 48.028749], [7.285086, 48.028719], [7.28507, 48.02866], [7.285042, 48.028544], [7.285023, 48.028476], [7.285001, 48.028401], [7.284954, 48.028248], [7.284928, 48.028166], [7.284922, 48.028154], [7.28489, 48.028088], [7.284851, 48.028007], [7.284787, 48.027883], [7.284776, 48.027853], [7.284752, 48.027783], [7.284724, 48.027707], [7.284697, 48.027637], [7.284673, 48.02757], [7.284649, 48.027508], [7.284649, 48.027506], [7.284596, 48.027477], [7.283186, 48.027354], [7.283146, 48.027389], [7.283137, 48.027422], [7.283253, 48.02756], [7.28331, 48.027625], [7.283369, 48.027695], [7.283429, 48.027766], [7.283494, 48.027843], [7.283497, 48.027849], [7.283543, 48.027919], [7.283647, 48.028072], [7.283702, 48.028153], [7.283714, 48.028176], [7.283703, 48.028231], [7.283682, 48.028312], [7.283669, 48.028376], [7.28363, 48.028466], [7.283588, 48.028536], [7.283578, 48.028554], [7.283529, 48.028605], [7.283457, 48.028677], [7.283399, 48.028728], [7.283324, 48.028794]]], [[[7.28738, 48.029477], [7.287187, 48.029452], [7.287098, 48.029448], [7.28705, 48.029552], [7.287022, 48.029539], [7.286976, 48.029564], [7.286953, 48.02961], [7.286925, 48.029627], [7.286845, 48.029668], [7.28666, 48.029705], [7.286404, 48.029799], [7.28626, 48.029841], [7.286326, 48.030002], [7.28647, 48.030179], [7.286637, 48.030386], [7.28667, 48.030464], [7.286703, 48.030536], [7.286733, 48.030604], [7.286747, 48.030679], [7.286765, 48.03077], [7.286769, 48.030794], [7.286774, 48.030857], [7.286781, 48.030941], [7.286789, 48.031042], [7.286795, 48.031303], [7.286798, 48.031441], [7.2868, 48.031532], [7.286832, 48.031561], [7.286886, 48.031568], [7.287576, 48.031456], [7.287666, 48.031442], [7.287769, 48.031426], [7.287905, 48.03141], [7.287921, 48.03141], [7.287982, 48.031402], [7.28806, 48.031394], [7.288227, 48.031377], [7.28839, 48.031362], [7.288505, 48.03135], [7.288606, 48.031341], [7.288708, 48.031332], [7.288809, 48.031323], [7.288964, 48.03131], [7.289129, 48.031295], [7.289276, 48.031283], [7.289532, 48.031261], [7.289698, 48.031247], [7.290163, 48.031218], [7.290309, 48.031203], [7.290805, 48.031157], [7.291568, 48.031021], [7.291503, 48.030947], [7.291429, 48.030863], [7.291357, 48.030798], [7.291232, 48.030685], [7.291165, 48.030622], [7.291096, 48.030558], [7.291053, 48.030527], [7.29095, 48.03045], [7.290658, 48.030268], [7.290408, 48.030129], [7.290239, 48.030036], [7.290139, 48.030002], [7.289979, 48.029948], [7.289645, 48.029836], [7.289361, 48.029746], [7.289342, 48.029743], [7.288951, 48.029665], [7.288755, 48.029627], [7.288536, 48.02961], [7.288427, 48.029601], [7.288095, 48.029576], [7.28783, 48.029553], [7.287743, 48.029541], [7.287645, 48.029527], [7.287492, 48.029491], [7.28738, 48.029477]]], [[[7.290476, 48.029451], [7.289641, 48.029483], [7.289657, 48.029582], [7.289666, 48.029668], [7.28967, 48.029682], [7.289671, 48.029687], [7.28971, 48.029778], [7.289785, 48.029838], [7.290274, 48.030001], [7.290448, 48.030097], [7.290722, 48.030264], [7.290988, 48.030425], [7.29106, 48.03048], [7.2911, 48.03051], [7.291134, 48.030537], [7.29116, 48.03056], [7.291354, 48.030733], [7.291473, 48.03084], [7.291518, 48.030894], [7.291646, 48.031045], [7.291758, 48.031174], [7.292008, 48.031367], [7.292112, 48.031334], [7.292076, 48.031249], [7.29206, 48.03115], [7.292083, 48.031005], [7.292113, 48.030842], [7.292132, 48.030748], [7.292162, 48.030559], [7.292167, 48.030519], [7.292175, 48.030483], [7.292191, 48.030376], [7.292212, 48.030173], [7.292271, 48.030041], [7.292273, 48.02987], [7.292297, 48.029797], [7.292319, 48.029739], [7.291997, 48.02968], [7.292003, 48.029656], [7.292015, 48.029607], [7.291738, 48.029567], [7.29174, 48.029558], [7.291513, 48.029512], [7.290776, 48.029434], [7.290757, 48.029432], [7.290486, 48.029404], [7.290476, 48.029451]]], [[[7.292648, 48.029784], [7.292337, 48.029729], [7.292286, 48.029868], [7.292285, 48.030046], [7.292228, 48.030176], [7.292206, 48.030365], [7.292204, 48.030377], [7.292168, 48.030599], [7.292146, 48.030753], [7.292107, 48.03094], [7.292078, 48.031114], [7.292073, 48.031152], [7.292089, 48.031247], [7.292099, 48.031272], [7.292168, 48.031456], [7.292188, 48.031506], [7.292209, 48.031569], [7.292191, 48.031573], [7.29223, 48.031618], [7.292271, 48.031665], [7.292326, 48.031717], [7.292367, 48.031756], [7.292551, 48.031899], [7.292628, 48.031959], [7.292714, 48.032028], [7.293067, 48.032303], [7.293015, 48.032327], [7.292479, 48.031907], [7.292435, 48.031901], [7.292403, 48.031933], [7.292413, 48.031995], [7.292376, 48.032], [7.292361, 48.031914], [7.292346, 48.031828], [7.292345, 48.03182], [7.292261, 48.031736], [7.292211, 48.031687], [7.292193, 48.031666], [7.292128, 48.031588], [7.292041, 48.031483], [7.291984, 48.031413], [7.291823, 48.03128], [7.291717, 48.031192], [7.291708, 48.031183], [7.291613, 48.031075], [7.291543, 48.031067], [7.290811, 48.031191], [7.290443, 48.031226], [7.290286, 48.031242], [7.290184, 48.031251], [7.290061, 48.031259], [7.289912, 48.031268], [7.289706, 48.031281], [7.289482, 48.031302], [7.289396, 48.031309], [7.289242, 48.031324], [7.289009, 48.031345], [7.288847, 48.031358], [7.288815, 48.031361], [7.288795, 48.031385], [7.288841, 48.03209], [7.288871, 48.032319], [7.288907, 48.032334], [7.288907, 48.032367], [7.288841, 48.03238], [7.288895, 48.03272], [7.2889, 48.032742], [7.28934, 48.032774], [7.289486, 48.032785], [7.289744, 48.03281], [7.289836, 48.032819], [7.289917, 48.032831], [7.290099, 48.032855], [7.290105, 48.032829], [7.290173, 48.032805], [7.290283, 48.032863], [7.290888, 48.032976], [7.291124, 48.033028], [7.291247, 48.033055], [7.291321, 48.033072], [7.291532, 48.033118], [7.291723, 48.033162], [7.291923, 48.033208], [7.292145, 48.033262], [7.292288, 48.033296], [7.292569, 48.033349], [7.292692, 48.033373], [7.292804, 48.033394], [7.293007, 48.033421], [7.293172, 48.033458], [7.293379, 48.033534], [7.293558, 48.033623], [7.29363, 48.033672], [7.29373, 48.033744], [7.293883, 48.033842], [7.294335, 48.034016], [7.2944, 48.034025], [7.294404, 48.033978], [7.294409, 48.033941], [7.294395, 48.033899], [7.294287, 48.033565], [7.29426, 48.033494], [7.294301, 48.033406], [7.29431, 48.033408], [7.294422, 48.033234], [7.294479, 48.033144], [7.294565, 48.033051], [7.294637, 48.032967], [7.294715, 48.032878], [7.294741, 48.03283], [7.294769, 48.032776], [7.294825, 48.03267], [7.294876, 48.032569], [7.294899, 48.032525], [7.294916, 48.032474], [7.294938, 48.032408], [7.294994, 48.032238], [7.295001, 48.032132], [7.295015, 48.032032], [7.295031, 48.031932], [7.295038, 48.031882], [7.295044, 48.031831], [7.29508, 48.031581], [7.295093, 48.031474], [7.295093, 48.031375], [7.295096, 48.031342], [7.295045, 48.03125], [7.294988, 48.0312], [7.294945, 48.031166], [7.29491, 48.031135], [7.294872, 48.031102], [7.294794, 48.031036], [7.294745, 48.030995], [7.294724, 48.0309], [7.294715, 48.030682], [7.294712, 48.030583], [7.294676, 48.030444], [7.294634, 48.030424], [7.294237, 48.030366], [7.293927, 48.030286], [7.293187, 48.030076], [7.293206, 48.03004], [7.292886, 48.029844], [7.292796, 48.029822], [7.292648, 48.029784]]], [[[7.287183, 48.031557], [7.286894, 48.031606], [7.286816, 48.031632], [7.286791, 48.031662], [7.286808, 48.031904], [7.286815, 48.031949], [7.286834, 48.031956], [7.28671, 48.031922], [7.286636, 48.031903], [7.28654, 48.03188], [7.286387, 48.03184], [7.286274, 48.03181], [7.28626, 48.031807], [7.286159, 48.031789], [7.286101, 48.031793], [7.286079, 48.031796], [7.285991, 48.03183], [7.285945, 48.031858], [7.285771, 48.031966], [7.285586, 48.032079], [7.285525, 48.032115], [7.285468, 48.03215], [7.285236, 48.032295], [7.285202, 48.032316], [7.285164, 48.032336], [7.28491, 48.03246], [7.284928, 48.032474], [7.285006, 48.032507], [7.285157, 48.032586], [7.285216, 48.032617], [7.285421, 48.032726], [7.285463, 48.032752], [7.285506, 48.032781], [7.285558, 48.032826], [7.285654, 48.032851], [7.285825, 48.032867], [7.28597, 48.032863], [7.286029, 48.032861], [7.286152, 48.032856], [7.286157, 48.032858], [7.286234, 48.032879], [7.286269, 48.032879], [7.286299, 48.032878], [7.286434, 48.032855], [7.286452, 48.032853], [7.286625, 48.032828], [7.286777, 48.032807], [7.286892, 48.032808], [7.286908, 48.032809], [7.287074, 48.032825], [7.287179, 48.032833], [7.287337, 48.032826], [7.287463, 48.032818], [7.287487, 48.032817], [7.28766, 48.032801], [7.287791, 48.032793], [7.28793, 48.032784], [7.288032, 48.032779], [7.288091, 48.032777], [7.288316, 48.032765], [7.288891, 48.032739], [7.28884, 48.032438], [7.288812, 48.03239], [7.288814, 48.032352], [7.288749, 48.031383], [7.288734, 48.031365], [7.288612, 48.031375], [7.288473, 48.031388], [7.288251, 48.031406], [7.288233, 48.031409], [7.28786, 48.03145], [7.287777, 48.031458], [7.287698, 48.031472], [7.287615, 48.031486], [7.287472, 48.031509], [7.287311, 48.031536], [7.287183, 48.031557]]], [[[7.303972, 48.034778], [7.303905, 48.034775], [7.3037, 48.034766], [7.303497, 48.034757], [7.303462, 48.03478], [7.303466, 48.034937], [7.303457, 48.035555], [7.303392, 48.035607], [7.303263, 48.035705], [7.303004, 48.035866], [7.302952, 48.035916], [7.302967, 48.036403], [7.30299, 48.036586], [7.303029, 48.036595], [7.303241, 48.036596], [7.303343, 48.036598], [7.303424, 48.036599], [7.303499, 48.036598], [7.303604, 48.036601], [7.303704, 48.036603], [7.303715, 48.036604], [7.303795, 48.036605], [7.303885, 48.036611], [7.304047, 48.036621], [7.304301, 48.036637], [7.30443, 48.036645], [7.304562, 48.036618], [7.304586, 48.036612], [7.304867, 48.036459], [7.30491, 48.036432], [7.305084, 48.036325], [7.305215, 48.036243], [7.305382, 48.036219], [7.305538, 48.03622], [7.305757, 48.036234], [7.30583, 48.036244], [7.305977, 48.03626], [7.305974, 48.035932], [7.305941, 48.035488], [7.305877, 48.034973], [7.305708, 48.03497], [7.305629, 48.034968], [7.305438, 48.034964], [7.305306, 48.034961], [7.305019, 48.034931], [7.304857, 48.034915], [7.304707, 48.03489], [7.304587, 48.034867], [7.304475, 48.034848], [7.304358, 48.034829], [7.304243, 48.034809], [7.304232, 48.034808], [7.304216, 48.034805], [7.303972, 48.034778]]], [[[7.303407, 48.035294], [7.303415, 48.034941], [7.303304, 48.034955], [7.303206, 48.03497], [7.303152, 48.034975], [7.303096, 48.034981], [7.302971, 48.034991], [7.30288, 48.035], [7.3028, 48.035006], [7.302597, 48.035025], [7.302488, 48.035039], [7.302316, 48.035098], [7.302147, 48.035169], [7.3021, 48.035191], [7.302399, 48.035335], [7.30189, 48.03509], [7.301694, 48.035124], [7.301497, 48.035141], [7.30138, 48.035156], [7.301258, 48.035175], [7.300915, 48.035223], [7.300753, 48.035247], [7.30071, 48.035254], [7.300661, 48.035112], [7.300637, 48.035048], [7.300537, 48.035067], [7.300478, 48.035077], [7.30042, 48.035088], [7.30038, 48.035095], [7.300288, 48.035111], [7.300192, 48.035127], [7.300126, 48.03514], [7.299947, 48.035179], [7.299746, 48.035223], [7.299346, 48.0353], [7.299336, 48.035302], [7.299161, 48.035332], [7.298948, 48.035356], [7.298273, 48.035422], [7.297809, 48.035459], [7.297811, 48.035517], [7.29781, 48.035571], [7.297835, 48.035648], [7.297857, 48.035724], [7.297879, 48.035801], [7.297915, 48.035915], [7.297948, 48.03602], [7.297981, 48.036192], [7.297942, 48.036269], [7.297894, 48.036339], [7.297824, 48.036405], [7.297766, 48.036452], [7.297743, 48.036476], [7.297728, 48.03649], [7.297749, 48.036507], [7.298306, 48.036459], [7.29861, 48.036456], [7.298818, 48.036466], [7.299058, 48.036484], [7.29948, 48.036514], [7.299821, 48.036509], [7.299834, 48.036506], [7.300052, 48.036479], [7.300191, 48.036468], [7.30041, 48.036451], [7.300586, 48.036437], [7.301119, 48.036412], [7.301138, 48.036412], [7.301232, 48.036408], [7.301333, 48.036405], [7.301357, 48.036402], [7.301781, 48.036422], [7.30183, 48.036426], [7.301892, 48.036435], [7.301933, 48.03644], [7.302001, 48.036451], [7.302161, 48.036473], [7.302202, 48.036481], [7.302366, 48.036515], [7.302506, 48.036546], [7.302902, 48.036589], [7.302922, 48.036568], [7.302918, 48.036462], [7.302912, 48.036322], [7.302897, 48.03587], [7.302967, 48.035842], [7.303223, 48.035685], [7.303363, 48.035579], [7.303399, 48.035496], [7.303407, 48.035294]]], [[[7.300018, 48.036521], [7.299818, 48.036547], [7.299814, 48.036563], [7.299809, 48.036597], [7.299801, 48.036596], [7.299722, 48.036586], [7.299644, 48.036576], [7.299562, 48.036565], [7.299483, 48.036553], [7.299405, 48.036549], [7.299324, 48.036543], [7.299135, 48.03653], [7.299048, 48.036522], [7.298997, 48.036519], [7.298813, 48.036504], [7.298605, 48.036492], [7.298312, 48.036495], [7.297754, 48.036541], [7.29757, 48.036558], [7.297107, 48.036649], [7.297108, 48.036759], [7.297167, 48.036862], [7.297198, 48.036911], [7.297226, 48.03696], [7.297257, 48.037006], [7.297288, 48.037054], [7.297318, 48.037099], [7.297346, 48.037143], [7.297413, 48.037244], [7.297455, 48.037293], [7.297502, 48.037345], [7.297683, 48.037547], [7.298782, 48.037514], [7.298783, 48.037565], [7.29892, 48.037565], [7.299049, 48.037566], [7.299079, 48.037567], [7.299203, 48.037569], [7.299257, 48.037571], [7.299294, 48.037571], [7.299316, 48.037572], [7.299305, 48.037636], [7.299375, 48.037641], [7.299427, 48.037648], [7.299449, 48.037651], [7.2995, 48.037658], [7.299522, 48.037657], [7.29953, 48.037657], [7.299589, 48.037656], [7.299592, 48.037656], [7.299651, 48.037659], [7.299708, 48.037664], [7.299724, 48.037666], [7.299789, 48.037671], [7.299816, 48.037673], [7.299876, 48.037684], [7.299921, 48.037707], [7.300135, 48.037761], [7.300146, 48.037764], [7.30022, 48.037783], [7.300308, 48.037807], [7.300322, 48.03781], [7.300379, 48.037824], [7.30056, 48.037839], [7.300566, 48.037839], [7.300642, 48.037845], [7.300663, 48.037846], [7.300731, 48.037851], [7.300739, 48.037852], [7.300828, 48.03786], [7.300836, 48.037859], [7.300931, 48.037867], [7.301044, 48.037931], [7.301106, 48.03794], [7.301122, 48.037941], [7.301161, 48.03795], [7.301226, 48.037964], [7.301248, 48.037969], [7.301392, 48.037983], [7.3014, 48.037985], [7.301503, 48.037995], [7.301536, 48.038], [7.301717, 48.038016], [7.301736, 48.037756], [7.301738, 48.037709], [7.301783, 48.037738], [7.301903, 48.037784], [7.302028, 48.037834], [7.30213, 48.037875], [7.302244, 48.037921], [7.30232, 48.037964], [7.302399, 48.038006], [7.302506, 48.038067], [7.302424, 48.038021], [7.302417, 48.038063], [7.302321, 48.038504], [7.302458, 48.038467], [7.303046, 48.038492], [7.303537, 48.038485], [7.303611, 48.038466], [7.303582, 48.038276], [7.303572, 48.038192], [7.303568, 48.038041], [7.303566, 48.037952], [7.303563, 48.037815], [7.303552, 48.037737], [7.303545, 48.037695], [7.303542, 48.037652], [7.303537, 48.037622], [7.303504, 48.037547], [7.303488, 48.037512], [7.303406, 48.037338], [7.303318, 48.03715], [7.303221, 48.036981], [7.303196, 48.036939], [7.302984, 48.036674], [7.302889, 48.036625], [7.302767, 48.036612], [7.302704, 48.036605], [7.302623, 48.036595], [7.302607, 48.036594], [7.30249, 48.03658], [7.302381, 48.036557], [7.302285, 48.036537], [7.3022, 48.036521], [7.302148, 48.03651], [7.302059, 48.036497], [7.301936, 48.036478], [7.301814, 48.036461], [7.301641, 48.036453], [7.301544, 48.036447], [7.301377, 48.036441], [7.301213, 48.036447], [7.300943, 48.036457], [7.300868, 48.036461], [7.300688, 48.03647], [7.300592, 48.036473], [7.300231, 48.036503], [7.300138, 48.03651], [7.300053, 48.036518], [7.300018, 48.036521]]], [[[7.305665, 48.036262], [7.305536, 48.036258], [7.305379, 48.036253], [7.305305, 48.036265], [7.305233, 48.036273], [7.30508, 48.03637], [7.30499, 48.036426], [7.304901, 48.036483], [7.304721, 48.03658], [7.304533, 48.036681], [7.303779, 48.03664], [7.303502, 48.036628], [7.303045, 48.036627], [7.303047, 48.036654], [7.303206, 48.036853], [7.303257, 48.036918], [7.303319, 48.037026], [7.30335, 48.037079], [7.303384, 48.037134], [7.303417, 48.037206], [7.303444, 48.037268], [7.303466, 48.037314], [7.303509, 48.037408], [7.303529, 48.037456], [7.303566, 48.037554], [7.30359, 48.037614], [7.303597, 48.037665], [7.303617, 48.03781], [7.303618, 48.037896], [7.303619, 48.03794], [7.303622, 48.038037], [7.303624, 48.038093], [7.303626, 48.038192], [7.303639, 48.03828], [7.303652, 48.038373], [7.303657, 48.038405], [7.30366, 48.038439], [7.303664, 48.038461], [7.303683, 48.038559], [7.303695, 48.038609], [7.303711, 48.038677], [7.304524, 48.038658], [7.305157, 48.03864], [7.305152, 48.038585], [7.305149, 48.03854], [7.305139, 48.038454], [7.306819, 48.038324], [7.306799, 48.038236], [7.306753, 48.038103], [7.306749, 48.03809], [7.306728, 48.03803], [7.306711, 48.037983], [7.306693, 48.037935], [7.306662, 48.037841], [7.306639, 48.037791], [7.306625, 48.037752], [7.306605, 48.037702], [7.306585, 48.037654], [7.306571, 48.037619], [7.30654, 48.037575], [7.306513, 48.037534], [7.306488, 48.037494], [7.306482, 48.037483], [7.306429, 48.037395], [7.306401, 48.037348], [7.306395, 48.037337], [7.306363, 48.037282], [7.306517, 48.037257], [7.306694, 48.037245], [7.306751, 48.037023], [7.306755, 48.037005], [7.306795, 48.036769], [7.306836, 48.036616], [7.306845, 48.036462], [7.306809, 48.036422], [7.306367, 48.036338], [7.305751, 48.036266], [7.305665, 48.036262]]], [[[7.296059, 48.032673], [7.296039, 48.032564], [7.295538, 48.032555], [7.294959, 48.032535], [7.294891, 48.032662], [7.294812, 48.032809], [7.294784, 48.032864], [7.294782, 48.032868], [7.29477, 48.03289], [7.294523, 48.03316], [7.294456, 48.033262], [7.294426, 48.033313], [7.294371, 48.033438], [7.294362, 48.033494], [7.294376, 48.03356], [7.294434, 48.033751], [7.294467, 48.033862], [7.29449, 48.033938], [7.294502, 48.033994], [7.294547, 48.034315], [7.294556, 48.034361], [7.294567, 48.034458], [7.29459, 48.034548], [7.294673, 48.034709], [7.294744, 48.034818], [7.294793, 48.034861], [7.295022, 48.035067], [7.295335, 48.035375], [7.295476, 48.035429], [7.295665, 48.035501], [7.295751, 48.035533], [7.295823, 48.035561], [7.295837, 48.035566], [7.295895, 48.035589], [7.29595, 48.03561], [7.296003, 48.03563], [7.296065, 48.03566], [7.296129, 48.03569], [7.296235, 48.035742], [7.296367, 48.035806], [7.296419, 48.035822], [7.296443, 48.035122], [7.296393, 48.034603], [7.296135, 48.034612], [7.296087, 48.034615], [7.295986, 48.034626], [7.295919, 48.034634], [7.295842, 48.034642], [7.29577, 48.034649], [7.295702, 48.034642], [7.295632, 48.034637], [7.295597, 48.034635], [7.295596, 48.034623], [7.295769, 48.03464], [7.295892, 48.034626], [7.296132, 48.034601], [7.296228, 48.034598], [7.296373, 48.034596], [7.29638, 48.034477], [7.296419, 48.034333], [7.296434, 48.034192], [7.296419, 48.034039], [7.296347, 48.033649], [7.296237, 48.033449], [7.296133, 48.03326], [7.296121, 48.033241], [7.296101, 48.033164], [7.29609, 48.033123], [7.296088, 48.033098], [7.296081, 48.033019], [7.296076, 48.032927], [7.296076, 48.032922], [7.296071, 48.03283], [7.296059, 48.032673]]], [[[7.297759, 48.035546], [7.297757, 48.03545], [7.296485, 48.035414], [7.296434, 48.03541], [7.296419, 48.035822], [7.296493, 48.035868], [7.296644, 48.035981], [7.296748, 48.036102], [7.296827, 48.036243], [7.296857, 48.036316], [7.296906, 48.036428], [7.29696, 48.036557], [7.296986, 48.036614], [7.297091, 48.036616], [7.297556, 48.036521], [7.297691, 48.036462], [7.297766, 48.036396], [7.297824, 48.036347], [7.297854, 48.036319], [7.297883, 48.03628], [7.297898, 48.036256], [7.297924, 48.036189], [7.297916, 48.036151], [7.297903, 48.036096], [7.297871, 48.035967], [7.297841, 48.03586], [7.297808, 48.035746], [7.297789, 48.035683], [7.29777, 48.03561], [7.297759, 48.035575], [7.297759, 48.035546]]]]}}]}