{"type": "FeatureCollection", "features": [{"type": "Feature", "properties": {"id": "AOC-Alsace-Grand-Cru-Altenberg-de-Wolxheim", "name": "Altenberg de Wolxheim", "commune": "Wolxheim", "family": "泥灰石灰岩", "familyColor": "#8e44ad", "lessonId": "AL2M5L3"}, "geometry": {"type": "MultiPolygon", "coordinates": [[[[7.510882, 48.571778], [7.510806, 48.571679], [7.510767, 48.571628], [7.510734, 48.571593], [7.510694, 48.57155], [7.510683, 48.571541], [7.510633, 48.571494], [7.510576, 48.571438], [7.510539, 48.571405], [7.510524, 48.571372], [7.51051, 48.571337], [7.51049, 48.57129], [7.510489, 48.571238], [7.510488, 48.571209], [7.510488, 48.571182], [7.510487, 48.57115], [7.510486, 48.5711], [7.510484, 48.571023], [7.51047, 48.570966], [7.51046, 48.570919], [7.510433, 48.570765], [7.51043, 48.57076], [7.510407, 48.570686], [7.510503, 48.57067], [7.510611, 48.570678], [7.510703, 48.570685], [7.510787, 48.570691], [7.510895, 48.570698], [7.511104, 48.570713], [7.511145, 48.570716], [7.511183, 48.570719], [7.511198, 48.57072], [7.511305, 48.570728], [7.511319, 48.570729], [7.511433, 48.570737], [7.511491, 48.570741], [7.511553, 48.570746], [7.511798, 48.570762], [7.511793, 48.570791], [7.511876, 48.570797], [7.511871, 48.57084], [7.511865, 48.570883], [7.511859, 48.570925], [7.511851, 48.57098], [7.511837, 48.571073], [7.512316, 48.571128], [7.512324, 48.571086], [7.512332, 48.57105], [7.512434, 48.571056], [7.512565, 48.571063], [7.512801, 48.571076], [7.512826, 48.570952], [7.512855, 48.5708], [7.512976, 48.570803], [7.513111, 48.570808], [7.513283, 48.570813], [7.51336, 48.570815], [7.513521, 48.57082], [7.513588, 48.570822], [7.513678, 48.570824], [7.513752, 48.570826], [7.513811, 48.570832], [7.513901, 48.570841], [7.514057, 48.570527], [7.514062, 48.570516], [7.514199, 48.570224], [7.514209, 48.570216], [7.514227, 48.570172], [7.514308, 48.569974], [7.514342, 48.56989], [7.514366, 48.569805], [7.514381, 48.569713], [7.51424, 48.5697], [7.513801, 48.569662], [7.513709, 48.569656], [7.513601, 48.56965], [7.513231, 48.569626], [7.513226, 48.569642], [7.513212, 48.569642], [7.513175, 48.56979], [7.51284, 48.569756], [7.512837, 48.569765], [7.512794, 48.569761], [7.512609, 48.569741], [7.512448, 48.569724], [7.51237, 48.569716], [7.512208, 48.569698], [7.512111, 48.569687], [7.512041, 48.569679], [7.51205, 48.569669], [7.512081, 48.569549], [7.511963, 48.56955], [7.51186, 48.569552], [7.5118, 48.569552], [7.511734, 48.569553], [7.511598, 48.569553], [7.511585, 48.569553], [7.51147, 48.569554], [7.511425, 48.569553], [7.511375, 48.569554], [7.5111, 48.569555], [7.510977, 48.569555], [7.510864, 48.569555], [7.510756, 48.569555], [7.51056, 48.569557], [7.51051, 48.569558], [7.510541, 48.569475], [7.510334, 48.569478], [7.510353, 48.569095], [7.51024, 48.5691], [7.510039, 48.56911], [7.509815, 48.569121], [7.509489, 48.569136], [7.509378, 48.569141], [7.509263, 48.569142], [7.509122, 48.569142], [7.509052, 48.569151], [7.508948, 48.569164], [7.508844, 48.569177], [7.508745, 48.569189], [7.508661, 48.5692], [7.508553, 48.569215], [7.508326, 48.569246], [7.508217, 48.569272], [7.508158, 48.569284], [7.508101, 48.569297], [7.507969, 48.569326], [7.507717, 48.569383], [7.507448, 48.569442], [7.507376, 48.569458], [7.507333, 48.569468], [7.507248, 48.569487], [7.507207, 48.569497], [7.507153, 48.569508], [7.507096, 48.569521], [7.507018, 48.569541], [7.506918, 48.569568], [7.506834, 48.569604], [7.506813, 48.569618], [7.506761, 48.569663], [7.506759, 48.569664], [7.506624, 48.569848], [7.506506, 48.570409], [7.506498, 48.570436], [7.506445, 48.570547], [7.506414, 48.570607], [7.506393, 48.570652], [7.506347, 48.570746], [7.506272, 48.570908], [7.506255, 48.570947], [7.506228, 48.571002], [7.505968, 48.571445], [7.505943, 48.571486], [7.505832, 48.57159], [7.505685, 48.571723], [7.505456, 48.571929], [7.50541, 48.571972], [7.505399, 48.571978], [7.505348, 48.572011], [7.505089, 48.572168], [7.50503, 48.572204], [7.504986, 48.572231], [7.504939, 48.572261], [7.504842, 48.572319], [7.504838, 48.572322], [7.5048, 48.572353], [7.504768, 48.572379], [7.504738, 48.572402], [7.504132, 48.572888], [7.503985, 48.573006], [7.503947, 48.573036], [7.503847, 48.573119], [7.503831, 48.573132], [7.503653, 48.573273], [7.503526, 48.573372], [7.503469, 48.573417], [7.50334, 48.573522], [7.503324, 48.573535], [7.503294, 48.573559], [7.503235, 48.573607], [7.503176, 48.573654], [7.503132, 48.573687], [7.503088, 48.573722], [7.503039, 48.573759], [7.502996, 48.573793], [7.502881, 48.573886], [7.502837, 48.573921], [7.502778, 48.573988], [7.502755, 48.574014], [7.502727, 48.574045], [7.502679, 48.574099], [7.502629, 48.574154], [7.50258, 48.574207], [7.502557, 48.574232], [7.502532, 48.574258], [7.50248, 48.574316], [7.502439, 48.574359], [7.502358, 48.57445], [7.502319, 48.574494], [7.502286, 48.574531], [7.502186, 48.574645], [7.50214, 48.574692], [7.502108, 48.574728], [7.50206, 48.57478], [7.502032, 48.574812], [7.502031, 48.574813], [7.502019, 48.574827], [7.502008, 48.574838], [7.501934, 48.574915], [7.501883, 48.574967], [7.501817, 48.575037], [7.501797, 48.575059], [7.50174, 48.575122], [7.501697, 48.575167], [7.501672, 48.575194], [7.501644, 48.575223], [7.501609, 48.575253], [7.501578, 48.575279], [7.501495, 48.575347], [7.501453, 48.57538], [7.501422, 48.575404], [7.501342, 48.575468], [7.50116, 48.575608], [7.501114, 48.575644], [7.50109, 48.575664], [7.501068, 48.575688], [7.501041, 48.575715], [7.501011, 48.575744], [7.500973, 48.57578], [7.500944, 48.575809], [7.500847, 48.575902], [7.500819, 48.575928], [7.500698, 48.576046], [7.500648, 48.576096], [7.500602, 48.576142], [7.50053, 48.57621], [7.500407, 48.576328], [7.500399, 48.576342], [7.500337, 48.576419], [7.50029, 48.576479], [7.500238, 48.576545], [7.50016, 48.576645], [7.500167, 48.576648], [7.500429, 48.576772], [7.500431, 48.576773], [7.500974, 48.576976], [7.500981, 48.576977], [7.501147, 48.577009], [7.501396, 48.577056], [7.501534, 48.577082], [7.50173, 48.577119], [7.501807, 48.577134], [7.501873, 48.577146], [7.50188, 48.577147], [7.501886, 48.577148], [7.50192, 48.577126], [7.501946, 48.577109], [7.501949, 48.577107], [7.501981, 48.577086], [7.502001, 48.577072], [7.502067, 48.577028], [7.502198, 48.576938], [7.50223, 48.576915], [7.502258, 48.576895], [7.502288, 48.576874], [7.502359, 48.576824], [7.50239, 48.576803], [7.502521, 48.576713], [7.502555, 48.576691], [7.502611, 48.576671], [7.502662, 48.576651], [7.502727, 48.576626], [7.502783, 48.576605], [7.502829, 48.576588], [7.503115, 48.576481], [7.503157, 48.576471], [7.503307, 48.576719], [7.503389, 48.576826], [7.50319, 48.576858], [7.503221, 48.577102], [7.503472, 48.577162], [7.503547, 48.57718], [7.503659, 48.577207], [7.503681, 48.577165], [7.503898, 48.577202], [7.503925, 48.577206], [7.504002, 48.577219], [7.504076, 48.577231], [7.504108, 48.577236], [7.504115, 48.577237], [7.504206, 48.577253], [7.504383, 48.577283], [7.504475, 48.577298], [7.504555, 48.57731], [7.504578, 48.577256], [7.504613, 48.577171], [7.504629, 48.577134], [7.504683, 48.577004], [7.504723, 48.577008], [7.504885, 48.576564], [7.504892, 48.576554], [7.505006, 48.576447], [7.505042, 48.576413], [7.505182, 48.576174], [7.505185, 48.576171], [7.505075, 48.576159], [7.504801, 48.57613], [7.5047, 48.576119], [7.50467, 48.576171], [7.50461, 48.576159], [7.504389, 48.576112], [7.504351, 48.576097], [7.504446, 48.576018], [7.504636, 48.576091], [7.504682, 48.576081], [7.504736, 48.576004], [7.504771, 48.575953], [7.504849, 48.575846], [7.50487, 48.575815], [7.504881, 48.5758], [7.504922, 48.575743], [7.504954, 48.575698], [7.504984, 48.575658], [7.50508, 48.575523], [7.505159, 48.575413], [7.503917, 48.574872], [7.503875, 48.574853], [7.503877, 48.574852], [7.5039, 48.574828], [7.503912, 48.574818], [7.503929, 48.574804], [7.503979, 48.574764], [7.504028, 48.574724], [7.504079, 48.574682], [7.504094, 48.574669], [7.504124, 48.574645], [7.504226, 48.574563], [7.504326, 48.574482], [7.504372, 48.574456], [7.50442, 48.57443], [7.504466, 48.574404], [7.504503, 48.574374], [7.504877, 48.574062], [7.504904, 48.574041], [7.505033, 48.573932], [7.506054, 48.574487], [7.506197, 48.573784], [7.506401, 48.573635], [7.506628, 48.573594], [7.506996, 48.573586], [7.508548, 48.57366], [7.508548, 48.57366], [7.508734, 48.573697], [7.508785, 48.573708], [7.508835, 48.573718], [7.508848, 48.573722], [7.509024, 48.573756], [7.509159, 48.573785], [7.509203, 48.573793], [7.509297, 48.573813], [7.509345, 48.573823], [7.509391, 48.573832], [7.509535, 48.573861], [7.509651, 48.573885], [7.509753, 48.573907], [7.509851, 48.573926], [7.509907, 48.573938], [7.510038, 48.573965], [7.510139, 48.573986], [7.510375, 48.573709], [7.510387, 48.573711], [7.510257, 48.573868], [7.510215, 48.573918], [7.510154, 48.57399], [7.510449, 48.574052], [7.510586, 48.57405], [7.510698, 48.574006], [7.510724, 48.573968], [7.510827, 48.573806], [7.511012, 48.573505], [7.511128, 48.573326], [7.511128, 48.573294], [7.511145, 48.573193], [7.511158, 48.573112], [7.511165, 48.573072], [7.511171, 48.573032], [7.511189, 48.57292], [7.511212, 48.572754], [7.511234, 48.572596], [7.511212, 48.572454], [7.511159, 48.572292], [7.511097, 48.572114], [7.511055, 48.572047], [7.511004, 48.571965], [7.510938, 48.57186], [7.510902, 48.571803], [7.510882, 48.571778]]]]}}]}