{"type": "FeatureCollection", "features": [{"type": "Feature", "properties": {"id": "AOC-Alsace-Grand-Cru-Marckrain", "name": "Marckrain", "commune": "Bennwihr & Sigolsheim", "family": "泥灰石灰岩", "familyColor": "#a569bd", "lessonId": "AL2M5L4"}, "geometry": {"type": "MultiPolygon", "coordinates": [[[[7.31321, 48.139287], [7.312952, 48.139463], [7.312725, 48.139613], [7.312714, 48.139644], [7.312738, 48.139714], [7.31279, 48.139854], [7.312895, 48.140148], [7.312927, 48.140242], [7.312958, 48.140329], [7.312986, 48.140406], [7.313014, 48.140488], [7.313095, 48.140678], [7.313225, 48.140985], [7.313288, 48.141132], [7.313304, 48.141166], [7.313344, 48.141263], [7.314004, 48.141059], [7.314168, 48.140968], [7.314266, 48.140914], [7.314372, 48.140856], [7.314475, 48.140798], [7.314545, 48.140761], [7.314604, 48.140729], [7.314632, 48.140713], [7.314662, 48.140685], [7.314758, 48.140604], [7.314892, 48.140491], [7.314932, 48.140457], [7.31498, 48.140416], [7.315068, 48.14034], [7.315071, 48.140351], [7.315157, 48.140278], [7.315197, 48.140238], [7.315275, 48.140169], [7.315272, 48.140167], [7.315305, 48.140141], [7.315365, 48.14012], [7.315374, 48.140171], [7.315434, 48.140442], [7.315437, 48.140503], [7.315449, 48.140689], [7.315452, 48.140755], [7.315453, 48.140835], [7.315449, 48.14102], [7.315449, 48.14108], [7.315445, 48.141367], [7.315445, 48.141394], [7.315443, 48.14144], [7.315444, 48.141457], [7.31546, 48.141517], [7.315499, 48.141664], [7.315519, 48.141739], [7.315534, 48.14179], [7.31556, 48.141883], [7.315628, 48.142021], [7.31566, 48.14208], [7.315695, 48.14215], [7.31574, 48.142237], [7.315788, 48.142334], [7.315794, 48.142345], [7.315808, 48.142415], [7.315863, 48.142725], [7.315872, 48.142771], [7.315887, 48.14285], [7.315902, 48.142932], [7.315925, 48.143054], [7.315942, 48.143161], [7.315949, 48.143219], [7.315957, 48.143285], [7.315963, 48.143316], [7.315978, 48.143434], [7.316855, 48.143465], [7.317131, 48.14348], [7.317485, 48.143525], [7.317636, 48.143555], [7.318114, 48.143569], [7.31813, 48.14357], [7.318733, 48.143602], [7.31882, 48.143613], [7.319318, 48.143649], [7.319476, 48.143659], [7.31959, 48.143678], [7.320274, 48.14378], [7.320445, 48.143791], [7.320629, 48.143806], [7.32093, 48.14379], [7.320946, 48.143789], [7.321064, 48.14379], [7.321568, 48.143696], [7.321662, 48.143684], [7.321717, 48.143676], [7.321885, 48.143652], [7.322048, 48.143632], [7.322725, 48.143578], [7.322746, 48.143575], [7.322725, 48.143448], [7.322707, 48.143323], [7.322715, 48.143223], [7.322765, 48.143048], [7.322775, 48.143012], [7.322795, 48.142921], [7.3228, 48.142856], [7.322801, 48.142795], [7.322795, 48.14273], [7.32279, 48.142669], [7.322783, 48.142577], [7.322774, 48.142534], [7.322736, 48.142372], [7.322695, 48.1422], [7.322661, 48.142047], [7.322645, 48.142007], [7.322617, 48.141963], [7.322559, 48.141917], [7.32241, 48.141841], [7.322365, 48.141814], [7.322313, 48.141769], [7.322278, 48.141734], [7.322224, 48.141675], [7.322165, 48.141612], [7.3221, 48.141543], [7.322032, 48.141471], [7.321971, 48.141414], [7.321923, 48.14138], [7.321863, 48.141342], [7.321846, 48.141336], [7.32181, 48.141323], [7.321742, 48.141305], [7.321657, 48.141258], [7.321665, 48.141225], [7.321661, 48.14115], [7.321639, 48.141075], [7.321661, 48.141142], [7.321753, 48.141112], [7.321819, 48.141097], [7.322428, 48.140975], [7.322638, 48.140937], [7.322811, 48.140911], [7.323851, 48.14079], [7.323907, 48.140786], [7.323998, 48.140775], [7.32411, 48.140762], [7.324914, 48.140682], [7.324973, 48.14068], [7.325027, 48.140687], [7.325052, 48.140499], [7.325101, 48.140234], [7.325139, 48.140005], [7.325159, 48.139862], [7.325154, 48.1397], [7.325148, 48.139628], [7.325111, 48.139468], [7.325025, 48.139305], [7.324948, 48.139196], [7.324911, 48.13914], [7.324831, 48.139045], [7.324754, 48.138962], [7.324709, 48.138909], [7.324665, 48.138859], [7.324617, 48.138804], [7.324582, 48.138766], [7.324549, 48.138729], [7.324517, 48.138691], [7.324442, 48.138607], [7.324371, 48.138529], [7.324325, 48.138489], [7.32427, 48.138444], [7.324215, 48.138401], [7.324166, 48.138361], [7.324091, 48.138301], [7.323939, 48.138184], [7.323854, 48.138137], [7.32375, 48.138083], [7.323658, 48.138034], [7.323523, 48.137965], [7.323211, 48.137805], [7.32285, 48.137604], [7.322759, 48.137517], [7.322578, 48.137581], [7.322484, 48.137614], [7.32239, 48.137646], [7.322458, 48.137718], [7.322393, 48.137651], [7.322388, 48.137655], [7.322376, 48.137639], [7.322373, 48.137638], [7.322201, 48.137444], [7.322124, 48.137357], [7.321964, 48.137184], [7.321836, 48.137259], [7.3218, 48.137278], [7.321236, 48.137631], [7.321105, 48.137708], [7.320939, 48.137788], [7.320791, 48.137854], [7.320587, 48.13793], [7.32058, 48.137932], [7.320572, 48.137938], [7.320439, 48.137602], [7.320294, 48.137532], [7.320167, 48.13747], [7.320151, 48.137465], [7.319856, 48.137355], [7.319746, 48.137283], [7.319725, 48.137263], [7.319661, 48.137166], [7.319593, 48.137066], [7.319418, 48.137101], [7.31927, 48.13713], [7.319158, 48.13715], [7.319065, 48.137166], [7.318821, 48.137204], [7.318698, 48.137221], [7.318451, 48.137255], [7.318451, 48.13723], [7.318451, 48.137226], [7.31845, 48.137217], [7.318409, 48.137111], [7.318036, 48.137189], [7.318012, 48.137057], [7.318001, 48.137019], [7.317998, 48.137014], [7.317986, 48.136977], [7.317986, 48.136971], [7.317954, 48.136877], [7.31759, 48.137007], [7.317044, 48.137105], [7.316497, 48.137235], [7.316329, 48.137259], [7.316041, 48.137417], [7.315991, 48.137466], [7.315988, 48.137468], [7.315715, 48.137719], [7.315713, 48.137723], [7.315734, 48.137778], [7.314727, 48.138185], [7.314733, 48.138192], [7.314955, 48.138402], [7.314856, 48.138441], [7.314727, 48.138444], [7.314617, 48.138446], [7.31456, 48.138448], [7.314481, 48.138493], [7.314372, 48.138553], [7.314272, 48.138609], [7.314177, 48.138663], [7.31413, 48.138688], [7.31405, 48.13873], [7.314009, 48.138755], [7.313919, 48.138804], [7.313808, 48.138867], [7.313711, 48.13893], [7.31367, 48.138959], [7.313637, 48.138983], [7.313594, 48.139014], [7.31352, 48.139067], [7.313477, 48.139097], [7.31321, 48.139287]], [[7.317135, 48.140297], [7.3171, 48.140033], [7.317099, 48.140026], [7.317077, 48.139948], [7.317028, 48.139749], [7.317061, 48.139754], [7.317115, 48.139755], [7.317185, 48.13976], [7.317188, 48.139789], [7.317195, 48.139877], [7.317131, 48.139886], [7.317152, 48.139979], [7.317168, 48.140069], [7.317174, 48.14011], [7.317179, 48.140148], [7.31718, 48.140158], [7.317188, 48.140219], [7.3172, 48.140297], [7.317209, 48.140377], [7.317215, 48.14042], [7.317211, 48.140464], [7.317194, 48.140589], [7.317187, 48.140665], [7.317173, 48.140763], [7.31716, 48.140896], [7.317153, 48.140951], [7.317185, 48.141068], [7.3172, 48.141127], [7.317219, 48.141195], [7.317231, 48.141245], [7.317234, 48.141306], [7.317236, 48.141373], [7.317239, 48.141438], [7.317242, 48.141503], [7.317244, 48.14156], [7.317245, 48.141609], [7.317247, 48.141666], [7.317248, 48.141708], [7.317249, 48.141792], [7.317252, 48.141895], [7.317253, 48.141937], [7.317254, 48.14198], [7.317252, 48.142028], [7.317252, 48.142117], [7.317252, 48.142155], [7.317253, 48.142198], [7.317251, 48.142311], [7.317251, 48.142375], [7.317252, 48.142479], [7.317253, 48.142501], [7.317255, 48.142519], [7.317282, 48.142653], [7.317294, 48.142708], [7.317323, 48.142853], [7.317331, 48.142891], [7.31734, 48.142935], [7.317362, 48.143039], [7.317372, 48.143093], [7.317384, 48.143145], [7.317406, 48.143187], [7.317391, 48.143159], [7.317317, 48.143149], [7.317279, 48.142979], [7.317207, 48.142659], [7.317173, 48.142505], [7.317174, 48.142453], [7.317176, 48.142275], [7.317176, 48.142177], [7.317174, 48.141925], [7.317174, 48.141894], [7.317173, 48.141784], [7.317164, 48.141511], [7.317158, 48.141264], [7.317156, 48.14125], [7.317137, 48.141173], [7.317117, 48.141096], [7.317078, 48.14095], [7.317081, 48.140916], [7.317104, 48.140743], [7.317114, 48.140671], [7.317151, 48.140426], [7.317135, 48.140297]], [[7.31834, 48.142324], [7.318431, 48.142283], [7.318645, 48.142295], [7.318748, 48.142305], [7.31834, 48.142324]], [[7.319962, 48.142196], [7.320023, 48.142251], [7.320087, 48.142247], [7.320143, 48.142308], [7.320194, 48.142407], [7.320263, 48.142623], [7.320201, 48.142623], [7.320201, 48.142622], [7.320152, 48.14245], [7.320133, 48.142413], [7.320104, 48.142358], [7.320092, 48.142341], [7.320041, 48.142271], [7.319962, 48.142196]], [[7.321476, 48.142441], [7.321486, 48.142526], [7.32154, 48.142524], [7.321545, 48.142594], [7.321492, 48.142599], [7.321476, 48.142441]]], [[[7.317847, 48.134949], [7.31776, 48.13497], [7.31776, 48.135062], [7.31777, 48.13555], [7.317778, 48.135651], [7.317763, 48.135754], [7.317755, 48.13599], [7.317825, 48.136184], [7.317855, 48.136289], [7.317888, 48.136398], [7.317925, 48.13649], [7.317978, 48.136579], [7.318013, 48.136608], [7.318148, 48.136718], [7.318228, 48.136804], [7.318334, 48.136915], [7.318387, 48.136973], [7.318438, 48.137029], [7.318458, 48.137085], [7.3185, 48.137196], [7.318517, 48.137247], [7.318698, 48.137221], [7.318821, 48.137204], [7.319065, 48.137166], [7.319158, 48.13715], [7.31927, 48.13713], [7.319418, 48.137101], [7.319593, 48.137066], [7.319606, 48.137061], [7.319614, 48.137059], [7.319707, 48.137204], [7.319738, 48.137251], [7.319869, 48.137338], [7.320161, 48.137452], [7.320259, 48.137501], [7.320292, 48.137518], [7.320422, 48.137583], [7.320441, 48.137591], [7.320471, 48.137659], [7.320504, 48.137739], [7.320555, 48.137859], [7.320587, 48.13793], [7.320791, 48.137854], [7.320939, 48.137788], [7.321105, 48.137708], [7.321236, 48.137631], [7.3218, 48.137278], [7.321836, 48.137259], [7.321964, 48.137184], [7.321969, 48.13718], [7.321974, 48.137176], [7.321982, 48.137169], [7.322029, 48.137221], [7.322392, 48.137635], [7.322748, 48.13751], [7.322296, 48.136995], [7.322209, 48.136912], [7.322135, 48.136841], [7.322048, 48.136759], [7.32195, 48.136678], [7.321823, 48.136576], [7.321663, 48.136467], [7.321609, 48.136429], [7.321561, 48.136397], [7.321475, 48.136337], [7.321455, 48.136323], [7.321415, 48.136296], [7.321304, 48.136219], [7.321201, 48.136147], [7.321144, 48.136109], [7.321021, 48.136025], [7.320936, 48.135966], [7.32087, 48.135919], [7.320795, 48.135864], [7.320724, 48.135809], [7.320593, 48.135697], [7.320483, 48.1356], [7.320374, 48.135483], [7.320279, 48.135384], [7.320086, 48.135223], [7.32006, 48.135199], [7.320008, 48.135158], [7.319777, 48.13497], [7.319674, 48.134889], [7.31963, 48.134853], [7.319512, 48.13476], [7.319362, 48.134639], [7.319227, 48.13453], [7.319126, 48.134451], [7.318974, 48.134331], [7.318772, 48.134306], [7.318756, 48.134407], [7.318666, 48.134879], [7.318615, 48.135148], [7.318608, 48.135161], [7.31842, 48.135072], [7.318331, 48.135037], [7.318251, 48.135008], [7.31808, 48.134962], [7.317944, 48.134945], [7.317847, 48.134949]]]]}}]}