{"type": "FeatureCollection", "features": [{"type": "Feature", "properties": {"id": "AOC-Alsace-Grand-Cru-Goldert", "name": "Goldert", "commune": "Gueberschwihr", "family": "泥灰石灰岩", "familyColor": "#a569bd", "lessonId": "AL2M5L3"}, "geometry": {"type": "MultiPolygon", "coordinates": [[[[7.278336, 48.004754], [7.27833, 48.004758], [7.277745, 48.004897], [7.277633, 48.004931], [7.277667, 48.00499], [7.277464, 48.005038], [7.277438, 48.005045], [7.277377, 48.00506], [7.277396, 48.005088], [7.277404, 48.005095], [7.277419, 48.005107], [7.277424, 48.00511], [7.277469, 48.005168], [7.277517, 48.005258], [7.277528, 48.005292], [7.277546, 48.005291], [7.277561, 48.005336], [7.277414, 48.005386], [7.277226, 48.005454], [7.277114, 48.005496], [7.277088, 48.005503], [7.276938, 48.005541], [7.276893, 48.005551], [7.276821, 48.005556], [7.276759, 48.005556], [7.276736, 48.005562], [7.276722, 48.005566], [7.276596, 48.005598], [7.276562, 48.005605], [7.276586, 48.00564], [7.276601, 48.005659], [7.276646, 48.005715], [7.276804, 48.005911], [7.276894, 48.006027], [7.2769, 48.006034], [7.277209, 48.006064], [7.277445, 48.006101], [7.27751, 48.006143], [7.277557, 48.006185], [7.277582, 48.006204], [7.277621, 48.006251], [7.277731, 48.006379], [7.277802, 48.006463], [7.277853, 48.006524], [7.277922, 48.006579], [7.278067, 48.00665], [7.278348, 48.0066], [7.278783, 48.006506], [7.278847, 48.006495], [7.279529, 48.006391], [7.279572, 48.006357], [7.2797, 48.00635], [7.280448, 48.006235], [7.280729, 48.006183], [7.280692, 48.006096], [7.280673, 48.006055], [7.280577, 48.005936], [7.280525, 48.005884], [7.280492, 48.005849], [7.280428, 48.005785], [7.28039, 48.005743], [7.28036, 48.005712], [7.280286, 48.005626], [7.280236, 48.005567], [7.280206, 48.005535], [7.280191, 48.005518], [7.280183, 48.005507], [7.280162, 48.005483], [7.280123, 48.005437], [7.280105, 48.005411], [7.280082, 48.00539], [7.28001, 48.005306], [7.279984, 48.005275], [7.279873, 48.00514], [7.27987, 48.005135], [7.279837, 48.005084], [7.279809, 48.005034], [7.279793, 48.005011], [7.279768, 48.004969], [7.279713, 48.004879], [7.279709, 48.00487], [7.279638, 48.004754], [7.279619, 48.00472], [7.279606, 48.004686], [7.279582, 48.004622], [7.279579, 48.004615], [7.278978, 48.004655], [7.278908, 48.00466], [7.278785, 48.004666], [7.27856, 48.004676], [7.278385, 48.004735], [7.278336, 48.004754]]], [[[7.276871, 48.006203], [7.276803, 48.006131], [7.276756, 48.006054], [7.27678, 48.006017], [7.276704, 48.005906], [7.276683, 48.005871], [7.276677, 48.005864], [7.276638, 48.00582], [7.276599, 48.005769], [7.276519, 48.005675], [7.276478, 48.005637], [7.276226, 48.005635], [7.275738, 48.00562], [7.275659, 48.005605], [7.275521, 48.005556], [7.275321, 48.005508], [7.275305, 48.005505], [7.275025, 48.005497], [7.274893, 48.005492], [7.274866, 48.005322], [7.274681, 48.00537], [7.274602, 48.005389], [7.274505, 48.005375], [7.274469, 48.005367], [7.274325, 48.005378], [7.274266, 48.005349], [7.27426, 48.005342], [7.274236, 48.005244], [7.274202, 48.005152], [7.274175, 48.005082], [7.274138, 48.00499], [7.27415, 48.00497], [7.274158, 48.004971], [7.274172, 48.00498], [7.274172, 48.004911], [7.274172, 48.004852], [7.274047, 48.004703], [7.27393, 48.004642], [7.273808, 48.004564], [7.273604, 48.004402], [7.273407, 48.004451], [7.273237, 48.004511], [7.273085, 48.004588], [7.273032, 48.004639], [7.273044, 48.004653], [7.272834, 48.004873], [7.272771, 48.004928], [7.272784, 48.004953], [7.272497, 48.005028], [7.272471, 48.005033], [7.27242, 48.005042], [7.272383, 48.005052], [7.272347, 48.005062], [7.272339, 48.005097], [7.27228, 48.005533], [7.272226, 48.005768], [7.27236, 48.005788], [7.272534, 48.005816], [7.272709, 48.005853], [7.27269, 48.005785], [7.272748, 48.005769], [7.272792, 48.005891], [7.273028, 48.005978], [7.273127, 48.006014], [7.273219, 48.006047], [7.273347, 48.006102], [7.2734, 48.006167], [7.273451, 48.006268], [7.273534, 48.006427], [7.273607, 48.006567], [7.273672, 48.006642], [7.273905, 48.006868], [7.273952, 48.006915], [7.274071, 48.007026], [7.274156, 48.007077], [7.274446, 48.007246], [7.274835, 48.00751], [7.274927, 48.00758], [7.274984, 48.00769], [7.274988, 48.00787], [7.275023, 48.007971], [7.275146, 48.008063], [7.275264, 48.008127], [7.275191, 48.008185], [7.275392, 48.008376], [7.275409, 48.00843], [7.275443, 48.008484], [7.275598, 48.008702], [7.275592, 48.008697], [7.275537, 48.00871], [7.275252, 48.008771], [7.275256, 48.008789], [7.275302, 48.008927], [7.275312, 48.009059], [7.275283, 48.009188], [7.275367, 48.009435], [7.275406, 48.009515], [7.275421, 48.009545], [7.27546, 48.009655], [7.275469, 48.009729], [7.275513, 48.009917], [7.275551, 48.010088], [7.275541, 48.010092], [7.27553, 48.010094], [7.275297, 48.010132], [7.274926, 48.010194], [7.274929, 48.010298], [7.274935, 48.010408], [7.274937, 48.010467], [7.274991, 48.010597], [7.275022, 48.010623], [7.275174, 48.010742], [7.275192, 48.010756], [7.275344, 48.010846], [7.275403, 48.010885], [7.275523, 48.010963], [7.275717, 48.011074], [7.27595, 48.011229], [7.27608, 48.011342], [7.276113, 48.011328], [7.276154, 48.011364], [7.276212, 48.011416], [7.276311, 48.011544], [7.276443, 48.011719], [7.276484, 48.011797], [7.276504, 48.011842], [7.276536, 48.011902], [7.276573, 48.011967], [7.276637, 48.012093], [7.276717, 48.012218], [7.276748, 48.012265], [7.276813, 48.012369], [7.276886, 48.012482], [7.276945, 48.012575], [7.277005, 48.01266], [7.277976, 48.012502], [7.278416, 48.012432], [7.278411, 48.012473], [7.278607, 48.01247], [7.278625, 48.012489], [7.279152, 48.012524], [7.279069, 48.012669], [7.279392, 48.01267], [7.279655, 48.012668], [7.279965, 48.012653], [7.279929, 48.012573], [7.279896, 48.012493], [7.279933, 48.012492], [7.279891, 48.012261], [7.279874, 48.012056], [7.279865, 48.012015], [7.279833, 48.011883], [7.279831, 48.011629], [7.279768, 48.011407], [7.27954, 48.01105], [7.279454, 48.010916], [7.279374, 48.010789], [7.279231, 48.010551], [7.279147, 48.010412], [7.279053, 48.010305], [7.27899, 48.010257], [7.278981, 48.010252], [7.27883, 48.010173], [7.278715, 48.01011], [7.278672, 48.010076], [7.278607, 48.010013], [7.27855, 48.009961], [7.278355, 48.010008], [7.278205, 48.010082], [7.278125, 48.010088], [7.27801, 48.010101], [7.277887, 48.01011], [7.277738, 48.010124], [7.277732, 48.010117], [7.277729, 48.010106], [7.278196, 48.010073], [7.278359, 48.009995], [7.278546, 48.009949], [7.278531, 48.009935], [7.278431, 48.009787], [7.278348, 48.009666], [7.27827, 48.009557], [7.278182, 48.009441], [7.278176, 48.009432], [7.278148, 48.009381], [7.278088, 48.009208], [7.278057, 48.009119], [7.278035, 48.009017], [7.278027, 48.008976], [7.27803, 48.008888], [7.278028, 48.008821], [7.27803, 48.008716], [7.278034, 48.008601], [7.278035, 48.008541], [7.278034, 48.008496], [7.278019, 48.008443], [7.278014, 48.00842], [7.277995, 48.00835], [7.277979, 48.008291], [7.277964, 48.008234], [7.277964, 48.008229], [7.277911, 48.008115], [7.277885, 48.008058], [7.277863, 48.008009], [7.277828, 48.007911], [7.277786, 48.007786], [7.277769, 48.007744], [7.277741, 48.007669], [7.277702, 48.007616], [7.277601, 48.007497], [7.277541, 48.007426], [7.277521, 48.007403], [7.277409, 48.00725], [7.277354, 48.007169], [7.277313, 48.007119], [7.277259, 48.00705], [7.277196, 48.006968], [7.277133, 48.006887], [7.277094, 48.00684], [7.277091, 48.006835], [7.277087, 48.006554], [7.277046, 48.006442], [7.276871, 48.006203]], [[7.276418, 48.010078], [7.276303, 48.009881], [7.276215, 48.009727], [7.276273, 48.009714], [7.276277, 48.009734], [7.276327, 48.009815], [7.276358, 48.009862], [7.276441, 48.010023], [7.27646, 48.010066], [7.276441, 48.010025], [7.276402, 48.01005], [7.276418, 48.010078]]], [[[7.277902, 48.006639], [7.277827, 48.006608], [7.277165, 48.006717], [7.277166, 48.006765], [7.277165, 48.006816], [7.277191, 48.006849], [7.277327, 48.007028], [7.277408, 48.007133], [7.277495, 48.007254], [7.277541, 48.007319], [7.277589, 48.007386], [7.277688, 48.007509], [7.277729, 48.007554], [7.277802, 48.007652], [7.277843, 48.007739], [7.27784, 48.007768], [7.277907, 48.007957], [7.277924, 48.007999], [7.277927, 48.00801], [7.27794, 48.00804], [7.278005, 48.008175], [7.278022, 48.008214], [7.278036, 48.008266], [7.278069, 48.0084], [7.278084, 48.008457], [7.278092, 48.008485], [7.278083, 48.00888], [7.278081, 48.008947], [7.278084, 48.008992], [7.278113, 48.009108], [7.278172, 48.009279], [7.278179, 48.009297], [7.278203, 48.009363], [7.278238, 48.009428], [7.278319, 48.009535], [7.278328, 48.009549], [7.278371, 48.009611], [7.278413, 48.009669], [7.278461, 48.009734], [7.278528, 48.009827], [7.278589, 48.009916], [7.278621, 48.009946], [7.278691, 48.010012], [7.278731, 48.010046], [7.278769, 48.010079], [7.278817, 48.01011], [7.278958, 48.010193], [7.279048, 48.010248], [7.27911, 48.010283], [7.279172, 48.010353], [7.279208, 48.010395], [7.279242, 48.010457], [7.27927, 48.010504], [7.279301, 48.010554], [7.279385, 48.010699], [7.279454, 48.010811], [7.279485, 48.010861], [7.279558, 48.010972], [7.27966, 48.011136], [7.279828, 48.011391], [7.27987, 48.011537], [7.279893, 48.011628], [7.279892, 48.011718], [7.279894, 48.011734], [7.27989, 48.011893], [7.27991, 48.011965], [7.279921, 48.012009], [7.27993, 48.012047], [7.279945, 48.012199], [7.279949, 48.012259], [7.279974, 48.012395], [7.280019, 48.012655], [7.280016, 48.012779], [7.280011, 48.012925], [7.28001, 48.01297], [7.279981, 48.013087], [7.279937, 48.013263], [7.27994, 48.013304], [7.279944, 48.013353], [7.280411, 48.013287], [7.280435, 48.013283], [7.280585, 48.013247], [7.280729, 48.013195], [7.281078, 48.013023], [7.281112, 48.013047], [7.281326, 48.012939], [7.281658, 48.012822], [7.281687, 48.01279], [7.281712, 48.012733], [7.281739, 48.012668], [7.281782, 48.012536], [7.281804, 48.012402], [7.281826, 48.012243], [7.281872, 48.012243], [7.281955, 48.012178], [7.281975, 48.012163], [7.281996, 48.012127], [7.281987, 48.012015], [7.281976, 48.011976], [7.28195, 48.011888], [7.281942, 48.011849], [7.28192, 48.01174], [7.2819, 48.011631], [7.281886, 48.011557], [7.281875, 48.011551], [7.281863, 48.01154], [7.281889, 48.011366], [7.281895, 48.011265], [7.281874, 48.011149], [7.281866, 48.011048], [7.281859, 48.01103], [7.281824, 48.010925], [7.281807, 48.010877], [7.281789, 48.010825], [7.281748, 48.010715], [7.281743, 48.010658], [7.28173, 48.010563], [7.281746, 48.010422], [7.281885, 48.010389], [7.281994, 48.010467], [7.282183, 48.010552], [7.282209, 48.010565], [7.282499, 48.010706], [7.282717, 48.010775], [7.283223, 48.01088], [7.283435, 48.01091], [7.283445, 48.010311], [7.283445, 48.010179], [7.283535, 48.010191], [7.283536, 48.010109], [7.283535, 48.009998], [7.283529, 48.009949], [7.283522, 48.009863], [7.28352, 48.00984], [7.283514, 48.009769], [7.283409, 48.009368], [7.28335, 48.009202], [7.283313, 48.00904], [7.283279, 48.00885], [7.283223, 48.008857], [7.283208, 48.00878], [7.283139, 48.008359], [7.283126, 48.008288], [7.282933, 48.007932], [7.282788, 48.007966], [7.282662, 48.007996], [7.282444, 48.008029], [7.282624, 48.008001], [7.282603, 48.007966], [7.282609, 48.00798], [7.282279, 48.007356], [7.282073, 48.007025], [7.281951, 48.007052], [7.281574, 48.007136], [7.281293, 48.007188], [7.281057, 48.00722], [7.281163, 48.007206], [7.281158, 48.007171], [7.281172, 48.007113], [7.28114, 48.006956], [7.281092, 48.00686], [7.281046, 48.006786], [7.281034, 48.00677], [7.281016, 48.006744], [7.280912, 48.006587], [7.280848, 48.006494], [7.280842, 48.006484], [7.280835, 48.006473], [7.280829, 48.006462], [7.280805, 48.006425], [7.280709, 48.006276], [7.280644, 48.006235], [7.280612, 48.006232], [7.279991, 48.006356], [7.279805, 48.006384], [7.27963, 48.006416], [7.279286, 48.006472], [7.278931, 48.006542], [7.278474, 48.0066], [7.278369, 48.006628], [7.278381, 48.006777], [7.278289, 48.0068], [7.278344, 48.006823], [7.277902, 48.006639]]]]}}]}