{"type": "FeatureCollection", "features": [{"type": "Feature", "properties": {"id": "AOC-Alsace-Grand-Cru-Steingrubler", "name": "Steingrubler", "commune": "Wettolsheim", "family": "泥灰石灰岩", "familyColor": "#5b2c6f", "lessonId": "AL2M5L4"}, "geometry": {"type": "MultiPolygon", "coordinates": [[[[7.292181, 48.055834], [7.292145, 48.055821], [7.291914, 48.05575], [7.291593, 48.055646], [7.291293, 48.055553], [7.291188, 48.055519], [7.291083, 48.055486], [7.291022, 48.055467], [7.290923, 48.055435], [7.290906, 48.055428], [7.290856, 48.055412], [7.290628, 48.055346], [7.290375, 48.055247], [7.290236, 48.055191], [7.290039, 48.055112], [7.289925, 48.055065], [7.289873, 48.055049], [7.289429, 48.054916], [7.28936, 48.054895], [7.289308, 48.054879], [7.28912, 48.054823], [7.289109, 48.054819], [7.288809, 48.054666], [7.288747, 48.054629], [7.288656, 48.054569], [7.288532, 48.054494], [7.288404, 48.054416], [7.288319, 48.054362], [7.288195, 48.054285], [7.288036, 48.054246], [7.287868, 48.054203], [7.287775, 48.05418], [7.287554, 48.054134], [7.287441, 48.054107], [7.287318, 48.054081], [7.287203, 48.054056], [7.28685, 48.053979], [7.286809, 48.053971], [7.28673, 48.053956], [7.286375, 48.053888], [7.286342, 48.053882], [7.286299, 48.053875], [7.285867, 48.053789], [7.28573, 48.053764], [7.285558, 48.053732], [7.285268, 48.053734], [7.285028, 48.053784], [7.284714, 48.054223], [7.284607, 48.054371], [7.284512, 48.054385], [7.28443, 48.054399], [7.283942, 48.054516], [7.284028, 48.05459], [7.284123, 48.05466], [7.284177, 48.054703], [7.284249, 48.054759], [7.284312, 48.05481], [7.284519, 48.054969], [7.284592, 48.055011], [7.284575, 48.055071], [7.284422, 48.0551], [7.284257, 48.055155], [7.284111, 48.055239], [7.283997, 48.055301], [7.284031, 48.055318], [7.283972, 48.055349], [7.283728, 48.055468], [7.28357, 48.055506], [7.283428, 48.05554], [7.283466, 48.055748], [7.283467, 48.05576], [7.283448, 48.055952], [7.283554, 48.056265], [7.283552, 48.056307], [7.28355, 48.056453], [7.283602, 48.056467], [7.283961, 48.056483], [7.284182, 48.056524], [7.284333, 48.056553], [7.284387, 48.056567], [7.284442, 48.056579], [7.284531, 48.056608], [7.284674, 48.056654], [7.284753, 48.056671], [7.284901, 48.056705], [7.28506, 48.056741], [7.285157, 48.056742], [7.285246, 48.056745], [7.285421, 48.056749], [7.285545, 48.056752], [7.285762, 48.056774], [7.285843, 48.056782], [7.285909, 48.056794], [7.286023, 48.056815], [7.286251, 48.056867], [7.286385, 48.056896], [7.286478, 48.056916], [7.286683, 48.056963], [7.286708, 48.056969], [7.286836, 48.057022], [7.286861, 48.057034], [7.286987, 48.057092], [7.287222, 48.057174], [7.287378, 48.05717], [7.287495, 48.057158], [7.2877, 48.057099], [7.287618, 48.057123], [7.287594, 48.05722], [7.287496, 48.057375], [7.287368, 48.057585], [7.287337, 48.057631], [7.287445, 48.057641], [7.287616, 48.057655], [7.287646, 48.057625], [7.287804, 48.057626], [7.287803, 48.057803], [7.287843, 48.057769], [7.288067, 48.057716], [7.288201, 48.057711], [7.288327, 48.057703], [7.288639, 48.057675], [7.288717, 48.057669], [7.288763, 48.057774], [7.288856, 48.057794], [7.289131, 48.05787], [7.289606, 48.057698], [7.289795, 48.057642], [7.290058, 48.057606], [7.29034, 48.05759], [7.290385, 48.057617], [7.290633, 48.05779], [7.290852, 48.057811], [7.291001, 48.057824], [7.291082, 48.057831], [7.291169, 48.057841], [7.291277, 48.05785], [7.29128, 48.057777], [7.291281, 48.057761], [7.291332, 48.057765], [7.291524, 48.057777], [7.291695, 48.057789], [7.291905, 48.057803], [7.291904, 48.057852], [7.291904, 48.057883], [7.291899, 48.05816], [7.291896, 48.058348], [7.292383, 48.058317], [7.292704, 48.058338], [7.292776, 48.058327], [7.292807, 48.058309], [7.292844, 48.058268], [7.292871, 48.05811], [7.292926, 48.058116], [7.292999, 48.05812], [7.29321, 48.058138], [7.293258, 48.058138], [7.293303, 48.058131], [7.293336, 48.058104], [7.293338, 48.058063], [7.293333, 48.057973], [7.293329, 48.057922], [7.293362, 48.0577], [7.293364, 48.057687], [7.293365, 48.057638], [7.293365, 48.057627], [7.293363, 48.057543], [7.293218, 48.057451], [7.293137, 48.057275], [7.293083, 48.057212], [7.292932, 48.057167], [7.292863, 48.05715], [7.292833, 48.057142], [7.292602, 48.05708], [7.292415, 48.057064], [7.292371, 48.057008], [7.292051, 48.056846], [7.291889, 48.05671], [7.291723, 48.056546], [7.29173, 48.056533], [7.291742, 48.056522], [7.291888, 48.056665], [7.292039, 48.056794], [7.292289, 48.056933], [7.292505, 48.057037], [7.292627, 48.057058], [7.292941, 48.05714], [7.293117, 48.057191], [7.293185, 48.057268], [7.293225, 48.057337], [7.293263, 48.057404], [7.29331, 48.057455], [7.293498, 48.057453], [7.293361, 48.057454], [7.293468, 48.057577], [7.293431, 48.05769], [7.293423, 48.057751], [7.293413, 48.057856], [7.293399, 48.057925], [7.29367, 48.057917], [7.293847, 48.05794], [7.294078, 48.057965], [7.294126, 48.057969], [7.294308, 48.057986], [7.294803, 48.057964], [7.294794, 48.057883], [7.294787, 48.057799], [7.29477, 48.057654], [7.294767, 48.05761], [7.294766, 48.057607], [7.294874, 48.057605], [7.294861, 48.057486], [7.294853, 48.057384], [7.294849, 48.057337], [7.294831, 48.057338], [7.295095, 48.057317], [7.295111, 48.057317], [7.29514, 48.057305], [7.295144, 48.057289], [7.295133, 48.057256], [7.295118, 48.057199], [7.295106, 48.057153], [7.295072, 48.056996], [7.295067, 48.056969], [7.295024, 48.056877], [7.294961, 48.056762], [7.294951, 48.056731], [7.294875, 48.056691], [7.294758, 48.056645], [7.294606, 48.056589], [7.294308, 48.056533], [7.294221, 48.056518], [7.293844, 48.056476], [7.293713, 48.056461], [7.293692, 48.056457], [7.293681, 48.056453], [7.293645, 48.056446], [7.293483, 48.056406], [7.293206, 48.056339], [7.292992, 48.05625], [7.292907, 48.0562], [7.292654, 48.05606], [7.29246, 48.055952], [7.292443, 48.055942], [7.292326, 48.055892], [7.292181, 48.055834]]]]}}]}