{"type": "FeatureCollection", "features": [{"type": "Feature", "properties": {"id": "AOC-Alsace-Grand-Cru-Mambourg", "name": "Mambourg", "commune": "Sigolsheim", "family": "泥灰石灰岩", "familyColor": "#8e44ad", "lessonId": "AL2M5L4"}, "geometry": {"type": "MultiPolygon", "coordinates": [[[[7.300787, 48.136899], [7.300862, 48.136988], [7.300734, 48.137038], [7.300784, 48.137094], [7.300946, 48.137257], [7.300951, 48.137255], [7.301011, 48.137231], [7.301046, 48.137266], [7.301114, 48.137235], [7.301215, 48.137154], [7.301291, 48.137066], [7.301027, 48.136793], [7.300918, 48.136844], [7.300824, 48.136883], [7.30079, 48.136899], [7.300787, 48.136899]]], [[[7.305382, 48.135924], [7.305689, 48.135884], [7.30575, 48.135842], [7.305802, 48.135854], [7.305812, 48.13591], [7.305847, 48.136006], [7.305901, 48.136038], [7.305952, 48.136042], [7.306058, 48.136025], [7.306271, 48.135996], [7.306444, 48.13597], [7.306638, 48.135968], [7.306706, 48.135973], [7.307019, 48.135981], [7.307086, 48.135984], [7.307253, 48.135947], [7.307386, 48.135923], [7.307488, 48.135895], [7.307418, 48.135624], [7.307327, 48.135269], [7.307176, 48.135303], [7.30704, 48.135323], [7.306891, 48.135344], [7.306623, 48.135385], [7.306553, 48.135384], [7.306359, 48.135391], [7.306179, 48.135394], [7.305967, 48.1354], [7.305814, 48.135403], [7.305836, 48.135516], [7.305746, 48.135527], [7.305687, 48.135534], [7.305658, 48.135568], [7.305396, 48.135464], [7.305243, 48.135469], [7.305055, 48.13548], [7.304803, 48.135493], [7.304718, 48.135497], [7.304616, 48.135503], [7.304495, 48.135509], [7.304598, 48.135743], [7.304611, 48.135777], [7.304289, 48.135825], [7.304284, 48.135825], [7.303912, 48.135893], [7.30391, 48.135893], [7.303941, 48.135946], [7.304041, 48.136187], [7.304314, 48.136127], [7.304402, 48.136124], [7.304731, 48.136054], [7.30473, 48.13605], [7.304836, 48.136021], [7.304931, 48.136003], [7.305228, 48.135946], [7.305382, 48.135924]]], [[[7.302158, 48.136732], [7.302071, 48.136387], [7.301857, 48.136445], [7.301644, 48.136502], [7.301541, 48.136697], [7.301585, 48.136776], [7.301539, 48.136807], [7.301403, 48.137015], [7.30126, 48.137177], [7.301201, 48.137214], [7.301401, 48.137356], [7.301419, 48.137442], [7.301102, 48.137488], [7.301083, 48.13749], [7.301121, 48.137559], [7.301176, 48.137701], [7.301194, 48.137762], [7.301275, 48.138161], [7.301341, 48.138467], [7.301372, 48.138583], [7.301385, 48.138613], [7.301405, 48.138661], [7.301425, 48.138705], [7.301485, 48.138752], [7.301531, 48.138782], [7.301554, 48.138801], [7.301585, 48.138816], [7.301638, 48.13884], [7.301721, 48.138867], [7.301723, 48.138862], [7.301907, 48.138902], [7.302346, 48.139012], [7.30246, 48.139048], [7.302489, 48.139048], [7.30271, 48.139215], [7.30291, 48.139392], [7.302884, 48.139434], [7.302888, 48.139475], [7.302891, 48.139513], [7.302817, 48.139537], [7.302855, 48.139606], [7.302861, 48.139615], [7.302947, 48.139837], [7.302938, 48.139893], [7.302861, 48.140039], [7.302856, 48.140048], [7.302826, 48.140103], [7.30282, 48.140161], [7.302845, 48.140407], [7.30285, 48.14047], [7.302882, 48.140757], [7.302875, 48.140775], [7.302848, 48.140836], [7.302839, 48.140858], [7.302829, 48.140873], [7.302825, 48.140891], [7.302801, 48.140991], [7.302833, 48.141081], [7.302964, 48.141273], [7.303222, 48.141565], [7.303443, 48.141829], [7.30348, 48.141858], [7.303486, 48.141858], [7.303413, 48.141888], [7.303284, 48.141997], [7.303607, 48.14245], [7.30364, 48.142492], [7.303933, 48.142483], [7.304149, 48.142428], [7.304329, 48.142429], [7.304402, 48.142426], [7.30452, 48.142357], [7.304657, 48.142253], [7.304794, 48.142154], [7.304923, 48.142076], [7.305084, 48.142003], [7.305169, 48.141959], [7.305307, 48.141867], [7.305526, 48.141718], [7.305667, 48.14163], [7.305735, 48.141567], [7.305799, 48.14146], [7.30579, 48.141419], [7.305782, 48.141358], [7.305764, 48.14127], [7.30576, 48.141216], [7.305769, 48.141162], [7.305802, 48.141072], [7.305891, 48.140945], [7.306085, 48.140745], [7.30623, 48.14061], [7.306293, 48.140582], [7.3063, 48.140569], [7.306351, 48.140502], [7.306365, 48.140482], [7.306479, 48.140451], [7.30655, 48.14043], [7.306613, 48.140412], [7.306692, 48.140389], [7.306786, 48.14036], [7.306939, 48.140315], [7.307096, 48.140297], [7.307208, 48.140282], [7.307262, 48.140251], [7.307391, 48.140181], [7.307417, 48.140166], [7.307615, 48.140083], [7.307661, 48.140063], [7.307709, 48.140047], [7.3078, 48.140017], [7.308105, 48.139917], [7.308165, 48.139897], [7.308196, 48.13988], [7.308257, 48.139842], [7.308265, 48.139836], [7.308314, 48.139807], [7.308406, 48.139751], [7.308535, 48.139718], [7.308786, 48.139725], [7.30893, 48.139804], [7.308958, 48.139886], [7.309023, 48.139889], [7.309196, 48.139899], [7.309337, 48.139907], [7.309541, 48.139861], [7.309729, 48.13982], [7.30979, 48.139787], [7.309899, 48.139726], [7.310007, 48.139666], [7.310079, 48.139627], [7.310373, 48.139431], [7.310402, 48.139397], [7.31042, 48.139379], [7.310426, 48.139353], [7.310508, 48.13931], [7.310511, 48.139309], [7.310559, 48.139276], [7.310613, 48.139242], [7.310626, 48.139234], [7.310759, 48.139153], [7.310782, 48.13914], [7.310946, 48.139069], [7.310957, 48.139065], [7.310977, 48.139055], [7.311097, 48.139006], [7.31121, 48.138962], [7.311209, 48.138959], [7.311475, 48.138952], [7.311572, 48.138951], [7.31169, 48.138948], [7.311729, 48.138765], [7.311794, 48.138768], [7.31193, 48.138784], [7.312035, 48.138786], [7.312138, 48.138786], [7.312173, 48.138786], [7.312176, 48.13879], [7.312435, 48.139002], [7.312604, 48.139221], [7.312851, 48.139472], [7.312915, 48.139431], [7.313184, 48.139238], [7.313698, 48.138871], [7.313747, 48.138841], [7.313925, 48.138742], [7.314419, 48.138468], [7.314424, 48.138432], [7.314303, 48.138361], [7.313815, 48.138063], [7.313727, 48.138007], [7.313742, 48.137959], [7.313739, 48.137956], [7.313486, 48.137918], [7.31375, 48.137957], [7.314031, 48.138129], [7.314417, 48.138374], [7.314471, 48.138408], [7.314476, 48.138408], [7.314558, 48.138391], [7.314689, 48.138139], [7.315382, 48.13786], [7.3157, 48.137733], [7.315713, 48.137723], [7.315715, 48.137719], [7.315988, 48.137468], [7.315991, 48.137466], [7.316041, 48.137417], [7.316329, 48.137259], [7.316497, 48.137235], [7.317044, 48.137105], [7.31759, 48.137007], [7.317954, 48.136877], [7.317986, 48.136971], [7.317986, 48.136977], [7.317998, 48.137014], [7.318001, 48.137019], [7.318011, 48.137044], [7.318036, 48.137189], [7.318409, 48.137111], [7.318329, 48.136986], [7.318276, 48.136926], [7.318175, 48.136817], [7.318064, 48.136702], [7.317922, 48.136617], [7.317832, 48.136442], [7.317797, 48.136279], [7.317755, 48.13612], [7.317721, 48.136073], [7.317707, 48.136068], [7.317681, 48.135946], [7.317681, 48.135842], [7.317708, 48.135646], [7.317713, 48.135278], [7.317715, 48.135236], [7.317708, 48.134983], [7.317716, 48.134883], [7.317805, 48.134893], [7.317887, 48.1349], [7.317949, 48.134905], [7.318063, 48.134921], [7.318099, 48.134925], [7.318296, 48.134972], [7.31831, 48.134977], [7.318446, 48.135024], [7.318465, 48.135031], [7.318533, 48.135033], [7.318594, 48.134992], [7.3187, 48.134404], [7.318545, 48.134388], [7.318403, 48.134364], [7.318386, 48.134361], [7.318094, 48.134314], [7.317955, 48.134292], [7.317909, 48.134289], [7.317831, 48.134282], [7.317775, 48.134265], [7.317732, 48.134261], [7.317651, 48.134258], [7.317605, 48.134256], [7.31761, 48.134114], [7.317613, 48.133989], [7.317457, 48.133991], [7.317094, 48.133999], [7.317045, 48.133998], [7.316776, 48.133998], [7.3163, 48.134001], [7.316201, 48.134005], [7.31604, 48.134018], [7.315968, 48.134023], [7.315651, 48.134072], [7.315509, 48.13411], [7.315396, 48.134146], [7.315161, 48.134231], [7.314878, 48.134331], [7.315011, 48.134636], [7.315025, 48.134645], [7.315105, 48.134696], [7.315059, 48.134761], [7.315093, 48.135246], [7.315114, 48.135606], [7.315129, 48.135852], [7.315086, 48.135854], [7.315051, 48.135853], [7.315028, 48.135571], [7.315022, 48.135496], [7.314972, 48.134753], [7.314946, 48.1347], [7.314846, 48.134431], [7.314812, 48.13438], [7.314746, 48.134356], [7.314654, 48.134348], [7.314589, 48.134352], [7.314249, 48.134374], [7.314142, 48.134385], [7.313814, 48.134415], [7.313704, 48.134428], [7.313558, 48.134448], [7.313411, 48.134469], [7.313265, 48.134491], [7.313113, 48.134515], [7.31301, 48.134529], [7.312874, 48.13455], [7.312683, 48.134581], [7.312276, 48.134643], [7.312013, 48.13469], [7.311874, 48.134735], [7.31173, 48.134783], [7.311318, 48.134917], [7.311256, 48.134948], [7.311175, 48.134948], [7.310949, 48.134942], [7.310784, 48.134939], [7.310657, 48.134938], [7.310385, 48.134935], [7.310104, 48.134955], [7.309941, 48.134973], [7.309925, 48.134976], [7.309654, 48.135018], [7.309174, 48.135102], [7.30896, 48.13515], [7.308951, 48.135173], [7.308681, 48.135201], [7.308564, 48.135213], [7.308397, 48.135217], [7.30819, 48.135223], [7.308048, 48.13523], [7.307905, 48.135226], [7.307589, 48.135247], [7.307348, 48.135263], [7.307504, 48.135891], [7.307663, 48.13586], [7.30768, 48.135906], [7.307697, 48.135949], [7.307846, 48.136385], [7.307977, 48.136768], [7.308059, 48.136756], [7.308099, 48.136809], [7.308105, 48.136816], [7.308217, 48.136939], [7.308207, 48.136943], [7.307998, 48.137], [7.307933, 48.137018], [7.307854, 48.136848], [7.307848, 48.136834], [7.307833, 48.13678], [7.307614, 48.136805], [7.307952, 48.136765], [7.307674, 48.135961], [7.30766, 48.135914], [7.307649, 48.135917], [7.307329, 48.135984], [7.307095, 48.136027], [7.306958, 48.136023], [7.306852, 48.13602], [7.306701, 48.136016], [7.306636, 48.136015], [7.30648, 48.136013], [7.306344, 48.136031], [7.306195, 48.136051], [7.306131, 48.13606], [7.306099, 48.136065], [7.306027, 48.136075], [7.305893, 48.136073], [7.305845, 48.136084], [7.305785, 48.135979], [7.305721, 48.135944], [7.305674, 48.135935], [7.30549, 48.135954], [7.305234, 48.135989], [7.305144, 48.136008], [7.305059, 48.136024], [7.304964, 48.136042], [7.304842, 48.136066], [7.304683, 48.136097], [7.304309, 48.136172], [7.304045, 48.136238], [7.304032, 48.136242], [7.303886, 48.136297], [7.303787, 48.136335], [7.303781, 48.13629], [7.303648, 48.135989], [7.303258, 48.136086], [7.302983, 48.136152], [7.302896, 48.136177], [7.302727, 48.136221], [7.302387, 48.136307], [7.302266, 48.136339], [7.302389, 48.136689], [7.3024, 48.136727], [7.302678, 48.13667], [7.302312, 48.136746], [7.302132, 48.136776], [7.302164, 48.136769], [7.302158, 48.136732]], [[7.308901, 48.138587], [7.308913, 48.138642], [7.308826, 48.138655], [7.308811, 48.138603], [7.308901, 48.138587]], [[7.31452, 48.137331], [7.314502, 48.137277], [7.314513, 48.137306], [7.31452, 48.137331]]]]}}]}