{"type": "FeatureCollection", "features": [{"type": "Feature", "properties": {"id": "AOC-Alsace-Grand-Cru-Hengst", "name": "Hengst", "commune": "Wintzenheim", "family": "泥灰石灰岩", "familyColor": "#6c3483", "lessonId": "AL2M5L3"}, "geometry": {"type": "MultiPolygon", "coordinates": [[[[7.293059, 48.060252], [7.293045, 48.060188], [7.293033, 48.060139], [7.293026, 48.06012], [7.293013, 48.060088], [7.292942, 48.060078], [7.292861, 48.060065], [7.292787, 48.060055], [7.29276, 48.06005], [7.292711, 48.060045], [7.292681, 48.060042], [7.292627, 48.060037], [7.292538, 48.060028], [7.292521, 48.060027], [7.292424, 48.060017], [7.292311, 48.060013], [7.292154, 48.060007], [7.291998, 48.060002], [7.291941, 48.060001], [7.291836, 48.059996], [7.291809, 48.059995], [7.291734, 48.059992], [7.291671, 48.059985], [7.291631, 48.059982], [7.291519, 48.059968], [7.29147, 48.059962], [7.2914, 48.059954], [7.291362, 48.05995], [7.291091, 48.059926], [7.29105, 48.059922], [7.290936, 48.059908], [7.290917, 48.059907], [7.290771, 48.05989], [7.290706, 48.059882], [7.290513, 48.05986], [7.290353, 48.059844], [7.29025, 48.059828], [7.290114, 48.05981], [7.289829, 48.059753], [7.28951, 48.059689], [7.289299, 48.059672], [7.289106, 48.059657], [7.288751, 48.059647], [7.288737, 48.059647], [7.288695, 48.059685], [7.288701, 48.059703], [7.288733, 48.059766], [7.288827, 48.059858], [7.288929, 48.059923], [7.289107, 48.059998], [7.289279, 48.060056], [7.289626, 48.060165], [7.289886, 48.060279], [7.290031, 48.06035], [7.290145, 48.060398], [7.290304, 48.060468], [7.290396, 48.060508], [7.290538, 48.060571], [7.290636, 48.060616], [7.290672, 48.060633], [7.29074, 48.060665], [7.290821, 48.060701], [7.290887, 48.060731], [7.29098, 48.060773], [7.291088, 48.06082], [7.291191, 48.060866], [7.291236, 48.060886], [7.291256, 48.060895], [7.291342, 48.060933], [7.291382, 48.060955], [7.291418, 48.060973], [7.291516, 48.061026], [7.291604, 48.061077], [7.291635, 48.061095], [7.291677, 48.061123], [7.291742, 48.06116], [7.291844, 48.061219], [7.291864, 48.061233], [7.291901, 48.061257], [7.291935, 48.061281], [7.292006, 48.061327], [7.292066, 48.061373], [7.292101, 48.061403], [7.292153, 48.061444], [7.292216, 48.061496], [7.292243, 48.061536], [7.292292, 48.06161], [7.292332, 48.061668], [7.292389, 48.06167], [7.292431, 48.061634], [7.292499, 48.061576], [7.292545, 48.061536], [7.2926, 48.061487], [7.292635, 48.061461], [7.292699, 48.061417], [7.292745, 48.061383], [7.292762, 48.061371], [7.292813, 48.061335], [7.292856, 48.061303], [7.292861, 48.061299], [7.292864, 48.061296], [7.292923, 48.061232], [7.29297, 48.061178], [7.292993, 48.061138], [7.293038, 48.06106], [7.293065, 48.060989], [7.293076, 48.060965], [7.29308, 48.060949], [7.293083, 48.060943], [7.293087, 48.060929], [7.293091, 48.06092], [7.293091, 48.060918], [7.293096, 48.060882], [7.293105, 48.060816], [7.293114, 48.06074], [7.293111, 48.060697], [7.293101, 48.06057], [7.293093, 48.060471], [7.293081, 48.060365], [7.293073, 48.060325], [7.293063, 48.060266], [7.293059, 48.060252]]], [[[7.287775, 48.059322], [7.28769, 48.059269], [7.287517, 48.059192], [7.287501, 48.05922], [7.287203, 48.059727], [7.28722, 48.059731], [7.287148, 48.059871], [7.286983, 48.059828], [7.286754, 48.060192], [7.286702, 48.060316], [7.286454, 48.0607], [7.286539, 48.060749], [7.286605, 48.06077], [7.28684, 48.060848], [7.287, 48.060898], [7.287125, 48.060953], [7.287197, 48.060983], [7.287289, 48.061014], [7.287374, 48.061043], [7.287419, 48.061058], [7.287488, 48.061081], [7.28756, 48.061105], [7.28767, 48.061141], [7.287725, 48.061158], [7.287759, 48.061179], [7.288075, 48.061364], [7.28825, 48.061467], [7.28838, 48.06154], [7.288445, 48.061576], [7.288532, 48.061627], [7.288631, 48.061682], [7.288806, 48.061784], [7.28889, 48.061832], [7.288975, 48.061881], [7.289048, 48.061921], [7.289127, 48.061965], [7.289169, 48.061989], [7.289234, 48.062023], [7.289321, 48.06207], [7.289349, 48.062083], [7.289451, 48.062121], [7.289515, 48.062144], [7.28956, 48.062166], [7.289675, 48.062225], [7.289724, 48.062264], [7.289816, 48.062344], [7.289873, 48.062378], [7.289966, 48.062434], [7.290009, 48.06246], [7.290067, 48.062479], [7.290202, 48.062523], [7.290273, 48.062531], [7.2904, 48.062546], [7.29046, 48.062553], [7.290535, 48.062548], [7.290605, 48.062546], [7.290672, 48.062547], [7.290855, 48.062551], [7.290982, 48.062554], [7.291178, 48.062552], [7.291307, 48.062553], [7.291409, 48.062551], [7.291535, 48.06255], [7.291667, 48.062549], [7.291753, 48.062547], [7.29192, 48.062518], [7.292056, 48.062479], [7.292122, 48.06246], [7.292241, 48.0624], [7.29229, 48.062375], [7.292381, 48.062306], [7.292449, 48.062253], [7.292503, 48.062212], [7.292535, 48.062178], [7.292582, 48.06213], [7.292549, 48.062082], [7.292527, 48.062052], [7.292487, 48.061991], [7.292454, 48.061943], [7.292439, 48.06192], [7.292387, 48.061845], [7.29235, 48.061787], [7.292331, 48.06176], [7.292298, 48.061709], [7.292259, 48.061658], [7.292247, 48.061643], [7.292192, 48.061569], [7.29215, 48.061516], [7.29209, 48.06147], [7.292018, 48.061415], [7.29201, 48.06141], [7.29195, 48.061361], [7.291876, 48.061312], [7.291821, 48.061274], [7.291767, 48.061236], [7.291728, 48.061211], [7.291676, 48.061175], [7.291645, 48.061153], [7.291614, 48.061136], [7.291549, 48.061097], [7.291493, 48.061064], [7.291428, 48.061031], [7.291341, 48.060983], [7.291304, 48.060963], [7.291248, 48.060938], [7.29119, 48.060913], [7.291112, 48.060878], [7.291042, 48.060847], [7.290989, 48.060823], [7.290922, 48.060793], [7.290861, 48.060765], [7.290802, 48.060738], [7.290707, 48.060693], [7.290603, 48.060644], [7.290503, 48.060598], [7.290269, 48.060493], [7.290121, 48.06043], [7.290007, 48.060387], [7.289892, 48.060326], [7.28985, 48.060304], [7.289764, 48.060268], [7.289683, 48.060231], [7.289602, 48.060196], [7.289505, 48.060167], [7.289439, 48.06015], [7.289349, 48.060122], [7.289277, 48.0601], [7.289127, 48.060048], [7.28908, 48.060029], [7.288986, 48.059991], [7.288905, 48.059957], [7.288894, 48.059952], [7.28884, 48.059923], [7.288793, 48.059898], [7.288694, 48.059847], [7.288675, 48.059743], [7.288647, 48.059692], [7.288604, 48.059665], [7.288524, 48.059639], [7.28835, 48.059618], [7.288189, 48.059581], [7.288027, 48.059504], [7.287981, 48.059477], [7.28797, 48.05947], [7.287873, 48.059396], [7.287775, 48.059322]]], [[[7.289499, 48.065951], [7.289275, 48.065878], [7.289211, 48.065857], [7.289143, 48.065842], [7.289014, 48.065814], [7.288926, 48.065792], [7.288759, 48.065746], [7.28861, 48.065704], [7.288574, 48.065758], [7.28855, 48.065795], [7.288541, 48.065819], [7.288521, 48.065868], [7.288528, 48.065915], [7.288528, 48.065916], [7.288493, 48.065988], [7.288454, 48.06607], [7.288383, 48.066215], [7.288377, 48.066246], [7.288421, 48.066257], [7.28855, 48.066291], [7.288663, 48.066319], [7.288725, 48.066331], [7.288884, 48.066358], [7.288976, 48.066374], [7.289075, 48.066401], [7.289224, 48.066443], [7.289307, 48.066467], [7.289429, 48.066489], [7.289525, 48.066509], [7.289624, 48.066533], [7.289747, 48.066562], [7.289838, 48.066584], [7.290472, 48.06675], [7.290529, 48.066723], [7.290576, 48.066698], [7.290606, 48.066673], [7.290667, 48.066626], [7.290685, 48.066584], [7.290718, 48.066502], [7.290768, 48.066377], [7.290757, 48.066349], [7.290658, 48.066315], [7.290538, 48.066272], [7.290442, 48.066238], [7.290337, 48.066206], [7.290199, 48.066164], [7.290152, 48.066149], [7.290031, 48.066112], [7.289824, 48.066049], [7.289678, 48.066006], [7.289543, 48.065966], [7.289499, 48.065951]]], [[[7.290888, 48.066829], [7.291196, 48.066854], [7.29138, 48.066905], [7.291667, 48.066959], [7.291774, 48.066989], [7.29175, 48.067023], [7.291743, 48.067032], [7.291663, 48.067109], [7.291682, 48.06711], [7.291879, 48.067115], [7.292065, 48.067127], [7.292224, 48.067133], [7.292247, 48.067145], [7.292408, 48.067138], [7.292625, 48.067168], [7.292764, 48.067186], [7.292878, 48.067202], [7.2929, 48.067204], [7.293025, 48.067221], [7.293445, 48.067262], [7.293577, 48.067261], [7.293578, 48.067248], [7.293585, 48.067201], [7.293586, 48.067138], [7.293586, 48.067048], [7.293563, 48.067025], [7.292964, 48.066896], [7.292718, 48.066856], [7.292487, 48.066825], [7.291964, 48.066804], [7.291921, 48.066773], [7.29155, 48.066675], [7.291382, 48.066622], [7.291045, 48.066479], [7.290901, 48.066428], [7.29082, 48.066465], [7.290806, 48.066488], [7.29079, 48.066521], [7.290774, 48.066552], [7.290725, 48.066649], [7.290697, 48.066672], [7.290617, 48.066741], [7.290573, 48.066765], [7.290511, 48.066796], [7.290768, 48.066819], [7.290888, 48.066829]]], [[[7.284738, 48.063448], [7.284622, 48.063344], [7.284611, 48.063346], [7.284553, 48.063361], [7.284692, 48.063549], [7.284812, 48.063759], [7.284857, 48.06392], [7.284923, 48.064038], [7.28509, 48.06421], [7.285156, 48.064291], [7.285193, 48.064385], [7.285181, 48.064436], [7.285186, 48.06447], [7.285192, 48.0645], [7.285234, 48.064553], [7.285278, 48.064605], [7.285387, 48.06469], [7.285637, 48.064856], [7.285785, 48.064955], [7.285815, 48.06493], [7.285883, 48.064902], [7.28598, 48.064901], [7.286103, 48.064927], [7.286133, 48.064937], [7.286219, 48.064966], [7.286312, 48.064982], [7.286428, 48.064989], [7.286627, 48.064957], [7.286631, 48.064942], [7.286441, 48.064817], [7.286295, 48.064714], [7.286243, 48.064702], [7.286065, 48.064555], [7.286056, 48.064545], [7.285977, 48.064468], [7.285968, 48.064458], [7.285881, 48.06438], [7.285817, 48.064325], [7.285607, 48.064186], [7.28548, 48.064113], [7.285312, 48.064031], [7.285188, 48.063958], [7.285047, 48.063815], [7.284906, 48.063626], [7.284825, 48.063526], [7.284738, 48.063448]]], [[[7.294523, 48.060465], [7.294532, 48.060355], [7.294544, 48.060263], [7.294513, 48.060244], [7.294448, 48.060239], [7.294021, 48.060219], [7.293903, 48.060214], [7.293786, 48.060197], [7.293622, 48.060174], [7.293157, 48.060108], [7.293147, 48.06011], [7.293134, 48.060114], [7.29312, 48.060116], [7.293118, 48.06012], [7.293116, 48.060124], [7.293113, 48.060129], [7.293112, 48.060147], [7.293104, 48.060186], [7.293135, 48.060365], [7.293136, 48.060411], [7.293146, 48.060568], [7.293154, 48.060696], [7.293158, 48.060748], [7.293151, 48.060791], [7.293132, 48.060886], [7.293122, 48.060938], [7.293102, 48.061013], [7.293085, 48.061069], [7.293082, 48.061071], [7.293056, 48.061114], [7.293013, 48.061182], [7.292947, 48.061289], [7.292923, 48.061328], [7.292906, 48.061353], [7.29289, 48.061381], [7.292809, 48.061388], [7.292804, 48.061391], [7.292746, 48.061431], [7.292641, 48.0615], [7.292636, 48.061506], [7.292568, 48.061564], [7.292456, 48.061667], [7.292418, 48.061701], [7.292407, 48.061729], [7.292393, 48.061758], [7.292418, 48.061795], [7.292479, 48.061888], [7.292522, 48.061953], [7.292573, 48.062016], [7.292651, 48.062114], [7.292702, 48.062152], [7.292811, 48.062231], [7.292888, 48.062288], [7.292957, 48.062339], [7.292965, 48.062346], [7.29302, 48.062391], [7.293121, 48.062474], [7.29319, 48.062529], [7.293199, 48.06254], [7.293273, 48.062623], [7.293353, 48.062714], [7.293403, 48.06277], [7.293418, 48.062795], [7.293479, 48.062881], [7.29354, 48.062971], [7.293559, 48.063001], [7.293597, 48.063039], [7.293652, 48.063091], [7.29368, 48.063108], [7.293714, 48.063126], [7.293801, 48.063163], [7.29387, 48.063193], [7.293933, 48.06321], [7.294038, 48.063241], [7.294062, 48.063238], [7.294105, 48.063237], [7.294252, 48.063228], [7.294418, 48.063218], [7.294485, 48.063215], [7.294538, 48.063205], [7.294654, 48.063182], [7.294697, 48.063175], [7.294751, 48.06315], [7.294837, 48.063109], [7.294883, 48.063078], [7.294936, 48.063042], [7.294963, 48.063011], [7.295019, 48.062942], [7.295056, 48.062897], [7.295157, 48.062785], [7.295192, 48.062748], [7.295204, 48.062737], [7.295265, 48.062686], [7.295366, 48.062603], [7.295422, 48.06257], [7.295528, 48.062511], [7.295636, 48.062451], [7.295635, 48.062444], [7.295628, 48.062426], [7.295601, 48.062353], [7.29559, 48.062315], [7.295555, 48.062216], [7.295547, 48.062158], [7.295538, 48.06207], [7.295521, 48.062033], [7.295512, 48.062017], [7.295458, 48.061888], [7.295442, 48.061852], [7.295413, 48.061799], [7.295325, 48.061644], [7.295287, 48.061596], [7.295263, 48.06157], [7.295173, 48.06152], [7.294973, 48.06141], [7.294891, 48.061364], [7.294865, 48.061338], [7.294859, 48.061329], [7.294824, 48.061291], [7.294793, 48.06125], [7.294763, 48.06121], [7.294739, 48.06115], [7.294696, 48.061039], [7.294686, 48.06102], [7.294655, 48.060942], [7.294639, 48.060903], [7.294604, 48.060837], [7.294575, 48.060783], [7.294566, 48.060767], [7.294545, 48.060712], [7.294528, 48.060667], [7.294522, 48.06062], [7.294515, 48.060568], [7.294517, 48.060523], [7.294523, 48.060465]]], [[[7.285031, 48.060267], [7.284777, 48.06024], [7.284704, 48.060479], [7.284642, 48.060642], [7.284559, 48.060647], [7.284511, 48.060818], [7.284476, 48.060979], [7.284397, 48.061226], [7.284367, 48.061263], [7.284325, 48.061403], [7.284195, 48.061794], [7.284384, 48.061902], [7.284646, 48.061983], [7.284734, 48.062042], [7.284771, 48.062066], [7.2848, 48.062085], [7.284835, 48.062125], [7.2849, 48.062191], [7.284917, 48.062211], [7.284925, 48.062236], [7.284933, 48.062277], [7.284936, 48.062311], [7.284937, 48.062354], [7.284914, 48.062402], [7.284898, 48.062435], [7.284886, 48.062455], [7.284854, 48.062523], [7.284842, 48.062574], [7.284824, 48.062647], [7.284811, 48.062694], [7.284802, 48.062718], [7.284791, 48.062745], [7.284766, 48.062798], [7.284711, 48.062917], [7.284683, 48.062974], [7.284672, 48.063002], [7.284637, 48.063068], [7.284598, 48.063141], [7.284581, 48.063173], [7.284586, 48.063259], [7.284624, 48.063303], [7.284674, 48.06335], [7.284834, 48.063499], [7.284866, 48.063505], [7.284953, 48.063608], [7.285074, 48.063778], [7.285089, 48.063798], [7.285101, 48.063808], [7.285144, 48.063844], [7.285181, 48.063877], [7.285205, 48.063896], [7.285222, 48.06391], [7.285291, 48.063971], [7.2853, 48.063977], [7.285359, 48.064006], [7.285446, 48.064055], [7.285525, 48.064095], [7.285612, 48.064143], [7.28562, 48.064148], [7.285683, 48.064189], [7.285728, 48.06422], [7.285771, 48.06425], [7.285936, 48.064365], [7.285945, 48.064374], [7.285954, 48.064379], [7.286035, 48.064452], [7.28622, 48.064618], [7.28621, 48.064618], [7.286267, 48.064658], [7.286383, 48.064735], [7.286477, 48.064798], [7.286522, 48.064825], [7.286609, 48.064874], [7.286671, 48.06491], [7.286738, 48.064931], [7.286819, 48.064935], [7.287195, 48.064905], [7.287246, 48.064903], [7.287423, 48.064895], [7.287411, 48.064872], [7.28739, 48.064846], [7.287156, 48.064613], [7.287135, 48.064592], [7.287081, 48.064527], [7.287002, 48.064442], [7.286954, 48.064388], [7.286853, 48.06426], [7.286784, 48.064172], [7.286733, 48.064107], [7.286727, 48.0641], [7.28667, 48.064025], [7.286625, 48.063967], [7.286594, 48.063923], [7.286555, 48.063874], [7.286543, 48.063856], [7.286527, 48.063819], [7.28651, 48.06378], [7.286471, 48.063692], [7.286453, 48.063647], [7.286434, 48.063603], [7.286417, 48.063565], [7.286411, 48.06356], [7.286383, 48.063507], [7.286318, 48.063401], [7.286305, 48.06338], [7.286267, 48.063308], [7.286245, 48.063267], [7.286193, 48.063155], [7.286037, 48.063185], [7.285775, 48.0632], [7.285668, 48.063214], [7.285548, 48.06322], [7.285549, 48.063208], [7.285552, 48.063146], [7.285551, 48.063127], [7.28553, 48.062971], [7.285517, 48.062904], [7.285533, 48.062902], [7.285532, 48.0629], [7.285538, 48.062938], [7.285547, 48.062979], [7.285548, 48.062992], [7.285552, 48.063013], [7.28556, 48.063079], [7.285561, 48.063088], [7.285569, 48.063146], [7.285566, 48.06318], [7.285562, 48.063204], [7.285565, 48.063207], [7.285616, 48.063205], [7.28567, 48.063202], [7.285723, 48.063194], [7.285771, 48.063189], [7.285846, 48.063184], [7.28598, 48.063174], [7.286033, 48.063172], [7.286221, 48.063135], [7.286234, 48.063125], [7.286235, 48.063136], [7.286311, 48.063122], [7.286428, 48.063102], [7.286484, 48.063091], [7.286547, 48.063074], [7.28666, 48.063039], [7.286738, 48.063013], [7.286777, 48.062999], [7.286914, 48.062954], [7.28712, 48.062878], [7.287154, 48.062865], [7.287142, 48.062854], [7.287205, 48.062828], [7.287419, 48.06275], [7.28762, 48.062676], [7.287761, 48.062624], [7.287805, 48.062607], [7.287783, 48.062539], [7.287767, 48.062473], [7.287729, 48.062339], [7.287745, 48.062335], [7.287742, 48.062326], [7.287752, 48.062347], [7.287759, 48.062374], [7.287792, 48.062481], [7.287813, 48.062541], [7.28783, 48.062589], [7.28785, 48.062635], [7.287816, 48.062646], [7.287727, 48.062669], [7.287695, 48.062677], [7.28764, 48.062699], [7.287559, 48.062729], [7.287392, 48.062791], [7.287275, 48.062837], [7.287163, 48.062879], [7.287147, 48.062885], [7.287092, 48.062905], [7.286993, 48.062941], [7.286925, 48.062965], [7.286857, 48.062989], [7.286745, 48.063031], [7.286674, 48.063055], [7.286598, 48.063078], [7.286569, 48.063086], [7.286525, 48.0631], [7.286493, 48.063108], [7.286448, 48.063117], [7.286403, 48.063124], [7.286323, 48.063136], [7.286215, 48.063155], [7.286235, 48.063203], [7.286264, 48.063268], [7.286337, 48.063401], [7.286368, 48.063456], [7.286415, 48.063531], [7.286433, 48.063565], [7.286456, 48.063615], [7.286492, 48.063696], [7.286532, 48.063781], [7.286564, 48.063856], [7.286604, 48.063908], [7.286646, 48.063963], [7.286679, 48.064007], [7.286718, 48.064057], [7.286745, 48.064092], [7.286787, 48.064078], [7.286889, 48.064046], [7.286955, 48.064025], [7.287004, 48.064002], [7.287084, 48.063963], [7.287317, 48.06389], [7.287412, 48.063861], [7.287529, 48.063817], [7.287569, 48.063812], [7.287622, 48.063805], [7.287693, 48.063784], [7.287877, 48.063732], [7.287933, 48.063716], [7.287996, 48.063703], [7.288054, 48.063691], [7.288151, 48.063661], [7.288274, 48.06362], [7.288372, 48.063592], [7.288375, 48.063563], [7.288355, 48.063515], [7.288341, 48.063477], [7.288382, 48.063461], [7.288453, 48.063435], [7.288456, 48.063435], [7.288527, 48.063418], [7.288677, 48.063384], [7.28869, 48.06338], [7.288757, 48.063368], [7.288903, 48.063343], [7.288953, 48.063336], [7.288974, 48.063334], [7.289057, 48.063322], [7.289078, 48.063319], [7.289139, 48.063311], [7.289171, 48.063303], [7.289184, 48.063299], [7.289279, 48.063277], [7.289316, 48.063269], [7.289419, 48.063243], [7.289432, 48.063241], [7.289527, 48.063218], [7.289635, 48.063192], [7.289645, 48.063178], [7.289652, 48.06317], [7.289682, 48.063137], [7.2897, 48.063098], [7.28973, 48.063036], [7.289805, 48.062901], [7.289808, 48.062898], [7.28984, 48.062866], [7.289905, 48.062806], [7.289941, 48.06279], [7.290067, 48.062742], [7.290202, 48.062687], [7.290171, 48.062643], [7.290117, 48.062566], [7.290045, 48.062539], [7.289959, 48.062506], [7.289878, 48.06247], [7.28976, 48.062414], [7.289735, 48.062403], [7.289709, 48.062375], [7.289667, 48.062328], [7.289637, 48.062293], [7.289617, 48.062272], [7.289555, 48.062238], [7.289465, 48.062193], [7.28941, 48.06217], [7.289317, 48.062121], [7.289253, 48.062089], [7.28916, 48.062043], [7.289116, 48.062023], [7.288937, 48.061915], [7.288847, 48.061858], [7.28877, 48.061813], [7.288708, 48.061777], [7.288624, 48.06173], [7.288584, 48.061706], [7.288497, 48.061657], [7.288412, 48.061609], [7.288336, 48.061565], [7.288212, 48.061494], [7.288142, 48.061455], [7.288077, 48.061416], [7.288017, 48.06138], [7.287972, 48.061355], [7.287803, 48.061258], [7.287724, 48.061214], [7.287696, 48.061197], [7.287627, 48.061173], [7.287597, 48.061163], [7.28743, 48.061104], [7.287389, 48.06109], [7.287325, 48.06107], [7.287168, 48.06102], [7.287152, 48.061048], [7.287087, 48.061043], [7.287054, 48.061041], [7.28702, 48.061022], [7.286984, 48.061], [7.286965, 48.060941], [7.286894, 48.060917], [7.286789, 48.060883], [7.286733, 48.060865], [7.286711, 48.060857], [7.286617, 48.060826], [7.286496, 48.060787], [7.286396, 48.06072], [7.286283, 48.060649], [7.28626, 48.060633], [7.286221, 48.060608], [7.286206, 48.060599], [7.286129, 48.060568], [7.286084, 48.060551], [7.286026, 48.06053], [7.28589, 48.060481], [7.285873, 48.060494], [7.285777, 48.06048], [7.285619, 48.060455], [7.285595, 48.06045], [7.285507, 48.060432], [7.285402, 48.060398], [7.285394, 48.060394], [7.285364, 48.060385], [7.28535, 48.06038], [7.285295, 48.060362], [7.285329, 48.060321], [7.285241, 48.060301], [7.285186, 48.060288], [7.285159, 48.060282], [7.285113, 48.060277], [7.285031, 48.060267]]], [[[7.293172, 48.062578], [7.293146, 48.062551], [7.293077, 48.062492], [7.293022, 48.062445], [7.29295, 48.06239], [7.292924, 48.062371], [7.292853, 48.062322], [7.292745, 48.062246], [7.292682, 48.062205], [7.292641, 48.062198], [7.292599, 48.062205], [7.292537, 48.062239], [7.29241, 48.062336], [7.292327, 48.0624], [7.292267, 48.062429], [7.292146, 48.06249], [7.292073, 48.062516], [7.291926, 48.062564], [7.291841, 48.06258], [7.291726, 48.062583], [7.291304, 48.062589], [7.291143, 48.062588], [7.290645, 48.062582], [7.290607, 48.062582], [7.290526, 48.062603], [7.29046, 48.062618], [7.290393, 48.062656], [7.290298, 48.062709], [7.290232, 48.062733], [7.290188, 48.062749], [7.290107, 48.062779], [7.290071, 48.062794], [7.290029, 48.062814], [7.289952, 48.062854], [7.289869, 48.062922], [7.289837, 48.062967], [7.289783, 48.063055], [7.289759, 48.063092], [7.289729, 48.063151], [7.289718, 48.063182], [7.289707, 48.063218], [7.289707, 48.063251], [7.289711, 48.063298], [7.289761, 48.06342], [7.289796, 48.063478], [7.289876, 48.063612], [7.289928, 48.063686], [7.28998, 48.06376], [7.290024, 48.063809], [7.290054, 48.063842], [7.290065, 48.063856], [7.290104, 48.063905], [7.290161, 48.063977], [7.290224, 48.064059], [7.290245, 48.064086], [7.29029, 48.064136], [7.290325, 48.064171], [7.290366, 48.064218], [7.290378, 48.06423], [7.290421, 48.064263], [7.290473, 48.064301], [7.290603, 48.064377], [7.290695, 48.064423], [7.290812, 48.064478], [7.29089, 48.064439], [7.290947, 48.064408], [7.291078, 48.064336], [7.291137, 48.064304], [7.29115, 48.064296], [7.291191, 48.064273], [7.291221, 48.06425], [7.291274, 48.064207], [7.291293, 48.064168], [7.291313, 48.064115], [7.291318, 48.064086], [7.291326, 48.064043], [7.291307, 48.063977], [7.291279, 48.063933], [7.29123, 48.063862], [7.291197, 48.063813], [7.291193, 48.06377], [7.291205, 48.063748], [7.291224, 48.063717], [7.291309, 48.063676], [7.291314, 48.063674], [7.291632, 48.06361], [7.291647, 48.063598], [7.291684, 48.063593], [7.291735, 48.063588], [7.291852, 48.063575], [7.291921, 48.06356], [7.291976, 48.063538], [7.292106, 48.063416], [7.292186, 48.063343], [7.292219, 48.063327], [7.292292, 48.063292], [7.292297, 48.063292], [7.29235, 48.063281], [7.292464, 48.06326], [7.292668, 48.06322], [7.292753, 48.063208], [7.292931, 48.06318], [7.293164, 48.063145], [7.293247, 48.063131], [7.293335, 48.063122], [7.293519, 48.063103], [7.293521, 48.06306], [7.293523, 48.06302], [7.293489, 48.062969], [7.293468, 48.062939], [7.293428, 48.062881], [7.293367, 48.062786], [7.293364, 48.062782], [7.293287, 48.062702], [7.293172, 48.062578]]], [[[7.289655, 48.063305], [7.289652, 48.063303], [7.289635, 48.063261], [7.289615, 48.063211], [7.289502, 48.063237], [7.289291, 48.063286], [7.28914, 48.06332], [7.28902, 48.063337], [7.288903, 48.063354], [7.288798, 48.063376], [7.288689, 48.063396], [7.288681, 48.063396], [7.288459, 48.063444], [7.288399, 48.063466], [7.288365, 48.063478], [7.288355, 48.063489], [7.288372, 48.063529], [7.288382, 48.063557], [7.288385, 48.063562], [7.288391, 48.063596], [7.288333, 48.063615], [7.288058, 48.0637], [7.287978, 48.063716], [7.287949, 48.063721], [7.287933, 48.063725], [7.287781, 48.063768], [7.287623, 48.063814], [7.287567, 48.063821], [7.28753, 48.063826], [7.287473, 48.063848], [7.28741, 48.06387], [7.287318, 48.063899], [7.287166, 48.063946], [7.287085, 48.063972], [7.287025, 48.063999], [7.286958, 48.064031], [7.286887, 48.064053], [7.286751, 48.064098], [7.286748, 48.0641], [7.286778, 48.064138], [7.28683, 48.064207], [7.286877, 48.064266], [7.286928, 48.064331], [7.28697, 48.064385], [7.286988, 48.064403], [7.287009, 48.064425], [7.287065, 48.06449], [7.287115, 48.064546], [7.287136, 48.064567], [7.287171, 48.064607], [7.287259, 48.064692], [7.287288, 48.064723], [7.28737, 48.064803], [7.287408, 48.06484], [7.287483, 48.064933], [7.287488, 48.064932], [7.287501, 48.064925], [7.287546, 48.064945], [7.287593, 48.064965], [7.287671, 48.064998], [7.287722, 48.065027], [7.28773, 48.065035], [7.287835, 48.0651], [7.287886, 48.065136], [7.287935, 48.065176], [7.287961, 48.065198], [7.288002, 48.065231], [7.288016, 48.065241], [7.288036, 48.06526], [7.28807, 48.065282], [7.288073, 48.065286], [7.28817, 48.065351], [7.28819, 48.065366], [7.288287, 48.065431], [7.288401, 48.06551], [7.288446, 48.065541], [7.288503, 48.065582], [7.28856, 48.065621], [7.288605, 48.065641], [7.288672, 48.065673], [7.288677, 48.065671], [7.28874, 48.065687], [7.288853, 48.065717], [7.288938, 48.065739], [7.289012, 48.065758], [7.289175, 48.065801], [7.289241, 48.065818], [7.289381, 48.065858], [7.289585, 48.065916], [7.289788, 48.065975], [7.289765, 48.065925], [7.289715, 48.065871], [7.289669, 48.065824], [7.289616, 48.065778], [7.289576, 48.065743], [7.289461, 48.06565], [7.2894, 48.065598], [7.289313, 48.065524], [7.289276, 48.065493], [7.289241, 48.065463], [7.289213, 48.065441], [7.289228, 48.065431], [7.289228, 48.065433], [7.289291, 48.065483], [7.289323, 48.065511], [7.289366, 48.065547], [7.289413, 48.065587], [7.289476, 48.065644], [7.289525, 48.065684], [7.289568, 48.065718], [7.289594, 48.065737], [7.289632, 48.06577], [7.289687, 48.065818], [7.289702, 48.065838], [7.289763, 48.0659], [7.289784, 48.065921], [7.289813, 48.065985], [7.289896, 48.066011], [7.289987, 48.06604], [7.290051, 48.066061], [7.29012, 48.06608], [7.29018, 48.066094], [7.29027, 48.066118], [7.290309, 48.066127], [7.290389, 48.066148], [7.290504, 48.066178], [7.290549, 48.066201], [7.290639, 48.066247], [7.290731, 48.066294], [7.29079, 48.066322], [7.290874, 48.066364], [7.290935, 48.066393], [7.291022, 48.066429], [7.291072, 48.066451], [7.291082, 48.066443], [7.291116, 48.066458], [7.291213, 48.0665], [7.291374, 48.066566], [7.291419, 48.066584], [7.291497, 48.066614], [7.29158, 48.066647], [7.291583, 48.066649], [7.291679, 48.066669], [7.291736, 48.066683], [7.291835, 48.066702], [7.291936, 48.066722], [7.292065, 48.066725], [7.292191, 48.066726], [7.292393, 48.066729], [7.29245, 48.066734], [7.292523, 48.066739], [7.292591, 48.066747], [7.292722, 48.066766], [7.292738, 48.066767], [7.292811, 48.066773], [7.292854, 48.06677], [7.292857, 48.066772], [7.292913, 48.066733], [7.292928, 48.06669], [7.292911, 48.066645], [7.292894, 48.066608], [7.292815, 48.06649], [7.292704, 48.066384], [7.292632, 48.066324], [7.292586, 48.066288], [7.292486, 48.066217], [7.292349, 48.066121], [7.292246, 48.066046], [7.292241, 48.066041], [7.292126, 48.065955], [7.292083, 48.065924], [7.292003, 48.065856], [7.291985, 48.065844], [7.291885, 48.065765], [7.291859, 48.065745], [7.291796, 48.065693], [7.291778, 48.065679], [7.291755, 48.065662], [7.291743, 48.065646], [7.291761, 48.065633], [7.291724, 48.065603], [7.291718, 48.0656], [7.291687, 48.065574], [7.291629, 48.065522], [7.291582, 48.065479], [7.29157, 48.065467], [7.291558, 48.065451], [7.291516, 48.065395], [7.291513, 48.065391], [7.291468, 48.065333], [7.29144, 48.065289], [7.291406, 48.065228], [7.291281, 48.065122], [7.291253, 48.065098], [7.291193, 48.065032], [7.291158, 48.06499], [7.291134, 48.064962], [7.291131, 48.064956], [7.291112, 48.064925], [7.291109, 48.064918], [7.291096, 48.064893], [7.291074, 48.064854], [7.291061, 48.064826], [7.291028, 48.06478], [7.290958, 48.064685], [7.290946, 48.064664], [7.290929, 48.06465], [7.290908, 48.064629], [7.290905, 48.064626], [7.290891, 48.064614], [7.290861, 48.064584], [7.290821, 48.064548], [7.290812, 48.064537], [7.290786, 48.064515], [7.29078, 48.06451], [7.290766, 48.064503], [7.290741, 48.064489], [7.29073, 48.064484], [7.290704, 48.064467], [7.290628, 48.064427], [7.290574, 48.064396], [7.290491, 48.064361], [7.290441, 48.064338], [7.290419, 48.06433], [7.290395, 48.064309], [7.290369, 48.064285], [7.290352, 48.064267], [7.290328, 48.064247], [7.290311, 48.064226], [7.29029, 48.064201], [7.290275, 48.064187], [7.290219, 48.064123], [7.290195, 48.064098], [7.290162, 48.064056], [7.290132, 48.064018], [7.290093, 48.063967], [7.290036, 48.063891], [7.289997, 48.063842], [7.289979, 48.06382], [7.289958, 48.063793], [7.289943, 48.063772], [7.289889, 48.063697], [7.289831, 48.063621], [7.289828, 48.063611], [7.289731, 48.063441], [7.289705, 48.063393], [7.289655, 48.063305]]], [[[7.292886, 48.063222], [7.292742, 48.063241], [7.292676, 48.063251], [7.292564, 48.063269], [7.292498, 48.063279], [7.292424, 48.063296], [7.292313, 48.06332], [7.292272, 48.063341], [7.292223, 48.063366], [7.292175, 48.063404], [7.292132, 48.06344], [7.292112, 48.063462], [7.292092, 48.063487], [7.292035, 48.063546], [7.291957, 48.063634], [7.29192, 48.063646], [7.291895, 48.063771], [7.291832, 48.063784], [7.291825, 48.063763], [7.291797, 48.063658], [7.291779, 48.063597], [7.291723, 48.063603], [7.291678, 48.063608], [7.291636, 48.063622], [7.291612, 48.063628], [7.291548, 48.06364], [7.291443, 48.063662], [7.291315, 48.063686], [7.291233, 48.063727], [7.291219, 48.063753], [7.29121, 48.063773], [7.291213, 48.063811], [7.291237, 48.063844], [7.291298, 48.06393], [7.291325, 48.063972], [7.29133, 48.063996], [7.291333, 48.064006], [7.291342, 48.064042], [7.291334, 48.064082], [7.291326, 48.06412], [7.291311, 48.064159], [7.291284, 48.064221], [7.291197, 48.064283], [7.290899, 48.064448], [7.290824, 48.064486], [7.290998, 48.064649], [7.291041, 48.064715], [7.291078, 48.064773], [7.291103, 48.064811], [7.291125, 48.064848], [7.291141, 48.064877], [7.291179, 48.064947], [7.29122, 48.064989], [7.291284, 48.065054], [7.291287, 48.065061], [7.291302, 48.065075], [7.291348, 48.065114], [7.291365, 48.06513], [7.291409, 48.06517], [7.291454, 48.065195], [7.291539, 48.065243], [7.291581, 48.065266], [7.291617, 48.065351], [7.2916, 48.065366], [7.291596, 48.065381], [7.291597, 48.065397], [7.291618, 48.065431], [7.291637, 48.065461], [7.291693, 48.065516], [7.291728, 48.065553], [7.291794, 48.065606], [7.291823, 48.065629], [7.291877, 48.065672], [7.291929, 48.065711], [7.291966, 48.065742], [7.292061, 48.065818], [7.292104, 48.065849], [7.292139, 48.065877], [7.292239, 48.065952], [7.29225, 48.065963], [7.292331, 48.066025], [7.292426, 48.066099], [7.29244, 48.066107], [7.292505, 48.066155], [7.292603, 48.066226], [7.292691, 48.066291], [7.292755, 48.066346], [7.292787, 48.066374], [7.292831, 48.066419], [7.292878, 48.066468], [7.29292, 48.066524], [7.292968, 48.066591], [7.292994, 48.06664], [7.293041, 48.066722], [7.292991, 48.066767], [7.292931, 48.066823], [7.292959, 48.06684], [7.292982, 48.066855], [7.292998, 48.06686], [7.293015, 48.066863], [7.293056, 48.066874], [7.293081, 48.066881], [7.293152, 48.0669], [7.293323, 48.066946], [7.293419, 48.066969], [7.29357, 48.06701], [7.293573, 48.067018], [7.293594, 48.067044], [7.293752, 48.066964], [7.293871, 48.066917], [7.294, 48.066878], [7.294125, 48.066826], [7.294139, 48.06684], [7.294282, 48.06677], [7.294369, 48.06685], [7.294226, 48.066913], [7.294102, 48.066978], [7.294171, 48.066999], [7.294227, 48.066992], [7.294347, 48.067007], [7.294447, 48.066989], [7.294494, 48.067006], [7.294591, 48.067], [7.29486, 48.066936], [7.29519, 48.066858], [7.295429, 48.066797], [7.295616, 48.066747], [7.295861, 48.066648], [7.296134, 48.066428], [7.296136, 48.066394], [7.2958, 48.066332], [7.295617, 48.066325], [7.295111, 48.066381], [7.295289, 48.066292], [7.295346, 48.066272], [7.29543, 48.066243], [7.295679, 48.06616], [7.295985, 48.066059], [7.296223, 48.065978], [7.296459, 48.065896], [7.296719, 48.065818], [7.296675, 48.065781], [7.296572, 48.065701], [7.296552, 48.065683], [7.296498, 48.065646], [7.296472, 48.065628], [7.296369, 48.065558], [7.296324, 48.065524], [7.296207, 48.065445], [7.296179, 48.065426], [7.29617, 48.065421], [7.29609, 48.065359], [7.295989, 48.065278], [7.295978, 48.06527], [7.295932, 48.065234], [7.295882, 48.065185], [7.295841, 48.065147], [7.295776, 48.065068], [7.295749, 48.065037], [7.295689, 48.064965], [7.295671, 48.064944], [7.2956, 48.064858], [7.295552, 48.0648], [7.295526, 48.064771], [7.295473, 48.06472], [7.295441, 48.064691], [7.295388, 48.064664], [7.295354, 48.064647], [7.295332, 48.064637], [7.295285, 48.064623], [7.295246, 48.06461], [7.295191, 48.064594], [7.295073, 48.064557], [7.295056, 48.06455], [7.295001, 48.064534], [7.294971, 48.064524], [7.294904, 48.064496], [7.294787, 48.064448], [7.294734, 48.064421], [7.294719, 48.064413], [7.294649, 48.064376], [7.294643, 48.06437], [7.29453, 48.064297], [7.29445, 48.064239], [7.294415, 48.064211], [7.294404, 48.064203], [7.294333, 48.064151], [7.29426, 48.064087], [7.294257, 48.064084], [7.294193, 48.064026], [7.29412, 48.06395], [7.294055, 48.063884], [7.294041, 48.063868], [7.294004, 48.063817], [7.293995, 48.063808], [7.293959, 48.063756], [7.293956, 48.063748], [7.293931, 48.063715], [7.293921, 48.063687], [7.293914, 48.063667], [7.293889, 48.063596], [7.293879, 48.063564], [7.293873, 48.063524], [7.29387, 48.063494], [7.293907, 48.063453], [7.293947, 48.063406], [7.293993, 48.063351], [7.294011, 48.063332], [7.294002, 48.063294], [7.293974, 48.063274], [7.293897, 48.063255], [7.293834, 48.063241], [7.293756, 48.063208], [7.293661, 48.063168], [7.293596, 48.063161], [7.293528, 48.063155], [7.293451, 48.063159], [7.293247, 48.063172], [7.293162, 48.063184], [7.293051, 48.063199], [7.292928, 48.063215], [7.292886, 48.063222]], [[7.293465, 48.065089], [7.293456, 48.065079], [7.293515, 48.065142], [7.293465, 48.065089]]], [[[7.287453, 48.06497], [7.287311, 48.064942], [7.287193, 48.064938], [7.286739, 48.064981], [7.286635, 48.06499], [7.286432, 48.065012], [7.286212, 48.064984], [7.2861, 48.064954], [7.285947, 48.064931], [7.285944, 48.065062], [7.285989, 48.065149], [7.286121, 48.065285], [7.286186, 48.065351], [7.286417, 48.065516], [7.286599, 48.065639], [7.286651, 48.065689], [7.286684, 48.065693], [7.286715, 48.065676], [7.286731, 48.065681], [7.286851, 48.065768], [7.286986, 48.06581], [7.28715, 48.065833], [7.287352, 48.065875], [7.28736, 48.06588], [7.287765, 48.066025], [7.288113, 48.066168], [7.288358, 48.066242], [7.2884, 48.066161], [7.288443, 48.066067], [7.28848, 48.065992], [7.288515, 48.065919], [7.288505, 48.065872], [7.288519, 48.065837], [7.288539, 48.065793], [7.288584, 48.06572], [7.288244, 48.065505], [7.288236, 48.0655], [7.287985, 48.065287], [7.287823, 48.065178], [7.28762, 48.065037], [7.28747, 48.064976], [7.287453, 48.06497]]]]}}]}