{"type": "FeatureCollection", "features": [{"type": "Feature", "properties": {"id": "AOC-Alsace-Grand-Cru-Sonnenglanz", "name": "Sonnenglanz", "commune": "Beblenheim", "family": "泥灰石灰岩", "familyColor": "#6c3483", "lessonId": "AL2M5L4"}, "geometry": {"type": "MultiPolygon", "coordinates": [[[[7.325163, 48.161272], [7.324658, 48.161556], [7.324632, 48.161632], [7.324848, 48.161998], [7.324954, 48.162179], [7.324979, 48.162218], [7.325054, 48.162347], [7.325101, 48.162423], [7.325129, 48.162472], [7.325145, 48.162502], [7.325221, 48.162638], [7.325229, 48.162676], [7.325242, 48.16267], [7.325154, 48.162713], [7.324684, 48.162896], [7.324557, 48.162958], [7.324628, 48.162869], [7.324407, 48.162971], [7.324662, 48.162853], [7.325082, 48.162686], [7.32512, 48.162653], [7.325126, 48.162595], [7.325079, 48.162487], [7.324962, 48.16228], [7.324946, 48.162248], [7.324912, 48.162192], [7.324893, 48.162162], [7.324828, 48.162054], [7.324753, 48.161933], [7.324697, 48.161837], [7.324535, 48.161569], [7.325035, 48.161288], [7.325081, 48.161232], [7.3251, 48.161165], [7.325069, 48.161083], [7.325063, 48.161074], [7.325005, 48.160963], [7.324974, 48.160904], [7.324875, 48.160719], [7.324868, 48.160706], [7.324697, 48.160428], [7.324679, 48.160398], [7.324655, 48.160372], [7.324547, 48.160235], [7.324529, 48.160216], [7.324542, 48.16021], [7.324521, 48.160178], [7.324502, 48.160184], [7.324392, 48.160059], [7.324315, 48.15997], [7.324241, 48.159889], [7.324155, 48.159826], [7.323983, 48.159701], [7.323851, 48.159569], [7.323708, 48.159426], [7.323579, 48.159299], [7.323562, 48.159264], [7.323471, 48.159108], [7.323427, 48.158962], [7.323456, 48.158956], [7.323522, 48.158867], [7.323595, 48.15877], [7.323594, 48.158769], [7.323622, 48.158683], [7.323628, 48.158621], [7.323603, 48.158543], [7.32358, 48.158466], [7.323563, 48.158413], [7.323552, 48.158377], [7.323526, 48.15829], [7.323298, 48.158306], [7.322377, 48.15837], [7.322323, 48.158377], [7.322256, 48.15831], [7.322188, 48.158242], [7.322165, 48.158217], [7.322063, 48.158131], [7.322002, 48.158079], [7.321898, 48.157991], [7.321878, 48.157975], [7.321851, 48.157973], [7.321253, 48.157906], [7.320863, 48.157917], [7.320828, 48.157917], [7.320591, 48.158019], [7.320337, 48.158131], [7.32028, 48.158158], [7.320221, 48.158202], [7.320165, 48.1583], [7.320185, 48.158416], [7.320248, 48.1585], [7.320359, 48.158572], [7.320473, 48.158674], [7.320482, 48.158724], [7.320533, 48.158724], [7.320524, 48.158748], [7.320507, 48.158801], [7.320461, 48.158923], [7.320409, 48.159015], [7.320409, 48.159118], [7.320548, 48.159394], [7.320562, 48.159531], [7.320579, 48.159715], [7.320617, 48.159938], [7.32065, 48.160115], [7.32065, 48.160117], [7.321038, 48.160081], [7.320848, 48.160099], [7.320852, 48.160151], [7.320813, 48.160334], [7.320754, 48.160603], [7.320755, 48.160605], [7.320684, 48.160798], [7.320567, 48.161174], [7.320497, 48.161177], [7.320446, 48.16131], [7.320443, 48.16131], [7.320446, 48.161379], [7.320451, 48.161467], [7.320453, 48.161526], [7.320458, 48.16169], [7.320461, 48.161787], [7.320463, 48.161877], [7.320756, 48.161868], [7.321003, 48.161863], [7.321299, 48.161857], [7.321302, 48.161857], [7.321432, 48.16184], [7.32146, 48.161877], [7.32161, 48.16217], [7.321613, 48.162241], [7.321617, 48.162349], [7.321621, 48.162397], [7.32162, 48.162421], [7.321622, 48.162449], [7.321627, 48.162501], [7.321628, 48.162546], [7.321634, 48.162696], [7.321639, 48.162748], [7.32164, 48.162793], [7.321645, 48.162886], [7.321647, 48.162913], [7.321646, 48.162939], [7.321659, 48.163062], [7.32166, 48.163075], [7.321663, 48.163109], [7.321666, 48.163151], [7.321668, 48.163176], [7.321673, 48.163233], [7.321703, 48.163661], [7.321694, 48.163757], [7.321692, 48.163759], [7.321648, 48.163888], [7.321633, 48.163934], [7.321697, 48.164087], [7.321849, 48.164296], [7.322136, 48.164645], [7.322216, 48.16476], [7.322392, 48.164806], [7.322438, 48.164843], [7.322498, 48.164892], [7.322678, 48.165038], [7.322828, 48.165159], [7.322998, 48.165299], [7.323021, 48.165318], [7.323144, 48.1654], [7.323252, 48.165475], [7.323566, 48.165691], [7.323636, 48.165721], [7.323607, 48.165631], [7.323643, 48.165742], [7.324676, 48.165693], [7.325387, 48.165658], [7.325372, 48.165596], [7.325433, 48.165592], [7.325398, 48.165497], [7.325374, 48.165428], [7.325349, 48.165357], [7.32524, 48.165047], [7.325224, 48.164981], [7.32533, 48.164761], [7.325333, 48.164761], [7.325404, 48.164673], [7.32549, 48.164605], [7.325506, 48.164639], [7.325425, 48.1647], [7.325356, 48.164778], [7.325249, 48.164993], [7.325264, 48.165039], [7.325268, 48.165055], [7.325278, 48.16508], [7.325334, 48.165238], [7.32539, 48.165398], [7.325415, 48.165471], [7.325437, 48.165541], [7.325461, 48.165609], [7.325499, 48.165605], [7.325508, 48.165654], [7.326206, 48.165619], [7.326568, 48.165602], [7.326625, 48.165598], [7.326643, 48.165598], [7.326732, 48.165594], [7.326906, 48.165586], [7.327014, 48.16558], [7.32711, 48.165575], [7.327218, 48.165571], [7.327333, 48.165565], [7.327473, 48.165558], [7.327473, 48.165533], [7.327491, 48.165289], [7.32757, 48.165072], [7.3277, 48.164786], [7.327695, 48.164687], [7.327647, 48.164465], [7.327618, 48.164345], [7.327527, 48.16395], [7.32755, 48.163901], [7.327632, 48.163626], [7.327661, 48.163552], [7.327714, 48.163405], [7.327789, 48.163202], [7.327849, 48.163018], [7.327855, 48.162997], [7.327933, 48.162764], [7.327943, 48.162724], [7.327954, 48.162592], [7.327755, 48.162098], [7.327707, 48.161851], [7.327733, 48.161798], [7.327838, 48.16127], [7.327781, 48.161205], [7.327469, 48.161139], [7.327391, 48.161043], [7.327337, 48.160978], [7.32722, 48.160838], [7.327113, 48.16071], [7.326933, 48.160526], [7.32686, 48.160453], [7.326722, 48.16031], [7.326626, 48.160227], [7.326626, 48.160226], [7.326552, 48.160174], [7.326423, 48.16008], [7.326385, 48.160052], [7.326335, 48.159995], [7.32626, 48.159898], [7.326192, 48.159766], [7.326182, 48.159768], [7.325973, 48.159851], [7.325923, 48.159869], [7.325842, 48.159901], [7.32573, 48.159945], [7.3255, 48.160034], [7.325434, 48.160107], [7.325275, 48.160183], [7.325052, 48.160287], [7.324767, 48.160422], [7.324754, 48.160428], [7.324794, 48.160491], [7.324828, 48.160547], [7.324869, 48.160614], [7.324919, 48.160694], [7.324941, 48.160736], [7.324963, 48.160775], [7.324998, 48.16084], [7.325043, 48.160927], [7.32511, 48.161062], [7.325179, 48.161203], [7.325201, 48.161247], [7.325163, 48.161272]]]]}}]}