{"type": "FeatureCollection", "features": [{"type": "Feature", "properties": {"id": "AOC-Alsace-Grand-Cru-Kirchberg-de-Barr", "name": "Kirchberg de Barr", "commune": "Barr", "family": "泥灰石灰岩", "familyColor": "#5b2c6f", "lessonId": "AL2M5L3"}, "geometry": {"type": "MultiPolygon", "coordinates": [[[[7.439687, 48.407758], [7.439302, 48.40794], [7.439231, 48.407974], [7.439135, 48.408019], [7.438938, 48.408111], [7.438929, 48.408116], [7.438635, 48.408272], [7.438447, 48.408431], [7.4383, 48.408561], [7.438169, 48.408621], [7.437915, 48.408737], [7.437734, 48.408787], [7.437644, 48.408827], [7.437539, 48.408793], [7.437434, 48.408762], [7.437371, 48.408743], [7.437225, 48.408741], [7.437178, 48.408749], [7.437063, 48.408771], [7.437095, 48.408913], [7.437089, 48.409037], [7.43697, 48.409033], [7.436923, 48.409034], [7.43697, 48.409334], [7.437008, 48.409335], [7.437025, 48.409458], [7.437102, 48.409536], [7.437247, 48.409622], [7.437306, 48.409688], [7.43746, 48.409655], [7.437515, 48.409767], [7.437566, 48.409897], [7.437721, 48.410296], [7.438145, 48.410296], [7.438211, 48.410297], [7.438409, 48.41026], [7.438531, 48.410299], [7.438591, 48.410387], [7.438669, 48.410485], [7.438748, 48.410511], [7.438771, 48.410519], [7.43904, 48.410538], [7.439328, 48.410558], [7.439476, 48.410558], [7.439633, 48.410557], [7.4398, 48.410541], [7.439847, 48.410597], [7.43989, 48.410622], [7.439778, 48.410704], [7.439663, 48.410754], [7.439792, 48.410858], [7.439548, 48.411094], [7.439689, 48.411144], [7.439871, 48.411292], [7.439992, 48.41139], [7.440012, 48.41144], [7.439662, 48.411436], [7.43957, 48.411455], [7.43949, 48.411513], [7.439443, 48.411821], [7.440037, 48.411847], [7.440262, 48.411865], [7.440401, 48.411852], [7.440753, 48.411919], [7.440863, 48.411885], [7.441007, 48.411904], [7.441092, 48.411927], [7.441341, 48.411998], [7.441472, 48.412035], [7.441624, 48.412059], [7.441879, 48.412098], [7.442026, 48.412122], [7.442109, 48.412133], [7.442509, 48.412168], [7.442588, 48.412174], [7.442637, 48.412178], [7.443081, 48.412255], [7.443324, 48.412291], [7.443604, 48.412329], [7.443837, 48.41236], [7.444248, 48.41242], [7.444517, 48.412458], [7.444677, 48.412489], [7.444797, 48.412513], [7.445036, 48.412559], [7.445385, 48.4126], [7.44556, 48.412622], [7.445806, 48.412638], [7.446069, 48.412673], [7.446189, 48.412689], [7.44689, 48.412709], [7.447176, 48.41272], [7.447233, 48.412737], [7.447291, 48.412745], [7.447444, 48.412889], [7.4475, 48.412944], [7.447531, 48.412973], [7.447628, 48.413064], [7.447766, 48.413173], [7.447852, 48.41324], [7.448053, 48.413433], [7.448138, 48.413525], [7.448178, 48.413602], [7.448222, 48.413632], [7.44833, 48.413707], [7.448482, 48.413751], [7.448714, 48.413821], [7.448892, 48.413853], [7.449043, 48.41376], [7.449139, 48.413715], [7.449403, 48.413594], [7.449905, 48.413553], [7.449976, 48.413617], [7.450253, 48.413507], [7.450564, 48.413379], [7.450554, 48.41337], [7.45096, 48.413211], [7.451167, 48.413158], [7.451173, 48.413167], [7.451366, 48.413121], [7.451849, 48.413003], [7.452215, 48.412915], [7.452201, 48.412859], [7.452192, 48.41286], [7.452189, 48.412847], [7.452131, 48.412682], [7.451904, 48.412345], [7.451917, 48.412341], [7.452414, 48.412196], [7.452413, 48.412164], [7.452405, 48.411839], [7.452393, 48.411727], [7.452037, 48.411843], [7.45157, 48.41199], [7.451557, 48.411994], [7.451616, 48.412074], [7.451308, 48.411655], [7.4513, 48.411642], [7.451265, 48.41166], [7.45119, 48.411697], [7.451149, 48.411651], [7.451149, 48.411651], [7.451148, 48.41165], [7.451148, 48.41165], [7.451148, 48.41165], [7.4511, 48.411611], [7.450905, 48.41146], [7.450767, 48.411352], [7.450672, 48.411279], [7.450411, 48.411022], [7.450362, 48.410995], [7.450435, 48.410942], [7.450264, 48.410855], [7.450335, 48.410638], [7.450245, 48.410608], [7.450192, 48.410583], [7.449944, 48.410458], [7.449634, 48.410302], [7.449486, 48.410233], [7.449219, 48.410112], [7.449167, 48.410089], [7.449048, 48.410051], [7.44892, 48.410014], [7.448649, 48.409926], [7.448472, 48.409855], [7.448252, 48.409793], [7.448202, 48.409789], [7.448156, 48.409796], [7.448101, 48.409841], [7.448043, 48.410014], [7.447978, 48.410246], [7.44798, 48.410339], [7.447927, 48.410341], [7.447905, 48.410339], [7.447777, 48.410308], [7.447631, 48.410273], [7.447443, 48.410228], [7.447416, 48.410221], [7.447403, 48.410218], [7.447198, 48.410167], [7.446952, 48.410106], [7.446769, 48.410061], [7.446747, 48.410056], [7.447184, 48.409478], [7.44721, 48.40943], [7.44684, 48.409207], [7.446681, 48.409191], [7.44636, 48.409146], [7.446148, 48.409113], [7.445984, 48.409073], [7.445837, 48.40901], [7.445765, 48.408979], [7.445666, 48.408939], [7.445521, 48.409002], [7.445397, 48.409015], [7.44535, 48.409023], [7.445296, 48.409069], [7.445269, 48.40914], [7.44522, 48.409389], [7.445273, 48.409571], [7.445267, 48.409622], [7.445226, 48.409724], [7.445299, 48.409738], [7.445007, 48.410232], [7.445143, 48.41028], [7.445303, 48.410377], [7.445402, 48.410446], [7.445346, 48.410546], [7.445258, 48.41052], [7.445018, 48.41045], [7.444869, 48.410491], [7.444975, 48.410505], [7.444831, 48.410806], [7.444943, 48.410834], [7.445092, 48.4109], [7.445108, 48.410907], [7.445041, 48.411072], [7.444911, 48.411399], [7.444765, 48.411694], [7.444743, 48.411689], [7.444893, 48.411394], [7.445086, 48.410915], [7.444934, 48.410849], [7.444831, 48.410818], [7.444809, 48.410813], [7.444955, 48.410515], [7.444844, 48.410497], [7.4449, 48.410443], [7.445026, 48.410414], [7.44531, 48.410457], [7.445241, 48.410399], [7.44511, 48.410323], [7.445016, 48.410278], [7.444969, 48.410264], [7.444989, 48.410228], [7.445278, 48.409754], [7.445198, 48.409728], [7.445219, 48.40968], [7.445256, 48.409581], [7.445203, 48.409389], [7.445252, 48.409143], [7.445295, 48.409031], [7.445391, 48.409003], [7.445518, 48.408988], [7.445637, 48.408934], [7.445674, 48.408897], [7.445698, 48.408872], [7.445722, 48.40878], [7.445838, 48.408495], [7.44583, 48.40846], [7.445759, 48.408388], [7.4456, 48.408228], [7.44553, 48.408076], [7.44549, 48.407993], [7.445435, 48.407961], [7.44538, 48.407929], [7.445331, 48.407909], [7.445307, 48.407903], [7.445259, 48.407891], [7.445209, 48.407884], [7.445048, 48.407882], [7.44488, 48.407886], [7.444358, 48.407902], [7.444298, 48.407903], [7.444101, 48.407909], [7.443842, 48.407911], [7.443747, 48.407912], [7.443505, 48.407908], [7.443479, 48.407905], [7.443191, 48.407885], [7.443035, 48.407865], [7.442242, 48.40776], [7.442227, 48.407757], [7.442112, 48.407741], [7.441968, 48.40772], [7.44196, 48.407719], [7.441762, 48.407673], [7.441669, 48.407653], [7.44167, 48.407638], [7.441562, 48.40762], [7.441446, 48.4076], [7.441444, 48.407606], [7.440865, 48.407527], [7.440519, 48.407529], [7.440473, 48.40753], [7.440324, 48.40755], [7.440166, 48.407571], [7.440085, 48.407601], [7.439767, 48.40772], [7.439706, 48.407751], [7.439687, 48.407758]]]]}}]}