{"type": "FeatureCollection", "features": [{"type": "Feature", "properties": {"id": "AOC-Alsace-Grand-Cru-Hatschbourg", "name": "Hatschbourg", "commune": "Hattstatt & Vœgtlinshoffen", "family": "泥灰石灰岩", "familyColor": "#8e44ad", "lessonId": "AL2M5L3"}, "geometry": {"type": "MultiPolygon", "coordinates": [[[[7.294337, 48.011592], [7.294176, 48.011635], [7.293918, 48.011724], [7.293786, 48.011785], [7.293681, 48.011821], [7.29356, 48.011851], [7.293312, 48.011872], [7.2932, 48.011882], [7.293093, 48.011889], [7.292834, 48.011912], [7.292579, 48.011942], [7.29233, 48.011982], [7.292038, 48.012067], [7.292032, 48.012094], [7.292049, 48.012203], [7.292164, 48.012524], [7.292197, 48.012638], [7.292259, 48.012866], [7.292267, 48.012904], [7.292203, 48.01291], [7.292193, 48.013083], [7.292211, 48.013268], [7.292198, 48.01347], [7.292221, 48.013589], [7.29225, 48.013647], [7.292262, 48.013672], [7.292617, 48.014068], [7.292892, 48.014345], [7.293024, 48.014515], [7.293105, 48.014616], [7.293248, 48.014524], [7.293643, 48.01427], [7.293746, 48.014207], [7.293868, 48.014129], [7.293937, 48.014085], [7.294038, 48.014029], [7.294097, 48.013996], [7.294215, 48.013932], [7.294546, 48.013702], [7.294665, 48.013582], [7.294935, 48.01327], [7.295018, 48.013097], [7.295045, 48.012966], [7.295066, 48.012899], [7.295053, 48.012872], [7.29507, 48.012819], [7.295248, 48.012631], [7.29528, 48.012586], [7.295206, 48.012573], [7.295367, 48.012601], [7.295487, 48.012622], [7.295634, 48.012649], [7.295713, 48.012663], [7.295795, 48.012643], [7.295869, 48.012496], [7.295902, 48.012304], [7.295884, 48.012121], [7.295864, 48.011943], [7.295826, 48.011665], [7.295466, 48.011669], [7.295509, 48.011345], [7.295289, 48.011373], [7.294889, 48.011445], [7.294707, 48.011488], [7.294613, 48.011515], [7.294523, 48.01154], [7.294337, 48.011592]]], [[[7.286849, 48.013134], [7.286802, 48.012916], [7.286697, 48.01295], [7.286602, 48.013004], [7.286521, 48.013067], [7.286416, 48.013195], [7.28643, 48.013274], [7.286541, 48.013446], [7.28663, 48.013511], [7.286688, 48.013533], [7.286924, 48.013562], [7.287062, 48.013579], [7.287279, 48.013637], [7.287507, 48.013697], [7.2876, 48.013721], [7.287628, 48.013727], [7.287707, 48.013751], [7.287886, 48.013801], [7.288058, 48.013872], [7.288324, 48.014001], [7.288358, 48.014018], [7.28841, 48.01403], [7.289116, 48.014324], [7.289135, 48.014325], [7.289301, 48.014357], [7.289753, 48.01436], [7.28999, 48.014339], [7.290178, 48.014341], [7.290567, 48.014368], [7.29111, 48.014473], [7.291187, 48.014495], [7.291393, 48.014551], [7.291596, 48.014592], [7.291785, 48.014612], [7.292072, 48.014639], [7.292347, 48.014644], [7.29246, 48.014647], [7.292569, 48.014639], [7.292794, 48.014624], [7.292965, 48.014614], [7.292983, 48.014576], [7.292882, 48.014417], [7.292561, 48.014075], [7.292201, 48.013672], [7.292181, 48.013631], [7.292156, 48.013582], [7.292133, 48.01354], [7.292162, 48.013398], [7.292168, 48.013297], [7.292145, 48.012957], [7.292143, 48.012923], [7.292182, 48.012874], [7.292193, 48.012818], [7.292139, 48.012575], [7.292045, 48.012353], [7.29201, 48.012216], [7.29199, 48.012096], [7.29197, 48.012089], [7.291764, 48.012161], [7.291644, 48.012206], [7.291534, 48.012242], [7.291222, 48.012333], [7.290968, 48.012484], [7.290955, 48.01249], [7.290777, 48.012643], [7.290662, 48.012816], [7.290526, 48.012966], [7.290489, 48.012938], [7.290241, 48.012731], [7.289816, 48.012759], [7.289767, 48.012746], [7.289714, 48.012718], [7.289689, 48.012681], [7.289538, 48.01271], [7.289292, 48.012755], [7.28916, 48.012779], [7.289039, 48.012811], [7.288936, 48.012836], [7.28881, 48.01287], [7.28871, 48.012895], [7.288589, 48.012926], [7.288517, 48.012929], [7.2885, 48.012929], [7.288404, 48.012933], [7.2883, 48.012937], [7.288214, 48.01294], [7.287967, 48.012949], [7.287898, 48.012951], [7.287835, 48.012972], [7.287743, 48.012995], [7.28768, 48.01301], [7.287593, 48.013029], [7.287504, 48.013069], [7.287377, 48.013091], [7.287273, 48.013093], [7.287187, 48.013102], [7.286849, 48.013134]]], [[[7.282869, 48.013915], [7.282821, 48.013917], [7.282727, 48.013924], [7.282453, 48.013952], [7.282301, 48.013967], [7.282176, 48.01398], [7.281922, 48.014031], [7.2816, 48.014106], [7.281514, 48.014127], [7.281321, 48.014172], [7.281192, 48.014202], [7.281034, 48.014207], [7.280932, 48.014211], [7.280705, 48.014199], [7.280653, 48.014246], [7.280743, 48.014436], [7.280953, 48.01487], [7.281133, 48.015195], [7.281204, 48.015319], [7.28127, 48.015437], [7.28128, 48.015457], [7.281315, 48.015464], [7.281434, 48.015438], [7.281753, 48.015266], [7.282143, 48.015095], [7.282314, 48.015024], [7.282509, 48.014943], [7.2826, 48.014907], [7.282798, 48.01483], [7.282945, 48.014756], [7.283095, 48.014682], [7.283228, 48.01463], [7.283578, 48.014544], [7.283665, 48.014521], [7.283738, 48.0145], [7.283872, 48.014463], [7.283917, 48.01445], [7.284024, 48.014414], [7.284332, 48.014368], [7.284625, 48.014334], [7.285062, 48.014358], [7.285513, 48.014383], [7.285822, 48.014424], [7.28593, 48.014427], [7.286296, 48.014432], [7.286619, 48.014409], [7.286742, 48.014401], [7.286905, 48.014392], [7.286898, 48.014244], [7.28688, 48.014112], [7.286851, 48.013995], [7.286726, 48.013739], [7.28661, 48.013573], [7.286484, 48.013441], [7.286423, 48.013348], [7.28639, 48.013311], [7.286368, 48.013301], [7.286288, 48.013306], [7.286238, 48.013317], [7.286138, 48.013317], [7.285937, 48.013324], [7.285809, 48.013325], [7.285645, 48.013331], [7.285504, 48.01334], [7.285365, 48.013352], [7.285159, 48.01337], [7.285011, 48.013396], [7.284855, 48.013421], [7.284775, 48.013435], [7.28459, 48.013467], [7.284361, 48.013527], [7.284193, 48.01358], [7.283952, 48.013685], [7.283864, 48.013724], [7.283761, 48.013753], [7.283538, 48.013819], [7.283465, 48.013841], [7.283347, 48.013876], [7.283243, 48.013891], [7.283193, 48.0139], [7.282869, 48.013915]]], [[[7.287469, 48.013724], [7.287043, 48.013613], [7.286818, 48.013586], [7.286668, 48.013582], [7.286771, 48.013733], [7.286896, 48.013983], [7.286929, 48.014093], [7.286933, 48.014102], [7.286949, 48.014172], [7.286963, 48.014244], [7.286968, 48.014339], [7.286975, 48.01446], [7.286964, 48.014588], [7.286909, 48.014767], [7.286866, 48.014901], [7.286904, 48.014938], [7.286943, 48.014987], [7.287084, 48.014904], [7.286802, 48.015071], [7.286693, 48.015191], [7.286703, 48.015475], [7.286669, 48.015658], [7.286565, 48.015929], [7.28658, 48.016022], [7.286665, 48.016239], [7.286761, 48.016392], [7.286816, 48.016412], [7.287158, 48.016127], [7.286892, 48.01635], [7.286939, 48.016375], [7.286947, 48.016373], [7.286945, 48.016375], [7.287013, 48.016385], [7.287067, 48.016421], [7.287078, 48.016429], [7.287081, 48.016431], [7.287084, 48.016435], [7.287247, 48.016589], [7.28741, 48.016516], [7.287701, 48.016394], [7.287861, 48.016372], [7.288411, 48.016302], [7.288672, 48.01627], [7.289381, 48.016264], [7.289764, 48.016261], [7.289914, 48.016279], [7.289922, 48.016279], [7.290037, 48.016273], [7.290242, 48.016247], [7.290219, 48.016167], [7.290193, 48.01608], [7.290169, 48.015978], [7.290151, 48.015926], [7.290198, 48.015905], [7.290711, 48.015814], [7.290839, 48.015791], [7.291044, 48.015744], [7.29144, 48.015656], [7.291482, 48.01558], [7.291472, 48.015483], [7.291455, 48.015343], [7.291449, 48.015273], [7.291443, 48.015234], [7.291435, 48.014827], [7.291455, 48.014612], [7.291202, 48.014536], [7.291063, 48.014512], [7.290801, 48.014466], [7.29067, 48.014442], [7.290413, 48.014417], [7.290302, 48.014407], [7.290216, 48.014404], [7.290073, 48.014404], [7.28989, 48.014402], [7.289807, 48.014401], [7.289679, 48.014408], [7.28955, 48.014416], [7.289278, 48.014406], [7.289219, 48.014401], [7.289117, 48.014369], [7.289114, 48.014369], [7.288934, 48.014296], [7.288745, 48.014222], [7.288567, 48.014149], [7.288384, 48.014075], [7.288368, 48.014079], [7.288315, 48.014057], [7.28815, 48.013975], [7.288015, 48.013906], [7.287845, 48.013829], [7.287683, 48.013783], [7.28757, 48.013751], [7.287496, 48.013732], [7.287469, 48.013724]]], [[[7.280886, 48.014934], [7.280664, 48.014488], [7.280607, 48.014347], [7.280582, 48.01433], [7.280549, 48.01433], [7.280521, 48.014347], [7.280424, 48.014404], [7.280348, 48.014459], [7.28033, 48.014471], [7.279938, 48.014613], [7.279865, 48.014708], [7.279759, 48.014921], [7.279344, 48.014972], [7.279294, 48.014983], [7.279288, 48.015003], [7.279383, 48.01516], [7.279397, 48.015193], [7.279453, 48.015319], [7.27949, 48.015446], [7.279509, 48.015644], [7.279543, 48.015741], [7.279601, 48.015855], [7.279661, 48.01597], [7.279734, 48.016135], [7.279724, 48.01638], [7.279708, 48.016511], [7.2797, 48.01655], [7.279713, 48.016674], [7.27972, 48.016728], [7.279724, 48.016746], [7.279754, 48.016918], [7.279759, 48.016948], [7.279833, 48.017234], [7.279833, 48.017391], [7.279833, 48.017562], [7.279856, 48.017644], [7.279901, 48.017704], [7.279921, 48.017718], [7.280003, 48.017736], [7.280238, 48.017755], [7.280786, 48.017785], [7.280917, 48.017782], [7.281013, 48.017772], [7.281159, 48.017743], [7.281415, 48.017696], [7.281434, 48.017691], [7.281463, 48.017687], [7.281519, 48.017676], [7.281651, 48.017651], [7.281707, 48.017642], [7.281599, 48.017404], [7.28153, 48.017248], [7.281438, 48.016977], [7.281399, 48.016867], [7.281381, 48.01681], [7.281364, 48.016757], [7.28136, 48.016744], [7.281352, 48.016714], [7.281295, 48.016478], [7.281263, 48.016346], [7.28125, 48.016285], [7.281246, 48.016271], [7.281203, 48.016067], [7.281203, 48.016061], [7.281199, 48.015979], [7.281217, 48.015776], [7.281211, 48.015672], [7.281207, 48.015654], [7.281172, 48.015522], [7.281133, 48.015438], [7.281003, 48.015187], [7.280971, 48.015129], [7.280957, 48.015079], [7.280886, 48.014934]]], [[[7.286739, 48.015063], [7.286816, 48.014853], [7.286905, 48.014585], [7.286916, 48.014463], [7.286426, 48.014478], [7.286084, 48.014474], [7.285877, 48.014469], [7.285718, 48.014458], [7.285449, 48.01442], [7.285106, 48.014401], [7.28496, 48.014394], [7.284811, 48.01438], [7.284637, 48.014381], [7.284557, 48.014389], [7.284482, 48.014397], [7.284413, 48.014405], [7.28414, 48.014453], [7.283879, 48.014513], [7.283515, 48.014598], [7.283507, 48.014599], [7.283292, 48.014664], [7.283232, 48.014686], [7.283029, 48.01476], [7.283022, 48.014777], [7.282739, 48.014902], [7.282544, 48.014978], [7.282399, 48.015039], [7.282336, 48.015065], [7.282279, 48.01509], [7.282217, 48.015114], [7.281788, 48.015296], [7.281686, 48.015357], [7.281601, 48.015405], [7.281537, 48.015444], [7.281479, 48.015465], [7.28136, 48.015511], [7.281339, 48.01555], [7.28139, 48.01569], [7.281398, 48.015782], [7.281355, 48.015885], [7.281323, 48.016019], [7.281345, 48.016155], [7.281368, 48.016277], [7.281477, 48.016727], [7.281494, 48.016781], [7.281636, 48.017232], [7.281814, 48.017613], [7.281858, 48.017618], [7.281871, 48.01762], [7.281909, 48.017681], [7.281864, 48.017723], [7.281883, 48.017796], [7.282118, 48.018314], [7.28216, 48.018404], [7.282177, 48.018511], [7.282187, 48.018565], [7.282165, 48.018726], [7.282048, 48.019041], [7.28203, 48.019155], [7.282014, 48.019188], [7.282249, 48.019169], [7.282261, 48.019246], [7.282332, 48.019326], [7.282396, 48.019284], [7.282409, 48.019289], [7.282412, 48.019289], [7.282487, 48.019223], [7.282578, 48.019146], [7.28267, 48.019095], [7.282859, 48.019036], [7.282997, 48.018954], [7.283164, 48.018883], [7.283375, 48.018803], [7.28345, 48.018739], [7.283692, 48.018512], [7.283757, 48.018452], [7.284103, 48.018176], [7.284309, 48.018034], [7.28447, 48.017923], [7.284909, 48.017678], [7.285053, 48.017599], [7.285197, 48.017518], [7.285303, 48.01746], [7.285622, 48.01729], [7.285854, 48.017166], [7.286054, 48.017022], [7.286224, 48.0169], [7.286469, 48.016708], [7.286608, 48.016598], [7.286752, 48.016486], [7.286762, 48.016468], [7.286592, 48.016204], [7.28653, 48.016033], [7.286517, 48.015934], [7.286527, 48.015866], [7.286548, 48.015785], [7.286607, 48.01565], [7.28663, 48.015579], [7.286654, 48.015472], [7.286661, 48.01523], [7.286654, 48.01521], [7.286605, 48.015199], [7.286739, 48.015063]]]]}}]}