{"type": "FeatureCollection", "features": [{"type": "Feature", "properties": {"id": "AOC-Alsace-Grand-Cru-Moenchberg", "name": "Moenchberg", "commune": "Andlau & Eichhoffen", "family": "泥灰石灰岩", "familyColor": "#7d3c98", "lessonId": "AL2M5L4"}, "geometry": {"type": "MultiPolygon", "coordinates": [[[[7.432084, 48.383067], [7.432153, 48.383092], [7.432503, 48.383174], [7.432729, 48.383243], [7.432926, 48.383287], [7.433099, 48.383325], [7.433171, 48.383334], [7.433237, 48.383342], [7.433249, 48.383108], [7.433236, 48.382963], [7.43319, 48.382646], [7.43315, 48.38245], [7.433148, 48.382449], [7.433074, 48.382455], [7.433074, 48.382454], [7.433073, 48.382454], [7.432946, 48.382123], [7.43293, 48.382122], [7.432924, 48.382122], [7.432912, 48.382114], [7.432915, 48.382107], [7.432869, 48.382045], [7.432868, 48.382043], [7.432743, 48.38188], [7.432599, 48.381847], [7.432502, 48.381825], [7.432252, 48.381836], [7.432047, 48.381844], [7.431792, 48.381866], [7.431693, 48.381873], [7.431626, 48.381878], [7.431488, 48.381888], [7.431355, 48.3819], [7.431258, 48.381911], [7.431188, 48.381919], [7.430908, 48.381954], [7.43066, 48.382006], [7.430375, 48.382042], [7.430527, 48.382186], [7.430614, 48.382269], [7.430816, 48.382413], [7.430996, 48.382525], [7.431092, 48.382585], [7.431097, 48.382587], [7.431174, 48.382636], [7.431285, 48.382719], [7.431385, 48.382793], [7.431449, 48.382828], [7.431544, 48.38287], [7.431638, 48.382903], [7.431803, 48.382961], [7.431869, 48.382984], [7.432084, 48.383067]]], [[[7.435571, 48.381946], [7.435575, 48.381936], [7.43563, 48.381898], [7.435556, 48.381675], [7.435519, 48.38158], [7.435446, 48.38137], [7.435227, 48.381396], [7.434996, 48.381422], [7.434916, 48.381431], [7.434648, 48.381473], [7.434621, 48.381479], [7.434541, 48.381496], [7.434225, 48.381562], [7.434202, 48.381566], [7.433833, 48.381635], [7.433579, 48.381693], [7.433441, 48.381721], [7.433327, 48.381746], [7.433265, 48.381757], [7.433056, 48.381796], [7.432974, 48.381809], [7.43273, 48.381825], [7.432779, 48.381891], [7.432927, 48.382092], [7.432946, 48.382123], [7.433073, 48.382454], [7.433074, 48.382454], [7.433074, 48.382455], [7.433148, 48.382449], [7.43315, 48.38245], [7.43319, 48.382646], [7.433191, 48.382649], [7.433236, 48.382963], [7.433249, 48.383108], [7.433237, 48.383342], [7.433291, 48.383345], [7.433471, 48.383367], [7.433493, 48.383372], [7.433569, 48.383387], [7.433827, 48.383391], [7.433954, 48.38341], [7.434257, 48.383483], [7.434294, 48.383492], [7.434519, 48.38355], [7.43451, 48.383585], [7.434753, 48.383682], [7.434839, 48.383711], [7.435181, 48.383822], [7.435383, 48.383874], [7.435543, 48.383916], [7.435731, 48.383951], [7.435898, 48.383923], [7.435913, 48.383883], [7.436041, 48.383901], [7.436098, 48.383906], [7.436325, 48.383963], [7.436499, 48.384006], [7.436617, 48.384044], [7.43676, 48.384056], [7.437091, 48.384083], [7.437351, 48.384177], [7.437693, 48.384228], [7.437892, 48.384255], [7.438234, 48.384381], [7.438548, 48.384464], [7.438701, 48.384534], [7.438798, 48.384582], [7.438856, 48.384593], [7.438977, 48.384577], [7.439568, 48.384504], [7.439196, 48.38455], [7.439238, 48.384559], [7.439357, 48.38459], [7.439464, 48.384631], [7.439603, 48.384686], [7.439699, 48.384692], [7.439994, 48.384563], [7.440013, 48.384553], [7.440107, 48.384515], [7.440117, 48.384487], [7.440051, 48.384371], [7.439952, 48.384236], [7.439813, 48.384051], [7.439788, 48.384018], [7.43984, 48.384003], [7.439727, 48.383809], [7.439708, 48.383775], [7.439678, 48.38373], [7.439644, 48.38368], [7.439565, 48.38356], [7.439528, 48.383506], [7.439498, 48.383461], [7.439418, 48.383338], [7.439371, 48.38327], [7.439226, 48.383062], [7.439187, 48.383005], [7.439144, 48.382947], [7.439109, 48.38294], [7.439044, 48.382967], [7.438998, 48.382981], [7.438859, 48.382998], [7.438626, 48.383066], [7.438485, 48.383112], [7.438406, 48.383137], [7.438168, 48.383222], [7.438062, 48.383177], [7.43796, 48.383126], [7.437806, 48.383038], [7.437728, 48.382994], [7.43769, 48.382966], [7.437611, 48.382919], [7.43752, 48.382864], [7.437227, 48.382685], [7.43712, 48.382635], [7.43667, 48.382492], [7.436582, 48.382457], [7.436493, 48.382423], [7.436363, 48.382372], [7.436234, 48.38231], [7.436153, 48.382263], [7.436058, 48.382208], [7.435868, 48.382099], [7.435556, 48.381961], [7.435572, 48.381946], [7.435571, 48.381946]]]]}}]}