{"type": "FeatureCollection", "features": [{"type": "Feature", "properties": {"id": "AOC-Alsace-Grand-Cru-Mandelberg", "name": "Mandelberg", "commune": "Mittelwihr & Beblenheim", "family": "泥灰石灰岩", "familyColor": "#9b59b6", "lessonId": "AL2M5L4"}, "geometry": {"type": "MultiPolygon", "coordinates": [[[[7.327616, 48.152198], [7.327648, 48.152258], [7.327677, 48.152316], [7.327744, 48.152442], [7.327786, 48.152525], [7.327821, 48.15259], [7.327916, 48.152771], [7.32799, 48.15291], [7.328015, 48.152958], [7.328038, 48.153002], [7.328075, 48.153095], [7.328089, 48.15313], [7.32833, 48.153091], [7.328437, 48.153072], [7.328546, 48.153054], [7.328785, 48.153016], [7.328897, 48.152998], [7.329388, 48.152913], [7.329482, 48.152942], [7.32957, 48.152935], [7.329651, 48.152929], [7.329806, 48.152917], [7.329945, 48.152907], [7.330079, 48.152897], [7.33021, 48.152888], [7.330317, 48.152879], [7.330344, 48.152851], [7.330397, 48.15287], [7.331228, 48.15278], [7.331784, 48.152697], [7.332393, 48.152568], [7.333347, 48.152351], [7.333315, 48.152287], [7.333251, 48.152162], [7.333251, 48.15216], [7.333218, 48.152095], [7.333186, 48.152033], [7.333138, 48.151941], [7.333093, 48.15185], [7.332965, 48.151601], [7.332884, 48.151438], [7.332858, 48.15138], [7.332839, 48.151344], [7.331873, 48.151556], [7.331815, 48.151407], [7.330495, 48.151666], [7.330431, 48.151678], [7.330365, 48.151691], [7.330262, 48.151711], [7.330166, 48.151731], [7.330055, 48.151753], [7.329957, 48.151773], [7.329236, 48.151915], [7.329098, 48.151939], [7.329164, 48.151928], [7.327616, 48.152198]]], [[[7.328851, 48.150892], [7.328797, 48.150797], [7.328714, 48.15064], [7.32866, 48.150541], [7.328524, 48.150297], [7.328456, 48.15019], [7.328382, 48.150072], [7.328174, 48.149863], [7.328088, 48.149801], [7.32808, 48.149803], [7.327633, 48.149812], [7.327483, 48.149818], [7.327338, 48.149821], [7.327032, 48.149829], [7.327068, 48.14995], [7.32706, 48.149951], [7.326932, 48.149968], [7.326813, 48.149985], [7.326693, 48.150007], [7.326569, 48.15003], [7.326309, 48.150081], [7.326086, 48.150118], [7.325977, 48.150138], [7.325873, 48.150155], [7.325783, 48.150171], [7.325817, 48.150258], [7.32561, 48.150294], [7.325504, 48.150314], [7.325392, 48.150334], [7.325283, 48.150353], [7.325174, 48.150371], [7.325103, 48.150383], [7.325042, 48.150392], [7.324967, 48.150404], [7.324805, 48.15047], [7.324488, 48.150607], [7.324432, 48.150647], [7.324428, 48.150658], [7.324385, 48.150761], [7.324337, 48.15084], [7.324268, 48.150947], [7.324357, 48.151007], [7.324451, 48.151103], [7.324451, 48.151142], [7.324654, 48.151387], [7.324687, 48.151454], [7.32469, 48.151463], [7.324693, 48.15147], [7.324703, 48.151492], [7.324764, 48.151774], [7.324795, 48.15182], [7.324799, 48.151867], [7.324643, 48.151934], [7.324528, 48.151981], [7.324419, 48.152028], [7.324184, 48.152127], [7.324607, 48.152582], [7.324713, 48.152697], [7.324743, 48.152728], [7.324772, 48.15276], [7.324803, 48.152802], [7.32561, 48.152565], [7.325698, 48.152549], [7.325841, 48.152522], [7.325878, 48.152515], [7.32591, 48.152511], [7.326364, 48.152427], [7.326494, 48.152405], [7.32729, 48.152258], [7.32734, 48.152249], [7.327433, 48.152231], [7.327616, 48.152198], [7.329164, 48.151928], [7.329236, 48.151915], [7.329957, 48.151773], [7.330055, 48.151753], [7.330166, 48.151731], [7.330262, 48.151711], [7.330365, 48.151691], [7.330431, 48.151678], [7.330495, 48.151666], [7.331815, 48.151407], [7.331873, 48.151556], [7.332839, 48.151344], [7.332899, 48.151252], [7.333021, 48.151305], [7.333606, 48.151139], [7.334248, 48.150957], [7.334986, 48.150761], [7.334926, 48.150657], [7.334877, 48.150579], [7.334861, 48.150554], [7.334827, 48.150502], [7.334812, 48.150475], [7.334781, 48.150422], [7.334762, 48.150396], [7.334704, 48.150306], [7.334484, 48.149961], [7.334395, 48.149825], [7.334251, 48.149555], [7.334093, 48.149593], [7.334016, 48.14961], [7.33394, 48.149629], [7.33386, 48.149647], [7.333781, 48.149666], [7.333633, 48.1497], [7.333564, 48.149717], [7.333498, 48.14973], [7.333361, 48.149762], [7.333353, 48.149765], [7.333229, 48.149794], [7.333157, 48.149811], [7.333007, 48.149848], [7.332864, 48.149882], [7.332801, 48.149897], [7.332737, 48.149912], [7.332523, 48.149961], [7.332402, 48.149989], [7.33228, 48.150017], [7.332222, 48.150031], [7.332159, 48.150046], [7.332034, 48.150074], [7.331915, 48.150102], [7.331847, 48.150117], [7.331781, 48.150134], [7.331696, 48.150153], [7.331403, 48.150222], [7.331494, 48.150476], [7.331592, 48.150759], [7.331607, 48.150804], [7.331631, 48.15087], [7.331541, 48.150889], [7.331393, 48.15092], [7.331276, 48.150946], [7.331154, 48.15097], [7.331004, 48.151003], [7.330927, 48.15102], [7.330554, 48.151098], [7.330257, 48.151162], [7.330092, 48.150755], [7.330012, 48.150767], [7.329929, 48.150779], [7.329842, 48.150793], [7.329749, 48.150809], [7.329658, 48.150823], [7.329557, 48.150841], [7.329483, 48.150853], [7.329361, 48.150874], [7.329252, 48.15089], [7.328978, 48.150935], [7.328982, 48.150951], [7.328897, 48.15097], [7.328851, 48.150892]]], [[[7.32455, 48.151292], [7.32443, 48.15115], [7.324434, 48.151101], [7.324341, 48.151015], [7.324253, 48.150957], [7.324088, 48.151118], [7.323991, 48.151213], [7.323905, 48.151249], [7.323804, 48.151292], [7.323632, 48.151365], [7.323503, 48.151469], [7.323407, 48.151548], [7.323512, 48.151615], [7.323603, 48.151671], [7.323361, 48.151838], [7.323358, 48.151838], [7.32334, 48.151852], [7.323527, 48.151962], [7.323255, 48.151802], [7.323147, 48.151893], [7.322992, 48.152001], [7.322893, 48.152046], [7.323144, 48.152281], [7.323203, 48.152343], [7.322821, 48.152487], [7.322759, 48.152511], [7.322699, 48.152533], [7.322606, 48.152558], [7.322539, 48.152564], [7.322406, 48.152578], [7.322235, 48.152597], [7.322094, 48.152622], [7.322084, 48.152624], [7.322026, 48.152641], [7.321973, 48.152659], [7.321875, 48.152702], [7.321732, 48.152799], [7.322248, 48.153215], [7.322163, 48.153263], [7.322095, 48.153451], [7.322019, 48.15354], [7.321964, 48.1536], [7.321809, 48.15367], [7.321788, 48.15368], [7.321712, 48.15371], [7.321642, 48.153736], [7.321529, 48.153776], [7.321377, 48.153832], [7.32133, 48.15385], [7.321257, 48.153876], [7.321139, 48.153917], [7.320961, 48.153979], [7.320943, 48.153985], [7.320848, 48.154174], [7.320834, 48.1542], [7.320829, 48.154269], [7.320817, 48.154388], [7.320807, 48.154504], [7.320789, 48.154703], [7.320781, 48.154772], [7.32077, 48.15484], [7.320877, 48.154732], [7.320989, 48.154643], [7.321371, 48.154409], [7.321527, 48.154315], [7.321689, 48.154216], [7.321766, 48.154169], [7.321881, 48.154099], [7.32202, 48.153987], [7.322197, 48.153842], [7.322252, 48.15382], [7.322678, 48.153635], [7.322683, 48.153395], [7.322613, 48.153299], [7.322859, 48.153144], [7.322885, 48.15317], [7.322912, 48.153201], [7.322939, 48.153229], [7.322965, 48.153255], [7.322992, 48.153283], [7.323021, 48.153314], [7.323042, 48.153337], [7.323059, 48.153354], [7.323113, 48.153354], [7.323134, 48.153348], [7.323142, 48.153342], [7.323144, 48.15334], [7.324758, 48.152814], [7.324734, 48.152788], [7.324702, 48.152755], [7.324663, 48.152711], [7.324645, 48.15269], [7.324583, 48.152626], [7.324527, 48.152565], [7.324462, 48.152497], [7.3244, 48.152429], [7.324344, 48.15237], [7.324256, 48.152274], [7.324185, 48.152201], [7.324129, 48.152147], [7.324117, 48.152059], [7.324194, 48.152044], [7.324289, 48.152024], [7.324417, 48.151973], [7.324563, 48.151913], [7.324634, 48.151862], [7.324748, 48.151775], [7.324685, 48.151492], [7.324633, 48.151391], [7.32455, 48.151292]]]]}}]}