{"type":"FeatureCollection","crs":{"type":"name","properties":{"name":"urn:ogc:def:crs:EPSG::4326"}},"features":[{"type":"Feature","properties":{"region_id":14,"name":"Etyek-Buda","name_hu":"Etyek-Budai borvidék","region_group":"Dunántúl (Transdanubia)","area_ha_approx":3000,"notable_grapes":"Chardonnay, Sauvignon Blanc, Pinot Blanc, Rajnai Rizling","notes":"W of Budapest; limestone plateau; base-wine for Törley sparkling"},"geometry":{"type":"Polygon","coordinates":[[[18.6831387,47.2981297],[18.6731149,47.2908589],[18.6692147,47.2885655],[18.6827187,47.2783275],[18.6928327,47.2718828],[18.6973532,47.26428],[18.7072801,47.2579392],[18.6991153,47.2509607],[18.6980118,47.2502727],[18.6964143,47.2499355],[18.6943442,47.2498368],[18.6877098,47.2503072],[18.6836186,47.2512218],[18.6744986,47.2519418],[18.6688547,47.2561593],[18.6599062,47.2623865],[18.6539345,47.2655093],[18.6483462,47.26606],[18.647942,47.2659922],[18.642427,47.2675481],[18.6376192,47.2681204],[18.6323275,47.2697634],[18.6284112,47.2713496],[18.6236902,47.2718231],[18.6187079,47.2715882],[18.6154085,47.2726314],[18.6110239,47.2764597],[18.6077504,47.2786301],[18.6060981,47.2753941],[18.6030156,47.2710097],[18.596861,47.2628761],[18.5958525,47.2627327],[18.5953133,47.2620495],[18.5949222,47.2611398],[18.5922404,47.2593723],[18.5901244,47.2596809],[18.585764,47.2617866],[18.5848834,47.2620437],[18.5804408,47.2643749],[18.5783244,47.2650229],[18.5763672,47.2643586],[18.5746632,47.2641362],[18.5726379,47.2643244],[18.5711334,47.264287],[18.5689972,47.2648223],[18.5679768,47.2647879],[18.5648958,47.2644972],[18.5592641,47.2635951],[18.5534323,47.2634857],[18.5512092,47.2628445],[18.5550127,47.2584427],[18.5531386,47.2577019],[18.5508536,47.2599352],[18.5486001,47.2614501],[18.5452359,47.2629538],[18.5435482,47.2633307],[18.5429894,47.2637063],[18.5401874,47.2644562],[18.5356793,47.2674855],[18.5339895,47.2690025],[18.5317463,47.2693705],[18.5311983,47.2686058],[18.5295178,47.2682202],[18.5284071,47.2682151],[18.5272836,47.2685881],[18.5266708,47.2735372],[18.5249693,47.2761944],[18.5232827,47.2773271],[18.5227107,47.2780867],[18.5227069,47.278471],[18.5215719,47.2799842],[18.5209901,47.2826464],[18.5204142,47.2837903],[18.5192881,47.2853036],[18.5175654,47.2891071],[18.5141795,47.2925187],[18.5124831,47.2936512],[18.5113512,47.2947924],[18.5091043,47.2963003],[18.5079569,47.2989599],[18.5068017,47.3023817],[18.5033934,47.3069393],[18.5028221,47.308455],[18.5005574,47.3107312],[18.4977131,47.3152852],[18.4960128,47.3175639],[18.4993348,47.3206227],[18.5032065,47.3252148],[18.5059773,47.3278928],[18.5076518,47.329041],[18.5037132,47.3309251],[18.5131639,47.3374457],[18.5220758,47.3424385],[18.5215611,47.3382467],[18.5243447,47.3397839],[18.5271359,47.3405527],[18.5321551,47.3428621],[18.536024,47.3482091],[18.5410116,47.3539452],[18.5421152,47.3558526],[18.546608,47.3608423],[18.5385972,47.3718326],[18.5407432,47.3821173],[18.5305489,47.3927377],[18.5371938,47.4011399],[18.532672,47.4053092],[18.5264683,47.4087085],[18.5225244,47.4105993],[18.512371,47.4162604],[18.4988003,47.4272402],[18.4903334,47.4317671],[18.484682,47.435929],[18.4807428,47.43705],[18.4767902,47.4385551],[18.4655204,47.4434504],[18.4621374,47.4445736],[18.4593164,47.4460838],[18.4548052,47.4475852],[18.4486173,47.4486935],[18.4496981,47.4525043],[18.4524904,47.4544275],[18.4535751,47.4570979],[18.4569168,47.4597799],[18.4591518,47.4609316],[18.4591475,47.4613158],[18.4597049,47.4613187],[18.461961,47.4605679],[18.4636422,47.4605764],[18.4613742,47.4632297],[18.4562916,47.4658686],[18.454584,47.4673844],[18.4534558,47.4677566],[18.4523196,47.4696534],[18.4500501,47.4715442],[18.448325,47.4745843],[18.44606,47.4768593],[18.4432368,47.4783629],[18.4415285,47.4798785],[18.4398423,47.4802538],[18.4387094,47.4810039],[18.4370188,47.4817573],[18.4364433,47.4825165],[18.4324863,47.4847822],[18.4296711,47.4855295],[18.4347042,47.4874589],[18.4369573,47.4870928],[18.4397027,47.4924369],[18.4442349,47.4886494],[18.4459391,47.487518],[18.4476254,47.4871487],[18.4487584,47.4863923],[18.4493246,47.485633],[18.4515819,47.4848824],[18.4532511,47.4860313],[18.4554956,47.4864271],[18.4577359,47.4872008],[18.4582893,47.4875817],[18.4588476,47.4883468],[18.4588392,47.489109],[18.4605086,47.4902578],[18.461067,47.4910229],[18.4593631,47.4921545],[18.4649228,47.4978965],[18.4660433,47.4982802],[18.4665969,47.4986672],[18.4682793,47.4986757],[18.4693998,47.4990593],[18.4693873,47.5002057],[18.4710656,47.5005922],[18.4727449,47.5017408],[18.4738737,47.5013684],[18.4755479,47.502139],[18.4766726,47.5021445],[18.4789058,47.5036739],[18.4800306,47.5036794],[18.479435,47.5063475],[18.4788609,47.5078629],[18.4777237,47.5090038],[18.4777155,47.509766],[18.4771404,47.5105193],[18.4765784,47.5109007],[18.477128,47.5116657],[18.4793697,47.512439],[18.4799409,47.5120576],[18.4816196,47.51245],[18.4827486,47.5120713],[18.4849813,47.5128445],[18.4849611,47.5147469],[18.4843991,47.5151284],[18.4843789,47.5170308],[18.4838128,47.5177903],[18.4843505,47.5196955],[18.4843424,47.5204577],[18.4832092,47.5212144],[18.4809508,47.5219656],[18.4792636,47.5223353],[18.476443,47.5234617],[18.4747434,47.5249778],[18.4809183,47.5250082],[18.4842979,47.5246468],[18.4859812,47.5246549],[18.4887907,47.5254308],[18.4921572,47.5254471],[18.497228,47.5243248],[18.4978031,47.5235653],[18.4977952,47.5243275],[18.4972201,47.5250871],[18.4971964,47.5273737],[18.4966225,47.5288955],[18.4960592,47.5285085],[18.4960672,47.5277463],[18.4955091,47.5277437],[18.4949379,47.5281252],[18.4938218,47.5281198],[18.493778,47.5323089],[18.4943361,47.5323115],[18.4943282,47.5330676],[18.4926088,47.5364863],[18.493167,47.536489],[18.4937422,47.5357357],[18.49598,47.5361244],[18.4965433,47.5365052],[18.495972,47.5368867],[18.4954139,47.536884],[18.4954099,47.537262],[18.4948307,47.5384057],[18.4942686,47.538781],[18.4937024,47.5395406],[18.4925689,47.5402974],[18.492565,47.5406754],[18.4919936,47.5410569],[18.492557,47.5414376],[18.4919856,47.5418191],[18.4903018,47.541811],[18.4891683,47.5425615],[18.4880065,47.5459829],[18.4874402,47.5467424],[18.4851646,47.5490181],[18.4857108,47.550161],[18.4857027,47.5509232],[18.4862581,47.5520662],[18.4884895,47.5539857],[18.4890398,47.5547506],[18.4928999,47.5620012],[18.4928601,47.565806],[18.4905839,47.5680818],[18.4894497,47.5688386],[18.4894377,47.5699788],[18.4883086,47.5711198],[18.4882926,47.572638],[18.4848896,47.5749082],[18.4848856,47.5752862],[18.4826168,47.5767996],[18.4814905,47.5767941],[18.4809237,47.5775536],[18.480352,47.5779288],[18.4803233,47.5805996],[18.4797566,47.5813529],[18.4780593,47.582491],[18.4774915,47.5824882],[18.4757859,47.5843822],[18.4746511,47.5851389],[18.474647,47.5855169],[18.4740884,47.5855141],[18.4735164,47.5858955],[18.4695782,47.5858759],[18.4673044,47.587767],[18.4667457,47.5877642],[18.4633282,47.5911739],[18.4621974,47.5915462],[18.4621932,47.5919304],[18.4604867,47.5938243],[18.4660942,47.5953771],[18.4688989,47.5969094],[18.4716614,47.6014966],[18.4738904,47.6037882],[18.474441,47.6045531],[18.477229,47.6068536],[18.4771962,47.6098962],[18.4760486,47.6117992],[18.4760322,47.6133174],[18.4765879,47.6144665],[18.4760075,47.6156039],[18.4781685,47.6210409],[18.4753703,47.6228327],[18.4764852,47.6239846],[18.4770443,47.6239874],[18.4792825,47.6255228],[18.4798335,47.6262816],[18.4792662,47.627041],[18.4769868,47.6293165],[18.4769827,47.6296945],[18.477551,47.6296973],[18.4781142,47.629322],[18.4797926,47.6300925],[18.4786498,47.6323674],[18.4780568,47.6346511],[18.4786006,47.6369405],[18.4790903,47.6434125],[18.4801894,47.6460826],[18.4801567,47.6491313],[18.481738,47.6590355],[18.4833971,47.6617082],[18.4861896,47.6647707],[18.4884167,47.6666839],[18.490649,47.6689813],[18.492318,47.671654],[18.4934292,47.6724215],[18.495674,47.6735724],[18.4979149,47.6751075],[18.5018283,47.6781687],[18.5023722,47.6796957],[18.5045979,47.682755],[18.5062707,47.684281],[18.5073993,47.6842863],[18.5074148,47.6827681],[18.5085473,47.6823892],[18.5102447,47.6823971],[18.5136635,47.6782238],[18.5159358,47.676716],[18.5165069,47.6755722],[18.5187752,47.6744424],[18.5210471,47.6729283],[18.5233303,47.670274],[18.5244662,47.6695169],[18.5267128,47.6672874],[18.5284591,47.6645898],[18.5290299,47.6634459],[18.5301655,47.6626888],[18.5329924,47.6615612],[18.5352745,47.6589066],[18.5364099,47.6581494],[18.5381047,47.6573947],[18.5397958,47.6570241],[18.5420664,47.6555096],[18.5409202,47.657407],[18.542595,47.659701],[18.5431291,47.662368],[18.5447878,47.6654178],[18.5475912,47.6677166],[18.5492539,47.6703884],[18.5515034,47.6711603],[18.5537331,47.6730722],[18.5554054,47.675744],[18.5559438,47.6780329],[18.556502,47.6791755],[18.5576284,47.678418],[18.5593468,47.6761449],[18.5638688,47.6742614],[18.5661291,47.6738866],[18.5666852,47.6742731],[18.570067,47.6746651],[18.5717618,47.6739099],[18.5728902,47.6739145],[18.5751504,47.6735457],[18.5762788,47.6735503],[18.57796,47.6743193],[18.5830332,47.6743398],[18.5864151,47.6747313],[18.5886752,47.6743623],[18.5897944,47.6743667],[18.5948872,47.6721001],[18.595456,47.6721023],[18.5960188,47.6717203],[18.6011079,47.6698376],[18.60394,47.667946],[18.6045087,47.6679482],[18.6050714,47.6675724],[18.6050747,47.6671882],[18.6101724,47.6641649],[18.6118755,47.6634091],[18.6146727,47.6657],[18.6169384,47.6645682],[18.6214727,47.6607801],[18.6237381,47.659642],[18.6260064,47.6581321],[18.6282684,47.6562317],[18.6296231,47.6579121],[18.6305064,47.6585264],[18.632185,47.6596726],[18.6344352,47.6604429],[18.6344322,47.6608271],[18.6349949,47.6615913],[18.6372391,47.6619773],[18.6378048,47.6623573],[18.6400669,47.6616092],[18.640394,47.6609253],[18.6457878,47.6584605],[18.6467363,47.6575689],[18.6481661,47.6566201],[18.6488386,47.6557905],[18.6512523,47.6535686],[18.6532626,47.6525864],[18.6550959,47.6521286],[18.6553655,47.6518204],[18.6581772,47.6510068],[18.6621389,47.6504597],[18.6666283,47.6502727],[18.6677616,47.6495142],[18.6694597,47.6480015],[18.6700337,47.6472412],[18.6734241,47.6449655],[18.6768182,47.643452],[18.6800873,47.6424453],[18.6818569,47.6414009],[18.6836016,47.6396687],[18.685316,47.6370094],[18.6909654,47.6339781],[18.6949021,47.6347523],[18.6965838,47.6355196],[18.6965813,47.6359038],[18.6984363,47.6368606],[18.7005225,47.6374339],[18.7016958,47.637024],[18.7050213,47.6378315],[18.7055805,47.6378332],[18.7123319,47.6401333],[18.7129881,47.6405214],[18.7148966,47.6411707],[18.7156887,47.6407464],[18.7167902,47.6404551],[18.7190841,47.6409149],[18.7173852,47.6428125],[18.7218729,47.6451118],[18.7213113,47.6454944],[18.7213042,47.6466346],[18.7224227,47.6481622],[18.7218518,47.6485386],[18.7218495,47.6489228],[18.7201505,47.6508204],[18.7190179,47.6515794],[18.7195702,47.6527212],[18.7206958,47.6531024],[18.7218261,47.6527276],[18.722954,47.6527307],[18.7252053,47.6534992],[18.726888,47.6542661],[18.7285593,47.6569353],[18.7291257,47.6573149],[18.7302514,47.6577022],[18.7325053,47.6580863],[18.7336242,47.6580894],[18.7347545,47.6577144],[18.7370061,47.6584827],[18.737568,47.6596244],[18.7398084,47.6607706],[18.7431862,47.6619259],[18.7448717,47.6623083],[18.7482626,47.6611769],[18.7488264,47.6604162],[18.7516485,47.659277],[18.7522213,47.6585224],[18.7533515,47.6581411],[18.7567391,47.655863],[18.7623936,47.6532125],[18.7657723,47.6524647],[18.7669043,47.6517053],[18.7680342,47.6513238],[18.7686028,47.6513252],[18.7697347,47.6505657],[18.7708594,47.6494281],[18.7725598,47.64867],[18.7736896,47.6482947],[18.7787187,47.6498623],[18.7834859,47.6487918],[18.7954579,47.6415679],[18.7979992,47.6434676],[18.7988042,47.6429768],[18.8057859,47.6463882],[18.8094729,47.6503561],[18.8106334,47.650073],[18.8115281,47.6525678],[18.811952,47.6571348],[18.8159047,47.6571427],[18.8204094,47.6567674],[18.8209704,47.6563905],[18.821539,47.6563916],[18.8221001,47.6560085],[18.8249279,47.655258],[18.8294371,47.6537421],[18.8356333,47.6545158],[18.8401331,47.6552861],[18.8435113,47.6568103],[18.8497209,47.6541565],[18.8531048,47.6541622],[18.8564824,47.6534056],[18.858741,47.6526533],[18.8649454,47.6511388],[18.8655009,47.6522799],[18.8654811,47.6532544],[18.868466,47.6569582],[18.8701102,47.6580133],[18.8710168,47.6593393],[18.8726208,47.6596374],[18.8764697,47.657614],[18.8815713,47.6554695],[18.8851306,47.6533629],[18.8869813,47.6530232],[18.8929764,47.6539383],[18.8973078,47.6525464],[18.8989037,47.6505298],[18.8994402,47.6489704],[18.9028868,47.6484392],[18.9069611,47.6485241],[18.9076139,47.6469317],[18.9092745,47.6457856],[18.9143946,47.6514685],[18.9187789,47.6566583],[18.9200985,47.6633136],[18.9178669,47.6774958],[18.9166975,47.6793234],[18.9142691,47.685212],[18.9163495,47.68452],[18.917866,47.6844275],[18.919061,47.6847135],[18.9209025,47.6844279],[18.9276188,47.6809139],[18.931675,47.6794967],[18.9353013,47.6764881],[18.9364386,47.6761874],[18.9368543,47.6754966],[18.9391737,47.6742974],[18.9392193,47.6737835],[18.9402429,47.6734451],[18.9404665,47.672317],[18.9411793,47.6724328],[18.9417,47.6708639],[18.9426525,47.6697775],[18.9458591,47.672068],[18.9470706,47.6724656],[18.9472834,47.6707542],[18.9532889,47.6665479],[18.9565377,47.6603383],[18.9580619,47.6587373],[18.9601184,47.6581303],[18.96369,47.6562865],[18.9657129,47.6559731],[18.9676903,47.6551364],[18.9685426,47.6549737],[18.9709029,47.6552195],[18.971269,47.65465],[18.9712154,47.6542792],[18.9722845,47.6545099],[18.9739929,47.65537],[18.9748799,47.6545599],[18.9776911,47.6560859],[18.9817031,47.6543318],[18.9808102,47.6533448],[18.9823233,47.6531287],[18.9826442,47.6526595],[18.9845099,47.6520443],[18.9843329,47.6517399],[18.9821897,47.6523356],[18.9790142,47.6528135],[18.976998,47.653467],[18.9744358,47.6535322],[18.9721577,47.6529024],[18.9731071,47.6515179],[18.9738617,47.6509852],[18.9739515,47.646762],[18.9787795,47.6469297],[18.979484,47.6466771],[18.9821351,47.6452021],[18.9841438,47.6427386],[18.9857466,47.6419617],[18.9836474,47.6408519],[18.982523,47.639661],[18.983514,47.639103],[18.9832045,47.6385146],[18.9818645,47.637596],[18.983278,47.634593],[18.9849575,47.633769],[18.9916158,47.63163],[18.9935145,47.6306474],[18.9900859,47.6279505],[18.997037,47.6242615],[18.9985975,47.6255205],[19.0046528,47.621723],[19.0074855,47.620366],[19.0083764,47.6216268],[19.0082536,47.6228465],[19.0093086,47.6247243],[19.0129071,47.6254561],[19.014189,47.6267079],[19.0152824,47.628843],[19.0160385,47.6290685],[19.0168909,47.6299991],[19.0206126,47.6295895],[19.0228585,47.6304905],[19.024434,47.6304771],[19.0328767,47.6269763],[19.0341732,47.6283741],[19.0368081,47.6279797],[19.0373985,47.628487],[19.037166,47.6287245],[19.0392706,47.6306519],[19.0364328,47.6331489],[19.0370822,47.6332131],[19.039771,47.6352196],[19.0402943,47.6331825],[19.0414871,47.631377],[19.0616805,47.63419],[19.0584421,47.6293775],[19.0695249,47.6271392],[19.0763909,47.6262687],[19.0839654,47.6257336],[19.0909889,47.6267805],[19.0917315,47.625207],[19.0917193,47.6236358],[19.0908226,47.6214883],[19.0905046,47.6192674],[19.0891871,47.616688],[19.0872011,47.6147577],[19.0816281,47.6123274],[19.0796561,47.6106764],[19.0767223,47.6068533],[19.0748459,47.6075711],[19.0719511,47.6076328],[19.0665465,47.6086504],[19.0664286,47.6083514],[19.060416,47.6092463],[19.0602037,47.6094768],[19.0537493,47.6090335],[19.0461887,47.610102],[19.0381747,47.609626],[19.0373362,47.6089718],[19.0252812,47.6045889],[19.0282371,47.6011227],[19.029707,47.5996609],[19.0328391,47.5922054],[19.0324459,47.5917327],[19.0331236,47.5914609],[19.0333855,47.5908566],[19.0341408,47.5882748],[19.0345613,47.587337],[19.0344669,47.5869376],[19.0323212,47.5872444],[19.0320208,47.5874296],[19.0260212,47.5881532],[19.01985,47.5876438],[19.0167944,47.5871633],[19.0158674,47.5866597],[19.0150177,47.5869491],[19.0136873,47.586677],[19.0103743,47.5855655],[19.0093271,47.5854498],[19.0016873,47.5834365],[18.9997551,47.5835448],[18.9969086,47.5859382],[18.993828,47.5837556],[18.9830234,47.5890291],[18.9777865,47.5857341],[18.9850891,47.5831117],[18.9829852,47.5816325],[18.9834912,47.5810371],[18.9807909,47.5784527],[18.977512,47.575754],[18.976838,47.57484],[18.9772115,47.5739078],[18.9690264,47.5762426],[18.959585,47.5778639],[18.9496287,47.5779797],[18.9425905,47.578906],[18.9399361,47.5759266],[18.9394691,47.5756486],[18.9376484,47.5749043],[18.9288432,47.5724407],[18.9293772,47.5717985],[18.9366692,47.5602344],[18.9381149,47.5571891],[18.9335623,47.5559461],[18.9353549,47.5547501],[18.9373316,47.5540581],[18.9383912,47.553168],[18.939393,47.5528648],[18.9399965,47.5529978],[18.940496,47.5527905],[18.9408943,47.552074],[18.9404651,47.5515941],[18.9408244,47.5507918],[18.9402653,47.5503469],[18.9362811,47.5482248],[18.9336999,47.5466066],[18.9317004,47.5460493],[18.9300003,47.5459961],[18.9251057,47.5441443],[18.9297897,47.5418333],[18.9317773,47.542664],[18.9329269,47.5427213],[18.9337795,47.5430599],[18.9357518,47.5433397],[18.9354402,47.5416808],[18.9351763,47.5386352],[18.9346908,47.5375673],[18.9343186,47.5356412],[18.9348292,47.5335871],[18.934308,47.5322041],[18.9348768,47.5308911],[18.935328,47.5226433],[18.9333266,47.5232981],[18.9329082,47.5238197],[18.9311165,47.5245152],[18.9303547,47.5246384],[18.9293087,47.5242418],[18.9279539,47.5243459],[18.9277503,47.5237687],[18.9272981,47.5232972],[18.9268967,47.5222438],[18.9290285,47.5218794],[18.9334747,47.5207347],[18.9353292,47.5226409],[18.9354588,47.522437],[18.9352452,47.5221271],[18.9353344,47.5220605],[18.9427854,47.5187886],[18.9447868,47.5175182],[18.9429264,47.5171486],[18.94163,47.5146954],[18.939853,47.5124792],[18.9382532,47.5124029],[18.938325,47.5121508],[18.9371746,47.5113142],[18.9372626,47.5112623],[18.9367271,47.5106184],[18.935428,47.5093544],[18.9338566,47.5070997],[18.9411609,47.5048969],[18.9440584,47.5035135],[18.9442796,47.5031137],[18.9436269,47.5022151],[18.9438693,47.5012049],[18.9446387,47.5005392],[18.9455163,47.4993342],[18.9451344,47.4986268],[18.9445106,47.4983273],[18.9449557,47.497839],[18.9445975,47.4969936],[18.9398544,47.4978647],[18.9359282,47.4915402],[18.9362555,47.4912422],[18.941698,47.4884174],[18.9415237,47.4870192],[18.9470626,47.4824417],[18.9523104,47.4843],[18.9550643,47.4863048],[18.9579134,47.4851966],[18.9636819,47.4822826],[18.9673041,47.4796792],[18.9702877,47.4761415],[18.978875,47.4688119],[18.981484,47.4632462],[18.9817134,47.4632013],[18.9826683,47.4607778],[18.9810547,47.4552125],[18.9777746,47.4551814],[18.9774326,47.4550674],[18.9698967,47.4510976],[18.9715386,47.4499126],[18.9756323,47.4480461],[18.9774143,47.4472721],[18.9785151,47.4472141],[18.9779521,47.4453368],[18.9784724,47.4440968],[18.9788265,47.4417296],[18.9791894,47.4409308],[18.9792237,47.4379139],[18.9785662,47.4362949],[18.9781235,47.4336693],[18.9779766,47.4336],[18.9773403,47.431943],[18.9762365,47.4300716],[18.9743988,47.4294941],[18.9697342,47.4269169],[18.9570475,47.418595],[18.9570782,47.4181135],[18.9574482,47.4173741],[18.9570173,47.4156468],[18.9569082,47.4142609],[18.9606702,47.4067294],[18.9614572,47.4048422],[18.9620035,47.4010436],[18.9624741,47.3993087],[18.9540778,47.3971046],[18.9521989,47.3955586],[18.9515303,47.3939995],[18.9513396,47.3925554],[18.9516279,47.3907922],[18.9527813,47.3874725],[18.9538692,47.385725],[18.9548797,47.383642],[18.9536034,47.3832432],[18.9535537,47.3826003],[18.9545372,47.3812114],[18.9546322,47.3803021],[18.9553262,47.3782385],[18.9561421,47.3769864],[18.9572236,47.375829],[18.9623767,47.3726234],[18.9725816,47.3807642],[18.9762979,47.3824776],[18.9801151,47.3838027],[18.9947161,47.3869779],[19.0166532,47.3898082],[19.0188672,47.3880904],[19.0224447,47.3890829],[19.0240622,47.3871571],[19.0276588,47.3884606],[19.0301811,47.385342],[19.0303509,47.3853211],[19.0382316,47.3883735],[19.0397003,47.3874372],[19.0415517,47.3856395],[19.0420962,47.3858493],[19.0439653,47.3850196],[19.0449088,47.3864985],[19.0465324,47.3875084],[19.0479811,47.3888067],[19.0492067,47.3880602],[19.0508724,47.3873791],[19.0536513,47.393375],[19.061817,47.3916405],[19.0628242,47.392037],[19.0645702,47.3934571],[19.0605141,47.3976623],[19.0675476,47.4008292],[19.0708615,47.4027654],[19.0736061,47.4032923],[19.0752637,47.4040697],[19.0836196,47.4048964],[19.0854043,47.4015572],[19.0940016,47.3910256],[19.1003254,47.3891334],[19.1052232,47.3869689],[19.0981731,47.378676],[19.0939336,47.3722531],[19.0898521,47.3668629],[19.0893569,47.3657822],[19.0873996,47.3638548],[19.0860128,47.3629489],[19.0812688,47.3610874],[19.0781216,47.3586643],[19.0723398,47.355773],[19.0691588,47.353385],[19.0677463,47.3517874],[19.0668375,47.3497571],[19.0653882,47.3484256],[19.0627107,47.3470442],[19.0608684,47.3464617],[19.0539905,47.343291],[19.052271,47.3420842],[19.0514866,47.3413108],[19.0506981,47.3393491],[19.0495044,47.3380048],[19.047861,47.3357476],[19.0471404,47.3338639],[19.0472455,47.331698],[19.0474647,47.3310187],[19.0475447,47.3286268],[19.0471658,47.3266861],[19.0457937,47.3235768],[19.0444871,47.3223403],[19.041256,47.320143],[19.0348706,47.3121578],[19.0291298,47.3053583],[19.0162557,47.292164],[19.0065404,47.286047],[19.0044057,47.2845131],[18.9998062,47.2803292],[18.9966586,47.2776575],[18.9933203,47.2750914],[18.9899471,47.2757942],[18.9698231,47.2807614],[18.9264515,47.2843009],[18.9166909,47.2845375],[18.9190647,47.2744845],[18.9006163,47.2752659],[18.8807038,47.2784246],[18.8801467,47.2772862],[18.8777818,47.2812328],[18.8733336,47.2866565],[18.8753206,47.2918566],[18.8783139,47.2962226],[18.8811361,47.3013987],[18.8680175,47.3054631],[18.8646632,47.3060417],[18.8604005,47.3046396],[18.8583169,47.3054043],[18.849946,47.2912981],[18.8544368,47.2886409],[18.8566722,47.2875043],[18.8628433,47.2833249],[18.8678947,47.2787654],[18.8735068,47.2722977],[18.8701663,47.2692497],[18.8684923,47.266198],[18.8651538,47.2627655],[18.8606937,47.2574286],[18.8528921,47.2501833],[18.8467542,47.2463613],[18.844529,47.2452171],[18.8422932,47.2444508],[18.8406218,47.2436856],[18.8283016,47.2478522],[18.8243819,47.2493693],[18.8221367,47.2508895],[18.8198946,47.2516412],[18.8182167,47.2524001],[18.8148483,47.2546802],[18.8092463,47.2577117],[18.8069968,47.2599939],[18.8097845,47.2615242],[18.8114618,47.2630523],[18.8131318,47.264196],[18.8030303,47.2714074],[18.791806,47.2786216],[18.7878757,47.2816557],[18.7794486,47.2896311],[18.7766376,47.290771],[18.7738317,47.292667],[18.7721479,47.2941875],[18.7670909,47.2979805],[18.7520439,47.3119066],[18.7499507,47.310565],[18.7492539,47.3094466],[18.746086,47.3069293],[18.7457736,47.3063055],[18.7441037,47.3051608],[18.7424296,47.3047722],[18.7424318,47.3043941],[18.7329476,47.2982766],[18.7212387,47.2913896],[18.7167718,47.28909],[18.7128723,47.2864139],[18.7102339,47.2841728],[18.7077411,47.285383],[18.7057388,47.2857223],[18.6993865,47.2892238],[18.6988006,47.2901324],[18.6981818,47.2907464],[18.6923845,47.2954994],[18.6904833,47.296767],[18.6900434,47.2999285],[18.6870527,47.3020351],[18.6831387,47.2981297]]]}}]}