{"type":"FeatureCollection","features":[{"type":"Feature","properties":{"province":"Aragon"},"geometry":{"type":"Polygon","coordinates":[[[0.5712890625,42.74701217318067],[-0.703125,42.90816007196054],[-1.40625,42.293564192170095],[-1.2744140625,41.902277040963696],[-1.5380859375,41.902277040963696],[-1.7578125,41.86956082699455],[-2.2412109375,41.178653972331674],[-1.8896484375,41.07935114946899],[-1.7138671875,40.84706035607122],[-1.6259765625,40.58058466412761],[-1.494140625,40.1452892956766],[-1.0546875,39.87601941962116],[-0.6591796875,40.04443758460856],[-0.3076171875,40.413496049701955],[-0.2197265625,40.713955826286046],[0.263671875,40.713955826286046],[0.263671875,40.94671366508002],[0.3955078125,41.27780646738183],[0.3955078125,41.60722821271717],[0.6591796875,41.86956082699455],[0.7470703125,42.19596877629178],[0.5712890625,42.74701217318067]]]}},{"geometry":{"type":"MultiPolygon","coordinates":[[[[-0.747266,42.922374],[-0.724485,42.92023],[-0.736349,42.913019],[-0.717581,42.885839],[-0.678752,42.884536],[-0.602023,42.83215],[-0.60047,42.802429],[-0.569138,42.806856],[-0.567586,42.780628],[-0.529647,42.791558],[-0.505268,42.827426],[-0.441704,42.795371],[-0.394747,42.798967],[-0.313264,42.849373],[-0.188663,42.786941],[-0.159987,42.798029],[-0.106406,42.720616],[-0.06846,42.718074],[-0.05638,42.692308],[0.000265,42.685317],[0.01581,42.701828],[0.058428,42.697563],[0.077985,42.714831],[0.116951,42.711155],[0.175796,42.737044],[0.260005,42.716015],[0.263695,42.693237],[0.295266,42.673195],[0.360231,42.724349],[0.42209,42.690458],[0.587362,42.694492],[0.597092,42.705522],[0.660068,42.690854],[0.695895,42.658925],[0.707781,42.621092],[0.767525,42.611236],[0.741057,42.544834],[0.749547,42.534881],[0.721162,42.524539],[0.73976,42.50515],[0.690486,42.487622],[0.746097,42.384776],[0.723272,42.36563],[0.771307,42.350643],[0.74036,42.336873],[0.764623,42.322481],[0.702619,42.19004],[0.698726,42.1723],[0.713966,42.163424],[0.695835,42.151998],[0.699551,42.106964],[0.656747,42.040371],[0.663886,42.014534],[0.641928,41.98207],[0.638539,41.994604],[0.61795,41.988925],[0.604356,41.960655],[0.586928,41.966776],[0.56188,41.938219],[0.607487,41.919315],[0.59466,41.917404],[0.592783,41.884415],[0.606677,41.871138],[0.580053,41.85091],[0.554913,41.85279],[0.543875,41.820885],[0.515461,41.822354],[0.483232,41.801463],[0.468601,41.764976],[0.398676,41.757811],[0.395436,41.731981],[0.384742,41.740312],[0.328211,41.681072],[0.326241,41.662199],[0.357982,41.63172],[0.349613,41.599464],[0.428494,41.602376],[0.446923,41.542236],[0.396712,41.490303],[0.342024,41.484],[0.355329,41.451759],[0.335845,41.407457],[0.24059,41.428353],[0.219094,41.40357],[0.182643,41.394409],[0.163652,41.406497],[0.093362,41.34997],[0.009693,41.360431],[-0.0234,41.396993],[-0.029285,41.377818],[-0.007931,41.347806],[-0.04944,41.36046],[-0.072706,41.377157],[-0.104972,41.48548],[-0.156663,41.535295],[-0.167355,41.581111],[-0.156446,41.589974],[-0.205736,41.602261],[-0.244785,41.573115],[-0.312589,41.624102],[-0.359523,41.635224],[-0.374504,41.688118],[-0.444919,41.703684],[-0.489424,41.731666],[-0.51869,41.728817],[-0.500693,41.761317],[-0.516748,41.836776],[-0.555209,41.871329],[-0.603313,41.882827],[-0.595465,41.899594],[-0.630582,41.912906],[-0.657826,41.957495],[-0.778209,41.957397],[-0.884933,42.003579],[-0.850738,42.026152],[-0.857005,42.05099],[-0.812937,42.092503],[-0.793546,42.054398],[-0.763142,42.067479],[-0.770161,42.08723],[-0.754917,42.090598],[-0.760862,42.129853],[-0.747391,42.155922],[-0.7598,42.170232],[-0.759379,42.263648],[-0.728935,42.297738],[-0.744589,42.33868],[-0.736429,42.369876],[-0.777937,42.391257],[-0.77181,42.346714],[-0.806532,42.270548],[-0.876959,42.281646],[-0.890548,42.240029],[-0.918909,42.257316],[-0.855662,42.33992],[-0.844179,42.384642],[-0.815314,42.395226],[-0.904413,42.434759],[-0.903759,42.453244],[-0.877719,42.461643],[-0.89702,42.479083],[-0.892994,42.509852],[-0.933425,42.505879],[-0.895048,42.549063],[-0.934168,42.572648],[-0.904713,42.599048],[-0.927643,42.656242],[-0.893094,42.662347],[-0.879954,42.688138],[-0.922463,42.700804],[-0.904351,42.712189],[-0.900535,42.760466],[-0.87331,42.758982],[-0.847533,42.78592],[-0.860007,42.798562],[-0.856833,42.846885],[-0.818533,42.869367],[-0.819095,42.900669],[-0.747266,42.922374]]]]},"properties":{"name":"Huesca","province":"Huesca"},"cartodb_id":22,"type":"Feature"},{"geometry":{"type":"MultiPolygon","coordinates":[[[[-0.502556,41.354389],[-0.479932,41.345934],[-0.470164,41.318249],[-0.420759,41.311738],[-0.428752,41.294066],[-0.405859,41.272359],[-0.337208,41.241384],[-0.317468,41.257506],[-0.224188,41.189484],[-0.180954,41.188145],[-0.01588,41.122721],[0.036919,41.046569],[0.078635,41.080342],[0.145855,41.063043],[0.220349,41.07143],[0.230426,41.054621],[0.217744,41.043655],[0.279658,41.020167],[0.258635,41.01463],[0.293501,40.970561],[0.238908,40.884704],[0.278194,40.820901],[0.23357,40.786993],[0.229967,40.767433],[0.175222,40.754941],[0.175357,40.741131],[0.159181,40.750608],[0.163809,40.723607],[0.112501,40.727137],[0.042175,40.691006],[0.026438,40.694951],[0.015738,40.72843],[-0.064699,40.727407],[-0.126841,40.753317],[-0.144533,40.785443],[-0.164957,40.788631],[-0.197176,40.784456],[-0.224034,40.754158],[-0.235991,40.691108],[-0.306998,40.659497],[-0.328818,40.680279],[-0.377957,40.667536],[-0.370483,40.613592],[-0.293286,40.611041],[-0.301837,40.515404],[-0.277638,40.501532],[-0.27264,40.473762],[-0.347355,40.44394],[-0.28539,40.386492],[-0.281762,40.365698],[-0.340617,40.339991],[-0.366273,40.305052],[-0.388637,40.306937],[-0.400408,40.294853],[-0.383626,40.264848],[-0.428072,40.243803],[-0.494515,40.228732],[-0.544187,40.251659],[-0.57864,40.137335],[-0.628533,40.102578],[-0.613589,40.070013],[-0.627222,40.076202],[-0.68294,40.044225],[-0.753621,40.046608],[-0.777646,39.998407],[-0.837795,39.976808],[-0.840423,39.92495],[-0.797695,39.881067],[-0.863555,39.84741],[-0.912564,39.872355],[-0.902659,39.93185],[-0.920454,39.964404],[-0.931886,39.956077],[-0.989381,39.981827],[-1.105015,39.974975],[-1.121748,39.960851],[-1.142395,39.971841],[-1.165188,40.010096],[-1.084228,40.036208],[-1.072129,40.060484],[-1.148034,40.114497],[-1.244592,40.115803],[-1.244296,40.145969],[-1.284342,40.171497],[-1.293083,40.206923],[-1.297785,40.211533],[-1.32299,40.184856],[-1.319722,40.146395],[-1.357099,40.128887],[-1.433319,40.139475],[-1.448856,40.145342],[-1.439208,40.197014],[-1.474416,40.185042],[-1.510902,40.203715],[-1.540483,40.190804],[-1.690346,40.30966],[-1.72122,40.2787],[-1.72946,40.302908],[-1.697677,40.321292],[-1.777769,40.391878],[-1.806359,40.39823],[-1.800643,40.414216],[-1.785434,40.413183],[-1.735042,40.472028],[-1.692512,40.486824],[-1.701624,40.541096],[-1.678101,40.590952],[-1.598749,40.562054],[-1.545515,40.595195],[-1.564856,40.614742],[-1.535638,40.687019],[-1.562017,40.739752],[-1.539908,40.760733],[-1.542334,40.811219],[-1.621392,40.8804],[-1.607904,40.92762],[-1.617449,40.943733],[-1.56163,40.938618],[-1.505343,40.964124],[-1.472993,40.948801],[-1.446599,40.98456],[-1.476401,41.014936],[-1.417523,41.029753],[-1.405221,41.066307],[-1.355799,41.088528],[-1.354168,41.057527],[-1.287431,41.048862],[-1.253303,41.077327],[-1.271371,41.10328],[-1.254404,41.122939],[-1.209983,41.138804],[-1.173991,41.123692],[-1.121604,41.134928],[-1.105675,41.167589],[-1.039309,41.134718],[-1.000861,41.134011],[-0.972419,41.153456],[-0.998597,41.095231],[-0.952918,41.075441],[-0.912547,41.093009],[-0.883264,41.148761],[-0.859887,41.108012],[-0.828532,41.096419],[-0.792815,41.105603],[-0.761414,41.169658],[-0.693969,41.112294],[-0.609902,41.191678],[-0.669215,41.236848],[-0.625457,41.248175],[-0.629719,41.311761],[-0.599809,41.318886],[-0.548492,41.267744],[-0.531578,41.227807],[-0.509694,41.238278],[-0.508156,41.255817],[-0.527151,41.288218],[-0.577305,41.313946],[-0.581787,41.348122],[-0.502556,41.354389]]]]},"properties":{"name":"Teruel","province":"Teruel"},"cartodb_id":44,"type":"Feature"},{"geometry":{"type":"MultiPolygon","coordinates":[[[[-0.909105,42.744036],[-0.896865,42.735662],[-0.922463,42.700804],[-0.879954,42.688138],[-0.893094,42.662347],[-0.927643,42.656242],[-0.904713,42.599048],[-0.934168,42.572648],[-0.895048,42.549063],[-0.933425,42.505879],[-0.892994,42.509852],[-0.89702,42.479083],[-0.877719,42.461643],[-0.903759,42.453244],[-0.904413,42.434759],[-0.815314,42.395226],[-0.844179,42.384642],[-0.855662,42.33992],[-0.918909,42.257316],[-0.890548,42.240029],[-0.876959,42.281646],[-0.806532,42.270548],[-0.77181,42.346714],[-0.777937,42.391257],[-0.736429,42.369876],[-0.744589,42.33868],[-0.728865,42.296322],[-0.759379,42.263648],[-0.7598,42.170232],[-0.747391,42.155922],[-0.760862,42.129853],[-0.754917,42.090598],[-0.770161,42.08723],[-0.763142,42.067479],[-0.793546,42.054398],[-0.812937,42.092503],[-0.857005,42.05099],[-0.850738,42.026152],[-0.884933,42.003579],[-0.778209,41.957397],[-0.657826,41.957495],[-0.630582,41.912906],[-0.595465,41.899594],[-0.603313,41.882827],[-0.555209,41.871329],[-0.516748,41.836776],[-0.500693,41.761317],[-0.51869,41.728817],[-0.489424,41.731666],[-0.444919,41.703684],[-0.374504,41.688118],[-0.359523,41.635224],[-0.312589,41.624102],[-0.244785,41.573115],[-0.205736,41.602261],[-0.156446,41.589974],[-0.167355,41.581111],[-0.156663,41.535295],[-0.104972,41.48548],[-0.072706,41.377157],[-0.04944,41.36046],[-0.007931,41.347806],[-0.029285,41.377818],[-0.0234,41.396993],[0.009693,41.360431],[0.093362,41.34997],[0.163652,41.406497],[0.182643,41.394409],[0.219094,41.40357],[0.24059,41.428353],[0.333709,41.409423],[0.320036,41.394183],[0.373968,41.351539],[0.348436,41.328871],[0.385664,41.278844],[0.381311,41.23643],[0.322404,41.225241],[0.291988,41.156356],[0.25299,41.150153],[0.247879,41.130142],[0.201225,41.126775],[0.201202,41.084681],[0.220349,41.07143],[0.145855,41.063043],[0.078635,41.080342],[0.036919,41.046569],[-0.01588,41.122721],[-0.180954,41.188145],[-0.224188,41.189484],[-0.317468,41.257506],[-0.337208,41.241384],[-0.405859,41.272359],[-0.428752,41.294066],[-0.420759,41.311738],[-0.470164,41.318249],[-0.479932,41.345934],[-0.502556,41.354389],[-0.581787,41.348122],[-0.577305,41.313946],[-0.527151,41.288218],[-0.508156,41.255817],[-0.509694,41.238278],[-0.531578,41.227807],[-0.548492,41.267744],[-0.599809,41.318886],[-0.629719,41.311761],[-0.625457,41.248175],[-0.669215,41.236848],[-0.609902,41.191678],[-0.693969,41.112294],[-0.761414,41.169658],[-0.792815,41.105603],[-0.828532,41.096419],[-0.859887,41.108012],[-0.883264,41.148761],[-0.912547,41.093009],[-0.952918,41.075441],[-0.998597,41.095231],[-0.972419,41.153456],[-1.000861,41.134011],[-1.039309,41.134718],[-1.105675,41.167589],[-1.121604,41.134928],[-1.173991,41.123692],[-1.209983,41.138804],[-1.254404,41.122939],[-1.271371,41.10328],[-1.253303,41.077327],[-1.287431,41.048862],[-1.354168,41.057527],[-1.355799,41.088528],[-1.405221,41.066307],[-1.417523,41.029753],[-1.476401,41.014936],[-1.446599,40.98456],[-1.472993,40.948801],[-1.505343,40.964124],[-1.56163,40.938618],[-1.631041,40.950002],[-1.803291,41.089895],[-1.932447,41.13859],[-1.959017,41.172486],[-2.051693,41.146849],[-2.079896,41.170984],[-2.146242,41.184395],[-2.170487,41.318832],[-2.157113,41.333967],[-2.163137,41.35535],[-2.116033,41.382047],[-2.11177,41.434186],[-2.10152,41.445789],[-2.047099,41.434335],[-2.035623,41.426889],[-2.042355,41.388996],[-2.02927,41.384158],[-1.937295,41.407854],[-1.953686,41.424263],[-1.953276,41.462451],[-1.981112,41.486435],[-1.967335,41.546067],[-1.993686,41.577087],[-1.993238,41.60051],[-1.9231,41.598335],[-1.858991,41.66153],[-1.806224,41.664263],[-1.812074,41.686454],[-1.775372,41.724789],[-1.809213,41.736664],[-1.805853,41.755084],[-1.852918,41.789564],[-1.819054,41.828753],[-1.817601,41.85338],[-1.857281,41.909515],[-1.865188,41.977602],[-1.844045,41.987334],[-1.847185,42.007999],[-1.833703,41.995065],[-1.766896,41.995789],[-1.715221,41.956963],[-1.654146,41.965351],[-1.559256,41.913944],[-1.410756,41.918955],[-1.33952,42.018014],[-1.304822,42.042949],[-1.310593,42.072313],[-1.352277,42.07307],[-1.36676,42.106961],[-1.398881,42.126219],[-1.391906,42.181418],[-1.41753,42.212368],[-1.391371,42.272117],[-1.399082,42.2913],[-1.329083,42.355385],[-1.359905,42.378039],[-1.341508,42.423938],[-1.27278,42.481899],[-1.288137,42.52279],[-1.264769,42.556803],[-1.226166,42.542244],[-1.202791,42.54966],[-1.20192,42.578239],[-1.158035,42.599154],[-1.179775,42.610624],[-1.157116,42.610891],[-1.152046,42.647884],[-1.051926,42.642594],[-1.036808,42.651638],[-1.027981,42.70006],[-0.969211,42.703705],[-0.909105,42.744036]],[[-1.125577,42.455863],[-1.108017,42.441319],[-1.051014,42.441462],[-1.091664,42.485733],[-1.125577,42.455863]],[[-1.148985,42.432848],[-1.182826,42.424591],[-1.187799,42.40303],[-1.15877,42.409663],[-1.148985,42.432848]]]]},"properties":{"name":"Zaragoza","province":"Zaragoza"},"cartodb_id":50,"type":"Feature"}]}