{"type":"FeatureCollection","features":[{"geometry":{"type":"MultiPolygon","coordinates":[[[[-1.483657,39.41824],[-1.488138,39.40063],[-1.466675,39.402295],[-1.476736,39.393057],[-1.45218,39.397589],[-1.468193,39.383331],[-1.448789,39.37819],[-1.455104,39.360849],[-1.432294,39.377582],[-1.426033,39.362757],[-1.414679,39.380298],[-1.336645,39.333996],[-1.312744,39.343166],[-1.165003,39.310512],[-1.180826,39.211822],[-1.25572,39.10617],[-1.26675,39.05102],[-1.226538,39.024673],[-1.146654,38.929353],[-0.95941,38.944582],[-0.956524,38.920123],[-0.924537,38.891752],[-0.935697,38.855937],[-0.924879,38.823362],[-0.928938,38.783834],[-0.961429,38.774792],[-0.915793,38.695965],[-0.962466,38.656925],[-1.034104,38.656566],[-1.115601,38.711387],[-1.119672,38.737719],[-1.183635,38.755085],[-1.249757,38.738614],[-1.344069,38.677102],[-1.366666,38.704002],[-1.383771,38.699176],[-1.447698,38.649518],[-1.452001,38.58146],[-1.487695,38.563309],[-1.497208,38.538074],[-1.47987,38.479835],[-1.478547,38.376383],[-1.558198,38.325203],[-1.589539,38.309992],[-1.670246,38.311649],[-1.692731,38.337821],[-1.689116,38.366996],[-1.769065,38.379408],[-1.771143,38.364858],[-1.795754,38.370268],[-1.784303,38.356154],[-1.907536,38.297962],[-1.98263,38.281371],[-2.022639,38.300736],[-2.063772,38.297592],[-2.113728,38.238203],[-2.212939,38.203022],[-2.26165,38.112959],[-2.329902,38.065402],[-2.341632,38.026001],[-2.422116,38.033362],[-2.547491,38.079832],[-2.446277,38.185194],[-2.454339,38.215488],[-2.436603,38.27213],[-2.485206,38.300256],[-2.482357,38.396195],[-2.571883,38.414128],[-2.566624,38.490466],[-2.592699,38.510819],[-2.679692,38.496921],[-2.7641,38.534981],[-2.74679,38.546814],[-2.765499,38.573853],[-2.750097,38.615565],[-2.763691,38.627886],[-2.728246,38.616075],[-2.668855,38.649221],[-2.638071,38.735346],[-2.696283,38.782932],[-2.732242,38.781849],[-2.762307,38.880769],[-2.882888,38.938491],[-2.832264,39.023243],[-2.809932,39.02383],[-2.80501,39.078944],[-2.842657,39.134491],[-2.723193,39.264792],[-2.74337,39.31702],[-2.634971,39.326759],[-2.619258,39.340143],[-2.548777,39.323455],[-2.511046,39.342153],[-2.374077,39.232784],[-2.34989,39.278542],[-2.321191,39.283739],[-2.288677,39.226661],[-2.168681,39.281074],[-2.050963,39.266677],[-2.095625,39.359425],[-2.020331,39.351824],[-2.028431,39.336808],[-1.989799,39.29368],[-1.887077,39.30479],[-1.769853,39.280508],[-1.739281,39.32116],[-1.555679,39.401848],[-1.483657,39.41824]]]]},"properties":{"name":"Albacete","province":"Albacete"},"cartodb_id":2,"type":"Feature"},{"type":"Feature","geometry":{"type":"MultiPolygon","coordinates":[[[[-0.945912,38.736721],[-0.947123,38.742211],[-0.955672,38.757913],[-0.961429,38.774792],[-0.967746,38.773253],[-0.983061,38.763625],[-0.997047,38.758162],[-1.007963,38.756258],[-1.050858,38.742925],[-1.067276,38.736548],[-1.080138,38.739103],[-1.0954,38.737983],[-1.098794,38.736237],[-1.119671,38.737719],[-1.116773,38.732401],[-1.1156,38.711387],[-1.081596,38.686775],[-1.072823,38.682522],[-1.042985,38.661256],[-1.034103,38.656566],[-1.026922,38.655503],[-1.014904,38.657296],[-1.010844,38.656569],[-1.009085,38.658269],[-0.991546,38.655068],[-0.962466,38.656925],[-0.929973,38.679899],[-0.915793,38.695965],[-0.927541,38.706815],[-0.928649,38.709466],[-0.927728,38.71308],[-0.934627,38.723123],[-0.937951,38.725912],[-0.939509,38.731742],[-0.945912,38.736721]]]]},"properties":{"cartodb_id":76,"comautonom":"Castilla - La Mancha","cod_ccaa":"08","provincia":"Albacete","cod_prov":"02","texto":"Caudete","codigo":"02025","province":"Castilla-La-Mancha"}},{"type":"Feature","properties":{"province":"Castilla-La-Mancha"},"geometry":{"type":"Polygon","coordinates":[[[-2.559814453125,38.51378825951165],[-2.515869140625,38.35888785866677],[-2.427978515625,38.26406296833961],[-2.515869140625,38.07404145941957],[-2.3291015625,38.039438891821746],[-2.076416015625,38.26406296833961],[-1.856689453125,38.315801006824984],[-1.6809082031249998,38.37611542403604],[-1.6149902343749998,38.272688535980976],[-1.4392089843749998,38.35888785866677],[-1.461181640625,38.565347844885466],[-1.40625,38.71123253895224],[-1.1865234375,38.70265930723801],[-0.999755859375,38.676933444637925],[-0.933837890625,38.70265930723801],[-0.889892578125,38.77978137804918],[-0.9667968749999999,38.94232097947902],[-1.131591796875,38.93377552819722],[-1.23046875,39.0533181067413],[-1.142578125,39.308800296002914],[-1.5600585937499998,39.46164364205549],[-1.318359375,39.7240885773337],[-1.241455078125,39.70718665682654],[-1.2689208984375,39.757879992021756],[-1.1865234375,39.93501296038254],[-1.14532470703125,39.97922477476731],[-1.1700439453125,40.01078714046552],[-1.26068115234375,40.00447583427404],[-1.36505126953125,40.01289077952615],[-1.44195556640625,40.13269100586688],[-1.4337158203125,40.197757023665446],[-1.54632568359375,40.20195268954057],[-1.8045043945312502,40.40722213305287],[-1.69464111328125,40.490826256468054],[-1.68365478515625,40.59727063442024],[-1.549072265625,40.59101388345591],[-1.549072265625,40.81588791441588],[-1.61773681640625,40.89067715064627],[-1.7935180664062498,41.091772220976644],[-1.9638061523437498,41.1724519493126],[-2.04620361328125,41.155910350545035],[-2.0654296875,41.07728074262537],[-2.13409423828125,41.11453808726831],[-2.32086181640625,41.05864414643029],[-2.36480712890625,41.07935114946899],[-2.45269775390625,41.075210270566636],[-2.493896484375,41.12281462734397],[-2.5323486328125,41.160046141686905],[-2.5872802734374996,41.135227480564936],[-2.59552001953125,41.226183305514596],[-2.7383422851562496,41.27780646738183],[-2.8591918945312496,41.27367811566259],[-2.8729248046875,41.33145127732965],[-2.92236328125,41.325263743947616],[-2.94708251953125,41.290189955885644],[-3.06243896484375,41.275742324160106],[-3.21624755859375,41.306697618181865],[-3.2601928710937496,41.25922682850889],[-3.38653564453125,41.25922682850889],[-3.4112548828124996,41.21378767703215],[-3.53759765625,41.17038447781618],[-3.438720703125,41.054501963290505],[-3.504638671875,40.82212357516945],[-3.394775390625,40.70562793820589],[-3.05419921875,40.136890695345905],[-3.8891601562499996,39.884450178234395],[-3.60626220703125,40.08857859823707],[-4.185791015625,40.28581147399602],[-4.306640625,40.22712123211294],[-4.3670654296875,40.317231732315236],[-4.54010009765625,40.199854889057676],[-4.5758056640625,40.20824570152502],[-4.74609375,40.29628651711716],[-4.998779296875,40.12009038025332],[-5.053710937499999,40.18726672309203],[-5.185546875,40.10328591293439],[-5.38330078125,40.094882122321145],[-5.40802001953125,39.884450178234395],[-5.3228759765625,39.890772566959534],[-5.2789306640625,39.86547951378614],[-5.3118896484375,39.79376521264885],[-5.2459716796875,39.74521015328692],[-5.21026611328125,39.7958755252971],[-5.16357421875,39.80009595634838],[-5.16357421875,39.74732195489861],[-5.1361083984375,39.71986348549764],[-5.19927978515625,39.592990390285024],[-5.04547119140625,39.47648555419739],[-4.866943359375,39.3746488816007],[-4.68017578125,39.45104033807322],[-4.66644287109375,39.42134249546523],[-4.71038818359375,39.3279240176903],[-4.7515869140625,39.31942523123949],[-4.65545654296875,39.16839998800286],[-4.803771972656249,39.193948213963665],[-4.872436523437499,39.10662011662115],[-4.822998046875,39.04691915968501],[-4.866943359375,39.031986028740086],[-4.95758056640625,39.059716474034666],[-4.91912841796875,38.95727304112803],[-4.8394775390625,38.935911987561624],[-4.842224121093749,38.886757140695906],[-4.90814208984375,38.88889501576177],[-5.00701904296875,38.72623322072787],[-4.50714111328125,38.44498466889473],[-4.3450927734375,38.37396220263095],[-4.2798614501953125,38.34327183564684],[-4.275054931640624,38.38849520353919],[-4.2565155029296875,38.40194908237822],[-4.217376708984375,38.3965678312631],[-4.1493988037109375,38.38149819719879],[-4.02099609375,38.376653719374936],[-3.9289855957031246,38.36804051336666],[-3.8534545898437496,38.37611542403604],[-3.832855224609375,38.39118617958438],[-3.8280487060546875,38.4154004575845],[-3.77105712890625,38.42508389732895],[-3.736038208007812,38.415938460513274],[-3.727798461914062,38.424008023682816],[-3.689346313476562,38.41217235588103],[-3.6179351806640625,38.393877055493085],[-3.583602905273437,38.404639557718916],[-3.582916259765625,38.450362314144996],[-3.5321044921874996,38.44068226417387],[-3.5321044921874996,38.41163432490885],[-3.4552001953125,38.40194908237822],[-3.3769226074218746,38.441757889396904],[-3.374176025390625,38.47294404791815],[-3.31512451171875,38.48369476951686],[-3.28216552734375,38.46111640240984],[-3.17230224609375,38.44821130413263],[-3.1256103515625,38.44068226417387],[-3.065185546875,38.4783196091326],[-3.0047607421875,38.41271038284709],[-2.99102783203125,38.449286817153556],[-2.970428466796875,38.45789034424927],[-2.96630859375,38.46649284538942],[-2.92510986328125,38.47401919222663],[-2.877044677734375,38.45896571300021],[-2.761688232421875,38.53205317274656],[-2.6779174804687496,38.495518711354016],[-2.5927734375,38.515937313413474],[-2.559814453125,38.51378825951165]]]}},{"geometry":{"type":"MultiPolygon","coordinates":[[[[-4.138967,39.566451],[-4.041778,39.575354],[-4.03008,39.521974],[-4.060076,39.521443],[-4.068131,39.457054],[-4.118073,39.456882],[-4.148074,39.362765],[-4.120539,39.362619],[-4.104449,39.341112],[-4.073373,39.365334],[-3.972202,39.352176],[-3.966856,39.298553],[-3.857356,39.258502],[-3.791212,39.292895],[-3.722522,39.269607],[-3.680186,39.298281],[-3.53259,39.304157],[-3.47688,39.343144],[-3.470483,39.37214],[-3.410278,39.404589],[-3.309134,39.399152],[-3.31589,39.434528],[-3.294197,39.470844],[-3.185165,39.47415],[-3.184516,39.487964],[-3.157311,39.496114],[-3.069597,39.450273],[-3.022587,39.456996],[-2.999549,39.441644],[-2.956792,39.447214],[-2.927702,39.470762],[-2.931812,39.452825],[-2.869921,39.390481],[-2.896559,39.366774],[-2.882377,39.350883],[-2.834091,39.353473],[-2.793153,39.39774],[-2.776032,39.394761],[-2.722186,39.267187],[-2.842657,39.134491],[-2.80501,39.078944],[-2.80881,39.028686],[-2.832264,39.023243],[-2.882888,38.938491],[-2.835805,38.905975],[-2.792464,38.905554],[-2.76155,38.879813],[-2.752679,38.814731],[-2.732242,38.781849],[-2.696283,38.782932],[-2.640989,38.743096],[-2.668855,38.649221],[-2.728246,38.616075],[-2.763691,38.627886],[-2.750097,38.615565],[-2.765499,38.573853],[-2.74679,38.546814],[-2.779955,38.509706],[-2.88149,38.452645],[-2.905788,38.469907],[-2.963586,38.471454],[-2.993509,38.450119],[-3.001713,38.408321],[-3.064966,38.478248],[-3.138288,38.438577],[-3.279424,38.460244],[-3.326492,38.482121],[-3.375012,38.475235],[-3.376684,38.439596],[-3.451698,38.400318],[-3.528443,38.408641],[-3.541888,38.445385],[-3.583076,38.451469],[-3.598236,38.398474],[-3.785612,38.425269],[-3.830056,38.412796],[-3.830561,38.392903],[-3.854284,38.375141],[-3.91512,38.368814],[-4.156557,38.381325],[-4.257784,38.401577],[-4.2768,38.390206],[-4.26887,38.347171],[-4.28733,38.342761],[-4.452988,38.400871],[-4.512691,38.463854],[-4.566297,38.490941],[-4.593691,38.486382],[-4.622779,38.523794],[-4.70395,38.553171],[-4.707366,38.571946],[-4.860171,38.613979],[-4.87697,38.686094],[-5.0046,38.695095],[-5.008025,38.715229],[-5.046948,38.729087],[-4.989994,38.739758],[-4.943484,38.854378],[-4.91494,38.88744],[-4.847319,38.882403],[-4.83113,38.935611],[-4.918221,38.957045],[-4.962504,39.058727],[-4.879987,39.032425],[-4.832793,39.04616],[-4.826935,39.064119],[-4.874404,39.100434],[-4.853171,39.152438],[-4.810273,39.199416],[-4.647893,39.166866],[-4.708229,39.209868],[-4.761012,39.320789],[-4.70666,39.327726],[-4.704211,39.364451],[-4.669498,39.424537],[-4.687696,39.450295],[-4.618132,39.454401],[-4.618426,39.484652],[-4.567921,39.497282],[-4.554627,39.510777],[-4.561444,39.533138],[-4.542684,39.544002],[-4.531089,39.531604],[-4.524951,39.561625],[-4.482188,39.538797],[-4.51122,39.522125],[-4.461586,39.478547],[-4.441906,39.523131],[-4.37721,39.495983],[-4.242092,39.477898],[-4.193234,39.495384],[-4.158731,39.576761],[-4.138967,39.566451]]],[[[-4.76776,39.515615],[-4.742852,39.487548],[-4.740511,39.456165],[-4.766984,39.43353],[-4.755371,39.415713],[-4.773145,39.397883],[-4.870935,39.368313],[-4.940742,39.395118],[-4.908212,39.49369],[-4.863123,39.556147],[-4.76776,39.515615]]]]},"properties":{"name":"Ciudad Real","province":"Ciudad Real"},"cartodb_id":13,"type":"Feature"},{"geometry":{"type":"MultiPolygon","coordinates":[[[[-2.152111,40.657693],[-2.091202,40.646365],[-2.035798,40.601566],[-1.985527,40.585434],[-1.965905,40.59198],[-1.964457,40.611525],[-1.923422,40.59188],[-1.909467,40.541652],[-1.882003,40.518823],[-1.853285,40.423679],[-1.836725,40.427657],[-1.811888,40.400107],[-1.777769,40.391878],[-1.697677,40.321292],[-1.72946,40.302908],[-1.719274,40.277102],[-1.690346,40.30966],[-1.540483,40.190804],[-1.510902,40.203715],[-1.474416,40.185042],[-1.439208,40.197014],[-1.456213,40.130954],[-1.407597,40.101404],[-1.420286,40.093514],[-1.37686,40.016499],[-1.249456,39.995103],[-1.165188,40.010096],[-1.142395,39.971841],[-1.208184,39.943806],[-1.200044,39.858706],[-1.215004,39.808774],[-1.275409,39.738641],[-1.261995,39.698907],[-1.307852,39.670817],[-1.368535,39.689615],[-1.417932,39.654936],[-1.461796,39.576906],[-1.520665,39.549965],[-1.502602,39.545616],[-1.499153,39.50045],[-1.512454,39.496269],[-1.513391,39.458268],[-1.528916,39.4546],[-1.52085,39.431522],[-1.49665,39.42932],[-1.505175,39.417996],[-1.739281,39.32116],[-1.769853,39.280508],[-1.887077,39.30479],[-1.989799,39.29368],[-2.028431,39.336808],[-2.020331,39.351824],[-2.095625,39.359425],[-2.050963,39.266677],[-2.168681,39.281074],[-2.288677,39.226661],[-2.321191,39.283739],[-2.34989,39.278542],[-2.374077,39.232784],[-2.511046,39.342153],[-2.548777,39.323455],[-2.619258,39.340143],[-2.634971,39.326759],[-2.742252,39.318153],[-2.776032,39.394761],[-2.793153,39.39774],[-2.83057,39.355117],[-2.882377,39.350883],[-2.896559,39.366774],[-2.870163,39.391112],[-2.932287,39.453852],[-2.925514,39.601798],[-2.908233,39.642332],[-2.997748,39.718866],[-3.076292,39.855707],[-3.127227,39.874683],[-3.097059,39.933467],[-3.096597,39.98694],[-3.142566,39.984965],[-3.165497,40.028199],[-3.161579,40.064928],[-3.11819,40.061429],[-3.060707,40.090564],[-3.056194,40.113743],[-3.097374,40.154352],[-3.063767,40.168251],[-3.015966,40.152708],[-3.021071,40.187493],[-3.005071,40.209118],[-2.911484,40.157083],[-2.873738,40.173574],[-2.863125,40.200112],[-2.821531,40.205182],[-2.802631,40.264026],[-2.816966,40.364024],[-2.779515,40.44533],[-2.76007,40.441993],[-2.760023,40.412335],[-2.7229,40.397117],[-2.717431,40.419825],[-2.685129,40.398002],[-2.70345,40.425375],[-2.673158,40.448609],[-2.663845,40.436051],[-2.586236,40.450259],[-2.515465,40.424281],[-2.504534,40.448649],[-2.544453,40.474633],[-2.528726,40.498381],[-2.546266,40.518956],[-2.527235,40.544275],[-2.49597,40.50881],[-2.426745,40.540748],[-2.411821,40.525628],[-2.380004,40.543587],[-2.417282,40.583447],[-2.399514,40.613509],[-2.359031,40.596841],[-2.343439,40.569384],[-2.29766,40.572845],[-2.286042,40.592223],[-2.294245,40.624651],[-2.274601,40.644754],[-2.213815,40.619176],[-2.169249,40.630233],[-2.152111,40.657693]]]]},"properties":{"name":"Cuenca","province":"Cuenca"},"cartodb_id":16,"type":"Feature"},{"geometry":{"type":"MultiPolygon","coordinates":[[[[-2.901019,41.325565],[-2.868988,41.317056],[-2.866888,41.274465],[-2.822245,41.256615],[-2.775511,41.250084],[-2.760946,41.274024],[-2.716772,41.275671],[-2.709546,41.251981],[-2.646015,41.24021],[-2.629198,41.215215],[-2.589486,41.224538],[-2.593741,41.200205],[-2.622066,41.187988],[-2.577493,41.178663],[-2.595314,41.150253],[-2.575577,41.139472],[-2.53651,41.162525],[-2.508851,41.118857],[-2.482261,41.116272],[-2.469466,41.07811],[-2.41891,41.057706],[-2.355329,41.086454],[-2.323407,41.056508],[-2.263544,41.067535],[-2.232147,41.097011],[-2.175298,41.083755],[-2.131855,41.118098],[-2.056434,41.069691],[-2.048179,41.078378],[-2.065622,41.095789],[-2.047617,41.152652],[-1.959017,41.172486],[-1.932447,41.13859],[-1.803291,41.089895],[-1.617449,40.943733],[-1.607904,40.92762],[-1.621392,40.8804],[-1.54468,40.816194],[-1.539908,40.760733],[-1.562017,40.739752],[-1.535638,40.687019],[-1.564856,40.614742],[-1.545515,40.595195],[-1.598749,40.562054],[-1.678101,40.590952],[-1.701624,40.541096],[-1.692512,40.486824],[-1.7486,40.462897],[-1.806359,40.39823],[-1.836725,40.427657],[-1.853285,40.423679],[-1.91649,40.582825],[-1.961785,40.611546],[-1.965905,40.59198],[-1.985527,40.585434],[-2.110118,40.651386],[-2.156937,40.658692],[-2.169249,40.630233],[-2.213815,40.619176],[-2.274601,40.644754],[-2.294784,40.622907],[-2.292773,40.578094],[-2.333514,40.567192],[-2.399039,40.613713],[-2.417282,40.583447],[-2.383453,40.540867],[-2.411821,40.525628],[-2.426745,40.540748],[-2.49597,40.50881],[-2.527235,40.544275],[-2.538714,40.534025],[-2.546266,40.518956],[-2.528726,40.498381],[-2.544453,40.474633],[-2.504534,40.448649],[-2.515465,40.424281],[-2.586236,40.450259],[-2.663845,40.436051],[-2.673158,40.448609],[-2.70345,40.425375],[-2.685129,40.398002],[-2.717431,40.419825],[-2.7229,40.397117],[-2.760023,40.412335],[-2.76007,40.441993],[-2.780946,40.44417],[-2.816966,40.364024],[-2.802631,40.264026],[-2.823757,40.203168],[-2.863125,40.200112],[-2.873738,40.173574],[-2.911484,40.157083],[-3.005071,40.209118],[-3.021071,40.187493],[-3.015966,40.152708],[-3.063767,40.168251],[-3.067845,40.157914],[-3.08823,40.200318],[-3.079704,40.227773],[-3.109443,40.285193],[-3.153718,40.263714],[-3.173397,40.23417],[-3.194449,40.248037],[-3.182857,40.308267],[-3.141212,40.350542],[-3.15343,40.367703],[-3.130558,40.405185],[-3.155515,40.439425],[-3.198597,40.442252],[-3.199955,40.514449],[-3.249915,40.544316],[-3.297126,40.537521],[-3.284069,40.568977],[-3.328275,40.594836],[-3.321644,40.612192],[-3.338516,40.625849],[-3.323675,40.629686],[-3.313857,40.649743],[-3.316497,40.655177],[-3.345598,40.637743],[-3.393354,40.692458],[-3.404735,40.669637],[-3.468553,40.689937],[-3.434945,40.727986],[-3.450416,40.734887],[-3.444343,40.76158],[-3.45901,40.781324],[-3.511572,40.788496],[-3.477387,40.823561],[-3.47257,40.864217],[-3.440487,40.87535],[-3.460577,40.906659],[-3.444062,40.906849],[-3.418296,40.987564],[-3.39445,41.000278],[-3.438935,41.04267],[-3.425805,41.082899],[-3.488751,41.094294],[-3.509262,41.136395],[-3.541098,41.149667],[-3.539722,41.165041],[-3.466915,41.183264],[-3.444154,41.21534],[-3.402486,41.213619],[-3.3995,41.254543],[-3.411523,41.260707],[-3.414585,41.265579],[-3.415641,41.272114],[-3.415147,41.273197],[-3.409779,41.260623],[-3.33635,41.253031],[-3.290168,41.25793],[-3.275759,41.275034],[-3.274265,41.260265],[-3.254264,41.258383],[-3.231245,41.294867],[-3.199755,41.304429],[-3.061901,41.273427],[-2.950131,41.292637],[-2.941191,41.313936],[-2.901019,41.325565]]],[[[-3.374049,40.640249],[-3.363606,40.638421],[-3.371729,40.625769],[-3.382135,40.630471],[-3.374049,40.640249]]]]},"properties":{"name":"Guadalajara","province":"Guadalajara"},"cartodb_id":19,"type":"Feature"},{"geometry":{"type":"MultiPolygon","coordinates":[[[[-4.37514,40.314258],[-4.356386,40.308621],[-4.348488,40.236747],[-4.307989,40.233882],[-4.306111,40.221778],[-4.269961,40.235685],[-4.247999,40.273481],[-4.20323,40.268818],[-4.190871,40.297355],[-4.143992,40.264621],[-4.145769,40.245177],[-4.104272,40.241833],[-4.072894,40.265451],[-4.024028,40.248968],[-4.026159,40.235611],[-3.991002,40.209478],[-3.952866,40.212797],[-3.950892,40.190335],[-3.931143,40.203977],[-3.872016,40.190153],[-3.834186,40.161353],[-3.804603,40.176841],[-3.770453,40.139399],[-3.744375,40.132224],[-3.722216,40.147713],[-3.683724,40.13227],[-3.667313,40.143291],[-3.655732,40.124912],[-3.607628,40.108967],[-3.636088,40.041626],[-3.699891,40.019543],[-3.720088,39.984441],[-3.746207,39.981089],[-3.727936,39.964545],[-3.758817,39.968885],[-3.75437,39.950443],[-3.770486,39.950552],[-3.757973,39.958321],[-3.763602,39.967518],[-3.783347,39.944796],[-3.809548,39.953965],[-3.832042,39.93156],[-3.840044,39.941956],[-3.87519,39.928736],[-3.868938,39.905244],[-3.814894,39.885742],[-3.74387,39.940802],[-3.634499,39.965892],[-3.637944,39.988352],[-3.589995,40.013172],[-3.519689,40.021072],[-3.506863,40.048674],[-3.401072,40.034181],[-3.375783,40.051255],[-3.377708,40.074767],[-3.334418,40.081052],[-3.275165,40.047314],[-3.200956,40.060488],[-3.166446,40.09111],[-3.170235,40.048139],[-3.142566,39.984965],[-3.096597,39.98694],[-3.097059,39.933467],[-3.127227,39.874683],[-3.076292,39.855707],[-2.997748,39.718866],[-2.908233,39.642332],[-2.925514,39.601798],[-2.931283,39.470873],[-2.956792,39.447214],[-2.999549,39.441644],[-3.022587,39.456996],[-3.069597,39.450273],[-3.143423,39.495528],[-3.184516,39.487964],[-3.185165,39.47415],[-3.294197,39.470844],[-3.31589,39.434528],[-3.309134,39.399152],[-3.410278,39.404589],[-3.470483,39.37214],[-3.47688,39.343144],[-3.53259,39.304157],[-3.680186,39.298281],[-3.722522,39.269607],[-3.791212,39.292895],[-3.854283,39.258417],[-3.966856,39.298553],[-3.972202,39.352176],[-4.073373,39.365334],[-4.104449,39.341112],[-4.120539,39.362619],[-4.148074,39.362765],[-4.118073,39.456882],[-4.068131,39.457054],[-4.060076,39.521443],[-4.03008,39.521974],[-4.041778,39.575354],[-4.124345,39.563557],[-4.158731,39.576761],[-4.193234,39.495384],[-4.242092,39.477898],[-4.37721,39.495983],[-4.441906,39.523131],[-4.461586,39.478547],[-4.51122,39.522125],[-4.482188,39.538797],[-4.524951,39.561625],[-4.531089,39.531604],[-4.542684,39.544002],[-4.561444,39.533138],[-4.554627,39.510777],[-4.567921,39.497282],[-4.618426,39.484652],[-4.618132,39.454401],[-4.690277,39.451789],[-4.755371,39.415713],[-4.768101,39.429918],[-4.740511,39.456165],[-4.75171,39.50183],[-4.863123,39.556147],[-4.902996,39.503696],[-4.949674,39.393112],[-5.206625,39.597232],[-5.161765,39.642437],[-5.137794,39.714999],[-5.173964,39.751255],[-5.158459,39.759661],[-5.1669,39.799882],[-5.206465,39.797559],[-5.254823,39.752342],[-5.308079,39.760025],[-5.312588,39.824275],[-5.284049,39.863875],[-5.323613,39.891727],[-5.40611,39.877729],[-5.365144,39.982919],[-5.373858,40.059322],[-5.359445,40.108406],[-5.216372,40.108007],[-5.203518,40.083434],[-5.171616,40.08482],[-5.087772,40.124323],[-5.066985,40.150919],[-5.018542,40.159053],[-5.013344,40.111056],[-4.954546,40.121126],[-4.956293,40.133348],[-4.925454,40.136036],[-4.924675,40.169984],[-4.807675,40.235319],[-4.818245,40.254774],[-4.803469,40.275265],[-4.76159,40.260902],[-4.698141,40.282192],[-4.687258,40.212002],[-4.654235,40.198067],[-4.579076,40.217196],[-4.527911,40.200093],[-4.509789,40.21919],[-4.437426,40.236698],[-4.435246,40.259127],[-4.383482,40.289049],[-4.37514,40.314258]]]]},"properties":{"name":"Toledo","province":"Toledo"},"cartodb_id":45,"type":"Feature"}]}