{"type": "FeatureCollection", "features": [{"type": "Feature", "properties": {"id": "AOC-Alsace-Grand-Cru-Geisberg", "name": "Geisberg", "commune": "Ribeauvillé", "family": "灰砂岩", "familyColor": "#f39c12", "lessonId": "AL2M4L2"}, "geometry": {"type": "MultiPolygon", "coordinates": [[[[7.321162, 48.19549], [7.321054, 48.195514], [7.320985, 48.195529], [7.320866, 48.195557], [7.320887, 48.195585], [7.32089, 48.195584], [7.320893, 48.195592], [7.320911, 48.195616], [7.320935, 48.195648], [7.320958, 48.195668], [7.320964, 48.195674], [7.321073, 48.195717], [7.321095, 48.195727], [7.321121, 48.195749], [7.321119, 48.195753], [7.321117, 48.195762], [7.320761, 48.19589], [7.320737, 48.195896], [7.320673, 48.195737], [7.320622, 48.195605], [7.320482, 48.195641], [7.320426, 48.195656], [7.320316, 48.195685], [7.320223, 48.195708], [7.320165, 48.195725], [7.32016, 48.195725], [7.319918, 48.1958], [7.319427, 48.195955], [7.319398, 48.195965], [7.319225, 48.19606], [7.319231, 48.196065], [7.319202, 48.196079], [7.319181, 48.196089], [7.319178, 48.196085], [7.319023, 48.196166], [7.318907, 48.196228], [7.318995, 48.196283], [7.31908, 48.196336], [7.319078, 48.196343], [7.319076, 48.196384], [7.319058, 48.196463], [7.319068, 48.196478], [7.319125, 48.196518], [7.319158, 48.196533], [7.319241, 48.196551], [7.319285, 48.196562], [7.319342, 48.196569], [7.319372, 48.196575], [7.319467, 48.196583], [7.319546, 48.196592], [7.319622, 48.196599], [7.319677, 48.196609], [7.319729, 48.19662], [7.319784, 48.196629], [7.319971, 48.196647], [7.320004, 48.196651], [7.320086, 48.196661], [7.320159, 48.196664], [7.320216, 48.196673], [7.320267, 48.196699], [7.320493, 48.196826], [7.320651, 48.196916], [7.320774, 48.196933], [7.320893, 48.196943], [7.320989, 48.19696], [7.321053, 48.196982], [7.321151, 48.197026], [7.321249, 48.197071], [7.321278, 48.197095], [7.321354, 48.197135], [7.321415, 48.197155], [7.321445, 48.197159], [7.321469, 48.197162], [7.321497, 48.197179], [7.321614, 48.197182], [7.321704, 48.197171], [7.321828, 48.19714], [7.321918, 48.197109], [7.321949, 48.197101], [7.322026, 48.197082], [7.322081, 48.197069], [7.322181, 48.197067], [7.322308, 48.197064], [7.322514, 48.197057], [7.322771, 48.197031], [7.322785, 48.197031], [7.322997, 48.196989], [7.323215, 48.19686], [7.323284, 48.196845], [7.323387, 48.196854], [7.323501, 48.196886], [7.323777, 48.196769], [7.324021, 48.196625], [7.324322, 48.196513], [7.324767, 48.196293], [7.324936, 48.196242], [7.324878, 48.196192], [7.325259, 48.195783], [7.325268, 48.195759], [7.32529, 48.19576], [7.325323, 48.195768], [7.325391, 48.195782], [7.32546, 48.195803], [7.325563, 48.195875], [7.325881, 48.195609], [7.326401, 48.195175], [7.32643, 48.195169], [7.326377, 48.195113], [7.326323, 48.195084], [7.326194, 48.195048], [7.326188, 48.195046], [7.325903, 48.195013], [7.325837, 48.195001], [7.325798, 48.194992], [7.325533, 48.19491], [7.325502, 48.1949], [7.325481, 48.194897], [7.324989, 48.194849], [7.324956, 48.194843], [7.324998, 48.19476], [7.324934, 48.194771], [7.324919, 48.194752], [7.324871, 48.194757], [7.324839, 48.194704], [7.324961, 48.194675], [7.324951, 48.19465], [7.324715, 48.194695], [7.324668, 48.194588], [7.324895, 48.194522], [7.324872, 48.194474], [7.324858, 48.194471], [7.324629, 48.194566], [7.324408, 48.194634], [7.324287, 48.194671], [7.323618, 48.194863], [7.32357, 48.194877], [7.323149, 48.194999], [7.323131, 48.195005], [7.322846, 48.195087], [7.322925, 48.195158], [7.322962, 48.195148], [7.322998, 48.195259], [7.322977, 48.195265], [7.322667, 48.195361], [7.322635, 48.195371], [7.322378, 48.195452], [7.32237, 48.195453], [7.322356, 48.195455], [7.322339, 48.195378], [7.322333, 48.195375], [7.32181, 48.195536], [7.321669, 48.195583], [7.321537, 48.19562], [7.321518, 48.195626], [7.32153, 48.195639], [7.321517, 48.195643], [7.321459, 48.195659], [7.321427, 48.195666], [7.321412, 48.195672], [7.321331, 48.19557], [7.321229, 48.195478], [7.321223, 48.195471], [7.321213, 48.195479], [7.32117, 48.195488], [7.321162, 48.19549]]]]}}]}