{"type": "FeatureCollection", "features": [{"type": "Feature", "properties": {"id": "AOC-Alsace-Grand-Cru-Pfingstberg", "name": "Pfingstberg", "commune": "Orschwihr", "family": "灰砂岩", "familyColor": "#e67e22", "lessonId": "AL2M4L2"}, "geometry": {"type": "MultiPolygon", "coordinates": [[[[7.231485, 47.938976], [7.231395, 47.939085], [7.231314, 47.93922], [7.231229, 47.939225], [7.231195, 47.939213], [7.231036, 47.939293], [7.231013, 47.939317], [7.230958, 47.939363], [7.230955, 47.939364], [7.230756, 47.939381], [7.230654, 47.939357], [7.2306, 47.939347], [7.230433, 47.939266], [7.23033, 47.939255], [7.230122, 47.939241], [7.229929, 47.939246], [7.229423, 47.939261], [7.229341, 47.939298], [7.229266, 47.939303], [7.228966, 47.939205], [7.228845, 47.939167], [7.228605, 47.939058], [7.228396, 47.939029], [7.228307, 47.939081], [7.228255, 47.939172], [7.228156, 47.939384], [7.22812, 47.939461], [7.22808, 47.939603], [7.228073, 47.939784], [7.228108, 47.939916], [7.228149, 47.939994], [7.228161, 47.940017], [7.228235, 47.940037], [7.22826, 47.940046], [7.228261, 47.940094], [7.228261, 47.940256], [7.228264, 47.940428], [7.228223, 47.940719], [7.228226, 47.940831], [7.228278, 47.94087], [7.228588, 47.94089], [7.22867, 47.940874], [7.228635, 47.940881], [7.228681, 47.940915], [7.228823, 47.94095], [7.228939, 47.940991], [7.229022, 47.941015], [7.229081, 47.941024], [7.229261, 47.941087], [7.229265, 47.941103], [7.229282, 47.941189], [7.229318, 47.941195], [7.229426, 47.941213], [7.229535, 47.941258], [7.229686, 47.941335], [7.229809, 47.941401], [7.229859, 47.941428], [7.229912, 47.94148], [7.22993, 47.941503], [7.229986, 47.941573], [7.230048, 47.941643], [7.230122, 47.941633], [7.230174, 47.941644], [7.230146, 47.941757], [7.230157, 47.94183], [7.230244, 47.941986], [7.230518, 47.94232], [7.23056, 47.942344], [7.230596, 47.942353], [7.23059, 47.942386], [7.230579, 47.942446], [7.230581, 47.942639], [7.230547, 47.942681], [7.230514, 47.942737], [7.230473, 47.94277], [7.230092, 47.942993], [7.23012, 47.943117], [7.230133, 47.943183], [7.230152, 47.943218], [7.230341, 47.943493], [7.230371, 47.943537], [7.230469, 47.943627], [7.230638, 47.943927], [7.230819, 47.944241], [7.231011, 47.944426], [7.231092, 47.944506], [7.23128, 47.944742], [7.231289, 47.944751], [7.231492, 47.944944], [7.231527, 47.944977], [7.231544, 47.944992], [7.231579, 47.945063], [7.231647, 47.945199], [7.231698, 47.945307], [7.231723, 47.945355], [7.231743, 47.945401], [7.232095, 47.945378], [7.232197, 47.945371], [7.232224, 47.945343], [7.23246, 47.945372], [7.232603, 47.945387], [7.23289, 47.945423], [7.233164, 47.945457], [7.233294, 47.94547], [7.233417, 47.945503], [7.233653, 47.945563], [7.233987, 47.945656], [7.234088, 47.945701], [7.234274, 47.945811], [7.23436, 47.945857], [7.234417, 47.945894], [7.234527, 47.945961], [7.234939, 47.946213], [7.235068, 47.946287], [7.235399, 47.946434], [7.235608, 47.946524], [7.235803, 47.946616], [7.236073, 47.946815], [7.236208, 47.946787], [7.236411, 47.94668], [7.236754, 47.946502], [7.237625, 47.946054], [7.237689, 47.94602], [7.237592, 47.945911], [7.237522, 47.945844], [7.237479, 47.945806], [7.237398, 47.945731], [7.237302, 47.945641], [7.237204, 47.945551], [7.237119, 47.945469], [7.237079, 47.945432], [7.236995, 47.945358], [7.23694, 47.945309], [7.236881, 47.945243], [7.236709, 47.945067], [7.236788, 47.945043], [7.236797, 47.94496], [7.236817, 47.944806], [7.236812, 47.944777], [7.236803, 47.9447], [7.236753, 47.944613], [7.236716, 47.944577], [7.236672, 47.944535], [7.236489, 47.944396], [7.236414, 47.944325], [7.236352, 47.944264], [7.23623, 47.944171], [7.23609, 47.944066], [7.236022, 47.944023], [7.235924, 47.94394], [7.235864, 47.943897], [7.235755, 47.943806], [7.235553, 47.943654], [7.235351, 47.943512], [7.235231, 47.943421], [7.235155, 47.943348], [7.235068, 47.943259], [7.234927, 47.943079], [7.234888, 47.943022], [7.234813, 47.942893], [7.234757, 47.942764], [7.234721, 47.942682], [7.234657, 47.942521], [7.234588, 47.942431], [7.23456, 47.942382], [7.234518, 47.942325], [7.234367, 47.942107], [7.234294, 47.942], [7.23421, 47.941888], [7.234146, 47.941795], [7.234005, 47.941614], [7.233958, 47.941556], [7.233844, 47.941412], [7.233791, 47.941312], [7.233756, 47.941248], [7.23368, 47.941229], [7.233398, 47.941403], [7.233192, 47.941546], [7.233069, 47.941651], [7.232971, 47.941761], [7.232892, 47.941849], [7.232846, 47.941912], [7.2328, 47.941971], [7.232756, 47.942028], [7.232664, 47.942086], [7.232569, 47.942003], [7.232308, 47.942129], [7.232305, 47.942126], [7.2323, 47.942122], [7.232552, 47.941994], [7.232604, 47.941971], [7.232644, 47.942004], [7.232777, 47.941914], [7.232838, 47.941838], [7.233019, 47.94163], [7.233142, 47.941522], [7.233364, 47.941372], [7.233656, 47.941198], [7.233712, 47.941127], [7.233734, 47.941099], [7.233693, 47.940965], [7.233667, 47.940907], [7.233621, 47.940828], [7.233633, 47.940809], [7.233702, 47.940702], [7.2337, 47.940581], [7.233594, 47.940432], [7.233282, 47.94011], [7.233211, 47.940096], [7.233001, 47.94019], [7.23296, 47.940211], [7.232726, 47.940335], [7.232728, 47.940333], [7.232704, 47.940302], [7.232533, 47.940106], [7.23224, 47.939765], [7.232097, 47.939821], [7.232041, 47.939753], [7.23199, 47.939684], [7.231836, 47.939405], [7.231797, 47.939358], [7.231728, 47.93927], [7.231485, 47.938976]], [[7.231288, 47.942453], [7.23133, 47.942406], [7.231443, 47.942651], [7.231339, 47.942427], [7.231288, 47.942453]]]]}}]}