{"type": "FeatureCollection", "features": [{"type": "Feature", "properties": {"id": "AOC-Alsace-Grand-Cru-Zinnkoepfle", "name": "Zinnkoepflé", "commune": "Soultzmatt & Westhalten", "family": "灰砂岩", "familyColor": "#d35400", "lessonId": "AL2M4L2"}, "geometry": {"type": "MultiPolygon", "coordinates": [[[[7.248801, 47.958093], [7.248557, 47.958167], [7.248451, 47.958216], [7.248432, 47.958207], [7.248207, 47.95825], [7.247857, 47.958365], [7.247135, 47.958604], [7.246921, 47.958675], [7.246726, 47.958749], [7.246495, 47.958852], [7.246408, 47.958899], [7.246189, 47.959018], [7.246283, 47.959024], [7.246488, 47.959064], [7.246596, 47.959074], [7.24675, 47.959087], [7.246918, 47.959079], [7.247086, 47.959055], [7.247165, 47.959106], [7.247309, 47.959066], [7.24748, 47.959022], [7.247591, 47.959029], [7.247868, 47.95907], [7.247884, 47.959071], [7.247915, 47.959055], [7.247975, 47.959035], [7.24801, 47.959041], [7.248034, 47.959064], [7.248101, 47.959067], [7.248427, 47.959053], [7.248737, 47.959036], [7.249339, 47.959051], [7.249433, 47.959053], [7.249784, 47.959036], [7.249889, 47.959043], [7.249889, 47.95904], [7.249757, 47.958606], [7.249735, 47.958533], [7.249729, 47.958517], [7.249715, 47.95848], [7.249662, 47.958356], [7.24961, 47.95817], [7.249583, 47.958076], [7.24958, 47.958072], [7.249583, 47.957973], [7.249551, 47.957969], [7.249276, 47.957993], [7.24903, 47.958031], [7.24898, 47.958045], [7.248801, 47.958093]]], [[[7.244454, 47.960069], [7.244446, 47.960073], [7.244213, 47.960143], [7.244163, 47.960157], [7.243965, 47.960227], [7.243723, 47.960321], [7.243655, 47.960348], [7.243501, 47.960403], [7.243122, 47.960528], [7.243017, 47.960562], [7.242862, 47.960604], [7.242665, 47.960651], [7.242605, 47.960669], [7.242526, 47.960692], [7.242244, 47.960787], [7.242179, 47.960818], [7.241988, 47.960917], [7.241883, 47.960973], [7.241818, 47.961004], [7.241349, 47.96121], [7.241151, 47.961322], [7.241166, 47.961341], [7.241188, 47.961371], [7.24127, 47.961366], [7.241142, 47.961375], [7.241074, 47.961392], [7.240958, 47.961426], [7.240865, 47.961469], [7.240857, 47.961466], [7.240742, 47.961503], [7.240682, 47.961525], [7.240874, 47.961651], [7.240682, 47.961764], [7.240461, 47.961617], [7.240322, 47.961689], [7.240333, 47.961696], [7.240553, 47.961821], [7.240538, 47.961838], [7.240734, 47.962004], [7.240689, 47.96202], [7.240558, 47.962059], [7.240519, 47.962073], [7.240273, 47.962089], [7.240017, 47.962098], [7.239992, 47.962097], [7.239985, 47.962136], [7.239977, 47.962213], [7.240007, 47.962218], [7.24079, 47.962303], [7.240775, 47.962316], [7.24086, 47.962374], [7.240971, 47.96245], [7.240979, 47.962457], [7.24099, 47.962463], [7.241023, 47.962505], [7.241041, 47.962562], [7.241069, 47.962608], [7.241069, 47.962641], [7.241069, 47.962706], [7.241043, 47.962753], [7.241016, 47.962818], [7.241159, 47.962863], [7.24126, 47.962908], [7.241309, 47.962921], [7.241352, 47.962959], [7.241536, 47.963044], [7.241607, 47.963063], [7.241676, 47.96308], [7.241828, 47.963133], [7.241844, 47.963137], [7.241918, 47.963158], [7.24199, 47.963087], [7.241844, 47.963233], [7.241741, 47.963392], [7.241831, 47.963381], [7.241934, 47.963424], [7.24196, 47.963474], [7.241877, 47.963581], [7.241838, 47.963633], [7.241809, 47.963672], [7.241769, 47.963702], [7.241708, 47.963751], [7.241633, 47.963815], [7.241671, 47.963821], [7.242273, 47.963938], [7.242287, 47.963941], [7.242289, 47.963936], [7.242322, 47.963938], [7.242918, 47.96398], [7.242942, 47.963983], [7.242954, 47.963861], [7.242964, 47.963785], [7.243043, 47.963662], [7.243062, 47.963634], [7.243081, 47.963606], [7.243159, 47.963605], [7.243333, 47.963796], [7.243605, 47.964074], [7.243666, 47.964135], [7.243676, 47.964165], [7.243696, 47.964213], [7.244624, 47.964537], [7.244679, 47.964486], [7.244715, 47.9644], [7.244821, 47.964151], [7.24495, 47.963957], [7.244939, 47.963975], [7.24499, 47.963986], [7.245104, 47.963868], [7.244991, 47.963988], [7.244902, 47.964121], [7.244873, 47.964165], [7.244844, 47.964235], [7.244756, 47.964438], [7.246087, 47.964504], [7.246108, 47.964503], [7.246135, 47.964534], [7.246153, 47.964559], [7.246184, 47.964612], [7.2465, 47.964535], [7.246359, 47.964348], [7.24629, 47.964228], [7.246358, 47.964346], [7.246403, 47.964333], [7.246448, 47.964321], [7.24647, 47.96436], [7.247123, 47.964309], [7.247234, 47.964293], [7.247373, 47.964381], [7.247441, 47.964428], [7.247563, 47.964439], [7.247636, 47.964447], [7.247746, 47.964444], [7.247841, 47.964427], [7.247993, 47.964388], [7.247976, 47.964341], [7.247911, 47.964194], [7.247885, 47.964134], [7.247951, 47.964031], [7.247779, 47.963993], [7.247847, 47.963932], [7.248237, 47.963672], [7.248003, 47.9634], [7.248152, 47.963353], [7.248297, 47.963549], [7.248506, 47.963482], [7.248689, 47.963422], [7.248949, 47.963351], [7.249188, 47.963313], [7.24926, 47.963351], [7.249535, 47.963359], [7.249653, 47.963358], [7.249693, 47.963497], [7.249998, 47.963518], [7.250189, 47.963517], [7.250223, 47.963671], [7.250918, 47.96368], [7.250986, 47.963681], [7.251055, 47.963682], [7.251077, 47.963681], [7.251238, 47.963683], [7.251335, 47.963685], [7.251407, 47.963677], [7.251938, 47.963448], [7.252024, 47.963409], [7.251802, 47.963013], [7.251761, 47.962939], [7.251491, 47.962459], [7.251488, 47.96245], [7.251132, 47.962565], [7.25131, 47.962507], [7.251291, 47.96247], [7.251291, 47.962466], [7.251013, 47.961914], [7.250889, 47.961473], [7.250955, 47.961465], [7.250828, 47.961147], [7.250692, 47.960925], [7.250659, 47.960883], [7.250441, 47.96051], [7.250326, 47.96021], [7.250323, 47.960203], [7.250306, 47.960162], [7.250197, 47.959872], [7.250108, 47.959632], [7.249967, 47.959653], [7.250105, 47.959632], [7.250086, 47.959588], [7.249841, 47.959083], [7.249838, 47.959079], [7.249829, 47.959067], [7.249671, 47.959073], [7.249588, 47.959078], [7.249565, 47.95908], [7.249448, 47.959099], [7.249428, 47.959083], [7.249342, 47.959081], [7.248898, 47.959067], [7.248726, 47.959062], [7.248247, 47.959085], [7.248114, 47.959091], [7.247993, 47.959094], [7.247875, 47.959096], [7.247753, 47.959106], [7.247594, 47.959135], [7.247533, 47.95915], [7.247531, 47.959125], [7.247592, 47.959043], [7.247506, 47.959041], [7.247495, 47.959043], [7.247314, 47.959086], [7.247161, 47.959122], [7.247079, 47.959078], [7.246904, 47.959104], [7.246768, 47.959108], [7.246578, 47.959087], [7.246391, 47.95906], [7.246277, 47.959039], [7.246144, 47.959031], [7.245998, 47.959114], [7.245848, 47.959213], [7.245718, 47.959299], [7.245634, 47.959359], [7.24564, 47.959365], [7.245399, 47.959537], [7.245233, 47.959644], [7.245166, 47.959679], [7.245081, 47.959725], [7.245015, 47.959769], [7.244788, 47.959924], [7.244791, 47.959925], [7.244717, 47.959968], [7.244711, 47.959966], [7.244612, 47.960006], [7.244464, 47.960065], [7.244454, 47.960069]], [[7.246338, 47.963862], [7.246334, 47.963873], [7.24638, 47.963876], [7.246347, 47.96397], [7.246282, 47.963956], [7.246338, 47.963862]]], [[[7.242992, 47.964105], [7.243539, 47.964089], [7.243277, 47.963808], [7.243148, 47.963674], [7.243096, 47.963683], [7.243019, 47.963794], [7.242992, 47.964105]]]]}}]}