{
"type": "FeatureCollection",
"name": "Côtes-dAuvergne-Corent",
"crs": { "type": "name", "properties": { "name": "urn:ogc:def:crs:OGC:1.3:CRS84" } },
"features": [
{ "type": "Feature", "properties": { "Name": null, "id": "" }, "geometry": { "type": "MultiPolygon", "coordinates": [ [ [ [ 3.18529736193092, 45.652360009127797 ], [ 3.18515401917717, 45.651884699203599 ], [ 3.18511330091619, 45.651764731607898 ], [ 3.18509561710486, 45.651736845669703 ], [ 3.18500729121452, 45.651586790071697 ], [ 3.18489115899297, 45.651376447631698 ], [ 3.18486212057891, 45.651331831297703 ], [ 3.18477573342761, 45.651262185579398 ], [ 3.18451188262204, 45.6510712653997 ], [ 3.18446166506786, 45.650912772425499 ], [ 3.18440573932727, 45.650736549243398 ], [ 3.18429654700821, 45.650411203024497 ], [ 3.18427125924465, 45.650335873896097 ], [ 3.18425440077382, 45.650285654474303 ], [ 3.18421069752654, 45.650155155794998 ], [ 3.18416078208059, 45.650125611526903 ], [ 3.18404341134249, 45.650120220448699 ], [ 3.18361064771865, 45.650330469684697 ], [ 3.18349258311198, 45.650387032467798 ], [ 3.18332414107676, 45.650468440478498 ], [ 3.1831216038211, 45.650567553184899 ], [ 3.18305182504645, 45.650588287741598 ], [ 3.18302655037516, 45.650555281065699 ], [ 3.18300731654799, 45.650524155581799 ], [ 3.18265922640642, 45.650521299007899 ], [ 3.18204881867447, 45.650594956717804 ], [ 3.182080943621, 45.650876215993101 ], [ 3.18214119291135, 45.651119969633399 ], [ 3.18218682268259, 45.651173834804901 ], [ 3.18227408002397, 45.6512358269798 ], [ 3.18231387435675, 45.651272142107302 ], [ 3.18233671265232, 45.651306143423398 ], [ 3.18236181348973, 45.651364364093297 ], [ 3.18235340303648, 45.651422729086903 ], [ 3.18233173264599, 45.651509480804698 ], [ 3.18233302756907, 45.651551801462197 ], [ 3.18236475714627, 45.651595423554802 ], [ 3.18241753923219, 45.651637570757103 ], [ 3.18258201284957, 45.6517530163743 ], [ 3.1825941523185, 45.651774248114101 ], [ 3.18259886490597, 45.651801615190003 ], [ 3.18258805204774, 45.6519101410682 ], [ 3.18260471773257, 45.651980081661101 ], [ 3.18257835763179, 45.652085300962497 ], [ 3.18259013929143, 45.652114817738202 ], [ 3.18269784511536, 45.652225132431198 ], [ 3.18271904456395, 45.652268141174901 ], [ 3.18272324811556, 45.6522968597993 ], [ 3.18275011827554, 45.652346252772297 ], [ 3.18275676734227, 45.652454570231299 ], [ 3.18275017462137, 45.652557866472797 ], [ 3.18273058202054, 45.6526127377617 ], [ 3.18272738565324, 45.6526557860956 ], [ 3.1827352664508, 45.652709352117697 ], [ 3.1827620164307, 45.652800077511898 ], [ 3.18273630741974, 45.6529469882217 ], [ 3.18273486225909, 45.653014887080502 ], [ 3.18274472442762, 45.653046297975003 ], [ 3.18280658485271, 45.653154165620002 ], [ 3.18295132869798, 45.653786610794299 ], [ 3.18296035984449, 45.653838464017099 ], [ 3.1828712829485, 45.654082369837099 ], [ 3.18289114835291, 45.654109982440801 ], [ 3.18306584989628, 45.654092949525797 ], [ 3.18317421302782, 45.654089981788097 ], [ 3.18328861139912, 45.654087094170201 ], [ 3.18342689544847, 45.654084977963002 ], [ 3.18392405251479, 45.654078043665798 ], [ 3.18396950815885, 45.6540782395506 ], [ 3.18403472533301, 45.654074621084703 ], [ 3.18421674060194, 45.654056133654102 ], [ 3.18432430650418, 45.654045151802499 ], [ 3.18467474202404, 45.6540130606245 ], [ 3.18513146261742, 45.653971158466703 ], [ 3.18519792036345, 45.653916209676098 ], [ 3.18509884661828, 45.6535481645262 ], [ 3.18506961428305, 45.653100131566099 ], [ 3.18506573988597, 45.653055023669403 ], [ 3.18509942479108, 45.652952853375297 ], [ 3.1851280340646, 45.652868791152102 ], [ 3.18516109691352, 45.6527726551084 ], [ 3.18520521630639, 45.652642372514102 ], [ 3.18528084025267, 45.652410913678899 ], [ 3.18529736193092, 45.652360009127797 ] ] ], [ [ [ 3.19131652206437, 45.6550807517213 ], [ 3.19094628886477, 45.654995293849503 ], [ 3.19065703368593, 45.654858820294002 ], [ 3.19053909259616, 45.654541509066597 ], [ 3.19018140517648, 45.654219290068497 ], [ 3.19003419524458, 45.6540899588922 ], [ 3.18994495481212, 45.654015189159402 ], [ 3.18980805646603, 45.653934466459901 ], [ 3.18969536269601, 45.653872522945399 ], [ 3.18966203514246, 45.653851777896897 ], [ 3.18930157541927, 45.653654818200501 ], [ 3.18919691020892, 45.6533868298445 ], [ 3.18911229854137, 45.653162841408196 ], [ 3.18906943898759, 45.653057826852503 ], [ 3.18901477803783, 45.652918523637098 ], [ 3.18887917948614, 45.6527282987362 ], [ 3.18822899417574, 45.651832415104302 ], [ 3.18714564907943, 45.650413346942699 ], [ 3.1871193528016, 45.650382684139103 ], [ 3.18615172043409, 45.650331159600597 ], [ 3.18611007641968, 45.650318081378003 ], [ 3.18607072204421, 45.6502986059186 ], [ 3.18582388196389, 45.6502028418872 ], [ 3.18571987331316, 45.650161951427002 ], [ 3.18558385637172, 45.650109677488302 ], [ 3.18552445024254, 45.650083481258498 ], [ 3.18504383858769, 45.6501128175411 ], [ 3.18466489714364, 45.6501367622514 ], [ 3.18457231749577, 45.650134662850903 ], [ 3.18429356432718, 45.650132237934599 ], [ 3.18427130195867, 45.650155777007903 ], [ 3.18457300518988, 45.651034425461702 ], [ 3.18463080758502, 45.651080075284398 ], [ 3.18490403720207, 45.651311051330502 ], [ 3.18517179072709, 45.651746805840602 ], [ 3.1851793163918, 45.651770296101802 ], [ 3.18535653379107, 45.652353878486203 ], [ 3.18538626967931, 45.652376431684701 ], [ 3.18544351736733, 45.6523708444562 ], [ 3.18565275535386, 45.652354741164302 ], [ 3.18589228333849, 45.652334985540797 ], [ 3.18615968133406, 45.652317434541501 ], [ 3.18624465946203, 45.652310720471398 ], [ 3.18630808227131, 45.652308724525497 ], [ 3.18633428932806, 45.652312733336601 ], [ 3.18637965634977, 45.652325174979197 ], [ 3.18691068737603, 45.652468192079702 ], [ 3.18730053514756, 45.652779201868398 ], [ 3.18758215542376, 45.653207093461504 ], [ 3.18778775448845, 45.653518138259102 ], [ 3.18779189938392, 45.653528757062503 ], [ 3.18784099624232, 45.6536561837626 ], [ 3.18792726664548, 45.653878369418798 ], [ 3.18802717938443, 45.654147447475196 ], [ 3.18815814198301, 45.654484730294698 ], [ 3.18817057312641, 45.654515416042798 ], [ 3.1881962144498, 45.654579307589799 ], [ 3.1882676823467, 45.6546768006381 ], [ 3.18846999415759, 45.6549624560759 ], [ 3.18851282672563, 45.655021726306202 ], [ 3.18866012502437, 45.655139623177597 ], [ 3.18875384715428, 45.655210694436398 ], [ 3.18925873080951, 45.655620738075598 ], [ 3.18986126308037, 45.6560455629145 ], [ 3.19000953614741, 45.656146527284299 ], [ 3.19131652206437, 45.6550807517213 ] ] ], [ [ [ 3.18518547998527, 45.654035814466198 ], [ 3.18514864438684, 45.6540022869751 ], [ 3.18471207443522, 45.6540416347909 ], [ 3.18461849375535, 45.654049352339101 ], [ 3.18398039365676, 45.654108207894197 ], [ 3.18385174430364, 45.654111659776099 ], [ 3.18308600614855, 45.654130827144101 ], [ 3.18284084432275, 45.654158059955101 ], [ 3.18276739988363, 45.6543534042044 ], [ 3.18278626366859, 45.6544665644685 ], [ 3.18283541658557, 45.654769767806599 ], [ 3.18290282597498, 45.655235208772297 ], [ 3.18290955510434, 45.655367569054498 ], [ 3.18294793975862, 45.655403706169302 ], [ 3.18311955378861, 45.655383706593497 ], [ 3.18319078590342, 45.655373505299799 ], [ 3.18349254843502, 45.655336634373697 ], [ 3.18369625253578, 45.655313249826698 ], [ 3.18466481818878, 45.655195683111501 ], [ 3.18497512724472, 45.655180856062501 ], [ 3.1850759379192, 45.655107481017502 ], [ 3.18509877929336, 45.6546036224114 ], [ 3.18510379807906, 45.654568495267497 ], [ 3.18518547998527, 45.654035814466198 ] ] ], [ [ [ 3.18981234342007, 45.656084186134898 ], [ 3.18956506985335, 45.655908738041603 ], [ 3.18948126768161, 45.655847826234002 ], [ 3.18935834984911, 45.655763567551404 ], [ 3.18923053230985, 45.655673283723203 ], [ 3.18903789328915, 45.655514761813102 ], [ 3.18883006382965, 45.655344648801702 ], [ 3.18860745027513, 45.655169067220399 ], [ 3.18846838804314, 45.655056469353397 ], [ 3.18837398076404, 45.654934791772803 ], [ 3.18813722277571, 45.654601287948097 ], [ 3.18800237704174, 45.654254916691002 ], [ 3.18793760831361, 45.654087984943899 ], [ 3.18778227320807, 45.6536814052305 ], [ 3.18774277682039, 45.653583048144498 ], [ 3.1877329940266, 45.653538040234103 ], [ 3.18752559788301, 45.653227088377797 ], [ 3.18731317116687, 45.652908670500302 ], [ 3.18724617810194, 45.652804325744498 ], [ 3.18685942389824, 45.652496822521996 ], [ 3.18631797027535, 45.652347248891601 ], [ 3.18538205030511, 45.652420112119898 ], [ 3.18532899632452, 45.652451086071203 ], [ 3.1851379991651, 45.653045809984803 ], [ 3.18515042899868, 45.653537544048902 ], [ 3.18526725958968, 45.653993357166797 ], [ 3.18528867452669, 45.654023218010501 ], [ 3.1856054326136, 45.654019004318201 ], [ 3.18636811950097, 45.654047730635099 ], [ 3.18637606513959, 45.6540813055529 ], [ 3.18640840796424, 45.654191291211703 ], [ 3.18652126257271, 45.6546068579988 ], [ 3.18656232226853, 45.654750417250902 ], [ 3.18658036568866, 45.654770198012301 ], [ 3.18677765297635, 45.654977252506001 ], [ 3.18718708362629, 45.655416459297697 ], [ 3.18749678253916, 45.655752184964001 ], [ 3.18773042537517, 45.655999789129702 ], [ 3.18776162705365, 45.656037197265199 ], [ 3.18790551674785, 45.6562476706412 ], [ 3.18803831454053, 45.656443484462301 ], [ 3.18812129800742, 45.656565991865399 ], [ 3.18822492374499, 45.656716829973 ], [ 3.18829384187643, 45.6568189197612 ], [ 3.18853568543937, 45.657172135437101 ], [ 3.18875104799923, 45.6569887961398 ], [ 3.18895553457563, 45.656817271032203 ], [ 3.18908304768432, 45.656704946633397 ], [ 3.18981234342007, 45.656084186134898 ] ] ], [ [ [ 3.18574133774944, 45.656599929032701 ], [ 3.18559012323919, 45.656347322291097 ], [ 3.18551148050631, 45.656215530892098 ], [ 3.18551908038905, 45.656107640318403 ], [ 3.18554790206085, 45.655703455358001 ], [ 3.18557967649752, 45.655260904896501 ], [ 3.18553257763167, 45.655230456088198 ], [ 3.18517574273641, 45.655232574318099 ], [ 3.18510407839118, 45.655228549923898 ], [ 3.18497269328397, 45.655221021669298 ], [ 3.18467202015221, 45.655237543828299 ], [ 3.18461297744356, 45.655244844524603 ], [ 3.18409594720386, 45.655302511617101 ], [ 3.1835052375776, 45.6553684007961 ], [ 3.18325159923919, 45.655396728891198 ], [ 3.18309384774258, 45.655415085255498 ], [ 3.18289643135724, 45.655437377917501 ], [ 3.18270987853025, 45.655911245565903 ], [ 3.18247932668555, 45.656516745020397 ], [ 3.18303267795337, 45.656488292079601 ], [ 3.18315169864337, 45.656483776222402 ], [ 3.18334482362311, 45.656444110752901 ], [ 3.18396850170654, 45.656326210610402 ], [ 3.18433142704241, 45.6563771247882 ], [ 3.18456151183452, 45.656408264855003 ], [ 3.18503865562542, 45.6564775394667 ], [ 3.18555660552653, 45.656576370764903 ], [ 3.18574133774944, 45.656599929032701 ] ] ], [ [ [ 3.18744763104122, 45.658453900999604 ], [ 3.18716330130999, 45.6581057962917 ], [ 3.18689920343171, 45.657815738568502 ], [ 3.18679225126331, 45.657706146948101 ], [ 3.18629129673495, 45.657319138083999 ], [ 3.18599460355759, 45.6570710947789 ], [ 3.18558239885968, 45.656724548024698 ], [ 3.18549201778241, 45.6566537387612 ], [ 3.18547309005247, 45.656638371653102 ], [ 3.18538724609979, 45.656618612310197 ], [ 3.18501228290352, 45.656539806287597 ], [ 3.18397202850745, 45.656382845326398 ], [ 3.18375707830163, 45.656423628073597 ], [ 3.18316677070137, 45.656537150439199 ], [ 3.18247155465139, 45.656574208528198 ], [ 3.18233211221698, 45.657162360771402 ], [ 3.18359125460744, 45.657145258748002 ], [ 3.18380094040301, 45.6571424133245 ], [ 3.18376322816933, 45.657309424723103 ], [ 3.18483719961022, 45.657571743046198 ], [ 3.18495363589874, 45.657600178263898 ], [ 3.18507305392088, 45.657629346858201 ], [ 3.18560384360537, 45.6577589894586 ], [ 3.18650403146375, 45.658472973236101 ], [ 3.18667804391472, 45.658491559050603 ], [ 3.18738437207163, 45.658544324912 ], [ 3.18744763104122, 45.658453900999604 ] ] ], [ [ [ 3.19438321217715, 45.6615812331694 ], [ 3.19426266720099, 45.661373789292298 ], [ 3.19384661379703, 45.660942273363702 ], [ 3.19318686231929, 45.661514404774898 ], [ 3.19359059082982, 45.661884765381799 ], [ 3.19359101411637, 45.661884620576501 ], [ 3.19359513871123, 45.6618889358149 ], [ 3.19393842547706, 45.6617464286605 ], [ 3.19429612784022, 45.661760039726403 ], [ 3.19434301320488, 45.661763290617401 ], [ 3.19436951716858, 45.661667523293303 ], [ 3.19438321217715, 45.6615812331694 ] ] ], [ [ [ 3.1995353870542, 45.670037057483 ], [ 3.19944165401808, 45.6697242145774 ], [ 3.19937497619322, 45.669505424494602 ], [ 3.19929514345591, 45.669235780200701 ], [ 3.19924078992178, 45.669050736461898 ], [ 3.19907810579976, 45.668492542791299 ], [ 3.19895677513507, 45.668075562097698 ], [ 3.19886376269383, 45.667746958997597 ], [ 3.19881147930268, 45.6675653332696 ], [ 3.19871209355787, 45.667213959021502 ], [ 3.19864866090118, 45.6670030871121 ], [ 3.19859207958871, 45.666804449696301 ], [ 3.19848295154276, 45.666421665500302 ], [ 3.19835407638128, 45.665975521803901 ], [ 3.19828680237809, 45.665731248464901 ], [ 3.19748687851238, 45.666075739062499 ], [ 3.19721822612934, 45.666191472004797 ], [ 3.19718711831934, 45.6661477628734 ], [ 3.1968528185197, 45.666294676620701 ], [ 3.19688825458367, 45.666616538298399 ], [ 3.19690241542604, 45.666698097543097 ], [ 3.19693225248472, 45.666853919445103 ], [ 3.19701469988915, 45.666996322131602 ], [ 3.1971082696203, 45.667160226903299 ], [ 3.19717288662462, 45.667272494412103 ], [ 3.1972541761559, 45.667413998471702 ], [ 3.19735499259941, 45.667592748368897 ], [ 3.19745800175967, 45.667773925646699 ], [ 3.19749603827674, 45.667887410208898 ], [ 3.19756619570085, 45.668112138461503 ], [ 3.19774136922496, 45.668539741895799 ], [ 3.19760446178757, 45.668901527254199 ], [ 3.19753182276205, 45.669097510352699 ], [ 3.19749762405438, 45.669195993433398 ], [ 3.19749099291895, 45.669281371122601 ], [ 3.19747385217887, 45.6695530777709 ], [ 3.19746664107988, 45.6696559259045 ], [ 3.19743685048645, 45.670126211881197 ], [ 3.19768370523293, 45.670123617709002 ], [ 3.19861793868818, 45.670110267761302 ], [ 3.19919241563588, 45.670063328430302 ], [ 3.1995353870542, 45.670037057483 ] ] ], [ [ [ 3.18900439628983, 45.669951053990602 ], [ 3.18825992481039, 45.669768853911101 ], [ 3.18815138497151, 45.669728783577199 ], [ 3.18794784885773, 45.670157214298001 ], [ 3.18773267188894, 45.671017176821103 ], [ 3.18805831835756, 45.671067601053402 ], [ 3.18823515171608, 45.671133401310698 ], [ 3.18841199254397, 45.671201272396203 ], [ 3.18856427234194, 45.6712607197613 ], [ 3.18877184722506, 45.671338894411797 ], [ 3.18887170839601, 45.670453009206703 ], [ 3.1888795295011, 45.670411303601803 ], [ 3.18900439628983, 45.669951053990602 ] ] ], [ [ [ 3.19135429390139, 45.671027650985003 ], [ 3.19039207385479, 45.670975342550904 ], [ 3.19038289652673, 45.671107909575198 ], [ 3.19035697608453, 45.671451398680396 ], [ 3.19035392347513, 45.671460138552199 ], [ 3.1903286194445, 45.671721502307697 ], [ 3.19044291943167, 45.671679526557803 ], [ 3.19101782139309, 45.6716374008126 ], [ 3.19101790801066, 45.671290263367801 ], [ 3.1911702704881, 45.671298379381199 ], [ 3.19134164664578, 45.671307633520598 ], [ 3.19134540023802, 45.671241621530797 ], [ 3.19135429390139, 45.671027650985003 ] ] ], [ [ [ 3.1937441282512, 45.658481514085501 ], [ 3.19360513972852, 45.658321917057201 ], [ 3.19351036843426, 45.658211140214803 ], [ 3.19350660544178, 45.658199980668101 ], [ 3.19339017502728, 45.657843948849901 ], [ 3.19292073201083, 45.657374520904703 ], [ 3.19222327822438, 45.6578409041702 ], [ 3.19203811511748, 45.6580283408668 ], [ 3.19222955010856, 45.658167949579202 ], [ 3.19300623280602, 45.658731495216102 ], [ 3.19345890709356, 45.659065788887801 ], [ 3.19349802993088, 45.658942985560302 ], [ 3.19373413850058, 45.658672614187097 ], [ 3.1937441282512, 45.658481514085501 ] ] ], [ [ [ 3.19026006138168, 45.657940320161899 ], [ 3.19025265494718, 45.6579150290518 ], [ 3.19023367905994, 45.657886155548198 ], [ 3.1900934219323, 45.657765097106697 ], [ 3.18970453570409, 45.657524693159402 ], [ 3.18935486181762, 45.657484759905202 ], [ 3.18847451031947, 45.657232480278203 ], [ 3.18834855770792, 45.657049262289199 ], [ 3.18819770044018, 45.656830066402797 ], [ 3.18798852403761, 45.6565286634006 ], [ 3.18791806745427, 45.656427026239498 ], [ 3.18780218933175, 45.656259999567801 ], [ 3.1876732743475, 45.656072823654299 ], [ 3.18760121857074, 45.655991539918602 ], [ 3.18743391874947, 45.655806678895203 ], [ 3.18714779650859, 45.655494056324201 ], [ 3.18704249480148, 45.655377708592198 ], [ 3.18648379372971, 45.654766936155397 ], [ 3.18630734073027, 45.654149225767704 ], [ 3.18627268538801, 45.654076974204301 ], [ 3.1856301949791, 45.654051470984101 ], [ 3.18529971866041, 45.654062010713702 ], [ 3.18527799345824, 45.654092933080399 ], [ 3.18519653035097, 45.654498825382603 ], [ 3.18517932725229, 45.654576565484199 ], [ 3.18514842237415, 45.655164812762699 ], [ 3.18518715622447, 45.655189782533597 ], [ 3.18560152750998, 45.655190811185598 ], [ 3.18563247391463, 45.655190940267602 ], [ 3.18560316547888, 45.6559476657376 ], [ 3.1855963726121, 45.656104721443398 ], [ 3.18559307477471, 45.656193514658597 ], [ 3.18574515236499, 45.656473854894401 ], [ 3.18580123136699, 45.656577948442703 ], [ 3.18583104376947, 45.6566608338793 ], [ 3.18592176409864, 45.656909037785098 ], [ 3.18608322665082, 45.6570387110064 ], [ 3.18624867643628, 45.657170088324698 ], [ 3.18635761560301, 45.6572602266953 ], [ 3.18654038285037, 45.657347721323099 ], [ 3.18671006917425, 45.657478190467103 ], [ 3.18676528905411, 45.657517089879804 ], [ 3.18687827506862, 45.657664401819702 ], [ 3.18691603978123, 45.657705851484302 ], [ 3.18725512289805, 45.658069624243197 ], [ 3.18751381156167, 45.658392017555101 ], [ 3.1875260696769, 45.658409376498298 ], [ 3.18783899402819, 45.658554733474801 ], [ 3.18799243084167, 45.658624985380399 ], [ 3.18805649962954, 45.658735457938199 ], [ 3.18828241638728, 45.6591234595397 ], [ 3.18830437493069, 45.659161063089797 ], [ 3.18835023089351, 45.659239958922598 ], [ 3.18842862633292, 45.659333568244797 ], [ 3.18889462147181, 45.659890277732799 ], [ 3.18895216048165, 45.659930252779198 ], [ 3.18903234912519, 45.6599466871197 ], [ 3.18936776953456, 45.659757111763 ], [ 3.18957034233608, 45.659624309584302 ], [ 3.18960934395876, 45.659575977926302 ], [ 3.18968537325722, 45.659465450427099 ], [ 3.18970922810598, 45.659419035266801 ], [ 3.18978192442696, 45.6591979337692 ], [ 3.18981112867674, 45.659101262513801 ], [ 3.18980060206171, 45.659064810618098 ], [ 3.18976953898492, 45.659031274884398 ], [ 3.18965218358523, 45.658961054677697 ], [ 3.18954109273736, 45.658882629392401 ], [ 3.18948403600016, 45.658833288797197 ], [ 3.18946220735658, 45.658796315598003 ], [ 3.18936445151586, 45.6585991837972 ], [ 3.18935174687788, 45.658564086251801 ], [ 3.18931140077396, 45.658444389602799 ], [ 3.18922498624965, 45.658334045359503 ], [ 3.18911813921435, 45.658181682728099 ], [ 3.18910239628607, 45.658159287095003 ], [ 3.1890826525917, 45.658131045026501 ], [ 3.18906129971047, 45.658082814893497 ], [ 3.18905464029803, 45.658050498669397 ], [ 3.18906247273441, 45.658012665156697 ], [ 3.1890807900712, 45.657961666959899 ], [ 3.18915194134984, 45.657927148942399 ], [ 3.18918849573769, 45.6579144807449 ], [ 3.18928948091481, 45.657929889418803 ], [ 3.18958001670826, 45.658024131649398 ], [ 3.18963182301922, 45.658040433240103 ], [ 3.18971431222153, 45.658054431904802 ], [ 3.18978585831943, 45.658060254541503 ], [ 3.18995971765603, 45.658056719634097 ], [ 3.19005777870842, 45.658043136940798 ], [ 3.19010140090213, 45.658031987341197 ], [ 3.19016642526449, 45.6580083748917 ], [ 3.1902197436377, 45.65797883898 ], [ 3.19025560748742, 45.657952124038701 ], [ 3.19026006138168, 45.657940320161899 ] ] ], [ [ [ 3.19353487292389, 45.659931474726299 ], [ 3.19352510791172, 45.659856481101599 ], [ 3.19351772303021, 45.659801113960903 ], [ 3.19350288565245, 45.659671019366201 ], [ 3.19349168581166, 45.659589634762099 ], [ 3.19347551530992, 45.6594454948902 ], [ 3.1934748367378, 45.6591410420668 ], [ 3.19345047570734, 45.659115149951703 ], [ 3.19333525386493, 45.659032143022102 ], [ 3.19322916959478, 45.658954793351697 ], [ 3.19314085328575, 45.658890740286097 ], [ 3.19294993029211, 45.658752032713998 ], [ 3.19281487558532, 45.658652220170197 ], [ 3.19255675548039, 45.658465631132103 ], [ 3.1921872776854, 45.658197917834897 ], [ 3.19200227362322, 45.658061269685099 ], [ 3.19190188861388, 45.657959956160902 ], [ 3.19181838957715, 45.657876983676402 ], [ 3.19170872093112, 45.6577645197845 ], [ 3.19139803239829, 45.6576360988768 ], [ 3.19134967998454, 45.657616010193301 ], [ 3.19119305567848, 45.657552792059803 ], [ 3.19046754513652, 45.657595173753897 ], [ 3.19042476877055, 45.657628113797898 ], [ 3.19038901630513, 45.657948566757497 ], [ 3.19037186758451, 45.657965614914701 ], [ 3.19034005978143, 45.658014204818897 ], [ 3.19028742620516, 45.658056166321401 ], [ 3.19025268521968, 45.658073334236498 ], [ 3.19015583399141, 45.6581026735414 ], [ 3.19008474444539, 45.658117651568901 ], [ 3.18998475089916, 45.658129436576402 ], [ 3.18979612419324, 45.6581330864622 ], [ 3.1896974699833, 45.658123527466302 ], [ 3.18954971750614, 45.658100994013203 ], [ 3.18932605922335, 45.658036895568699 ], [ 3.18926377428524, 45.658035559498401 ], [ 3.18923735210639, 45.658044608753698 ], [ 3.18922237739697, 45.658059131724301 ], [ 3.18921799866231, 45.658092997311698 ], [ 3.18922954647074, 45.658127826669002 ], [ 3.18936830665002, 45.658337136220801 ], [ 3.18967388480341, 45.658435945391197 ], [ 3.19000183303365, 45.658542009918897 ], [ 3.1900355152425, 45.658590399167402 ], [ 3.19045506310959, 45.658670283742197 ], [ 3.19060449978943, 45.658733875272603 ], [ 3.19073799329458, 45.6587916404604 ], [ 3.19077168774982, 45.6588060811887 ], [ 3.19082120075536, 45.658827338787397 ], [ 3.19093000451289, 45.658912340230302 ], [ 3.19097094682518, 45.658943157435701 ], [ 3.19105850575549, 45.659011715909102 ], [ 3.19114490730418, 45.659079735988797 ], [ 3.19124559018521, 45.659155565968199 ], [ 3.19145137942542, 45.659360706946799 ], [ 3.19160897654109, 45.659517933717801 ], [ 3.19172767032298, 45.659639837455401 ], [ 3.19184029848221, 45.659752926650498 ], [ 3.19186567403092, 45.659812315428901 ], [ 3.19195637444052, 45.660045476526001 ], [ 3.19202277966097, 45.660123345314503 ], [ 3.19216334697042, 45.660293837494997 ], [ 3.19218765013798, 45.660340080952402 ], [ 3.19222282985238, 45.6604120597123 ], [ 3.19233730841979, 45.660761342505403 ], [ 3.19261746597856, 45.660635155924297 ], [ 3.19264298489963, 45.660624666644097 ], [ 3.19299902095045, 45.660346617539901 ], [ 3.19353487292389, 45.659931474726299 ] ] ], [ [ [ 3.19552429285805, 45.660469949971699 ], [ 3.19487489140463, 45.659962661755202 ], [ 3.19479758989307, 45.659745328349601 ], [ 3.19456060267635, 45.659199008546999 ], [ 3.19437611703612, 45.658773694888701 ], [ 3.19432899270013, 45.6586650426582 ], [ 3.19421836786064, 45.6584100090531 ], [ 3.19388182982408, 45.658566733101402 ], [ 3.19381119753017, 45.658675543231602 ], [ 3.19357000909353, 45.658962042181201 ], [ 3.1935349434293, 45.659033150721299 ], [ 3.19353269427981, 45.659124463767597 ], [ 3.19355025447658, 45.659445726645998 ], [ 3.19358330439902, 45.659679525803298 ], [ 3.19365580972812, 45.6602159101501 ], [ 3.19371230220919, 45.660653088560302 ], [ 3.1947180788855, 45.661017491187103 ], [ 3.19552429285805, 45.660469949971699 ] ] ], [ [ [ 3.19218639711757, 45.660534047577499 ], [ 3.19215489524457, 45.6604487353504 ], [ 3.19210038358133, 45.660319788844397 ], [ 3.19204427827619, 45.660249646706099 ], [ 3.19197127207587, 45.660156931179102 ], [ 3.19188652617728, 45.660048657219903 ], [ 3.1918726037759, 45.660033282648897 ], [ 3.19176934629325, 45.6597709671559 ], [ 3.19168481240656, 45.659686555541803 ], [ 3.19134223209516, 45.6593254133561 ], [ 3.19119931726309, 45.659180227786102 ], [ 3.19109644948318, 45.659103861182203 ], [ 3.19092532472493, 45.658970339394799 ], [ 3.19088746840126, 45.6589406875718 ], [ 3.19078717660869, 45.6588662973884 ], [ 3.19043786010062, 45.658708943639603 ], [ 3.18998637092337, 45.658639018229501 ], [ 3.18992567467401, 45.658614357285103 ], [ 3.18987925092467, 45.658595075151403 ], [ 3.18940840825902, 45.658422884980503 ], [ 3.1895072803217, 45.658646038874302 ], [ 3.18955846882441, 45.658744285664298 ], [ 3.18958698398747, 45.658783858993502 ], [ 3.1896481879569, 45.6588442685159 ], [ 3.18968759593696, 45.658877249934399 ], [ 3.18973483693518, 45.658910128092799 ], [ 3.18983776821989, 45.658968215984899 ], [ 3.18988376322142, 45.659012172146298 ], [ 3.18990508166099, 45.659050046610503 ], [ 3.18989684130375, 45.659118587409402 ], [ 3.18988268518667, 45.659184616826003 ], [ 3.18982933092896, 45.6593164477272 ], [ 3.18976381084229, 45.659495664614603 ], [ 3.18970616181214, 45.659611023822698 ], [ 3.18967023606793, 45.6596575493638 ], [ 3.18913461136823, 45.659958942099998 ], [ 3.18911750346731, 45.659988236594302 ], [ 3.18910741727164, 45.660005452795801 ], [ 3.18910151083987, 45.660043283083098 ], [ 3.18914993746263, 45.660084714107398 ], [ 3.18944295313829, 45.660337527968899 ], [ 3.18953413890689, 45.660415086384603 ], [ 3.18963035544137, 45.660499119747897 ], [ 3.18986947883079, 45.660725999237997 ], [ 3.19005359919922, 45.660903444392702 ], [ 3.19011776522744, 45.660965469549303 ], [ 3.19055798798004, 45.661189126348503 ], [ 3.19068701871224, 45.661254463245001 ], [ 3.19091935358848, 45.661372573425098 ], [ 3.19099725819201, 45.661396214126299 ], [ 3.19117145066603, 45.661448957120001 ], [ 3.19127583807601, 45.661480657033998 ], [ 3.19171499943254, 45.661024354809697 ], [ 3.19218639711757, 45.660534047577499 ] ] ] ] } },
{ "type": "Feature", "properties": { "Name": null, "id": "" }, "geometry": { "type": "MultiPolygon", "coordinates": [ [ [ [ 3.19668673216529, 45.6713131041558 ], [ 3.19627075455125, 45.671327877390297 ], [ 3.19614283309831, 45.6713303514492 ], [ 3.19612934688051, 45.671330464982802 ], [ 3.19610031297372, 45.671328894662501 ], [ 3.1959114482427, 45.671314185219003 ], [ 3.19563637185323, 45.671292151205698 ], [ 3.19551470727607, 45.671284168045901 ], [ 3.1948180313345, 45.671248725468402 ], [ 3.19446467253621, 45.671282474004599 ], [ 3.19423178856621, 45.671387962563401 ], [ 3.19398350940979, 45.671498880071702 ], [ 3.1938427807495, 45.671365400198503 ], [ 3.19357989930188, 45.671120740057702 ], [ 3.19350119187538, 45.6712023692805 ], [ 3.19336046852539, 45.671290498382497 ], [ 3.19316135227526, 45.671356035222303 ], [ 3.19307000838111, 45.671387078506399 ], [ 3.19296033966218, 45.6714303997204 ], [ 3.19295164906106, 45.671479761236697 ], [ 3.1935036144154, 45.672189387760397 ], [ 3.19356994882167, 45.672205482525399 ], [ 3.19379395306389, 45.672167186869302 ], [ 3.19394490677028, 45.6721390119733 ], [ 3.19430034840554, 45.672074915104403 ], [ 3.19440637878387, 45.672056182131399 ], [ 3.19444874757123, 45.672050976223503 ], [ 3.19453933820706, 45.6720247957456 ], [ 3.19469526755431, 45.671987246194497 ], [ 3.19487698521783, 45.671941457388399 ], [ 3.19494673251156, 45.672051286030403 ], [ 3.19508071080661, 45.672272663667101 ], [ 3.19512044582233, 45.672285471788904 ], [ 3.19532058072313, 45.672253517845199 ], [ 3.19604610546669, 45.6721256490085 ], [ 3.19646767389382, 45.6720558471633 ], [ 3.19652006132245, 45.671761206785497 ], [ 3.19668673216529, 45.6713131041558 ] ] ], [ [ [ 3.1890667508056, 45.6781824538443 ], [ 3.18887545548541, 45.678177011646802 ], [ 3.18891673170047, 45.678000717266997 ], [ 3.18893716205966, 45.677814102248703 ], [ 3.18873990141456, 45.677829471061003 ], [ 3.18868468014956, 45.6778718864268 ], [ 3.18860028704955, 45.678024029837303 ], [ 3.1884408825177, 45.678329921652903 ], [ 3.18847172292328, 45.678370572036101 ], [ 3.18878581624722, 45.678448208283299 ], [ 3.18892812477381, 45.678478316081801 ], [ 3.18903518500933, 45.678493714882798 ], [ 3.1890667508056, 45.6781824538443 ] ] ], [ [ [ 3.19946543066576, 45.675824155961998 ], [ 3.1992607102202, 45.6757270856722 ], [ 3.19920808074603, 45.6757016049485 ], [ 3.19897452944419, 45.675588376371401 ], [ 3.19877288551901, 45.675775223118301 ], [ 3.19909071983778, 45.675928735016797 ], [ 3.19930731406952, 45.675969864402603 ], [ 3.19933867183817, 45.675984675943901 ], [ 3.1993591462285, 45.6759522131929 ], [ 3.1993953423406, 45.675908745679401 ], [ 3.19942578652757, 45.675873212618399 ], [ 3.19946543066576, 45.675824155961998 ] ] ], [ [ [ 3.19638436078199, 45.676088369631898 ], [ 3.19622808891611, 45.675162581867902 ], [ 3.1955451800151, 45.675365658515503 ], [ 3.19493375863921, 45.675552758765399 ], [ 3.19469910141532, 45.675597198397199 ], [ 3.19485727996195, 45.676013309724297 ], [ 3.19497709785227, 45.676332865072503 ], [ 3.19515218419044, 45.676296812561603 ], [ 3.19545297748437, 45.676246404087699 ], [ 3.19584517248644, 45.676179627175202 ], [ 3.19638436078199, 45.676088369631898 ] ] ], [ [ [ 3.19025268519776, 45.676274307802302 ], [ 3.1902241914981, 45.675869947589398 ], [ 3.19018847954182, 45.675420845410699 ], [ 3.18997636279295, 45.675446597073901 ], [ 3.18964399628475, 45.675504878310399 ], [ 3.18945242188347, 45.675527802891402 ], [ 3.18950119072415, 45.6757026853059 ], [ 3.18966764179585, 45.6763325653545 ], [ 3.18973236907152, 45.676590715781899 ], [ 3.19012814779559, 45.676554839429201 ], [ 3.19007634069859, 45.676281539257602 ], [ 3.19011423051132, 45.676280214633202 ], [ 3.19017742280717, 45.6762779467931 ], [ 3.19025268519776, 45.676274307802302 ] ] ], [ [ [ 3.18598966445491, 45.674830474359602 ], [ 3.18597080194792, 45.674798178058303 ], [ 3.18563437803906, 45.674795761405797 ], [ 3.1852248701988, 45.674794904731201 ], [ 3.18478478104465, 45.674791125137702 ], [ 3.18472515637315, 45.674822739945 ], [ 3.18461210633735, 45.675127199486496 ], [ 3.18456429330022, 45.675311247120497 ], [ 3.18424935160157, 45.675974970645903 ], [ 3.18428967193655, 45.676009213201802 ], [ 3.18441084556227, 45.676021441592198 ], [ 3.18449656168953, 45.676032467254402 ], [ 3.18459515750356, 45.6760537372855 ], [ 3.18466330132179, 45.676072535796798 ], [ 3.18472953429906, 45.676096109976797 ], [ 3.18481262942933, 45.676130012042101 ], [ 3.18493795129228, 45.676191849840201 ], [ 3.18519466697713, 45.676325600481 ], [ 3.18527433724, 45.676180401164302 ], [ 3.18552489444876, 45.675702911265297 ], [ 3.18598966445491, 45.674830474359602 ] ] ], [ [ [ 3.18833755176985, 45.676276895884698 ], [ 3.188290824104, 45.676134697197703 ], [ 3.18821080505831, 45.675910519841203 ], [ 3.18818250027064, 45.675821779203602 ], [ 3.18816268054202, 45.675735095503697 ], [ 3.18813947539642, 45.675597179798103 ], [ 3.18814510061131, 45.6755515157584 ], [ 3.18767076919039, 45.675489993416399 ], [ 3.18755933066035, 45.675469557901202 ], [ 3.18739287204116, 45.675436697068001 ], [ 3.18757669029895, 45.6751338277993 ], [ 3.18759917243491, 45.675096780381999 ], [ 3.18756639246468, 45.675089541035497 ], [ 3.18690879740458, 45.674961864651699 ], [ 3.1863804133151, 45.674867919026497 ], [ 3.18632900605949, 45.6748600798011 ], [ 3.18620805116775, 45.674835876653802 ], [ 3.18609365981115, 45.674815354525499 ], [ 3.18603478508276, 45.674840575337903 ], [ 3.1857738789698, 45.675332221051399 ], [ 3.18574222065439, 45.675391255093103 ], [ 3.18565388076913, 45.675555199134202 ], [ 3.18564623126848, 45.675572411024604 ], [ 3.18559006091722, 45.67567659977 ], [ 3.1855319858854, 45.675787455221602 ], [ 3.18531804644082, 45.6761906848511 ], [ 3.185233411437, 45.676349309605598 ], [ 3.18550117792569, 45.676522032425403 ], [ 3.18578246385438, 45.676703647129003 ], [ 3.18587215532934, 45.676750504536898 ], [ 3.18594433822988, 45.676785864555598 ], [ 3.18603198103422, 45.676834616239702 ], [ 3.18604987092493, 45.676844852234098 ], [ 3.18622574147378, 45.676963335730797 ], [ 3.18623927150069, 45.676975830118501 ], [ 3.18623856984066, 45.676996362362097 ], [ 3.18638354284548, 45.677094455660701 ], [ 3.1866319374584, 45.6772344301706 ], [ 3.1868356334591, 45.677337387259797 ], [ 3.18692704179696, 45.676941102746198 ], [ 3.18693713382493, 45.6768484259754 ], [ 3.1870859557518, 45.676032698681198 ], [ 3.18698888039096, 45.676005485096802 ], [ 3.18694168543173, 45.675990075072797 ], [ 3.18671525944461, 45.675925705682403 ], [ 3.18672215099992, 45.675912367064903 ], [ 3.18673019286494, 45.675897315616503 ], [ 3.18675835129575, 45.675905283258899 ], [ 3.18701443126321, 45.675964020318901 ], [ 3.18739048354903, 45.676059207056902 ], [ 3.18786527916373, 45.676142611627697 ], [ 3.18811141348487, 45.676184613744098 ], [ 3.18833755176985, 45.676276895884698 ] ] ], [ [ [ 3.18681638936294, 45.677420795191203 ], [ 3.18675211753289, 45.677408114862999 ], [ 3.18661621762839, 45.677334500226202 ], [ 3.18641082605656, 45.677223810370997 ], [ 3.18637157878046, 45.6772037044244 ], [ 3.18606812091753, 45.677000426089002 ], [ 3.1858249329036, 45.676841801690998 ], [ 3.18565730681563, 45.676729877531798 ], [ 3.18550553424581, 45.676633685524003 ], [ 3.18519490908757, 45.676436359866898 ], [ 3.18501833670341, 45.676337326423301 ], [ 3.184884384194, 45.676268389039997 ], [ 3.18474698748828, 45.676206570986999 ], [ 3.18471585100019, 45.676191493885902 ], [ 3.18460183915515, 45.676169889031101 ], [ 3.1844555667321, 45.676142753881201 ], [ 3.18432522968955, 45.676117663583803 ], [ 3.18418393626772, 45.676158416578502 ], [ 3.18405749065428, 45.676376450830801 ], [ 3.18394018263632, 45.676599962986899 ], [ 3.18382465065756, 45.676855709525299 ], [ 3.18378583003476, 45.676963741148597 ], [ 3.18398749653994, 45.676999071178798 ], [ 3.18414353338868, 45.677026100931002 ], [ 3.1842933957817, 45.677050529159999 ], [ 3.18449570941203, 45.677087117903298 ], [ 3.18448193333581, 45.677116316215198 ], [ 3.18464275219192, 45.677151892062902 ], [ 3.18499692072182, 45.677155273094499 ], [ 3.18504074193919, 45.677160423936201 ], [ 3.18534211841622, 45.677203331884598 ], [ 3.18566515548088, 45.677308156772497 ], [ 3.18590257546299, 45.677355310859298 ], [ 3.18675249505026, 45.677603771872 ], [ 3.18681638936294, 45.677420795191203 ] ] ], [ [ [ 3.20230721799592, 45.6719903098831 ], [ 3.20158128803953, 45.671720294956401 ], [ 3.20138287280562, 45.671909211699003 ], [ 3.2012685155298, 45.672018077776599 ], [ 3.20108868257428, 45.671997894916302 ], [ 3.20087218696588, 45.672227815158699 ], [ 3.20077364210391, 45.672185037672399 ], [ 3.20071338864483, 45.672252501428197 ], [ 3.20070661924088, 45.672263049179598 ], [ 3.20040801180235, 45.672626116631299 ], [ 3.20062720590715, 45.672714514347497 ], [ 3.20065111277781, 45.6726834049866 ], [ 3.20135787292547, 45.6729426543803 ], [ 3.20174978006883, 45.6730872015142 ], [ 3.20188459091065, 45.672789079102699 ], [ 3.20194052793908, 45.672630133051598 ], [ 3.20194598805348, 45.672612833926003 ], [ 3.20199653762141, 45.672526386650603 ], [ 3.20217840789537, 45.672207018062601 ], [ 3.20230721799592, 45.6719903098831 ] ] ], [ [ [ 3.19005190981256, 45.671747453310999 ], [ 3.18994828429569, 45.671718632474402 ], [ 3.18973937955427, 45.6716655857796 ], [ 3.18960388020784, 45.671630965159302 ], [ 3.18895786667061, 45.671461318699002 ], [ 3.18881589024115, 45.671410319157701 ], [ 3.18867956956858, 45.671360480595297 ], [ 3.18864085596838, 45.671345237183502 ], [ 3.18839238823125, 45.6712529930724 ], [ 3.18815509125888, 45.671159379025802 ], [ 3.18802546305493, 45.671113130437298 ], [ 3.18784529436597, 45.671086326446698 ], [ 3.18771357558649, 45.671067365704801 ], [ 3.18769147551602, 45.6710650612725 ], [ 3.18727289702989, 45.671032530107702 ], [ 3.18696314113856, 45.671009091800698 ], [ 3.18692164052909, 45.671005108497297 ], [ 3.18659016177845, 45.6709768425916 ], [ 3.1864547443369, 45.670965450586102 ], [ 3.18620204179945, 45.670949119608501 ], [ 3.18598042880679, 45.670934627751798 ], [ 3.18588432342687, 45.671308217821903 ], [ 3.18572610661964, 45.671698839387801 ], [ 3.18541060018577, 45.672567157327101 ], [ 3.18615345899673, 45.672505869620998 ], [ 3.18635138332974, 45.672502300580199 ], [ 3.18649369842541, 45.672501164544201 ], [ 3.18658002928719, 45.672505523996698 ], [ 3.18679301397739, 45.672511474380599 ], [ 3.18697325806202, 45.672521350805702 ], [ 3.18713459720524, 45.672524324612901 ], [ 3.18724956095604, 45.6725254842761 ], [ 3.18730928256422, 45.672523674051597 ], [ 3.18748137551612, 45.672516093793597 ], [ 3.18760671256004, 45.672508140918197 ], [ 3.18781770255026, 45.672494011852699 ], [ 3.18786726281939, 45.672488076041198 ], [ 3.18805082792345, 45.672454631833403 ], [ 3.18842860006791, 45.6723823218014 ], [ 3.18859073176668, 45.672316405028397 ], [ 3.18889652892881, 45.672193696659797 ], [ 3.18909032762798, 45.672110796919398 ], [ 3.18921948618829, 45.672056280713299 ], [ 3.18955567811333, 45.671920732587097 ], [ 3.18960416540511, 45.671901740771297 ], [ 3.18973166337873, 45.6718501983759 ], [ 3.18988533842809, 45.671791227723098 ], [ 3.19002149481057, 45.671755158758202 ], [ 3.19005190981256, 45.671747453310999 ] ] ], [ [ [ 3.19343437804106, 45.6721882460076 ], [ 3.19329386418393, 45.6720060487811 ], [ 3.19312045249176, 45.671782215296602 ], [ 3.19290059378757, 45.671498578796502 ], [ 3.19283182720945, 45.671484558921698 ], [ 3.19259027934479, 45.6715744805078 ], [ 3.19226512356497, 45.6716304159117 ], [ 3.19216755557488, 45.6716448100983 ], [ 3.19215523214445, 45.671646902241001 ], [ 3.19187035294932, 45.671687189376897 ], [ 3.19182135732569, 45.671744543734597 ], [ 3.19177601959566, 45.672153351495403 ], [ 3.19150842148089, 45.672437279780397 ], [ 3.19152327437221, 45.6724608472569 ], [ 3.19178910205799, 45.672444456323298 ], [ 3.19214310744482, 45.672409364361599 ], [ 3.1924711297314, 45.672363780004702 ], [ 3.19289941910065, 45.672304155530902 ], [ 3.19300494791276, 45.6722886664868 ], [ 3.19307221500939, 45.672277565270299 ], [ 3.1931941812744, 45.672261057336399 ], [ 3.19340818834778, 45.6722288128516 ], [ 3.19343437804106, 45.6721882460076 ] ] ], [ [ [ 3.19981565715141, 45.670680858350501 ], [ 3.19973259547196, 45.6703361195284 ], [ 3.19965205394195, 45.6701200556383 ], [ 3.19952772746053, 45.6700856972965 ], [ 3.19863838169687, 45.670187673502603 ], [ 3.19747707651843, 45.670204933878097 ], [ 3.19752114254402, 45.670351905962598 ], [ 3.19753429469123, 45.670402220061703 ], [ 3.19748106215119, 45.670530092369901 ], [ 3.19734634022432, 45.670642078816499 ], [ 3.1971869006406, 45.670774369314003 ], [ 3.19711139725284, 45.670852393514103 ], [ 3.19701426670431, 45.6709528775975 ], [ 3.19692024277312, 45.671096309347803 ], [ 3.19676281692815, 45.671326028310503 ], [ 3.19659371389676, 45.671776296466099 ], [ 3.19653972380397, 45.672053560294898 ], [ 3.19650922755381, 45.672146723764101 ], [ 3.19652197047147, 45.672154265613699 ], [ 3.1969107898542, 45.672158088957197 ], [ 3.19690996312755, 45.6721784413878 ], [ 3.19651612912583, 45.672173186012898 ], [ 3.19649714928754, 45.672181683695499 ], [ 3.19643859431044, 45.672367285964398 ], [ 3.19640188725634, 45.672483962924701 ], [ 3.19639031909667, 45.6725541309618 ], [ 3.19633699782797, 45.672875607409097 ], [ 3.19632808217925, 45.672933164012299 ], [ 3.19631114452783, 45.673046744833499 ], [ 3.19630730964837, 45.6731968625541 ], [ 3.19629677877065, 45.673378508961001 ], [ 3.19628863487661, 45.673472623955803 ], [ 3.19624078499954, 45.674069729662897 ], [ 3.19637012955693, 45.674068333605597 ], [ 3.19642805903021, 45.674067872401899 ], [ 3.196464277651, 45.674066638601801 ], [ 3.19650498401305, 45.6740631457454 ], [ 3.19654658504057, 45.674058390632403 ], [ 3.19658034520363, 45.674052118362098 ], [ 3.1966112701948, 45.674043239620801 ], [ 3.196959333376, 45.673599592317302 ], [ 3.19698183648685, 45.673570377212897 ], [ 3.19699743476865, 45.673549998945298 ], [ 3.1971522792044, 45.673351350914501 ], [ 3.19733234170357, 45.673056756718204 ], [ 3.19750097066949, 45.672834221177503 ], [ 3.19767817651929, 45.672603926152597 ], [ 3.19783143130579, 45.672465072262298 ], [ 3.197913742532, 45.6723867654635 ], [ 3.19798238650838, 45.672329914198798 ], [ 3.19806256175444, 45.672265028288997 ], [ 3.19831218466322, 45.672064410991602 ], [ 3.19873827126779, 45.671751371390499 ], [ 3.19893620687485, 45.671608925253402 ], [ 3.1989730961016, 45.671580314682302 ], [ 3.199133901744, 45.6714712517702 ], [ 3.19948094771219, 45.671254430940998 ], [ 3.19958565125781, 45.6711892303559 ], [ 3.19981565715141, 45.670680858350501 ] ] ], [ [ [ 3.18772617972144, 45.672776736891599 ], [ 3.18761835526282, 45.672684076459099 ], [ 3.18757288370819, 45.672645791496699 ], [ 3.1872870919205, 45.672646627269103 ], [ 3.18718096757094, 45.672638609261902 ], [ 3.18676466065672, 45.6725975177945 ], [ 3.1863650281918, 45.672587373912798 ], [ 3.18635179793387, 45.672587305754497 ], [ 3.18619256255054, 45.672598825169601 ], [ 3.18563137377682, 45.672635860945597 ], [ 3.1853946657062, 45.672680104474097 ], [ 3.18532395503351, 45.672737491738097 ], [ 3.18517704603553, 45.673093425254002 ], [ 3.18507773612993, 45.673433341782903 ], [ 3.1850772622917, 45.673522130465201 ], [ 3.18512453021468, 45.673560143338001 ], [ 3.18529761621257, 45.673617940062499 ], [ 3.18584200453872, 45.6737005182082 ], [ 3.18619991754809, 45.673754406500102 ], [ 3.18642077080051, 45.673387363335898 ], [ 3.18636879958388, 45.673364216805503 ], [ 3.18638248166578, 45.673345824254298 ], [ 3.18646507960388, 45.673385579068999 ], [ 3.18623410312483, 45.673759752897503 ], [ 3.18665666986596, 45.673826319721201 ], [ 3.18669297204825, 45.673811761733297 ], [ 3.18680572553052, 45.673499736521897 ], [ 3.18686022850645, 45.673473712121798 ], [ 3.18699370506345, 45.673479073619099 ], [ 3.18762950918579, 45.673511604403998 ], [ 3.18766565742492, 45.673489662374202 ], [ 3.18769748568966, 45.673102850646501 ], [ 3.18772617972144, 45.672776736891599 ] ] ], [ [ [ 3.1931135526711, 45.673523136711502 ], [ 3.19307028120529, 45.672938435257699 ], [ 3.19301809889803, 45.6723765313819 ], [ 3.19297993584113, 45.672335534614803 ], [ 3.19285386473598, 45.672353670219699 ], [ 3.19270185881399, 45.672375091807403 ], [ 3.19239386824152, 45.672418931697798 ], [ 3.19225508030837, 45.672436998304903 ], [ 3.19215018823178, 45.672451044782001 ], [ 3.19206724222253, 45.672459830921298 ], [ 3.19179476780601, 45.672485598883597 ], [ 3.19157029951849, 45.672501919492298 ], [ 3.19144649818138, 45.6725080731972 ], [ 3.19098319815972, 45.673031411728701 ], [ 3.19095138093027, 45.673451992627498 ], [ 3.19100238590421, 45.673492337968 ], [ 3.19136364742454, 45.673510544932398 ], [ 3.1916428035798, 45.673521056238002 ], [ 3.19205133011704, 45.673537919888098 ], [ 3.19213753239695, 45.673541644963798 ], [ 3.19221885146188, 45.673544747966901 ], [ 3.19223992168393, 45.6735460627363 ], [ 3.19237725582976, 45.6735524018059 ], [ 3.19249967997297, 45.673555884635697 ], [ 3.19279023461081, 45.6735566483677 ], [ 3.19296224395021, 45.673561216444 ], [ 3.19308683889469, 45.673561002923897 ], [ 3.1931135526711, 45.673523136711502 ] ] ], [ [ [ 3.19645627299846, 45.672100711255098 ], [ 3.19551328468959, 45.672263358997 ], [ 3.19506437901151, 45.672340138356397 ], [ 3.19504291459498, 45.672299743704997 ], [ 3.19486469275063, 45.672025313902999 ], [ 3.19481914342242, 45.672002700451401 ], [ 3.19446299006955, 45.672083279081498 ], [ 3.19440330395577, 45.6720949983849 ], [ 3.19436518804298, 45.672104249123798 ], [ 3.19429614214899, 45.672120757097602 ], [ 3.19425583631457, 45.672128210605003 ], [ 3.19396123756396, 45.672180856450098 ], [ 3.19355315430555, 45.672251346123701 ], [ 3.19373277923751, 45.672451215341297 ], [ 3.19393305666168, 45.6726062045162 ], [ 3.19421746480272, 45.672833447378999 ], [ 3.1942778696932, 45.672879898333598 ], [ 3.1946489656158, 45.673138687669201 ], [ 3.19467986963171, 45.673160426021298 ], [ 3.19476358669043, 45.673224575998198 ], [ 3.19544135978154, 45.673756399715501 ], [ 3.19578245909863, 45.673956525700603 ], [ 3.19582905745497, 45.673984629911402 ], [ 3.19593720321715, 45.674018300117503 ], [ 3.19598962493776, 45.674022261102401 ], [ 3.19616948831815, 45.674031583194299 ], [ 3.19623004762035, 45.6730699385935 ], [ 3.19623879600113, 45.673001396358401 ], [ 3.19632157664386, 45.672475098075601 ], [ 3.19638975083955, 45.672285336858899 ], [ 3.19645627299846, 45.672100711255098 ] ] ], [ [ [ 3.19538622880595, 45.673785400968498 ], [ 3.19521260271084, 45.673650449001997 ], [ 3.19469994382057, 45.673243776334203 ], [ 3.1942204367312, 45.672911694491802 ], [ 3.19400982676206, 45.672741055162 ], [ 3.19371282310552, 45.672511222032703 ], [ 3.19360222155419, 45.672398491252899 ], [ 3.19352520420931, 45.672302721852098 ], [ 3.19344073371975, 45.672279454321902 ], [ 3.193130651437, 45.672312493989203 ], [ 3.19309345063458, 45.6723632551316 ], [ 3.19310188320695, 45.672460853355403 ], [ 3.19311714987518, 45.6726028338216 ], [ 3.19314567987974, 45.672938396037203 ], [ 3.1931477787035, 45.672950909193801 ], [ 3.19319763095676, 45.673617543564497 ], [ 3.19323288722897, 45.673966241346399 ], [ 3.19335958085293, 45.673941440655199 ], [ 3.19361116317303, 45.673890040975103 ], [ 3.19382371858931, 45.673845011299598 ], [ 3.19403141216908, 45.673805572611698 ], [ 3.19437963490891, 45.673731132347498 ], [ 3.19453408495867, 45.673965712482499 ], [ 3.19445710298347, 45.673990788877902 ], [ 3.1946216319795, 45.6742055408032 ], [ 3.19538152795675, 45.673836466687398 ], [ 3.19538622880595, 45.673785400968498 ] ] ], [ [ [ 3.19176072120441, 45.671815785372999 ], [ 3.1916775977251, 45.671735963716202 ], [ 3.19157563113071, 45.671741360016199 ], [ 3.19136760478859, 45.671757111966002 ], [ 3.19113645338767, 45.671771461999803 ], [ 3.1911043448117, 45.6717722368723 ], [ 3.19099681864097, 45.671767106396203 ], [ 3.19096367474584, 45.671765631769702 ], [ 3.19081363232026, 45.671760213001399 ], [ 3.19046004283838, 45.671803224360801 ], [ 3.19030069790839, 45.671819342251403 ], [ 3.1901004998345, 45.671833277661399 ], [ 3.18995228652424, 45.671874319728502 ], [ 3.18986296760155, 45.671897342669197 ], [ 3.18972019305852, 45.671951342258602 ], [ 3.18955783124354, 45.672024374885197 ], [ 3.18941275300097, 45.6720809893704 ], [ 3.18946108407439, 45.6724291259683 ], [ 3.18962775277745, 45.672488097461297 ], [ 3.18972769018402, 45.672489820183799 ], [ 3.18985010903112, 45.672492495460503 ], [ 3.18994079772743, 45.6724940534857 ], [ 3.19028074459032, 45.672516442087797 ], [ 3.19028028188437, 45.672568671052503 ], [ 3.18993773673696, 45.672537822262498 ], [ 3.18989766126535, 45.672537799787598 ], [ 3.18963227417364, 45.672533114143697 ], [ 3.18946381263532, 45.6724757665474 ], [ 3.18948559453427, 45.672610082400404 ], [ 3.18946080441696, 45.672610124102597 ], [ 3.18943345492809, 45.672612961610298 ], [ 3.18942187372986, 45.672531757260103 ], [ 3.18936785239793, 45.672097183567303 ], [ 3.18908154543602, 45.672209594960997 ], [ 3.1888983760097, 45.672283291904598 ], [ 3.18861628497678, 45.672389571739501 ], [ 3.1883608688654, 45.6724838297988 ], [ 3.18784563285242, 45.6725866252687 ], [ 3.18781096478329, 45.672628195479199 ], [ 3.18777659415051, 45.672984665090702 ], [ 3.18776490772203, 45.6730989562313 ], [ 3.18778023724781, 45.673111987720802 ], [ 3.18804611110353, 45.673145762614702 ], [ 3.18809827912771, 45.673151078422102 ], [ 3.1880907073854, 45.673304263718698 ], [ 3.18806450555977, 45.673304757713503 ], [ 3.1880702017534, 45.673166613665003 ], [ 3.187772201571, 45.673128660106201 ], [ 3.18775913994567, 45.6731404782456 ], [ 3.18772565588938, 45.673493434481898 ], [ 3.18779523723653, 45.673974448124198 ], [ 3.1878461559902, 45.6743305954638 ], [ 3.18791100340841, 45.674362454550199 ], [ 3.18823308412683, 45.674340575247498 ], [ 3.18835623602502, 45.6743310043205 ], [ 3.18886194018751, 45.674291256528903 ], [ 3.18910631921444, 45.674272836784702 ], [ 3.189880793649, 45.674210931143101 ], [ 3.19025686930315, 45.674240192669401 ], [ 3.19082401110892, 45.674286688885097 ], [ 3.19085510929643, 45.674253228163103 ], [ 3.19086198735977, 45.6741618171745 ], [ 3.19090050998724, 45.673487738103603 ], [ 3.19091332438045, 45.673292671118404 ], [ 3.19091346916442, 45.673260163328997 ], [ 3.19091605942221, 45.6732290921722 ], [ 3.19091970301785, 45.6730192727644 ], [ 3.19095514340717, 45.672978780866003 ], [ 3.19135207016871, 45.672502380501697 ], [ 3.1913843423493, 45.672474500654303 ], [ 3.19153783736346, 45.672326379942199 ], [ 3.19172327096934, 45.672091487865103 ], [ 3.19176072120441, 45.671815785372999 ] ] ], [ [ [ 3.19291165151162, 45.6745242829343 ], [ 3.19286695353637, 45.674340840407602 ], [ 3.19285629136485, 45.674303758636 ], [ 3.19283269621093, 45.674204565464102 ], [ 3.19279673941519, 45.674059738803102 ], [ 3.1927950615943, 45.674020570530097 ], [ 3.19280446338274, 45.673917088585704 ], [ 3.19280728818048, 45.673879893675199 ], [ 3.19280950679843, 45.6738530553923 ], [ 3.19281048608931, 45.673839186230403 ], [ 3.19281171757299, 45.673823965907602 ], [ 3.19281381338335, 45.673798748709899 ], [ 3.19281491422072, 45.673782898270503 ], [ 3.19281627195521, 45.673767047391401 ], [ 3.19281737655515, 45.673752277528898 ], [ 3.19281835772424, 45.673738948655398 ], [ 3.19281946232305, 45.673724178793002 ], [ 3.19282081848648, 45.6737078776735 ], [ 3.19281588208111, 45.6736551176406 ], [ 3.1928112170099, 45.673606499379098 ], [ 3.19243635418917, 45.6735927326758 ], [ 3.1923437271962, 45.673588388459898 ], [ 3.19216836347139, 45.673579592877502 ], [ 3.19199827180948, 45.673572408910502 ], [ 3.19144445028542, 45.673550119055101 ], [ 3.19119162282366, 45.673538662083402 ], [ 3.19107651507243, 45.673533634594399 ], [ 3.19100483499492, 45.673532045247697 ], [ 3.19095124236754, 45.673560771571402 ], [ 3.19094944127897, 45.673634434380197 ], [ 3.19094102373512, 45.673763578344598 ], [ 3.19093354784765, 45.673905057371897 ], [ 3.19092123400975, 45.6740590613568 ], [ 3.19091231290724, 45.674228457903098 ], [ 3.19088999401524, 45.6745728416006 ], [ 3.19088920690955, 45.674728257827297 ], [ 3.19140922159484, 45.674684548228399 ], [ 3.19181845247123, 45.674650146868103 ], [ 3.19191323177319, 45.674644942699501 ], [ 3.19202548131728, 45.674639978814703 ], [ 3.19214863228799, 45.6746301335968 ], [ 3.19231438009561, 45.674606167939999 ], [ 3.19240426374721, 45.6745968294804 ], [ 3.19291165151162, 45.6745242829343 ] ] ], [ [ [ 3.18776747893805, 45.674349276658397 ], [ 3.18776088002206, 45.674335150028902 ], [ 3.18774314801687, 45.674219827333502 ], [ 3.18766729816801, 45.673594746346602 ], [ 3.18763200835613, 45.673566800027302 ], [ 3.18750071819899, 45.6735623361321 ], [ 3.18727177680677, 45.673549029626102 ], [ 3.18715628039162, 45.673542918194499 ], [ 3.18689226181904, 45.673526427447499 ], [ 3.18684343880223, 45.673560816959998 ], [ 3.18671764252024, 45.673890333259401 ], [ 3.18650032360553, 45.6738576454688 ], [ 3.18640290884469, 45.673842858658297 ], [ 3.18633106943817, 45.673832171692901 ], [ 3.18626295538416, 45.673821568569799 ], [ 3.18611850207839, 45.673799025062998 ], [ 3.18527711984353, 45.673672903416801 ], [ 3.18515792231166, 45.6736355491648 ], [ 3.1850765216197, 45.673607947983399 ], [ 3.18507531884331, 45.673786066061901 ], [ 3.18496055015332, 45.674228483196501 ], [ 3.184889568352, 45.674397710984302 ], [ 3.18477380908987, 45.674698122941201 ], [ 3.18482094965815, 45.674736226203699 ], [ 3.18487557448087, 45.674746041904598 ], [ 3.18498026519948, 45.674746770509898 ], [ 3.18550497769541, 45.674742755872501 ], [ 3.18598655442823, 45.674745923863497 ], [ 3.18605733253781, 45.674746257215901 ], [ 3.18636028839887, 45.674804107869797 ], [ 3.18670579603285, 45.6748718825799 ], [ 3.18721120613461, 45.674971267782198 ], [ 3.18726640633054, 45.674771268131202 ], [ 3.18737448945789, 45.674370101978496 ], [ 3.18739172976659, 45.674302446801697 ], [ 3.18776747893805, 45.674349276658397 ] ] ], [ [ [ 3.20173310803975, 45.673129644279499 ], [ 3.20139004064835, 45.672993294245202 ], [ 3.20089063830305, 45.672817150476497 ], [ 3.19996386983224, 45.673487230553903 ], [ 3.19979909886774, 45.673602064807 ], [ 3.1997505782657, 45.673575676569399 ], [ 3.19904387750382, 45.673225918106901 ], [ 3.19907118179059, 45.673210561586799 ], [ 3.19854885447361, 45.672800951892498 ], [ 3.19802897084423, 45.672390074825898 ], [ 3.19794404706859, 45.672456139689402 ], [ 3.19778537114779, 45.672587529218198 ], [ 3.19772588267832, 45.672654539784403 ], [ 3.19767295673011, 45.672724870600803 ], [ 3.19752450484386, 45.672914143077698 ], [ 3.1974851279223, 45.672965990078801 ], [ 3.19742209547236, 45.673047954768997 ], [ 3.19738271803862, 45.673099711686902 ], [ 3.19720411684573, 45.673371791252201 ], [ 3.19673737134959, 45.6739605348994 ], [ 3.19677322635738, 45.674073843479697 ], [ 3.19674012106258, 45.674553500270299 ], [ 3.19666351060282, 45.675767759706901 ], [ 3.19663233140035, 45.676066955699199 ], [ 3.1967592339035, 45.676063852542001 ], [ 3.19686301463978, 45.6760607896544 ], [ 3.19692173422878, 45.676137408451197 ], [ 3.19704862464007, 45.676239121601903 ], [ 3.19730865564393, 45.676393730169103 ], [ 3.1973281325114, 45.6767044539057 ], [ 3.19769706839969, 45.6766350098288 ], [ 3.19783576953812, 45.676554262823601 ], [ 3.19807451424908, 45.676359338190302 ], [ 3.19829627516631, 45.676157149011303 ], [ 3.19890848061798, 45.675581829426498 ], [ 3.19890365534326, 45.675275672584398 ], [ 3.19911262427296, 45.675090343485103 ], [ 3.19928639796737, 45.674941275824402 ], [ 3.19936708734795, 45.674840188516299 ], [ 3.19933539302543, 45.674778111053499 ], [ 3.19895392065989, 45.674643532456898 ], [ 3.19935634431387, 45.674211217842803 ], [ 3.19941624121995, 45.674257666956102 ], [ 3.19935545707809, 45.674321528983903 ], [ 3.19924232818082, 45.674438702323698 ], [ 3.19909477544525, 45.674592045902898 ], [ 3.1991098801142, 45.6746488398894 ], [ 3.1994860620576, 45.674776673680803 ], [ 3.19944527625287, 45.6748295144059 ], [ 3.19934041767186, 45.674960630741303 ], [ 3.19972083663114, 45.675087195576999 ], [ 3.20017622311694, 45.675235237601399 ], [ 3.20043254113963, 45.6753211384382 ], [ 3.20079816752936, 45.675440702175003 ], [ 3.2008735020571, 45.6753158504848 ], [ 3.20091220155097, 45.6752547284851 ], [ 3.20093531576414, 45.675217317068302 ], [ 3.20101768314145, 45.6750838080672 ], [ 3.20102278851596, 45.675074794091799 ], [ 3.20110618668139, 45.674942273722102 ], [ 3.2011456295343, 45.674873766327501 ], [ 3.20124000678765, 45.674722766282201 ], [ 3.20130318662851, 45.674470427153601 ], [ 3.20133093212859, 45.674364480367899 ], [ 3.20135042096806, 45.674284032099798 ], [ 3.20135728095033, 45.674263038504598 ], [ 3.20138107443921, 45.6741653832471 ], [ 3.2014248532307, 45.6739825962891 ], [ 3.20145341351615, 45.6738888946334 ], [ 3.20161239707507, 45.673455386206797 ], [ 3.20173310803975, 45.673129644279499 ] ] ], [ [ [ 3.19600166931276, 45.675174682408603 ], [ 3.19589882896938, 45.675043750515201 ], [ 3.19582967742777, 45.6749586847627 ], [ 3.19575278876107, 45.674865077796099 ], [ 3.19571716233518, 45.674815973157401 ], [ 3.19551174584962, 45.674555278944901 ], [ 3.1952648036078, 45.674247380838104 ], [ 3.19482216987624, 45.674432026585997 ], [ 3.19477098818416, 45.674452015845098 ], [ 3.19443481073701, 45.674592442161 ], [ 3.19455611158751, 45.674823837753102 ], [ 3.19449858849302, 45.674830510645698 ], [ 3.19430663972008, 45.674855335156302 ], [ 3.19420622706054, 45.674865863920203 ], [ 3.19374526327128, 45.674917175029201 ], [ 3.19359653522817, 45.674930163628296 ], [ 3.1932949312026, 45.674956507549801 ], [ 3.19329736814247, 45.6755844844281 ], [ 3.19363555893299, 45.675723298828103 ], [ 3.19378614872174, 45.675698456578502 ], [ 3.19440247755545, 45.675590416787799 ], [ 3.19469170882551, 45.675540570590002 ], [ 3.19491328771952, 45.675502997300697 ], [ 3.19600166931276, 45.675174682408603 ] ] ] ] } },
{ "type": "Feature", "properties": { "Name": null, "id": "" }, "geometry": { "type": "MultiPolygon", "coordinates": [ [ [ [ 3.17387193039794, 45.6538667328049 ], [ 3.17352419136844, 45.653900497116197 ], [ 3.17348556693148, 45.653908480894899 ], [ 3.17280778531265, 45.654339324229902 ], [ 3.17261034606145, 45.654477941437101 ], [ 3.17337376469033, 45.655109718845502 ], [ 3.17353562556629, 45.6549268513104 ], [ 3.17372591387527, 45.654473704392103 ], [ 3.17375542693768, 45.6541399394332 ], [ 3.17387193039794, 45.6538667328049 ] ] ], [ [ [ 3.18281135798875, 45.653160911502297 ], [ 3.18274010348274, 45.653046755717 ], [ 3.18272636467134, 45.652968976174002 ], [ 3.18275730217357, 45.652811161120297 ], [ 3.18272290528052, 45.652698836513203 ], [ 3.18273741606782, 45.652582560448501 ], [ 3.18275423620226, 45.652465740344098 ], [ 3.18274940612462, 45.652363903418802 ], [ 3.18271037973354, 45.652249335116302 ], [ 3.18267361789186, 45.652198427360297 ], [ 3.18258254833016, 45.652110147530401 ], [ 3.18256944884608, 45.652070367371103 ], [ 3.18260373389683, 45.6519932303258 ], [ 3.18257556773258, 45.651901156471503 ], [ 3.18260178510077, 45.651791615079802 ], [ 3.18257828723364, 45.651752392076901 ], [ 3.1823786572896, 45.651605486462103 ], [ 3.18232696324442, 45.651542806441398 ], [ 3.1823278483881, 45.651538662781 ], [ 3.18210050999498, 45.651360014456003 ], [ 3.1813540085537, 45.6513999401691 ], [ 3.18134200986445, 45.651237242019 ], [ 3.18080453806652, 45.651303931795901 ], [ 3.18079862653064, 45.651459634987603 ], [ 3.1808522707028, 45.651766163670899 ], [ 3.18091002275319, 45.652072235495297 ], [ 3.18093156186607, 45.6521803490308 ], [ 3.18101614214185, 45.652248199635203 ], [ 3.18121265803762, 45.652267874270301 ], [ 3.18131325213235, 45.6524029650461 ], [ 3.18139138230215, 45.652696577145697 ], [ 3.1814404816919, 45.652829499551999 ], [ 3.18149410923987, 45.653051112336499 ], [ 3.18153839072373, 45.653085079252897 ], [ 3.18200700913608, 45.653031554332898 ], [ 3.18250129758157, 45.652975194354802 ], [ 3.18267850827879, 45.653019210802597 ], [ 3.18281135798875, 45.653160911502297 ] ] ], [ [ [ 3.18084160279215, 45.652195351544698 ], [ 3.18074564016505, 45.6517085238183 ], [ 3.18070374542214, 45.651461138034598 ], [ 3.18052489518965, 45.651463586102601 ], [ 3.18030419654409, 45.6514688924117 ], [ 3.18006359365258, 45.651473419686603 ], [ 3.18008514114539, 45.651663657510902 ], [ 3.17988725462998, 45.651695580840901 ], [ 3.17985170746797, 45.6517014907758 ], [ 3.17970618157014, 45.651725495923202 ], [ 3.17970593809277, 45.651373497088102 ], [ 3.17884247241427, 45.651455645377098 ], [ 3.17883686033467, 45.6513479564005 ], [ 3.17820917992791, 45.651325268920303 ], [ 3.17797899828298, 45.651376150172503 ], [ 3.17769236235428, 45.651455863514599 ], [ 3.17692424996853, 45.651669479309803 ], [ 3.17685964681969, 45.651703799200398 ], [ 3.17677773920246, 45.651747331161701 ], [ 3.17669378111147, 45.651792126958803 ], [ 3.17670954881883, 45.651824429588899 ], [ 3.17642076776218, 45.6519817467697 ], [ 3.1763264336923, 45.6520343927615 ], [ 3.17626182745434, 45.652067991926501 ], [ 3.1762032604605, 45.652103022377801 ], [ 3.17599971449593, 45.6522138301277 ], [ 3.17593728176508, 45.652244634208301 ], [ 3.17568670191757, 45.6523837900762 ], [ 3.1754999496923, 45.652486826553599 ], [ 3.17537893783314, 45.652549328607002 ], [ 3.17536243822321, 45.6525290033671 ], [ 3.17535870037509, 45.652524506768501 ], [ 3.17524566326481, 45.652672632290198 ], [ 3.17518096774862, 45.652759629677597 ], [ 3.1749178128965, 45.653106004780703 ], [ 3.17523720869002, 45.653044095123001 ], [ 3.17547306454759, 45.653200592125003 ], [ 3.17558293142281, 45.653307848601301 ], [ 3.17563780255423, 45.653321540426901 ], [ 3.17567462208021, 45.653311487611901 ], [ 3.17586578473098, 45.653262202853597 ], [ 3.17599704346563, 45.653231831540701 ], [ 3.1761996303953, 45.653181627872897 ], [ 3.17640927729544, 45.653130872488603 ], [ 3.17646369107653, 45.653081620789003 ], [ 3.17651157526159, 45.653038322494801 ], [ 3.17669186631628, 45.652882165912402 ], [ 3.17674641432498, 45.652834894930699 ], [ 3.17679326483624, 45.652789707122999 ], [ 3.17688275345075, 45.652707172278497 ], [ 3.17703020458022, 45.652561242212101 ], [ 3.17728703266521, 45.652449448225802 ], [ 3.17743460206228, 45.652381049122901 ], [ 3.17794130682141, 45.652353054845697 ], [ 3.17820243005989, 45.652339945036999 ], [ 3.1784246499582, 45.652327436569699 ], [ 3.17882622362319, 45.652308519653403 ], [ 3.1788873523837, 45.652311754339301 ], [ 3.17962729086505, 45.652342183281 ], [ 3.17970186685645, 45.652334680309501 ], [ 3.17996783100944, 45.652309942433902 ], [ 3.18016102046813, 45.6522938750009 ], [ 3.18071707675495, 45.652241296080398 ], [ 3.18084160279215, 45.652195351544698 ] ] ], [ [ [ 3.18144401645174, 45.653202924665997 ], [ 3.1813739836653, 45.652912091046097 ], [ 3.18135551811021, 45.652841072585602 ], [ 3.18132105858633, 45.652708756906101 ], [ 3.18130974537871, 45.652665281737598 ], [ 3.18124127195805, 45.652418929458001 ], [ 3.18115386691766, 45.652312002552797 ], [ 3.1810174822896, 45.652304657837597 ], [ 3.1807397049891, 45.652289795854301 ], [ 3.18063212915568, 45.652296902218097 ], [ 3.1803674481807, 45.652321279414203 ], [ 3.18016180952844, 45.652339078042203 ], [ 3.1799723452467, 45.652355679812501 ], [ 3.17962896747833, 45.652384053118297 ], [ 3.17922150948782, 45.652370204641997 ], [ 3.17917785401824, 45.652370364171603 ], [ 3.17903133702793, 45.652366455014402 ], [ 3.17883948696971, 45.652360096326397 ], [ 3.17797665086452, 45.652403606188301 ], [ 3.17745941257771, 45.652430266500403 ], [ 3.1770827036906, 45.6525961884861 ], [ 3.17701344835486, 45.652661672532197 ], [ 3.17686890899353, 45.652794721080802 ], [ 3.1768436854525, 45.6528170927064 ], [ 3.17672089637419, 45.652925973927601 ], [ 3.17653818659662, 45.653088707883398 ], [ 3.17645086159533, 45.653165566014401 ], [ 3.17559011294205, 45.653385999422198 ], [ 3.17541816643882, 45.653218867446597 ], [ 3.17522323047856, 45.653090221661998 ], [ 3.17495131323284, 45.653142692482 ], [ 3.17444747783278, 45.653391377491602 ], [ 3.1740417468038, 45.653888082061599 ], [ 3.17394457161111, 45.653937308609798 ], [ 3.17390341789187, 45.653957633071499 ], [ 3.17382799691797, 45.654146851197602 ], [ 3.17380426841397, 45.654482498264301 ], [ 3.17364207739486, 45.6548869758441 ], [ 3.17366069368703, 45.654927108727698 ], [ 3.17373619272358, 45.654966883708298 ], [ 3.1738321606275, 45.655023285997501 ], [ 3.17394008657031, 45.655084802493199 ], [ 3.17410332377061, 45.6551769398869 ], [ 3.17419877453955, 45.655231991938997 ], [ 3.17425955221031, 45.6552451350124 ], [ 3.1745550988817, 45.655190017837299 ], [ 3.1745996318624, 45.655182384723702 ], [ 3.17495674677062, 45.654903130533299 ], [ 3.17561670686897, 45.654564781751198 ], [ 3.17634258615949, 45.654243975367997 ], [ 3.1770674367267, 45.6539253270806 ], [ 3.17723899094399, 45.653887416924903 ], [ 3.17752501261355, 45.653828254758999 ], [ 3.17785632303996, 45.653757584187197 ], [ 3.17794682127649, 45.653709535439802 ], [ 3.17818907935783, 45.653577861715597 ], [ 3.17842863230562, 45.653443850497702 ], [ 3.17857823147404, 45.653407233767197 ], [ 3.17891590807312, 45.653321061648803 ], [ 3.17917368301732, 45.653343253894299 ], [ 3.17931367919871, 45.653354917419797 ], [ 3.17935028939762, 45.653359721724399 ], [ 3.17949222131396, 45.653374353542603 ], [ 3.17956286089435, 45.6533800040093 ], [ 3.17963106027361, 45.653385478228003 ], [ 3.17977014644561, 45.653393630749697 ], [ 3.1799844766318, 45.6534018429425 ], [ 3.18030348153718, 45.653418261658302 ], [ 3.18052205297138, 45.653427636665803 ], [ 3.18078685705227, 45.653439368332897 ], [ 3.18112639197417, 45.6534512493308 ], [ 3.18143425878169, 45.653242381599902 ], [ 3.18144401645174, 45.653202924665997 ] ] ], [ [ [ 3.18288633327974, 45.653818413432397 ], [ 3.18274140047813, 45.653167418504403 ], [ 3.18264090842821, 45.6530647462559 ], [ 3.1825259998994, 45.653029093319397 ], [ 3.18236722354844, 45.653046189656003 ], [ 3.18209985488529, 45.653074087163397 ], [ 3.18150350579249, 45.653136553143597 ], [ 3.18151186954841, 45.653259455760299 ], [ 3.18115480651159, 45.653501990930003 ], [ 3.18087229259285, 45.653493350224601 ], [ 3.17998747502813, 45.653455236863998 ], [ 3.17959245206522, 45.653437677852096 ], [ 3.1795561012251, 45.653433683648203 ], [ 3.17922239279136, 45.653396935277598 ], [ 3.17892298868331, 45.653366524848799 ], [ 3.17872040529002, 45.653417273705202 ], [ 3.17846638810531, 45.6534853930292 ], [ 3.17802930483609, 45.653724713282699 ], [ 3.17789047640847, 45.653796971440798 ], [ 3.17710122861967, 45.6539722792091 ], [ 3.17699108728253, 45.654021528784497 ], [ 3.17645255592475, 45.654261452575199 ], [ 3.17582618307462, 45.654539331327904 ], [ 3.17565449160127, 45.6546158703148 ], [ 3.17499974565674, 45.6549383626934 ], [ 3.17491355873705, 45.655011255736902 ], [ 3.1746565102219, 45.655221287478099 ], [ 3.17458706894047, 45.655270471560698 ], [ 3.17450174490044, 45.655332286995502 ], [ 3.17444588689293, 45.655372715242201 ], [ 3.17441847034934, 45.655392568367702 ], [ 3.17436605367403, 45.655424886886003 ], [ 3.17426547455907, 45.655494920170803 ], [ 3.17399793491813, 45.655677772021903 ], [ 3.17395654800476, 45.655706021125802 ], [ 3.17374802755619, 45.655833131261403 ], [ 3.17348337842456, 45.655996977211899 ], [ 3.17328190527309, 45.6561199333986 ], [ 3.17318770450412, 45.656177349125102 ], [ 3.17312125130195, 45.656197352017799 ], [ 3.17304619695096, 45.656218088477502 ], [ 3.17295588023916, 45.656244701478997 ], [ 3.17289711647169, 45.656259919861498 ], [ 3.17260923285341, 45.656345277202703 ], [ 3.17256112118317, 45.656358678111502 ], [ 3.1724584809871, 45.656386660325303 ], [ 3.17235186254011, 45.656415458970599 ], [ 3.17222818802219, 45.6564514874783 ], [ 3.17205498976884, 45.656501188845901 ], [ 3.1719555304181, 45.656561222979903 ], [ 3.17169171552736, 45.656707053756698 ], [ 3.17125561389492, 45.656658641478799 ], [ 3.17076454862874, 45.656608599961501 ], [ 3.17057402272805, 45.656619694552397 ], [ 3.17051338249008, 45.656693085813501 ], [ 3.17049954266746, 45.656910843859897 ], [ 3.17049672343679, 45.656954431566398 ], [ 3.17048418778108, 45.657220453597603 ], [ 3.17051976109628, 45.657263262783999 ], [ 3.17078655449699, 45.657290233170201 ], [ 3.17101249266605, 45.657310511348101 ], [ 3.17105372421029, 45.657314230754999 ], [ 3.17119025967945, 45.657325279315501 ], [ 3.17161016244857, 45.657365882332499 ], [ 3.17190778780828, 45.657396765201803 ], [ 3.17202930431978, 45.657409366496999 ], [ 3.17230921109945, 45.657440815664998 ], [ 3.1725254032593, 45.657464977805198 ], [ 3.17299298886188, 45.657518379527602 ], [ 3.17305169391299, 45.657525042955697 ], [ 3.17318405817785, 45.657105393847701 ], [ 3.17368112121856, 45.656895715891899 ], [ 3.17368763029295, 45.656883009022799 ], [ 3.17374069503113, 45.656852040545601 ], [ 3.17379002452569, 45.6568174758712 ], [ 3.17388109925395, 45.656745836813499 ], [ 3.17405930921284, 45.656615891734901 ], [ 3.17435894434556, 45.656470270086203 ], [ 3.17456678107178, 45.656370354499998 ], [ 3.17488424437115, 45.656219030760397 ], [ 3.17498681331276, 45.656168984578699 ], [ 3.17503834143643, 45.656139818846299 ], [ 3.1751365638738, 45.656095992626398 ], [ 3.17522836718801, 45.656052626552601 ], [ 3.17527207958804, 45.656028965829897 ], [ 3.17556439898752, 45.655805460466802 ], [ 3.17601504637545, 45.655462032596503 ], [ 3.17641354801179, 45.655317871755798 ], [ 3.17670496119376, 45.655215389937702 ], [ 3.17696395077795, 45.655173200725898 ], [ 3.17749708379902, 45.655089787159199 ], [ 3.17763403105579, 45.655070390879501 ], [ 3.1786433057416, 45.654911749663299 ], [ 3.17896157593759, 45.654896926556297 ], [ 3.17909818387898, 45.654892026831298 ], [ 3.17928029123535, 45.654900651817599 ], [ 3.17947780931344, 45.654909882285303 ], [ 3.17983561546263, 45.6549306528606 ], [ 3.18022617020846, 45.654952900709397 ], [ 3.18066372220704, 45.654975251903203 ], [ 3.18108678741151, 45.655043819545298 ], [ 3.18123419006623, 45.655394591202899 ], [ 3.18128419242328, 45.655449710404199 ], [ 3.18161719045863, 45.655461420371502 ], [ 3.18187211246604, 45.655471724668203 ], [ 3.18212651857295, 45.655481308834901 ], [ 3.18232942604391, 45.655488634570098 ], [ 3.18280567566633, 45.655406998874597 ], [ 3.18283706266873, 45.6553849760923 ], [ 3.18283978669295, 45.655237742462702 ], [ 3.18269026450292, 45.654364245148798 ], [ 3.18266613869365, 45.654290714718499 ], [ 3.18287673704877, 45.653867595463403 ], [ 3.18288633327974, 45.653818413432397 ] ] ], [ [ [ 3.17439068517959, 45.655336151043301 ], [ 3.17416856901498, 45.655263285467598 ], [ 3.17361890528915, 45.654950045468802 ], [ 3.17332783794624, 45.655287455082799 ], [ 3.17305542862583, 45.655597370505703 ], [ 3.17299115336204, 45.655615569006002 ], [ 3.17258458484826, 45.6557293837676 ], [ 3.17213234502496, 45.655857224392697 ], [ 3.17187598060113, 45.6559613517895 ], [ 3.17179274488748, 45.6559939862926 ], [ 3.17164499894411, 45.656052202794001 ], [ 3.17151636679413, 45.656104356744002 ], [ 3.17145493046884, 45.656127412656701 ], [ 3.17137451812115, 45.656159682357497 ], [ 3.17128871532138, 45.656192860685202 ], [ 3.17121266699223, 45.6562245833411 ], [ 3.1711879089737, 45.656232635293399 ], [ 3.17115545368658, 45.656243040199499 ], [ 3.17108563768391, 45.656255482933901 ], [ 3.17103083708458, 45.656265201366097 ], [ 3.17088120158441, 45.6562941539975 ], [ 3.17072271240483, 45.656325281016102 ], [ 3.17063287779012, 45.656342076143801 ], [ 3.17077018013332, 45.656560955805098 ], [ 3.17099240341406, 45.656585111733598 ], [ 3.17121281774497, 45.656605577989097 ], [ 3.17140446830076, 45.656625997553697 ], [ 3.17147678861014, 45.656634261946003 ], [ 3.1715578488595, 45.656645124380397 ], [ 3.17163787377212, 45.656653376930301 ], [ 3.17165569809366, 45.6566454254978 ], [ 3.17170263891276, 45.656626984049701 ], [ 3.17172904401067, 45.656611725598196 ], [ 3.17180546550973, 45.656576039892698 ], [ 3.171884567287, 45.656535127235301 ], [ 3.17194380303859, 45.656506311348899 ], [ 3.1720214884804, 45.6564642301284 ], [ 3.17206638343777, 45.656448673203698 ], [ 3.17224111905943, 45.656397888885699 ], [ 3.17233426331553, 45.656371902469502 ], [ 3.17260522453332, 45.6562952164224 ], [ 3.17305322064992, 45.656164588918202 ], [ 3.17314340962091, 45.656138246180198 ], [ 3.17339743981757, 45.655986303774597 ], [ 3.17381215960387, 45.655728396013998 ], [ 3.17395032730756, 45.655646958969903 ], [ 3.17439068517959, 45.655336151043301 ] ] ], [ [ [ 3.18282176632221, 45.655457940169903 ], [ 3.18232842337814, 45.655535101190999 ], [ 3.1822717889432, 45.6555330317209 ], [ 3.18127780376585, 45.655498616993398 ], [ 3.18112118077041, 45.655508954464601 ], [ 3.18116319787877, 45.655399748159503 ], [ 3.18105170260478, 45.655113213262503 ], [ 3.18100589011587, 45.6550826704485 ], [ 3.18092969853162, 45.655068385154003 ], [ 3.18068920552057, 45.655032661914497 ], [ 3.18065245629337, 45.655024976715602 ], [ 3.18045879065212, 45.655016012278601 ], [ 3.17967666571836, 45.654975390541701 ], [ 3.17950162034687, 45.654966754938002 ], [ 3.17931450143293, 45.654957057709098 ], [ 3.17909565308516, 45.6549432684142 ], [ 3.17884942268469, 45.654959418270202 ], [ 3.17865607422299, 45.6549690002063 ], [ 3.17778205429388, 45.6551013140176 ], [ 3.17738123704245, 45.655162368654899 ], [ 3.17709040604921, 45.655205509394897 ], [ 3.17699247726313, 45.655219710926197 ], [ 3.17671486372629, 45.6552603986107 ], [ 3.17605919057583, 45.655493660627897 ], [ 3.17562097901126, 45.655830855938703 ], [ 3.17560548341657, 45.655844027176798 ], [ 3.17549635688375, 45.655931454241603 ], [ 3.17536723404159, 45.656030168399298 ], [ 3.17533111314116, 45.656058679953702 ], [ 3.1742826918555, 45.656559085840101 ], [ 3.1742598693378, 45.656570017022503 ], [ 3.17410690893993, 45.6566439132555 ], [ 3.17393510194189, 45.656768265516497 ], [ 3.1737230859334, 45.656928518834 ], [ 3.1732370730924, 45.6571404311862 ], [ 3.17311931879286, 45.657509630773099 ], [ 3.17314163389366, 45.657541563657702 ], [ 3.17488255553899, 45.6578391848564 ], [ 3.17493825590377, 45.657829463151899 ], [ 3.1754863463264, 45.657391785321103 ], [ 3.17547235809274, 45.657353986775099 ], [ 3.17509908670508, 45.657116930008499 ], [ 3.17512174698261, 45.657095283143803 ], [ 3.17514302890857, 45.657084444231003 ], [ 3.1755806133353, 45.656788403877997 ], [ 3.17571309449541, 45.656695447330797 ], [ 3.17622176123179, 45.6565449919092 ], [ 3.17642200941443, 45.656482454870201 ], [ 3.17658902887073, 45.656429244580501 ], [ 3.17660800377942, 45.656419939831999 ], [ 3.17753496222224, 45.656090615769699 ], [ 3.17762265950908, 45.656048785038102 ], [ 3.17786599461419, 45.655929176791801 ], [ 3.17820563415279, 45.655769524186702 ], [ 3.17867654500225, 45.655542936435403 ], [ 3.17887975327106, 45.655563955271703 ], [ 3.17914590605605, 45.655592617779199 ], [ 3.17916688451506, 45.655647153753101 ], [ 3.17944184542535, 45.656491730472197 ], [ 3.1796973030624, 45.656467910486299 ], [ 3.17984146402646, 45.656454713354002 ], [ 3.17999705476273, 45.656441948008897 ], [ 3.18004327370938, 45.656439352759797 ], [ 3.18011156723614, 45.656433120246497 ], [ 3.18024134535902, 45.656419675461997 ], [ 3.18042646901451, 45.656406592100197 ], [ 3.18053885506296, 45.656415146660599 ], [ 3.18062761629694, 45.656424459396597 ], [ 3.18071495624856, 45.6564310728902 ], [ 3.18223050600205, 45.656567034823603 ], [ 3.18244824781333, 45.656476633772499 ], [ 3.18249153970508, 45.6563651736829 ], [ 3.18268698284879, 45.655860495390598 ], [ 3.18282176632221, 45.655457940169903 ] ] ] ] } },
{ "type": "Feature", "properties": { "Name": null, "id": "" }, "geometry": { "type": "MultiPolygon", "coordinates": [ [ [ [ 3.17108411371342, 45.657424674009697 ], [ 3.17103041472332, 45.657375679190899 ], [ 3.17043493394186, 45.657322102785201 ], [ 3.17043049575287, 45.656839720084797 ], [ 3.16971204496519, 45.656799382946701 ], [ 3.1694037832287, 45.6566482055945 ], [ 3.16864215744566, 45.658368013091199 ], [ 3.16871922980827, 45.658418054613797 ], [ 3.17017637542847, 45.658470431247601 ], [ 3.17036387960315, 45.658476811305903 ], [ 3.17092440476791, 45.658559256676398 ], [ 3.17098323458638, 45.658522877841797 ], [ 3.17094467367452, 45.658261435725997 ], [ 3.17097897433827, 45.657974939576597 ], [ 3.17098289422503, 45.657955213017502 ], [ 3.17100955676413, 45.657815147214599 ], [ 3.17105532947821, 45.657584463655802 ], [ 3.17108411371342, 45.657424674009697 ] ] ], [ [ [ 3.17303693111991, 45.657649782726899 ], [ 3.17297816840817, 45.657583597363001 ], [ 3.17231850090769, 45.657496271284003 ], [ 3.17220405403567, 45.6574860007482 ], [ 3.17192994627765, 45.657461206048303 ], [ 3.17161293467572, 45.657431703510802 ], [ 3.1713162165276, 45.657403519934697 ], [ 3.1712254021075, 45.657394653222298 ], [ 3.17114720584258, 45.657438265493603 ], [ 3.17105734698149, 45.657863430634599 ], [ 3.17104721115148, 45.657907839909299 ], [ 3.17103736161354, 45.6579617938825 ], [ 3.17103306763439, 45.6579851229491 ], [ 3.17102329121621, 45.658062759548699 ], [ 3.17101264189385, 45.658231976732601 ], [ 3.17101032441521, 45.658271601564103 ], [ 3.17105056030644, 45.6585347520342 ], [ 3.17111583297993, 45.6585886819271 ], [ 3.17145692985014, 45.6586393105895 ], [ 3.17171233863857, 45.658678272572899 ], [ 3.17266382638892, 45.6588224259566 ], [ 3.17276760818048, 45.658788498607798 ], [ 3.17287986116634, 45.658547626834 ], [ 3.17288630342185, 45.658513398534801 ], [ 3.17303693111991, 45.657649782726899 ] ] ], [ [ [ 3.17795137982493, 45.670112039113803 ], [ 3.17794892143388, 45.670066478436297 ], [ 3.17791809130156, 45.669985213310703 ], [ 3.17754522751171, 45.670305564072102 ], [ 3.17772466176322, 45.670306001461498 ], [ 3.17775470450137, 45.670302081963598 ], [ 3.17778358172422, 45.670295192695598 ], [ 3.17781090868347, 45.670285514362803 ], [ 3.1778360437502, 45.670273228076702 ], [ 3.17785027233114, 45.670264380852302 ], [ 3.17792343404244, 45.670208885446499 ], [ 3.17794519218019, 45.670145006656199 ], [ 3.17795137982493, 45.670112039113803 ] ] ], [ [ [ 3.17996062443213, 45.668425479195797 ], [ 3.17958623088313, 45.668346563953797 ], [ 3.17916209921749, 45.668257100876701 ], [ 3.17863772031849, 45.668146543802997 ], [ 3.17857795928871, 45.668134752170701 ], [ 3.17856463477922, 45.668144948781098 ], [ 3.1783533693742, 45.6683083614273 ], [ 3.1783576167643, 45.668311146205497 ], [ 3.17839519937168, 45.668335669930102 ], [ 3.17880436397848, 45.668603005507997 ], [ 3.17904505129837, 45.668760388165303 ], [ 3.17876533822564, 45.6689669535833 ], [ 3.17849151787086, 45.669169366735503 ], [ 3.17867527791623, 45.669277583847098 ], [ 3.17929034216259, 45.668911099392297 ], [ 3.17935710181251, 45.668862727081802 ], [ 3.17996062443213, 45.668425479195797 ] ] ], [ [ [ 3.18062576179363, 45.669043408075098 ], [ 3.18036173799248, 45.668899843583603 ], [ 3.18021698975106, 45.668821462920398 ], [ 3.17982211557438, 45.668606697984998 ], [ 3.17935108201223, 45.668947202195 ], [ 3.17925712229555, 45.6690045326025 ], [ 3.17969690850596, 45.669285413554498 ], [ 3.17971582784825, 45.6692973598227 ], [ 3.17993424201681, 45.6694366763791 ], [ 3.17998006198712, 45.669466049040302 ], [ 3.18016744497503, 45.669344454056898 ], [ 3.18053859782541, 45.669096856567798 ], [ 3.18062576179363, 45.669043408075098 ] ] ], [ [ [ 3.17790476618061, 45.669955428292802 ], [ 3.17763021903294, 45.669453480836999 ], [ 3.17760050272874, 45.669398868239398 ], [ 3.17739502079792, 45.668804241421199 ], [ 3.17598432100513, 45.669955653910897 ], [ 3.17620944744237, 45.6700672322497 ], [ 3.17642313656297, 45.670136325147404 ], [ 3.17676880839588, 45.670228262999203 ], [ 3.17685658950785, 45.670245684658902 ], [ 3.17695528612867, 45.6702624587613 ], [ 3.17705525742574, 45.670276169123099 ], [ 3.1771647264802, 45.670287703291798 ], [ 3.1773151630319, 45.670297551991297 ], [ 3.17749770380056, 45.6703054588803 ], [ 3.17790476618061, 45.669955428292802 ] ] ], [ [ [ 3.17127700196152, 45.6587161255853 ], [ 3.17123585910107, 45.658658377059098 ], [ 3.17035774553567, 45.658528238243399 ], [ 3.16959012747191, 45.6585000411525 ], [ 3.16871655452427, 45.658467225066197 ], [ 3.16863595906441, 45.658525336984603 ], [ 3.16860222476131, 45.658748887710999 ], [ 3.16852576119311, 45.659236524403902 ], [ 3.1685209751429, 45.659267328132302 ], [ 3.16883350096145, 45.6593810414087 ], [ 3.16935024176938, 45.659505072601398 ], [ 3.1695162599466, 45.6596229663594 ], [ 3.16955700159096, 45.659675853505 ], [ 3.16967737893574, 45.659818128822501 ], [ 3.16972363873313, 45.659995364497703 ], [ 3.1697462568684, 45.660084568415698 ], [ 3.16979972727424, 45.660267916489303 ], [ 3.16983183978759, 45.660521714641803 ], [ 3.16984017981287, 45.660561233333297 ], [ 3.16984902109339, 45.660596699087897 ], [ 3.16985968151513, 45.660639095828699 ], [ 3.16988341915487, 45.660716321591799 ], [ 3.17005964592912, 45.660936944452203 ], [ 3.17029588064133, 45.661126949884597 ], [ 3.17046359074026, 45.661208189991598 ], [ 3.17106533459705, 45.661404933862897 ], [ 3.17051191881986, 45.661096726883599 ], [ 3.17036359158013, 45.660887408625001 ], [ 3.17017168949579, 45.660622686187203 ], [ 3.17022001353158, 45.660551654970803 ], [ 3.17038226698823, 45.660320885556203 ], [ 3.17050284224638, 45.660150961727197 ], [ 3.17056576062435, 45.660065500513497 ], [ 3.17077559723433, 45.659774686187298 ], [ 3.171030297263, 45.659416357057303 ], [ 3.17114144335886, 45.659105340961197 ], [ 3.17127700196152, 45.6587161255853 ] ] ], [ [ [ 3.17352568676106, 45.663515417616502 ], [ 3.17351744482701, 45.6632213319781 ], [ 3.1734330807059, 45.663060905498099 ], [ 3.17334438745145, 45.662953254029098 ], [ 3.17319464764693, 45.662748984332303 ], [ 3.17314573751077, 45.662673058630702 ], [ 3.17298191150712, 45.662399022749 ], [ 3.17293391476874, 45.6622452936763 ], [ 3.17288148334827, 45.662069599567097 ], [ 3.17284188348101, 45.661931526002498 ], [ 3.17273172616594, 45.661693786973103 ], [ 3.17260257297744, 45.661417896410597 ], [ 3.17257023579651, 45.661343475891002 ], [ 3.17248544944132, 45.6612106042109 ], [ 3.17221081005927, 45.660773118882197 ], [ 3.1722310413363, 45.660423880025398 ], [ 3.17229995764519, 45.660203245933097 ], [ 3.17243742054073, 45.659891197725699 ], [ 3.17244758934112, 45.659568988796302 ], [ 3.17262612971716, 45.659087946570097 ], [ 3.17268307033289, 45.658940089764997 ], [ 3.17264408277345, 45.6588739639392 ], [ 3.17142575215048, 45.658689515038901 ], [ 3.17133802760959, 45.658725397784103 ], [ 3.17126626803197, 45.6589408127723 ], [ 3.17109236627053, 45.659430580470698 ], [ 3.17088459590552, 45.659724183749702 ], [ 3.17064703981382, 45.660062495821201 ], [ 3.1702551490388, 45.660618507854103 ], [ 3.1705671450414, 45.661056841829897 ], [ 3.17056985350129, 45.661060619762601 ], [ 3.17124044495785, 45.661428440512502 ], [ 3.1714119267127, 45.661524261327997 ], [ 3.17163999628424, 45.661605047603203 ], [ 3.17171968477451, 45.6616681401363 ], [ 3.17187982220448, 45.661790902032799 ], [ 3.17195016326561, 45.661903985569701 ], [ 3.17211771673536, 45.662181168930502 ], [ 3.17218105088396, 45.662270760387102 ], [ 3.17229842628447, 45.662434829271803 ], [ 3.17256270180096, 45.662799391077797 ], [ 3.17267433985848, 45.662893770852797 ], [ 3.17277670142431, 45.662978439515904 ], [ 3.17299009026154, 45.663125971523101 ], [ 3.17312251307299, 45.663213475244198 ], [ 3.17352568676106, 45.663515417616502 ] ] ], [ [ [ 3.17368145174083, 45.663715175174701 ], [ 3.17344322249832, 45.663551654094803 ], [ 3.17308297207189, 45.663259010505499 ], [ 3.17303651033222, 45.663226934598597 ], [ 3.17271529704175, 45.6630140128078 ], [ 3.17249485918682, 45.662829481157502 ], [ 3.17232481832896, 45.662579586830503 ], [ 3.17217027062017, 45.662355692576 ], [ 3.17207144200116, 45.662208794479099 ], [ 3.17200448039605, 45.662108942977099 ], [ 3.17184254037702, 45.6618609265876 ], [ 3.17181749809727, 45.661819542504702 ], [ 3.17159209195063, 45.661645462319399 ], [ 3.17111705209532, 45.661476353765202 ], [ 3.17056894695979, 45.661433331701701 ], [ 3.17024380952307, 45.661357732764003 ], [ 3.16997927959912, 45.661321392597401 ], [ 3.16954354700038, 45.6613629314676 ], [ 3.16968467453436, 45.662282563917202 ], [ 3.16970401188281, 45.662432375421602 ], [ 3.16975897370491, 45.662766372390003 ], [ 3.16981042123347, 45.663084886304198 ], [ 3.16988627937595, 45.663531952600401 ], [ 3.16996627734464, 45.663570102491498 ], [ 3.17052445254925, 45.663540173014702 ], [ 3.17157391632452, 45.663612688896499 ], [ 3.17189880777477, 45.663686933679202 ], [ 3.17225021743174, 45.6637809476344 ], [ 3.17246498157022, 45.663833477396999 ], [ 3.17281115854459, 45.663896250795801 ], [ 3.1730530284212, 45.663909836896501 ], [ 3.17368145174083, 45.663715175174701 ] ] ], [ [ [ 3.18315977865241, 45.674454926437001 ], [ 3.18314022780118, 45.674330511082204 ], [ 3.18303387954406, 45.674177871500298 ], [ 3.18302458708959, 45.674164559409803 ], [ 3.18292353337354, 45.6740590965805 ], [ 3.18267970676739, 45.673817081516198 ], [ 3.18248600251672, 45.673621629901 ], [ 3.18233013960789, 45.673449259191898 ], [ 3.18196890099881, 45.674023092619699 ], [ 3.18178354820614, 45.673866887483598 ], [ 3.18133142567849, 45.674500657769897 ], [ 3.18150125272243, 45.674583409034703 ], [ 3.18156183368663, 45.6746078946626 ], [ 3.18184967443641, 45.674719360709702 ], [ 3.18231062406425, 45.674777957596397 ], [ 3.18288041583964, 45.674849342930102 ], [ 3.18315336137223, 45.674883568147699 ], [ 3.18315528583408, 45.6748052227464 ], [ 3.18315467083796, 45.674658174402602 ], [ 3.18315977865241, 45.674454926437001 ] ] ], [ [ [ 3.18317625759578, 45.675475420303897 ], [ 3.18313526534337, 45.675237758675699 ], [ 3.18313234919477, 45.6749387120488 ], [ 3.18263669346858, 45.674873511204602 ], [ 3.18245460025112, 45.674850303631302 ], [ 3.18226801020219, 45.6748267428463 ], [ 3.18206741319458, 45.674801403422499 ], [ 3.1818261873209, 45.674764422918599 ], [ 3.18146491202372, 45.674625970518299 ], [ 3.18101407267739, 45.674398152645097 ], [ 3.18083210045682, 45.674607897935203 ], [ 3.18058951111066, 45.674939936060802 ], [ 3.1806689424263, 45.6749545766503 ], [ 3.18079915515047, 45.674982282777499 ], [ 3.18102425054178, 45.675035860346398 ], [ 3.18132427222379, 45.675101023191701 ], [ 3.18114470191029, 45.675534806015399 ], [ 3.18133161256076, 45.6755380171684 ], [ 3.18151843405312, 45.675553204617302 ], [ 3.18174597527998, 45.6755683260618 ], [ 3.18212756393365, 45.675592923319201 ], [ 3.18232245050051, 45.675599631826898 ], [ 3.182559231562, 45.675611945166501 ], [ 3.18304712273804, 45.675502464712601 ], [ 3.18317625759578, 45.675475420303897 ] ] ], [ [ [ 3.18467940172277, 45.6747765299965 ], [ 3.18444098667167, 45.674696957497702 ], [ 3.18431446069598, 45.674658083521301 ], [ 3.18406295158555, 45.674580602768003 ], [ 3.18366278968293, 45.674531188955299 ], [ 3.18328485133789, 45.674482007707802 ], [ 3.1832786367167, 45.674622403567 ], [ 3.18327460325521, 45.674684453606801 ], [ 3.18324964917292, 45.675062067941099 ], [ 3.18342764071543, 45.675087622173997 ], [ 3.1837110333204, 45.675134165687403 ], [ 3.18370326797065, 45.675155339771401 ], [ 3.18325152858414, 45.675086558100098 ], [ 3.18324340607861, 45.6751939092347 ], [ 3.1832580957201, 45.675401807535202 ], [ 3.1833016908188, 45.675494306553503 ], [ 3.18336430249633, 45.675588395475302 ], [ 3.18350231453227, 45.675759263053699 ], [ 3.18359326346076, 45.675837727275997 ], [ 3.18371997782283, 45.675932702038601 ], [ 3.18384534602122, 45.675970317900003 ], [ 3.18397747187773, 45.6759927043719 ], [ 3.1841586484431, 45.676009337443404 ], [ 3.18424895402626, 45.675816936005099 ], [ 3.18437472452967, 45.675551086844202 ], [ 3.18450562531901, 45.675283248073903 ], [ 3.18454559732659, 45.6751745839859 ], [ 3.18456362136285, 45.6751097194661 ], [ 3.18467940172277, 45.6747765299965 ] ] ], [ [ [ 3.18413017665709, 45.676100152977703 ], [ 3.18395774067958, 45.676085306557397 ], [ 3.1839103293788, 45.676081872081497 ], [ 3.18386380709422, 45.676075374482103 ], [ 3.18381817443131, 45.676065993856596 ], [ 3.18377407336887, 45.676053639110002 ], [ 3.18373150480966, 45.6760385803886 ], [ 3.18370976556978, 45.676029430889102 ], [ 3.18368647413, 45.676017042167103 ], [ 3.18352915804384, 45.675913202419601 ], [ 3.18347077980077, 45.6758563868095 ], [ 3.18317636514644, 45.675546738614898 ], [ 3.18268353911742, 45.675640018885701 ], [ 3.18262398701209, 45.675655333666398 ], [ 3.18250878014065, 45.675660292969397 ], [ 3.1824264460214, 45.675661777073501 ], [ 3.18232920211828, 45.675660493746399 ], [ 3.18207897181173, 45.6756599079811 ], [ 3.181311004621, 45.675599553528301 ], [ 3.18120939845667, 45.675599807082399 ], [ 3.18093074996906, 45.675589989476499 ], [ 3.18055747952251, 45.675949432060698 ], [ 3.18056168042742, 45.6760165115261 ], [ 3.18080003581503, 45.676195776131102 ], [ 3.18102240513841, 45.676356966161201 ], [ 3.1811835505112, 45.676454409798097 ], [ 3.18149661722204, 45.676577992759597 ], [ 3.18170216421261, 45.6766614966226 ], [ 3.18203633348691, 45.676795219539002 ], [ 3.18206000047893, 45.676804636391999 ], [ 3.18267055216756, 45.676998423044303 ], [ 3.18299434820987, 45.677062732477097 ], [ 3.18306967378801, 45.677077738246403 ], [ 3.18356379897508, 45.677178869117398 ], [ 3.18364353450892, 45.677129122369102 ], [ 3.1837402164553, 45.676844231015103 ], [ 3.18376877207432, 45.676778358902297 ], [ 3.18386539253105, 45.676591350377699 ], [ 3.1839424730234, 45.676438772248297 ], [ 3.1839789843189, 45.676370455779399 ], [ 3.18402366693602, 45.676287177881697 ], [ 3.18410858917571, 45.676136657947097 ], [ 3.18413017665709, 45.676100152977703 ] ] ], [ [ [ 3.18530290676076, 45.672665847699399 ], [ 3.18504489747552, 45.672678068240899 ], [ 3.18478431193418, 45.672688131252002 ], [ 3.18463653890279, 45.672708994712799 ], [ 3.18447970097485, 45.672746351716903 ], [ 3.18431633904147, 45.672791823550398 ], [ 3.1838338008362, 45.672958121436899 ], [ 3.1841650520225, 45.672992068908798 ], [ 3.18440412628962, 45.673001943288902 ], [ 3.18464937001021, 45.673012977679299 ], [ 3.1848692757142, 45.673052328380898 ], [ 3.18512310718607, 45.673096215377001 ], [ 3.18530290676076, 45.672665847699399 ] ] ], [ [ [ 3.1809327062327, 45.672769484773802 ], [ 3.1807518394632, 45.672647489215798 ], [ 3.18044713512338, 45.672441856621703 ], [ 3.18025134821181, 45.672352391700201 ], [ 3.18010509955858, 45.6722893215141 ], [ 3.17955886607013, 45.672106134386198 ], [ 3.17949844812495, 45.672091192579103 ], [ 3.17925616068888, 45.672039530377504 ], [ 3.17889838042014, 45.672458374779602 ], [ 3.17906065507486, 45.672591929079204 ], [ 3.17917983555159, 45.672665669416702 ], [ 3.17926375229961, 45.672717944152403 ], [ 3.17941496556834, 45.672806761414698 ], [ 3.1795266660578, 45.672831346786097 ], [ 3.1791252490568, 45.673341570720801 ], [ 3.17940488735903, 45.673501862354598 ], [ 3.1794546809282, 45.673527717020498 ], [ 3.18011370830532, 45.673869299922899 ], [ 3.18061988265116, 45.673185831143797 ], [ 3.1809327062327, 45.672769484773802 ] ] ], [ [ [ 3.18510112625223, 45.6731297495745 ], [ 3.18465307556607, 45.673045659238902 ], [ 3.18450803732976, 45.673039503472801 ], [ 3.18440590469185, 45.673034537962799 ], [ 3.18417237628158, 45.673031498210101 ], [ 3.18404338924423, 45.673023874821602 ], [ 3.18390090960598, 45.673014562393 ], [ 3.18386018258349, 45.673011837375803 ], [ 3.18374609460651, 45.6730039191796 ], [ 3.1836250666345, 45.672994841550597 ], [ 3.18345883397801, 45.672988448839099 ], [ 3.18322871813432, 45.672929751552203 ], [ 3.18298289446263, 45.672859643147099 ], [ 3.18288288371295, 45.672835852657897 ], [ 3.18273361583865, 45.672793321852303 ], [ 3.18263005574993, 45.672783764571797 ], [ 3.1825197477038, 45.672792317894199 ], [ 3.18246316120118, 45.672810149145498 ], [ 3.18240469810587, 45.672843201616203 ], [ 3.18236557672415, 45.672898914982298 ], [ 3.18235530393438, 45.672938823132299 ], [ 3.18236642574851, 45.673195623658103 ], [ 3.18241228049537, 45.673351153343702 ], [ 3.18241776522115, 45.6733784291796 ], [ 3.18249444184221, 45.673493116907302 ], [ 3.18262920723172, 45.673616715271002 ], [ 3.18283935195803, 45.6738116897114 ], [ 3.18320887833001, 45.674192715154 ], [ 3.18326458546079, 45.6742969007908 ], [ 3.18328822731481, 45.674415366260497 ], [ 3.18328822791114, 45.674415546356698 ], [ 3.18328855130189, 45.674435626665201 ], [ 3.1833778619603, 45.674446827420802 ], [ 3.18364733555919, 45.674480426749902 ], [ 3.18395575337123, 45.674520985629002 ], [ 3.18408516666925, 45.674539864501497 ], [ 3.18444212566334, 45.674653282066103 ], [ 3.18469442226542, 45.674735533258598 ], [ 3.18482263030593, 45.674431679110697 ], [ 3.18491634200403, 45.6742221623322 ], [ 3.18495675671318, 45.674054245407099 ], [ 3.18502331537852, 45.673791644462199 ], [ 3.18502609146661, 45.673546167458802 ], [ 3.18453501251058, 45.673502218939099 ], [ 3.18438442612001, 45.673488958263398 ], [ 3.18412719482119, 45.673465966427997 ], [ 3.18414404035051, 45.673432981108199 ], [ 3.18430952861693, 45.673446848061303 ], [ 3.18443570971788, 45.673460148802299 ], [ 3.18456342325128, 45.673470745433598 ], [ 3.18502507524618, 45.673511140228797 ], [ 3.18501956086445, 45.673436949254103 ], [ 3.18510112625223, 45.6731297495745 ] ] ], [ [ [ 3.18661488112021, 45.670003466679802 ], [ 3.18617486048052, 45.669779613784698 ], [ 3.18581185645431, 45.669693676584899 ], [ 3.18526773799628, 45.669564812982898 ], [ 3.18510443618156, 45.669932569652701 ], [ 3.18506177412251, 45.6700035079757 ], [ 3.18492013409112, 45.669974114642997 ], [ 3.18497116145319, 45.669908115306598 ], [ 3.18466211257984, 45.669863418064701 ], [ 3.18460770234812, 45.6698394642968 ], [ 3.18426348942671, 45.669687395668198 ], [ 3.18407092545367, 45.669600453498397 ], [ 3.18394509152464, 45.669457031641798 ], [ 3.18375976918977, 45.669229691425997 ], [ 3.18330384527644, 45.668813509608597 ], [ 3.18297205233661, 45.669035388454901 ], [ 3.18291156321731, 45.6690759185065 ], [ 3.18267921615208, 45.669231179112401 ], [ 3.18253555292363, 45.669327313743999 ], [ 3.18206469913986, 45.669641174678098 ], [ 3.18281169178097, 45.669909029741 ], [ 3.18324792091214, 45.670232945871099 ], [ 3.18341022101674, 45.670372977341401 ], [ 3.18358707523474, 45.670524871268 ], [ 3.18382537833559, 45.670731234072598 ], [ 3.18397344355371, 45.670799789415398 ], [ 3.18445024734464, 45.670807113947703 ], [ 3.18482129421712, 45.670761391353402 ], [ 3.185301307487, 45.670614814018798 ], [ 3.18561900036016, 45.670516318053799 ], [ 3.18597242245609, 45.670463056629302 ], [ 3.18631191859086, 45.670393878536203 ], [ 3.18661488112021, 45.670003466679802 ] ] ], [ [ [ 3.18091233655501, 45.671253009652503 ], [ 3.18048547554439, 45.671003629649903 ], [ 3.18030325280015, 45.670857592608797 ], [ 3.17983248847772, 45.670495179445098 ], [ 3.17941521650263, 45.6707837301323 ], [ 3.17967498829689, 45.670956776548799 ], [ 3.1794352115058, 45.671246277688198 ], [ 3.179032205042, 45.671619179729397 ], [ 3.1786964130258, 45.671925788022897 ], [ 3.17901886645368, 45.671982726951697 ], [ 3.1790739806279, 45.671986151232701 ], [ 3.17918150553496, 45.671991112995002 ], [ 3.17927373998725, 45.671994388070601 ], [ 3.17938986810522, 45.671998525503199 ], [ 3.17959847768801, 45.6720028755812 ], [ 3.17992093153393, 45.671664318658799 ], [ 3.18008297386612, 45.671607959439299 ], [ 3.18052719111875, 45.6717038704206 ], [ 3.18090575904683, 45.671362699360401 ], [ 3.18090357830214, 45.671324252128898 ], [ 3.18090442649684, 45.671308672366102 ], [ 3.1809057734561, 45.671288499325797 ], [ 3.18091233655501, 45.671253009652503 ] ] ], [ [ [ 3.1859719002881, 45.670575258003801 ], [ 3.18589520854947, 45.670533512027298 ], [ 3.18565090867967, 45.670570924941302 ], [ 3.18538131696457, 45.670650161490599 ], [ 3.18528828747161, 45.6706774191912 ], [ 3.18505320766794, 45.670745252053699 ], [ 3.18483289692154, 45.670812699994698 ], [ 3.18460348868454, 45.670848375272499 ], [ 3.18449090225059, 45.670865759024402 ], [ 3.18396244235624, 45.6708519455021 ], [ 3.18377273560016, 45.670814254704602 ], [ 3.18359614986791, 45.670821206286703 ], [ 3.18305817449115, 45.670842793117203 ], [ 3.1824687678796, 45.670887062899801 ], [ 3.18222948366666, 45.670966602986702 ], [ 3.18213225200224, 45.671005571189198 ], [ 3.18195461218335, 45.671082849824998 ], [ 3.18195001666574, 45.6711305829851 ], [ 3.18325574440576, 45.671859120118299 ], [ 3.18330927951602, 45.671851108728099 ], [ 3.18346687172549, 45.671615555228897 ], [ 3.18412910239151, 45.671761073633803 ], [ 3.18412527631909, 45.671769274308403 ], [ 3.18411099597907, 45.6718009947487 ], [ 3.18383631035098, 45.671741200930597 ], [ 3.18371767648728, 45.672065659398797 ], [ 3.1836980737577, 45.672119270271097 ], [ 3.18369387301844, 45.672130713290699 ], [ 3.18425923050436, 45.6722667537001 ], [ 3.18443238569844, 45.672308252835201 ], [ 3.18440921859416, 45.672371324769998 ], [ 3.18461891799314, 45.672432304322001 ], [ 3.18453796490748, 45.672653956481398 ], [ 3.18467197965833, 45.672628793376703 ], [ 3.18532448338153, 45.672588370422197 ], [ 3.18548634741433, 45.672134619343801 ], [ 3.18552799375845, 45.6720285635786 ], [ 3.18553894615468, 45.672000540430503 ], [ 3.18558756044586, 45.671865747670402 ], [ 3.18560180644449, 45.671824031706301 ], [ 3.18562969299483, 45.671751586696502 ], [ 3.1857314011404, 45.671515851958198 ], [ 3.18586825940709, 45.671190911045699 ], [ 3.1859719002881, 45.670575258003801 ] ] ], [ [ [ 3.18206868475834, 45.672141816676501 ], [ 3.18190366340669, 45.671877790771902 ], [ 3.18179260199099, 45.671695531695597 ], [ 3.18156274847252, 45.671323011366297 ], [ 3.18106244110499, 45.671317423312097 ], [ 3.18056602962152, 45.671758017395902 ], [ 3.18040332821631, 45.671730363060803 ], [ 3.18013586911289, 45.671679553506202 ], [ 3.18005400425076, 45.671665546782599 ], [ 3.17997269924256, 45.671705208045303 ], [ 3.17967125111345, 45.6720254517531 ], [ 3.17969652878699, 45.672096549789401 ], [ 3.17980286281434, 45.672130238349702 ], [ 3.18010709474943, 45.672231417098203 ], [ 3.1801641757762, 45.672247084305603 ], [ 3.18036575924353, 45.6723417629116 ], [ 3.18049233851465, 45.672399461367903 ], [ 3.18062197513944, 45.6724886717776 ], [ 3.18079871847198, 45.672606892120598 ], [ 3.18105076574498, 45.6727745178802 ], [ 3.18107727081507, 45.672788252703 ], [ 3.18126943873235, 45.672869977843902 ], [ 3.18145260264265, 45.672947664978402 ], [ 3.18184233657138, 45.672485627572797 ], [ 3.18206868475834, 45.672141816676501 ] ] ] ] } }
]
}
