{
"type": "FeatureCollection",
"name": "Côtes-dAuvergne-Madargues",
"crs": { "type": "name", "properties": { "name": "urn:ogc:def:crs:OGC:1.3:CRS84" } },
"features": [
{ "type": "Feature", "properties": { "Name": null, "id": "" }, "geometry": { "type": "MultiPolygon", "coordinates": [ [ [ [ 3.09679232210401, 45.910754117471399 ], [ 3.0967248646836, 45.910686548121802 ], [ 3.09642258853633, 45.910598107591603 ], [ 3.09630526662175, 45.910563898739802 ], [ 3.09619815792673, 45.910542287988299 ], [ 3.09589205584827, 45.910478252664902 ], [ 3.0956476419439, 45.910428662312697 ], [ 3.09546737298, 45.910918412821999 ], [ 3.09545042395666, 45.910964172186397 ], [ 3.095406386716, 45.911085775936897 ], [ 3.09574469479881, 45.911122500374297 ], [ 3.09564048661493, 45.911583461020399 ], [ 3.09595081779547, 45.911628042786603 ], [ 3.09646063928724, 45.911701179505897 ], [ 3.09658554378055, 45.911643981649298 ], [ 3.09663607751307, 45.911476446726603 ], [ 3.0966784029371, 45.911336383844201 ], [ 3.0966992376572, 45.9112265058465 ], [ 3.09679232210401, 45.910754117471399 ] ] ], [ [ [ 3.10658982600252, 45.913667951484499 ], [ 3.1063548588235, 45.913578933726903 ], [ 3.10629753341292, 45.913555214578501 ], [ 3.10613692646381, 45.913492510931803 ], [ 3.10587019496761, 45.913387943429299 ], [ 3.10567835728063, 45.913319054951202 ], [ 3.10555957360317, 45.913268594139304 ], [ 3.105473595, 45.913372285117802 ], [ 3.10415319952284, 45.912962163088103 ], [ 3.10360834821794, 45.912795351736797 ], [ 3.10325943865479, 45.912685810559502 ], [ 3.10303132642514, 45.912601102019202 ], [ 3.10274985032985, 45.912470696435697 ], [ 3.10247753509829, 45.912340371903902 ], [ 3.10204527393897, 45.912080970307102 ], [ 3.10186148748543, 45.911965872789096 ], [ 3.10167039186703, 45.911804316081799 ], [ 3.10144746505342, 45.911589838590402 ], [ 3.10127677577043, 45.911439879283598 ], [ 3.10095531415429, 45.911236475020999 ], [ 3.10089248535562, 45.911304518328798 ], [ 3.10053776666002, 45.911679709555898 ], [ 3.10049630220775, 45.911720718850702 ], [ 3.10046360125205, 45.911756947732599 ], [ 3.10041235148469, 45.911737632627897 ], [ 3.09981137486794, 45.911553023048 ], [ 3.09922756711496, 45.911372537489598 ], [ 3.09899975395862, 45.911304209548099 ], [ 3.09805183482974, 45.911010934035197 ], [ 3.0977968821649, 45.911422229964302 ], [ 3.09748570625066, 45.911921371886599 ], [ 3.09846371528818, 45.912153122271398 ], [ 3.09868930999017, 45.912205694596402 ], [ 3.0992997594563, 45.912347618439298 ], [ 3.09974075991021, 45.9124521379469 ], [ 3.09979316039509, 45.912465509084697 ], [ 3.10146217949317, 45.9128556490082 ], [ 3.10148141188314, 45.912861304865402 ], [ 3.10497689457527, 45.913971125061202 ], [ 3.10508417019728, 45.914007315349799 ], [ 3.10558528529877, 45.914164525158498 ], [ 3.10580461003357, 45.914236089573201 ], [ 3.10605736029415, 45.914313565488499 ], [ 3.10658982600252, 45.913667951484499 ] ] ], [ [ [ 3.09578343250861, 45.9170083623358 ], [ 3.09588171111042, 45.916990089118897 ], [ 3.09609556740266, 45.916959921238998 ], [ 3.09628950654933, 45.916975875169697 ], [ 3.09634421940603, 45.916981591746598 ], [ 3.09708360406192, 45.917050747900298 ], [ 3.09715043694315, 45.916978921204397 ], [ 3.09684778405209, 45.9156682424221 ], [ 3.09610608726107, 45.9157272449253 ], [ 3.09605352163718, 45.915731422833503 ], [ 3.0956437030452, 45.915764025724698 ], [ 3.09554351219835, 45.915771998707399 ], [ 3.09578343250861, 45.9170083623358 ] ] ], [ [ [ 3.10510389988785, 45.916593820532597 ], [ 3.10510393852368, 45.916593784477001 ], [ 3.10530888601398, 45.9163271918842 ], [ 3.10499490952757, 45.916229050772301 ], [ 3.1047656694621, 45.9161574039138 ], [ 3.1044526501758, 45.916059557575302 ], [ 3.1041141367253, 45.915953746459898 ], [ 3.10406273308074, 45.915937674921899 ], [ 3.1032859118387, 45.915694848355898 ], [ 3.10248818525685, 45.915445488815898 ], [ 3.10233053063997, 45.9153962034462 ], [ 3.10191795530199, 45.915267238014501 ], [ 3.10189369988272, 45.915259650694097 ], [ 3.10183774078301, 45.915242159469699 ], [ 3.10168702228976, 45.915224645374202 ], [ 3.10167205574827, 45.915224028480701 ], [ 3.10156004240354, 45.915207289867901 ], [ 3.10153139347968, 45.915202813116501 ], [ 3.10145474238205, 45.915193066505601 ], [ 3.10141048370893, 45.915188963918801 ], [ 3.10136609122775, 45.915182250003703 ], [ 3.10128350217171, 45.915170617561003 ], [ 3.10125821173084, 45.915168388967103 ], [ 3.10119162397513, 45.915158813268803 ], [ 3.10114929953337, 45.915154168553698 ], [ 3.10108542271101, 45.9151454908625 ], [ 3.10103742045343, 45.915140130784103 ], [ 3.10098915853183, 45.915133870423603 ], [ 3.10091134619136, 45.9151239443827 ], [ 3.10085830773678, 45.915115977289503 ], [ 3.10083714785202, 45.915114915560402 ], [ 3.10075597978233, 45.915104181959599 ], [ 3.10073455694336, 45.915100418965203 ], [ 3.1006742961914, 45.9150937189074 ], [ 3.10061584079406, 45.9150865669653 ], [ 3.10056925447426, 45.915079404442103 ], [ 3.10047608581087, 45.915067240518901 ], [ 3.10039608472623, 45.915059657350497 ], [ 3.10037878882089, 45.9150550801821 ], [ 3.10030472229506, 45.915047491683303 ], [ 3.10026665129633, 45.915040591633101 ], [ 3.10022948715365, 45.915035761901599 ], [ 3.10015438465566, 45.915026013038002 ], [ 3.10013386709488, 45.915023419769902 ], [ 3.10006586205573, 45.915014655107797 ], [ 3.10001876178364, 45.915008573404798 ], [ 3.10000327682314, 45.915006606008802 ], [ 3.09995617656483, 45.915000524279698 ], [ 3.09992339984193, 45.914996230866997 ], [ 3.09990391472033, 45.914993816743902 ], [ 3.09985642696047, 45.914987465167499 ], [ 3.09982113507438, 45.915304019752703 ], [ 3.09979314226127, 45.915519352427502 ], [ 3.09976615189981, 45.9155046081408 ], [ 3.09931760708424, 45.915522652486402 ], [ 3.09869811733605, 45.915539223433598 ], [ 3.09827111122502, 45.915554003059803 ], [ 3.09729763045739, 45.915582489648301 ], [ 3.09702090829152, 45.915588490465403 ], [ 3.09692672904016, 45.915661961406698 ], [ 3.09723236798176, 45.916982182642997 ], [ 3.09732123944184, 45.917043519876401 ], [ 3.09764641343051, 45.917073316158998 ], [ 3.09844218448711, 45.917144305790004 ], [ 3.09887317093935, 45.917183911852803 ], [ 3.09942416405116, 45.917234847138801 ], [ 3.0995234339797, 45.917194417747901 ], [ 3.09962452487041, 45.916519859191297 ], [ 3.09963395753345, 45.916456546196201 ], [ 3.09965976244204, 45.916457604058998 ], [ 3.10113708362697, 45.916652510524798 ], [ 3.10116522018667, 45.916658608723203 ], [ 3.10150666948171, 45.916699005177797 ], [ 3.10166952736861, 45.916720830977098 ], [ 3.10260291911806, 45.916840024079399 ], [ 3.1034528165738, 45.916945958562799 ], [ 3.10350701103574, 45.9169500512619 ], [ 3.10384782437191, 45.916993412864201 ], [ 3.10415405630788, 45.917033833654102 ], [ 3.10435665423455, 45.9170561592897 ], [ 3.1043785948279, 45.917060281319003 ], [ 3.10466044679051, 45.9171704214274 ], [ 3.10485476231732, 45.917246873493703 ], [ 3.10504946526197, 45.917323234817601 ], [ 3.10533674017503, 45.9174341786524 ], [ 3.10578554601168, 45.917612237700197 ], [ 3.10622633932462, 45.917781837854903 ], [ 3.10638424584681, 45.917842652891103 ], [ 3.10868546543733, 45.918456943452398 ], [ 3.10894127553794, 45.918047152933099 ], [ 3.10896095305302, 45.918015616707798 ], [ 3.10668459025438, 45.917170962081499 ], [ 3.10624432863258, 45.917007666671502 ], [ 3.10579038410646, 45.916839249533702 ], [ 3.10548368409258, 45.916729594662797 ], [ 3.10510389988785, 45.916593820532597 ] ] ], [ [ [ 3.10860869460715, 45.9185203218765 ], [ 3.10631667711669, 45.917928623492202 ], [ 3.10430907590046, 45.917139498816603 ], [ 3.10384283764069, 45.917085718024801 ], [ 3.10348111822032, 45.917039764100501 ], [ 3.10256424845676, 45.916927677159798 ], [ 3.10234009337877, 45.916898524067904 ], [ 3.10156594967666, 45.9168026888198 ], [ 3.10130438097121, 45.9167734772101 ], [ 3.10056132480302, 45.916672834633601 ], [ 3.09978600242525, 45.916563841054803 ], [ 3.0996902542075, 45.916624708774798 ], [ 3.09960268005524, 45.917210917085697 ], [ 3.09966834568706, 45.917280107199097 ], [ 3.10034924176068, 45.917391526672503 ], [ 3.10100602146371, 45.917506835706099 ], [ 3.1012664601332, 45.917551177310401 ], [ 3.101600587102, 45.917605717788199 ], [ 3.10200077523599, 45.917662088774698 ], [ 3.10222868160048, 45.917694931175298 ], [ 3.10232508839313, 45.917711323050298 ], [ 3.10305618177085, 45.917890938235203 ], [ 3.10340602762251, 45.917932041711602 ], [ 3.10375864000818, 45.917934690496999 ], [ 3.10456916146811, 45.918153214407198 ], [ 3.10559445667031, 45.918278241131503 ], [ 3.10684380663088, 45.918839786565201 ], [ 3.10738647675674, 45.918977138336302 ], [ 3.10843627186753, 45.919083926099702 ], [ 3.10860869460715, 45.9185203218765 ] ] ], [ [ [ 3.09578343250861, 45.9170083623358 ], [ 3.09565572540934, 45.916350299779502 ], [ 3.09462167481076, 45.916456896305199 ], [ 3.09475712501976, 45.9171682537362 ], [ 3.09578343250861, 45.9170083623358 ] ] ], [ [ [ 3.09625382306534, 45.919075225777398 ], [ 3.09610614724251, 45.917034202955897 ], [ 3.09601043782214, 45.9170460806845 ], [ 3.09581142959998, 45.917082899480299 ], [ 3.09547878624237, 45.917134869026803 ], [ 3.0949942016503, 45.917210648253601 ], [ 3.09375469359444, 45.917412132067199 ], [ 3.09357464895584, 45.918361311074896 ], [ 3.09379631429245, 45.9188978215589 ], [ 3.09468087466393, 45.919345260299103 ], [ 3.09562555208602, 45.919259549253802 ], [ 3.09573636749728, 45.919251441144503 ], [ 3.0957877117236, 45.919247795711598 ], [ 3.0959219436058, 45.919202117017903 ], [ 3.0959879762719, 45.919187022773599 ], [ 3.09603711435121, 45.919176085102698 ], [ 3.0960903748066, 45.919161541935701 ], [ 3.09616891048012, 45.919139593215903 ], [ 3.09625382306534, 45.919075225777398 ] ] ] ] } }
]
}
