{
"type": "FeatureCollection",
"name": "Côtes-dAuvergne-Boudes",
"crs": { "type": "name", "properties": { "name": "urn:ogc:def:crs:OGC:1.3:CRS84" } },
"features": [
{ "type": "Feature", "properties": { "Name": null, "id": "" }, "geometry": { "type": "MultiPolygon", "coordinates": [ [ [ [ 3.17996664320747, 45.448194994929104 ], [ 3.17989664229622, 45.448148012999702 ], [ 3.17911150796582, 45.447659507606801 ], [ 3.17896204454864, 45.447566188068002 ], [ 3.17845103759106, 45.447824174275802 ], [ 3.17761256396057, 45.448252864567301 ], [ 3.17790600677787, 45.448644731237898 ], [ 3.17801173274504, 45.448782154245599 ], [ 3.17814163598584, 45.449158431575903 ], [ 3.17846955253671, 45.449446868940903 ], [ 3.17996664320747, 45.448194994929104 ] ] ], [ [ [ 3.1817290146185, 45.452625764351502 ], [ 3.18158626373891, 45.452383878880902 ], [ 3.18033842601494, 45.452444529822898 ], [ 3.18033841322121, 45.452444529843497 ], [ 3.18033978992373, 45.452446922863203 ], [ 3.18041079604954, 45.4525653096875 ], [ 3.18126235330309, 45.452761318673097 ], [ 3.18169525328786, 45.452669311419598 ], [ 3.1817290146185, 45.452625764351502 ] ] ], [ [ [ 3.18528208741356, 45.453651343756903 ], [ 3.18512883052309, 45.453041712720101 ], [ 3.18506424804656, 45.452896124259802 ], [ 3.18451972121575, 45.452967797599896 ], [ 3.18450402900374, 45.4529426104273 ], [ 3.18404847607197, 45.452355482062799 ], [ 3.18298274877694, 45.452750376703598 ], [ 3.18306288056394, 45.4528524936133 ], [ 3.18336888759875, 45.453233250154099 ], [ 3.18330189800971, 45.453287477485603 ], [ 3.18319769720175, 45.4533476185591 ], [ 3.18308421768549, 45.453426324228502 ], [ 3.18290452974527, 45.453447057838503 ], [ 3.18227558158921, 45.453527142142697 ], [ 3.18239309784959, 45.454171232893003 ], [ 3.18248619942543, 45.454236905394701 ], [ 3.18304327114749, 45.454201510156899 ], [ 3.18320623321278, 45.454190528648198 ], [ 3.18437961524491, 45.4538895624353 ], [ 3.18522845998833, 45.453683668908397 ], [ 3.18528208741356, 45.453651343756903 ] ] ], [ [ [ 3.18029081989567, 45.449072488767399 ], [ 3.17994449409294, 45.448809947555802 ], [ 3.17984849042862, 45.448737173016397 ], [ 3.17982146939163, 45.4487166857784 ], [ 3.17957218059613, 45.448572470755899 ], [ 3.17907281230407, 45.448990363405898 ], [ 3.17849751918029, 45.449471046900101 ], [ 3.17873562317725, 45.449677414099 ], [ 3.17882389816364, 45.449757594722399 ], [ 3.17919588705865, 45.449984187974501 ], [ 3.17943219293604, 45.4500680035651 ], [ 3.1795840170101, 45.450058125675497 ], [ 3.18029081989567, 45.449072488767399 ] ] ], [ [ [ 3.18208836457999, 45.449649150543102 ], [ 3.18031918784157, 45.449093991252099 ], [ 3.17962025258862, 45.450067612573001 ], [ 3.18002637234979, 45.450165652352297 ], [ 3.18056611132259, 45.450320204857697 ], [ 3.18056373765099, 45.4503377677093 ], [ 3.18091340986771, 45.450425809938302 ], [ 3.18101194249554, 45.450393864649598 ], [ 3.18125828842507, 45.4502204879281 ], [ 3.18165759097296, 45.450110345745003 ], [ 3.18197810773346, 45.449928833195798 ], [ 3.18208836457999, 45.449649150543102 ] ] ], [ [ [ 3.17755107292108, 45.450308538662398 ], [ 3.17716073578044, 45.450224152041201 ], [ 3.17692069961201, 45.4501732944981 ], [ 3.17694828343798, 45.450117512333001 ], [ 3.17706759730249, 45.450142807180796 ], [ 3.17718832829005, 45.450171161238103 ], [ 3.17743912250634, 45.4502256030461 ], [ 3.17754743090352, 45.4502497441892 ], [ 3.1775917271503, 45.450259579169703 ], [ 3.1776850478347, 45.450237550150298 ], [ 3.17825719400995, 45.449688440605399 ], [ 3.17837719624256, 45.449569568839898 ], [ 3.17840435878864, 45.449542511757699 ], [ 3.17840084153695, 45.4494829967485 ], [ 3.17812252713699, 45.449263455895398 ], [ 3.17809911015996, 45.449261692147999 ], [ 3.17786730916825, 45.449184710143797 ], [ 3.17755096078592, 45.449112093681997 ], [ 3.17705962478945, 45.449045785752702 ], [ 3.17690804255437, 45.4490505272083 ], [ 3.17677846188948, 45.449175175446598 ], [ 3.17615398520473, 45.449361923251502 ], [ 3.17594027195495, 45.449501920422101 ], [ 3.1758270205225, 45.449572604225203 ], [ 3.17573381438898, 45.449630740080998 ], [ 3.17614973239683, 45.449352114883801 ], [ 3.17655257538984, 45.449227667972103 ], [ 3.1764340008744, 45.449152485777098 ], [ 3.17646949703827, 45.4491309088829 ], [ 3.17651690741719, 45.449154876652898 ], [ 3.17675241988377, 45.449112274125099 ], [ 3.17690560110187, 45.449006948655402 ], [ 3.17706039924098, 45.449007784997001 ], [ 3.17737461818799, 45.449054923106203 ], [ 3.17754663957763, 45.4490809445048 ], [ 3.17803298445512, 45.449186338314497 ], [ 3.17793566788955, 45.448878714493397 ], [ 3.17791552097962, 45.448819405943702 ], [ 3.17789559571094, 45.4487893620826 ], [ 3.17776611105014, 45.448623161805699 ], [ 3.17765484449295, 45.4484730508198 ], [ 3.17625801333312, 45.4479967482837 ], [ 3.17611630702679, 45.447927905352302 ], [ 3.17589131740966, 45.4481411277308 ], [ 3.17584094101745, 45.448190191878197 ], [ 3.17553018045309, 45.448547531943298 ], [ 3.17525040020793, 45.448872316059699 ], [ 3.175201457343, 45.448930112173102 ], [ 3.17507926043716, 45.448922558967297 ], [ 3.175324204298, 45.449395909930097 ], [ 3.17539082283914, 45.449547443747697 ], [ 3.17539293963519, 45.4495695918257 ], [ 3.1753625083885, 45.449818077118401 ], [ 3.17516128998732, 45.449864585222898 ], [ 3.1751494125071, 45.449870997054198 ], [ 3.17510170828467, 45.449997406473798 ], [ 3.17506662516919, 45.450069228124697 ], [ 3.1750501338349, 45.450113646682603 ], [ 3.17504445488265, 45.450138418275301 ], [ 3.1749997242304, 45.4501935963943 ], [ 3.17497534777629, 45.450252884880797 ], [ 3.17497556784294, 45.450282149584602 ], [ 3.17498651184366, 45.450304283904302 ], [ 3.17500373078565, 45.450328389453098 ], [ 3.17506097277824, 45.450386740192599 ], [ 3.17489464543199, 45.450585551709899 ], [ 3.17483780225101, 45.450653985456 ], [ 3.17460495695484, 45.450937273582902 ], [ 3.17473176192039, 45.451025591675098 ], [ 3.17511553972578, 45.451057770139698 ], [ 3.17561617747653, 45.451107323453002 ], [ 3.17573110066702, 45.451119209700799 ], [ 3.17590297041664, 45.451176389898102 ], [ 3.17610167022233, 45.451343114086001 ], [ 3.1761915779541, 45.451535131761602 ], [ 3.17640017476124, 45.451635025519401 ], [ 3.17691520173322, 45.451041431854101 ], [ 3.17782710785467, 45.451398103074297 ], [ 3.17791845312043, 45.451433823696803 ], [ 3.1781325661181, 45.451517569186997 ], [ 3.17835110110563, 45.451603666454602 ], [ 3.17841031211343, 45.451696004861297 ], [ 3.17856476309394, 45.451936858178598 ], [ 3.1787315979294, 45.452197033517798 ], [ 3.17876738247538, 45.452252850252997 ], [ 3.17895672133416, 45.4525480984788 ], [ 3.17891207947821, 45.452789223731202 ], [ 3.17880970243777, 45.453337859233201 ], [ 3.17927269141011, 45.453884962384599 ], [ 3.17930632634641, 45.453920386899 ], [ 3.17941266049371, 45.4540042301578 ], [ 3.17973703141737, 45.454253589625502 ], [ 3.18005981412558, 45.454288280182801 ], [ 3.18016024948654, 45.454288479134199 ], [ 3.18084868707113, 45.454282328933601 ], [ 3.18110941773468, 45.4542774960779 ], [ 3.18130389531793, 45.454239902776301 ], [ 3.18169234205117, 45.454165976633597 ], [ 3.18225541041786, 45.454203603201002 ], [ 3.18229982770465, 45.454171114344703 ], [ 3.18224019964705, 45.4538958494282 ], [ 3.18216522332177, 45.453504719748402 ], [ 3.18212077512551, 45.453410513372297 ], [ 3.18196702752467, 45.4531091075538 ], [ 3.18179329034137, 45.452758568626699 ], [ 3.18171951024411, 45.452731854343803 ], [ 3.18123876412867, 45.452824929504303 ], [ 3.18034433950664, 45.4526267380947 ], [ 3.18024345977218, 45.452449148733699 ], [ 3.18018235260487, 45.452345333415302 ], [ 3.18000092527187, 45.452025780063003 ], [ 3.17981643510376, 45.4517079422249 ], [ 3.17978104131211, 45.451642625313703 ], [ 3.17958921279613, 45.451309761147101 ], [ 3.17948011400614, 45.451121018554197 ], [ 3.17935800716198, 45.450905192717101 ], [ 3.17932856416277, 45.450859946487299 ], [ 3.17946893966082, 45.450196170728098 ], [ 3.17941838756474, 45.450150778201802 ], [ 3.17913524694954, 45.450063525569398 ], [ 3.17888540159203, 45.449906703391797 ], [ 3.17867477377929, 45.449771339275102 ], [ 3.17861181657978, 45.449726956655901 ], [ 3.178481446995, 45.449605241455401 ], [ 3.17786479706688, 45.450198635445403 ], [ 3.17771340678322, 45.450344390195397 ], [ 3.17755107292108, 45.450308538662398 ] ] ], [ [ [ 3.19469713053698, 45.457376738733501 ], [ 3.19452342048076, 45.457133824594401 ], [ 3.19444256657188, 45.456917222966901 ], [ 3.19444861597697, 45.456561799204998 ], [ 3.19438008236131, 45.456465298137402 ], [ 3.19435058370036, 45.456225555597698 ], [ 3.19432387804413, 45.456089271564302 ], [ 3.19431520629887, 45.456024273064003 ], [ 3.19342753728146, 45.4562146342668 ], [ 3.19314344597972, 45.456347672016499 ], [ 3.19306245907555, 45.456385540855202 ], [ 3.19301251521351, 45.456409579133599 ], [ 3.19283750208677, 45.456451841704698 ], [ 3.19257189213567, 45.456528207038701 ], [ 3.19237886958931, 45.456579684538603 ], [ 3.19235716973694, 45.456594489357798 ], [ 3.19183991417875, 45.456864613787602 ], [ 3.19131151302255, 45.4569462876618 ], [ 3.19082224907933, 45.457024020493698 ], [ 3.1907372276983, 45.457042804672099 ], [ 3.19029126782707, 45.457287227549003 ], [ 3.19022842380978, 45.457318490180199 ], [ 3.19021055816428, 45.457332297572897 ], [ 3.19013502728684, 45.457282990103799 ], [ 3.18975413822195, 45.457474983581399 ], [ 3.18948528742729, 45.457616720794498 ], [ 3.18820910799163, 45.458283618550098 ], [ 3.18821035420766, 45.458285120235203 ], [ 3.18843752452968, 45.458603593387402 ], [ 3.1885167187249, 45.458714307528602 ], [ 3.18876026262761, 45.458992771918602 ], [ 3.18958655753988, 45.458947436123701 ], [ 3.1900806059735, 45.458916344646497 ], [ 3.19055225412254, 45.458808299321703 ], [ 3.19072633994727, 45.458791434991902 ], [ 3.19144381998749, 45.458731412763598 ], [ 3.19176382847696, 45.458582829930201 ], [ 3.19276178343132, 45.458119271648499 ], [ 3.19287587063581, 45.4580693699493 ], [ 3.19347549497235, 45.457788473222799 ], [ 3.19372597619499, 45.457701956618202 ], [ 3.19424369888557, 45.457529252901999 ], [ 3.19469713053698, 45.457376738733501 ] ] ], [ [ [ 3.20322485832322, 45.452904317985102 ], [ 3.20286868029907, 45.4530107671401 ], [ 3.20279910929225, 45.453018456818398 ], [ 3.20271121742022, 45.453019155937902 ], [ 3.20261300838391, 45.452997362018998 ], [ 3.20227299243196, 45.452939985674099 ], [ 3.20227776134289, 45.4529144939426 ], [ 3.20210751528466, 45.452925786425403 ], [ 3.20170982860105, 45.453017358962398 ], [ 3.20110949080064, 45.4531461225166 ], [ 3.20091185541071, 45.453190239169501 ], [ 3.20026478576513, 45.453346185846002 ], [ 3.19952838095664, 45.453565320187003 ], [ 3.19919179596296, 45.453644258657398 ], [ 3.1990890389028, 45.453674246411502 ], [ 3.19901585422882, 45.453673565838599 ], [ 3.19897594431423, 45.453675707694401 ], [ 3.19796576214698, 45.453722788072497 ], [ 3.19797935113358, 45.453766346554097 ], [ 3.1981048367381, 45.454154225069999 ], [ 3.19822140454968, 45.454516455997698 ], [ 3.19828230076292, 45.454694460205999 ], [ 3.19829061085262, 45.454728573112099 ], [ 3.1982149659492, 45.454720062324 ], [ 3.19815338945502, 45.454745924370798 ], [ 3.1981337838848, 45.454773333107198 ], [ 3.19813108728529, 45.454806474951901 ], [ 3.19815489941775, 45.4548823420307 ], [ 3.19810893561439, 45.4549092570347 ], [ 3.19801173365097, 45.454955082163501 ], [ 3.19793538242337, 45.454999789867898 ], [ 3.19783230726708, 45.455049137013198 ], [ 3.19746232889193, 45.455203317932103 ], [ 3.1973596492411, 45.455256175757597 ], [ 3.19725740053042, 45.455322359602398 ], [ 3.19722105186259, 45.455354930262402 ], [ 3.19715869599487, 45.4554499487882 ], [ 3.19692705151242, 45.4555763305613 ], [ 3.19679207934303, 45.455687594628401 ], [ 3.19668172099503, 45.455776483873898 ], [ 3.19658870030203, 45.455811494869501 ], [ 3.19704579815006, 45.455868772968003 ], [ 3.19742391307257, 45.455914482177903 ], [ 3.19775411624016, 45.455907237223201 ], [ 3.19815610802194, 45.455867177674598 ], [ 3.19881594251442, 45.455800366516698 ], [ 3.19900779850794, 45.455782827508401 ], [ 3.19877405639374, 45.455250437129997 ], [ 3.19889409925546, 45.455187552075003 ], [ 3.19899780377013, 45.455135501442903 ], [ 3.19934142106621, 45.4550526790634 ], [ 3.19961137858488, 45.455051388676502 ], [ 3.19985574904523, 45.455050593453898 ], [ 3.20004032798047, 45.454967151653896 ], [ 3.20011428611029, 45.454933432446701 ], [ 3.20016141926006, 45.454911737225999 ], [ 3.2002257896338, 45.454880286210702 ], [ 3.2003434361466, 45.454827669173199 ], [ 3.20040236356125, 45.454777047886999 ], [ 3.20070499267084, 45.4546825884984 ], [ 3.20068976828489, 45.454576541043501 ], [ 3.20097260583213, 45.454493462183301 ], [ 3.20096517387983, 45.454596488605901 ], [ 3.20153779745174, 45.454582764899598 ], [ 3.20168697124228, 45.454580605859903 ], [ 3.20162851756215, 45.454373514098499 ], [ 3.20218583626562, 45.454408889887098 ], [ 3.20218589308142, 45.454072836528397 ], [ 3.20215138948116, 45.454048856308198 ], [ 3.202192724527, 45.453664733843098 ], [ 3.20242272998458, 45.453726090934701 ], [ 3.20257678818566, 45.453765883526501 ], [ 3.20264209325617, 45.453780983436403 ], [ 3.20274413730289, 45.453801509754797 ], [ 3.20318728417433, 45.453895076715497 ], [ 3.20322058411417, 45.452995002462998 ], [ 3.20322485832322, 45.452904317985102 ] ] ], [ [ [ 3.19826879186363, 45.454709341738798 ], [ 3.19818771994638, 45.454470591833399 ], [ 3.19806780704568, 45.454103054040999 ], [ 3.19796235366711, 45.453771599238699 ], [ 3.19751137647572, 45.453883961572899 ], [ 3.19735568034656, 45.453922415238701 ], [ 3.19734271232886, 45.4538734528048 ], [ 3.19680213011386, 45.4539734534114 ], [ 3.19667445788337, 45.453977279150003 ], [ 3.1962958479253, 45.454041064744999 ], [ 3.19597398232624, 45.454087551093899 ], [ 3.19569830804704, 45.4541353966994 ], [ 3.19545969829629, 45.454281507734798 ], [ 3.19527956887973, 45.454394559505701 ], [ 3.1950394633241, 45.454552558378403 ], [ 3.19507364545322, 45.454595090901798 ], [ 3.19457325105176, 45.454738683386097 ], [ 3.19442927904954, 45.454728487593897 ], [ 3.19438476699108, 45.4547319864865 ], [ 3.19439256229323, 45.454765920476397 ], [ 3.19443346222472, 45.454900198847902 ], [ 3.19421689977348, 45.455096514932997 ], [ 3.19407158828447, 45.455289195568199 ], [ 3.19420363546695, 45.455730914900599 ], [ 3.1943048747464, 45.455960267949003 ], [ 3.19493490121719, 45.455856342069502 ], [ 3.19527893225232, 45.455851871812698 ], [ 3.1955742256263, 45.4558501868608 ], [ 3.19575244755729, 45.4558482552182 ], [ 3.1959534202323, 45.455875908834898 ], [ 3.19626892121116, 45.4558357369352 ], [ 3.19650857769975, 45.455803441005202 ], [ 3.19666242344906, 45.455746622286902 ], [ 3.1967638725039, 45.455670985510402 ], [ 3.19693942924882, 45.4555309254363 ], [ 3.19714348708959, 45.455418549310799 ], [ 3.19720650567457, 45.455330012971601 ], [ 3.19733757192162, 45.455236224285002 ], [ 3.19744676804429, 45.455180923758498 ], [ 3.19755650325254, 45.455133366169001 ], [ 3.19783029067108, 45.455021766456703 ], [ 3.19807052061864, 45.454900320217597 ], [ 3.19811597169849, 45.454873135995499 ], [ 3.19811872063525, 45.4548546716251 ], [ 3.19809838388077, 45.454784651419899 ], [ 3.19811626201632, 45.454739236456199 ], [ 3.19821146364664, 45.454706651594996 ], [ 3.19826879186363, 45.454709341738798 ] ] ], [ [ [ 3.19442219126971, 45.454896796616303 ], [ 3.1944201170901, 45.454889056219301 ], [ 3.19379133474598, 45.454891926980999 ], [ 3.19376835640564, 45.454892029701099 ], [ 3.19344774274849, 45.454998792704799 ], [ 3.19299530679521, 45.455175522571103 ], [ 3.19278632554988, 45.4552723215659 ], [ 3.19269477994449, 45.455327317096398 ], [ 3.1925018402262, 45.455438405388897 ], [ 3.19264463988351, 45.455589798448102 ], [ 3.19172858000159, 45.4561915269785 ], [ 3.1918771740863, 45.456279518447602 ], [ 3.19140846274244, 45.456638883901 ], [ 3.19167920491576, 45.456825718260497 ], [ 3.19180810569986, 45.456805147480601 ], [ 3.19218589553435, 45.456608289830598 ], [ 3.19232395375629, 45.456535115658198 ], [ 3.19235730485148, 45.4565226320777 ], [ 3.19297624356533, 45.456354713205499 ], [ 3.19324167334109, 45.456226930715502 ], [ 3.19337375023497, 45.456163670659699 ], [ 3.19371076016574, 45.456089791521997 ], [ 3.19428748266611, 45.455962729321001 ], [ 3.19419077470252, 45.455748586259404 ], [ 3.19405699198929, 45.455286159237303 ], [ 3.19408843122745, 45.455239460811796 ], [ 3.19417515413411, 45.455122880742103 ], [ 3.19424770566282, 45.455051708534803 ], [ 3.19442219126971, 45.454896796616303 ] ] ], [ [ [ 3.19773717610811, 45.456468166335704 ], [ 3.19746420728666, 45.455984017160802 ], [ 3.19745404744284, 45.455969357472803 ], [ 3.19742069014736, 45.455979681466403 ], [ 3.19693131654524, 45.455913366858603 ], [ 3.19671320942036, 45.455888806613899 ], [ 3.1965164941757, 45.455871232100399 ], [ 3.19671399579592, 45.456544703463301 ], [ 3.19690156258148, 45.456543473986002 ], [ 3.19713441005802, 45.456538652833999 ], [ 3.1973283572055, 45.456532638971296 ], [ 3.19765866333677, 45.456481361412699 ], [ 3.19773717610811, 45.456468166335704 ] ] ], [ [ [ 3.19680469677657, 45.456974336069003 ], [ 3.19678884353244, 45.456905568392401 ], [ 3.19677377331679, 45.456841121570299 ], [ 3.19671171889079, 45.456552091263198 ], [ 3.1966995553397, 45.456549681334501 ], [ 3.19650100325111, 45.455868557839402 ], [ 3.19618960127219, 45.455910073920897 ], [ 3.19604011038218, 45.455932216506298 ], [ 3.19575225815538, 45.455903454008599 ], [ 3.19495584030411, 45.455916726838403 ], [ 3.19432606561544, 45.456019661888497 ], [ 3.1943321450804, 45.456075119956701 ], [ 3.19437099200203, 45.456244069808399 ], [ 3.19439735231805, 45.456464457798397 ], [ 3.19446088091191, 45.456556645301497 ], [ 3.19445853513514, 45.456910081623398 ], [ 3.19453685598149, 45.457134071439398 ], [ 3.19471386878474, 45.457370136296397 ], [ 3.19512713640258, 45.457258210982999 ], [ 3.19623106177453, 45.4569625542034 ], [ 3.19643045972937, 45.456905476028702 ], [ 3.19657963985141, 45.456867125109298 ], [ 3.1966829008308, 45.456869015209797 ], [ 3.19672979975514, 45.456888743204203 ], [ 3.19678329419047, 45.456928269829199 ], [ 3.19680469677657, 45.456974336069003 ] ] ], [ [ [ 3.18663938699464, 45.463396530681997 ], [ 3.1865352100042, 45.463277752485297 ], [ 3.18641091731488, 45.463113083901199 ], [ 3.18615251588118, 45.462755938254702 ], [ 3.18584978296916, 45.462380766127197 ], [ 3.1851017481121, 45.4632717519248 ], [ 3.18539880663922, 45.463710508321299 ], [ 3.18547247181338, 45.463736229932103 ], [ 3.1856675483576, 45.463677377101497 ], [ 3.18663938699464, 45.463396530681997 ] ] ], [ [ [ 3.17775007718128, 45.463690378187799 ], [ 3.17738185371514, 45.462906475992902 ], [ 3.17723039166051, 45.462960743201499 ], [ 3.17678284710872, 45.463062391269197 ], [ 3.1768757846429, 45.463274934575303 ], [ 3.17709272144889, 45.463809288386898 ], [ 3.17775007718128, 45.463690378187799 ] ] ], [ [ [ 3.18192420868201, 45.461915445816402 ], [ 3.18191913869193, 45.461852061323498 ], [ 3.18178240463063, 45.461673270548701 ], [ 3.18178191566578, 45.461367347491098 ], [ 3.1814868437996, 45.461457673491203 ], [ 3.18114480568788, 45.4615623739234 ], [ 3.18091729102906, 45.461286208310398 ], [ 3.18080694988496, 45.461155638710601 ], [ 3.18062590306724, 45.4613173835914 ], [ 3.18019194137598, 45.461695195885099 ], [ 3.17992449326785, 45.461849244314102 ], [ 3.17980572910728, 45.461922912599803 ], [ 3.17948158750159, 45.462075429970596 ], [ 3.17929003292936, 45.462155337277203 ], [ 3.17905899070228, 45.462251605686298 ], [ 3.17868954282571, 45.4624028423613 ], [ 3.1783377101856, 45.462541173180497 ], [ 3.17862116341778, 45.4629053204781 ], [ 3.17905368110341, 45.463343877854399 ], [ 3.17938793875436, 45.463706141262499 ], [ 3.17975265577962, 45.464147325683598 ], [ 3.17984132364949, 45.464262263028701 ], [ 3.18007729520499, 45.464144914203203 ], [ 3.18025840688994, 45.463960388293998 ], [ 3.18043404447469, 45.463784965593 ], [ 3.18066468810597, 45.463604231375697 ], [ 3.18118887333383, 45.4631865610231 ], [ 3.18121280092736, 45.463107641666802 ], [ 3.18145864050827, 45.4623703040197 ], [ 3.18150805817732, 45.462338707828501 ], [ 3.1816982022138, 45.462219538752102 ], [ 3.18171831445548, 45.462187269546497 ], [ 3.18192420868201, 45.461915445816402 ] ] ], [ [ [ 3.18554028922275, 45.4625855037322 ], [ 3.18505003382988, 45.462690226945398 ], [ 3.18489477158344, 45.462753695519197 ], [ 3.18473936844722, 45.462813382157599 ], [ 3.18457988935601, 45.4628788382607 ], [ 3.18416525572554, 45.462945073383601 ], [ 3.18397720636863, 45.463039030206602 ], [ 3.18375351393853, 45.463150874292801 ], [ 3.18365769151823, 45.463196144458003 ], [ 3.18314603444642, 45.463449200941 ], [ 3.18325607540279, 45.463602100319797 ], [ 3.18323978580748, 45.463629320962298 ], [ 3.18305244414781, 45.463861586497899 ], [ 3.18320477701537, 45.464421697258601 ], [ 3.18388245417579, 45.464219605014499 ], [ 3.18395413374815, 45.464341320449897 ], [ 3.18409526125221, 45.464258516364303 ], [ 3.18450184537814, 45.4640773954021 ], [ 3.18446377907434, 45.463982008693399 ], [ 3.18526256359395, 45.463683719391398 ], [ 3.18500541611777, 45.463240574611198 ], [ 3.18503663942631, 45.463202253369097 ], [ 3.18514127241193, 45.463074845087903 ], [ 3.18524705176861, 45.462945994074403 ], [ 3.18554028922275, 45.4625855037322 ] ] ], [ [ [ 3.18302962852811, 45.463422737110903 ], [ 3.18266223015193, 45.462911961785601 ], [ 3.18268866308381, 45.462739479742503 ], [ 3.18234484414784, 45.462314929568898 ], [ 3.18206474662283, 45.461966094128599 ], [ 3.18199834989301, 45.461970524071603 ], [ 3.18190089550057, 45.462103410591403 ], [ 3.18178587231378, 45.462263879712403 ], [ 3.18171206160918, 45.462309922966199 ], [ 3.18154744905905, 45.462410591234999 ], [ 3.18129847355541, 45.463206194222998 ], [ 3.18096671806322, 45.463457959432901 ], [ 3.18065387149763, 45.463701498995398 ], [ 3.18057192037383, 45.4637635828839 ], [ 3.18049380124755, 45.46382358948 ], [ 3.18027746942098, 45.464037977744603 ], [ 3.18012885188446, 45.464180309771997 ], [ 3.17965449586619, 45.464421044123199 ], [ 3.17923073195665, 45.464637473168402 ], [ 3.17885741015919, 45.4649019050565 ], [ 3.17874433708863, 45.464917303082899 ], [ 3.1785528481866, 45.4649413802128 ], [ 3.17828639892831, 45.464974310647399 ], [ 3.17802479402981, 45.465041540479099 ], [ 3.17787187389436, 45.465081673574801 ], [ 3.17762445271421, 45.465142756827397 ], [ 3.17734064279868, 45.465149508963002 ], [ 3.17714870341903, 45.465153143852497 ], [ 3.17714748102965, 45.465251386510403 ], [ 3.17734737675746, 45.4652947433215 ], [ 3.17747646125876, 45.465323894398701 ], [ 3.17793438134712, 45.465340007929399 ], [ 3.17809563836908, 45.465345515092999 ], [ 3.17839909031998, 45.465358089822203 ], [ 3.17868383258589, 45.465402209800601 ], [ 3.1788989326555, 45.465437615547799 ], [ 3.17943347219119, 45.465522216225601 ], [ 3.18002185840658, 45.465321190514899 ], [ 3.18054875631837, 45.465141151455398 ], [ 3.1806517944303, 45.465030588610503 ], [ 3.18076197479984, 45.464912810446897 ], [ 3.18083430827243, 45.464844078470001 ], [ 3.1809327111083, 45.464764408789399 ], [ 3.18117688480865, 45.464572395869403 ], [ 3.18126036263165, 45.464507427578702 ], [ 3.18133680277085, 45.464442650692298 ], [ 3.18144491303661, 45.4643579222734 ], [ 3.18145574976035, 45.464345568380203 ], [ 3.18150865895488, 45.4642854217972 ], [ 3.18154271313354, 45.4642509689468 ], [ 3.18186082268435, 45.463895400519 ], [ 3.18188663304559, 45.463883652641698 ], [ 3.18221025581901, 45.463727797413 ], [ 3.18302962852811, 45.463422737110903 ] ] ], [ [ [ 3.17982471564304, 45.464270754014798 ], [ 3.17939407338888, 45.4637434106995 ], [ 3.17914222757247, 45.463461697415497 ], [ 3.17898818436232, 45.4633104850572 ], [ 3.17862040257625, 45.462947283345102 ], [ 3.17831508946788, 45.462550033683399 ], [ 3.17821540403592, 45.462588821985001 ], [ 3.17777448531286, 45.462760159451904 ], [ 3.17754532830645, 45.462847327064502 ], [ 3.17739962340234, 45.462901135159697 ], [ 3.17773810293233, 45.463627364619903 ], [ 3.17778668501809, 45.463733542503398 ], [ 3.17788598713152, 45.464373705676799 ], [ 3.17790278521322, 45.464464445907304 ], [ 3.17801948582964, 45.464982388351899 ], [ 3.17823558506425, 45.464930988957299 ], [ 3.17830324362132, 45.464919805752999 ], [ 3.17870899088018, 45.464869004410602 ], [ 3.17882245065817, 45.464854506268402 ], [ 3.17904791367461, 45.464691252638097 ], [ 3.17918019246965, 45.464600004491302 ], [ 3.17982471564304, 45.464270754014798 ] ] ], [ [ [ 3.17704304919101, 45.464003146793402 ], [ 3.17688252425872, 45.463542992302997 ], [ 3.17687141654313, 45.463510683127303 ], [ 3.17685333464962, 45.463458214532402 ], [ 3.17679585859798, 45.463290908710903 ], [ 3.17669166785404, 45.463080634220503 ], [ 3.17567125050165, 45.463269082785402 ], [ 3.17440772019186, 45.463506075052102 ], [ 3.17356889479293, 45.463662075507997 ], [ 3.17333590248331, 45.463712681585299 ], [ 3.17319668312973, 45.4637554885322 ], [ 3.17312946973636, 45.4637862080532 ], [ 3.17308835130881, 45.4638138257055 ], [ 3.17301612466229, 45.463878410364003 ], [ 3.17299625062731, 45.463906805643099 ], [ 3.17296462856096, 45.463943143117199 ], [ 3.17280624965463, 45.464162110008999 ], [ 3.17274756575432, 45.464220010201302 ], [ 3.1725450007057, 45.464344856131099 ], [ 3.17224759181827, 45.464504425167398 ], [ 3.17229740286875, 45.4645561254206 ], [ 3.17248482376931, 45.464787617127101 ], [ 3.17259855031408, 45.464899730222299 ], [ 3.17277864846127, 45.464997783826398 ], [ 3.17299327877474, 45.465212844345302 ], [ 3.1730270490182, 45.465249711338998 ], [ 3.17328332982495, 45.465565739247701 ], [ 3.17337874418607, 45.465754779551197 ], [ 3.17363088072802, 45.465971761950001 ], [ 3.17393086389474, 45.466265389262098 ], [ 3.17394673153322, 45.466306065686197 ], [ 3.17465217958779, 45.465842220993402 ], [ 3.17495076265304, 45.4656490563804 ], [ 3.1752571289187, 45.465449305425402 ], [ 3.17608141466672, 45.465180486902597 ], [ 3.1762722807582, 45.465120846605501 ], [ 3.17631092552998, 45.4651204257082 ], [ 3.17637327753657, 45.464848297271402 ], [ 3.176681162243, 45.464847362699402 ], [ 3.17668191152602, 45.464519592299197 ], [ 3.17660336928219, 45.464448128980401 ], [ 3.17657086163691, 45.464406488613697 ], [ 3.17655923033911, 45.464370488321201 ], [ 3.17656001765003, 45.464336359464802 ], [ 3.17657608088884, 45.464277083602802 ], [ 3.17645106070081, 45.464317981271897 ], [ 3.17635562528645, 45.464326415575798 ], [ 3.17633802432427, 45.464264131069697 ], [ 3.17643064441286, 45.4642557012072 ], [ 3.17701199091283, 45.4640549725179 ], [ 3.17704304919101, 45.464003146793402 ] ] ], [ [ [ 3.17799901728262, 45.464984311798098 ], [ 3.17789825058451, 45.464526945360397 ], [ 3.17786115214496, 45.464370683462903 ], [ 3.17776910874892, 45.463759413689203 ], [ 3.17776155925127, 45.463719535058402 ], [ 3.1776414692957, 45.463740886157503 ], [ 3.17752279375052, 45.463764396005899 ], [ 3.17734949578359, 45.463793664999699 ], [ 3.1771039501413, 45.463839346189403 ], [ 3.17720043081055, 45.464078717513701 ], [ 3.17704472878866, 45.464128668939601 ], [ 3.17715563489977, 45.464597906235397 ], [ 3.17714224732806, 45.464773788165502 ], [ 3.17711780599025, 45.465095022588201 ], [ 3.17750359289363, 45.465084327800703 ], [ 3.17758739685963, 45.465079782928697 ], [ 3.17799901728262, 45.464984311798098 ] ] ], [ [ [ 3.17713772290184, 45.464598925023502 ], [ 3.17709774932981, 45.464423217372698 ], [ 3.17703041141655, 45.464133283898597 ], [ 3.17658873679851, 45.464273101641801 ], [ 3.17656876275011, 45.464350032770298 ], [ 3.17658762132623, 45.464405291636403 ], [ 3.17662013556662, 45.464449003057098 ], [ 3.17669288847294, 45.464510750459702 ], [ 3.17670076337309, 45.464854355462201 ], [ 3.17670077769111, 45.464858857764298 ], [ 3.1766232225665, 45.464856548605603 ], [ 3.17638546946386, 45.464859353826498 ], [ 3.17632576937028, 45.4651203123383 ], [ 3.17710117206177, 45.465095589120502 ], [ 3.17712117556198, 45.4648674697792 ], [ 3.17713772290184, 45.464598925023502 ] ] ], [ [ [ 3.18315651893771, 45.463601902677397 ], [ 3.18306347494851, 45.463481032024198 ], [ 3.18224458063699, 45.463776096637297 ], [ 3.18213188508095, 45.463827606110101 ], [ 3.1819163592347, 45.463934480722799 ], [ 3.18150338441977, 45.464394386590399 ], [ 3.1813216492867, 45.464543887443703 ], [ 3.18123394098578, 45.464606521403901 ], [ 3.18097203668355, 45.464815942020103 ], [ 3.18086953889858, 45.464895618336001 ], [ 3.180781549933, 45.464990308951599 ], [ 3.18071219428368, 45.465069751634097 ], [ 3.18059497532655, 45.465187541078599 ], [ 3.18004391029722, 45.465373472156102 ], [ 3.17980717822279, 45.465455163725103 ], [ 3.17944018668441, 45.465580465579201 ], [ 3.1791378974148, 45.465532053296997 ], [ 3.17849809675442, 45.465425107070502 ], [ 3.17839554695638, 45.465410322426699 ], [ 3.17811039749956, 45.465398799196997 ], [ 3.17772696502072, 45.465386080248699 ], [ 3.17747855535215, 45.465378549312099 ], [ 3.17721643131231, 45.465324035212298 ], [ 3.17711501480093, 45.465303304540797 ], [ 3.1769750643465, 45.465197270477098 ], [ 3.17693373545893, 45.465158525609503 ], [ 3.17629343041708, 45.465172229928903 ], [ 3.17557754091053, 45.4654025206546 ], [ 3.17543079314191, 45.465452996110699 ], [ 3.17536364372718, 45.465504247477099 ], [ 3.17542794948976, 45.465727732420099 ], [ 3.17543773817681, 45.465747707439803 ], [ 3.17549629835882, 45.465772558752903 ], [ 3.17620518094699, 45.465954062195301 ], [ 3.17661476031324, 45.466059132916399 ], [ 3.17723247958745, 45.4661428027269 ], [ 3.17797771885094, 45.46624526678 ], [ 3.17824043727927, 45.466284020032603 ], [ 3.17858138206425, 45.466373884677203 ], [ 3.18000740259593, 45.4659190414866 ], [ 3.18024589494818, 45.465842965567703 ], [ 3.1809047753218, 45.465632808310801 ], [ 3.18109945606784, 45.465570713383599 ], [ 3.18136465014199, 45.465486109608797 ], [ 3.18165120462457, 45.465394708138497 ], [ 3.18238054897674, 45.465162051567702 ], [ 3.18254193853758, 45.4650521125007 ], [ 3.18261388597239, 45.465022280091802 ], [ 3.18270103461277, 45.465023218794201 ], [ 3.18289135029906, 45.465070813516903 ], [ 3.18306094969948, 45.464773113352599 ], [ 3.18315801738875, 45.464599975621397 ], [ 3.18295156192302, 45.463847523675298 ], [ 3.18315651893771, 45.463601902677397 ] ] ], [ [ [ 3.19007101007485, 45.459028738873698 ], [ 3.19004595709146, 45.458998885888398 ], [ 3.18965603114524, 45.459020976710697 ], [ 3.18897811368328, 45.459052376149103 ], [ 3.18897754067722, 45.459072007240202 ], [ 3.1890094426058, 45.459121839238399 ], [ 3.18916175794719, 45.4592870879343 ], [ 3.18925759309866, 45.459399124208403 ], [ 3.18936730440445, 45.459565344952203 ], [ 3.18948814789434, 45.459656358001197 ], [ 3.18973395414233, 45.4595079962887 ], [ 3.18990572194362, 45.459261428644403 ], [ 3.19007101007485, 45.459028738873698 ] ] ], [ [ [ 3.19671363079707, 45.456983770551901 ], [ 3.19659941970199, 45.456924720175302 ], [ 3.19522350514428, 45.457301175592498 ], [ 3.19472908079604, 45.457439175518701 ], [ 3.19412815388603, 45.457637328517997 ], [ 3.193537321, 45.457832669446098 ], [ 3.19328731764436, 45.457946468879797 ], [ 3.19288595753568, 45.458136977491797 ], [ 3.19235556998347, 45.458387136600898 ], [ 3.19153353803923, 45.458775292363001 ], [ 3.19144143359717, 45.458818671848 ], [ 3.19139727246679, 45.4588136145397 ], [ 3.19109692224261, 45.458837718651203 ], [ 3.19107457745991, 45.4588141645348 ], [ 3.19054641760895, 45.458859995896503 ], [ 3.19025412033181, 45.458956661514698 ], [ 3.19017598297988, 45.459006319527703 ], [ 3.1899447317991, 45.459331598848202 ], [ 3.19001645857776, 45.4593528184121 ], [ 3.19034355398218, 45.459104456155202 ], [ 3.19037438509923, 45.4591401522908 ], [ 3.19029691850587, 45.459198903942998 ], [ 3.19002955091191, 45.4594022317442 ], [ 3.18992347501957, 45.459364231647903 ], [ 3.18980325486934, 45.459530660835398 ], [ 3.18978030439403, 45.459554471920697 ], [ 3.18976639187739, 45.4595645806546 ], [ 3.18956070561232, 45.459696035978801 ], [ 3.19011942935128, 45.460091385152303 ], [ 3.19045523560065, 45.460367438414501 ], [ 3.19070080733747, 45.460560711280401 ], [ 3.19111690782339, 45.460928383459802 ], [ 3.19120128531596, 45.460869529407098 ], [ 3.19129462258923, 45.460923038022599 ], [ 3.19226709345768, 45.460144364846798 ], [ 3.19232336021416, 45.460097624345202 ], [ 3.19259746502568, 45.459882933629999 ], [ 3.19268501136902, 45.459816329029202 ], [ 3.19276873355873, 45.459753963114501 ], [ 3.19324271829517, 45.459434203211202 ], [ 3.19343023462425, 45.459305383798302 ], [ 3.19383301031364, 45.458931896361499 ], [ 3.19404653167369, 45.458629511468402 ], [ 3.19407652010367, 45.458606497754602 ], [ 3.19575886500989, 45.457379483679702 ], [ 3.19666138777463, 45.4570809322027 ], [ 3.19671363079707, 45.456983770551901 ] ] ], [ [ [ 3.18947538381466, 45.459665564294902 ], [ 3.18935325373059, 45.459572482334799 ], [ 3.18923427706573, 45.4593907892136 ], [ 3.1889885774277, 45.459119263037302 ], [ 3.18894972443734, 45.459057196421902 ], [ 3.18873798277212, 45.459063405813701 ], [ 3.18859393258174, 45.459070851745402 ], [ 3.18846369818445, 45.459077373822502 ], [ 3.18824813306043, 45.459088091034197 ], [ 3.18838273195434, 45.4593121708374 ], [ 3.18847490990273, 45.459440422279599 ], [ 3.18851166008239, 45.4594861941871 ], [ 3.18860229329011, 45.459573837172698 ], [ 3.18877339742681, 45.459733021710598 ], [ 3.18888495871344, 45.459841429992998 ], [ 3.18898197433476, 45.4599618388458 ], [ 3.18915219983542, 45.459862230766603 ], [ 3.18924681413483, 45.459803360935901 ], [ 3.18933734045001, 45.459746478946002 ], [ 3.18947538381466, 45.459665564294902 ] ] ], [ [ [ 3.18897175388402, 45.4599665384752 ], [ 3.18885254646682, 45.459829778511299 ], [ 3.18871622009162, 45.459700791213301 ], [ 3.18851855556738, 45.459519769929301 ], [ 3.18845843535868, 45.459449724736203 ], [ 3.1883500391883, 45.459293135874098 ], [ 3.18822255228686, 45.459091015435597 ], [ 3.18805565324125, 45.459076887855602 ], [ 3.18788416290468, 45.4590671799916 ], [ 3.1876712755908, 45.459075190217398 ], [ 3.18754845290794, 45.459078907395103 ], [ 3.18733787198802, 45.459087903643997 ], [ 3.18719060725957, 45.459090760772 ], [ 3.18714459008675, 45.459104434547001 ], [ 3.18705245313879, 45.459177345713002 ], [ 3.186786116619, 45.459310247724403 ], [ 3.18655139460546, 45.459408338617102 ], [ 3.18637571839182, 45.459486070505797 ], [ 3.18634121983871, 45.459500715328701 ], [ 3.18654987512007, 45.459718010883201 ], [ 3.1867510313243, 45.459873636719401 ], [ 3.18689460034471, 45.459988747183502 ], [ 3.18708177778223, 45.460058401351603 ], [ 3.18762606704233, 45.460389403782102 ], [ 3.18789645046419, 45.460544191437101 ], [ 3.1879431690309, 45.4605484354244 ], [ 3.18814444516048, 45.460699646314701 ], [ 3.18834440136363, 45.460347859496302 ], [ 3.18840145920271, 45.460306972658202 ], [ 3.18844246725656, 45.4602875438054 ], [ 3.18855495888539, 45.460217478770304 ], [ 3.18889130680048, 45.460015028882303 ], [ 3.18897175388402, 45.4599665384752 ] ] ], [ [ [ 3.19127546377234, 45.4609331558894 ], [ 3.19120021178378, 45.460892222949198 ], [ 3.19111326954217, 45.460949460532902 ], [ 3.19068291017633, 45.460565604205797 ], [ 3.19009228718759, 45.460086838768703 ], [ 3.18954538245386, 45.459705246603903 ], [ 3.1891386820345, 45.459950769224797 ], [ 3.18884027198205, 45.460133705975998 ], [ 3.1886597109769, 45.460242245561801 ], [ 3.18858169865345, 45.460291992304498 ], [ 3.18841276533082, 45.460396009627402 ], [ 3.18821560674004, 45.460742569182599 ], [ 3.18834064928631, 45.460864192240301 ], [ 3.18844095207948, 45.461010439399701 ], [ 3.18859696353054, 45.461245738863802 ], [ 3.18872300497705, 45.461397165213 ], [ 3.18895596988963, 45.461684111468102 ], [ 3.1891618913754, 45.461995055214103 ], [ 3.18923838169582, 45.462099019981601 ], [ 3.18930253083006, 45.462148617439503 ], [ 3.18950211326213, 45.4622506634174 ], [ 3.18972948109193, 45.462095399237199 ], [ 3.18994775731305, 45.461938619197902 ], [ 3.19058486529142, 45.461489557611301 ], [ 3.19127546377234, 45.4609331558894 ] ] ], [ [ [ 3.18810868663982, 45.460757966333098 ], [ 3.18798295933524, 45.460698476229801 ], [ 3.18783198717777, 45.460627862487101 ], [ 3.18767443520767, 45.460541141230898 ], [ 3.18754906872351, 45.460436626809503 ], [ 3.18724717031374, 45.460270184878702 ], [ 3.18675622527613, 45.459972318988797 ], [ 3.18650915567601, 45.4597472536258 ], [ 3.18649537862982, 45.459759792982297 ], [ 3.18629603962467, 45.4598405356085 ], [ 3.18624531083705, 45.459861240460803 ], [ 3.18602897243002, 45.459947773801098 ], [ 3.18598897506385, 45.45996350819 ], [ 3.18594885152824, 45.459979783052503 ], [ 3.18582263189501, 45.460039692954297 ], [ 3.18574317640156, 45.460079444951901 ], [ 3.18571212307005, 45.460091382484798 ], [ 3.18566799153646, 45.460095327516299 ], [ 3.18565367832655, 45.460100663940501 ], [ 3.1854422991706, 45.460178453437798 ], [ 3.18539284029611, 45.460196454412198 ], [ 3.18499793318194, 45.460339649745002 ], [ 3.18520558921295, 45.460641683187497 ], [ 3.18492908445321, 45.4608754496195 ], [ 3.18511674714599, 45.461167430997101 ], [ 3.18546712159546, 45.461711633558998 ], [ 3.18582663594644, 45.462270137334997 ], [ 3.18590692290455, 45.462286752991403 ], [ 3.18621617489601, 45.462163506845798 ], [ 3.18646343104363, 45.462059993019402 ], [ 3.18678380088461, 45.461933124974401 ], [ 3.18716638850809, 45.461777427424202 ], [ 3.18724603721456, 45.461680674667903 ], [ 3.18747759899458, 45.461401954352098 ], [ 3.18750934324716, 45.4613671433695 ], [ 3.18766393673345, 45.461183460254702 ], [ 3.18778193758319, 45.461038918343498 ], [ 3.18790659607427, 45.460933535375901 ], [ 3.18810868663982, 45.460757966333098 ] ] ], [ [ [ 3.18947799914748, 45.462271324786002 ], [ 3.18928010408742, 45.462176299544801 ], [ 3.18922672655114, 45.462133437396098 ], [ 3.18911477413693, 45.461986850357597 ], [ 3.18899868597209, 45.461828023855603 ], [ 3.18888635121764, 45.461643887858301 ], [ 3.18857706784073, 45.461265132294997 ], [ 3.18843614374594, 45.461064115172903 ], [ 3.18829669745973, 45.460883535950302 ], [ 3.18818785464128, 45.460784667431803 ], [ 3.18817029421012, 45.460813511752399 ], [ 3.18783520812956, 45.461088624880198 ], [ 3.18769745053214, 45.4612558916102 ], [ 3.18745133784601, 45.461544901984503 ], [ 3.1872995668495, 45.461731281496 ], [ 3.18721339893003, 45.461830026190697 ], [ 3.18651187609956, 45.462120783927098 ], [ 3.18588624863067, 45.462379805259502 ], [ 3.18611373847584, 45.462639842607899 ], [ 3.18637967798602, 45.462993734142401 ], [ 3.18668517612387, 45.4633900612112 ], [ 3.18701091845151, 45.463260482172501 ], [ 3.18767162304281, 45.463004637558299 ], [ 3.18783571125176, 45.462940880222497 ], [ 3.18829419075632, 45.462824852296997 ], [ 3.18891530432475, 45.462670188999901 ], [ 3.18901333234582, 45.462597716582898 ], [ 3.18947799914748, 45.462271324786002 ] ] ], [ [ [ 3.18573537690557, 45.462339804313501 ], [ 3.1857277824558, 45.462288130203 ], [ 3.18550124237851, 45.461928319023102 ], [ 3.18502811909502, 45.4611815343806 ], [ 3.18427521893037, 45.4614919929396 ], [ 3.18425698168105, 45.461471762433199 ], [ 3.18447390399989, 45.4613657815081 ], [ 3.18500933416683, 45.461150589370803 ], [ 3.18482360103079, 45.460861486123697 ], [ 3.18497211407104, 45.460732474959798 ], [ 3.18510481054943, 45.4606187075455 ], [ 3.18499784555158, 45.460467065624897 ], [ 3.18480505133159, 45.460516458644797 ], [ 3.18407151915458, 45.460761330097498 ], [ 3.18402925828571, 45.460789403865803 ], [ 3.18364907608234, 45.461054042974297 ], [ 3.18326502497082, 45.4611942429067 ], [ 3.18296996150749, 45.461313315627102 ], [ 3.18282618939583, 45.461368388270799 ], [ 3.18262357749034, 45.461157469217298 ], [ 3.18185899750478, 45.461343756480801 ], [ 3.18185645496466, 45.461661624612098 ], [ 3.18198293508423, 45.461796039019397 ], [ 3.18220584371391, 45.4619920686252 ], [ 3.18254577535287, 45.462441748490903 ], [ 3.1827727471492, 45.462743484952703 ], [ 3.1827502199792, 45.462897321033303 ], [ 3.18283789443507, 45.463020181705602 ], [ 3.18311320631816, 45.463389283554299 ], [ 3.1834439607125, 45.463224948760299 ], [ 3.18358091902744, 45.463158990840199 ], [ 3.18388676105145, 45.463007662190599 ], [ 3.18405156709754, 45.462927520758797 ], [ 3.18412107105031, 45.462895080046401 ], [ 3.1845446410159, 45.462822617182702 ], [ 3.18474885099536, 45.462740428891898 ], [ 3.18485645253944, 45.462697659692303 ], [ 3.1850242446415, 45.462631108931497 ], [ 3.18560796897508, 45.462505340477499 ], [ 3.18561281102211, 45.462499209307097 ], [ 3.18573537690557, 45.462339804313501 ] ] ] ] } },
{ "type": "Feature", "properties": { "Name": null, "id": "" }, "geometry": { "type": "MultiPolygon", "coordinates": [ [ [ [ 3.20611272283671, 45.456807965808999 ], [ 3.20598922104835, 45.456764880266803 ], [ 3.20545597683148, 45.456257545714799 ], [ 3.20529525742921, 45.4561141257606 ], [ 3.20503187587893, 45.455887780357699 ], [ 3.20484933781693, 45.455760067729102 ], [ 3.2047039707199, 45.455719722098003 ], [ 3.20444206611573, 45.455650233549498 ], [ 3.20404753594847, 45.455699756937101 ], [ 3.20398627054976, 45.455705361174999 ], [ 3.2038658582912, 45.4557011677581 ], [ 3.20291568719032, 45.455688392760997 ], [ 3.2020797833082, 45.4556787356847 ], [ 3.20078523883709, 45.455929137799302 ], [ 3.20059153164902, 45.455965502863599 ], [ 3.19987141459893, 45.455955622257399 ], [ 3.19946538171325, 45.455903397538002 ], [ 3.19903374797874, 45.455847704958003 ], [ 3.19783274866261, 45.455963827854298 ], [ 3.19765916097365, 45.455973768769397 ], [ 3.19746420728666, 45.455984017160802 ], [ 3.19773717610811, 45.456468166335704 ], [ 3.19765866333677, 45.456481361412699 ], [ 3.1973283572055, 45.456532638971296 ], [ 3.19713441005802, 45.456538652833999 ], [ 3.19690156258148, 45.456543473986002 ], [ 3.19671399579592, 45.456544703463301 ], [ 3.19671171889079, 45.456552091263198 ], [ 3.19677377331679, 45.456841121570299 ], [ 3.19736013706972, 45.456762561686297 ], [ 3.19791562350761, 45.456672707355203 ], [ 3.19793299161625, 45.456699420510702 ], [ 3.1974271376301, 45.4567861260252 ], [ 3.19766281572951, 45.4572171236019 ], [ 3.19773120548696, 45.4573432482225 ], [ 3.1985425918281, 45.457431411592196 ], [ 3.19866072656651, 45.457441827967102 ], [ 3.19960475463862, 45.457161188579299 ], [ 3.1997426885048, 45.457198132293598 ], [ 3.19991585953421, 45.4572492403993 ], [ 3.20039576076607, 45.457381112770598 ], [ 3.20038218458682, 45.457341876761198 ], [ 3.20035700345662, 45.457277808651703 ], [ 3.20104002690619, 45.457180057078503 ], [ 3.20122555130985, 45.457144246195199 ], [ 3.20195278299003, 45.456995083284802 ], [ 3.20259823675716, 45.457052359795703 ], [ 3.20300844800359, 45.457089437840601 ], [ 3.20333666527971, 45.457202121951497 ], [ 3.20363632638247, 45.457203289364301 ], [ 3.20377816900039, 45.457153956512599 ], [ 3.20380511633962, 45.457105462568101 ], [ 3.2037929686936, 45.4570726176729 ], [ 3.20392357595104, 45.456995120500601 ], [ 3.20401655101546, 45.456983245437698 ], [ 3.20403893129334, 45.456980323253497 ], [ 3.20399814608772, 45.457584618229298 ], [ 3.20418646283111, 45.457783089292803 ], [ 3.20419744962178, 45.4577784769278 ], [ 3.2044665291146, 45.457674073264698 ], [ 3.20488199757553, 45.457504388183999 ], [ 3.205235145812, 45.457298346755998 ], [ 3.2052271075594, 45.457214375114297 ], [ 3.20504095608919, 45.457090010097701 ], [ 3.20532383777631, 45.456982535585098 ], [ 3.20564813675333, 45.457020679641403 ], [ 3.20611272283671, 45.456807965808999 ] ] ], [ [ [ 3.20737910970103, 45.457104586561798 ], [ 3.20705321549183, 45.456587241131999 ], [ 3.20660028544012, 45.4568982861555 ], [ 3.20721107569317, 45.457060324009703 ], [ 3.20737910970103, 45.457104586561798 ] ] ], [ [ [ 3.19766704847977, 45.457399910440898 ], [ 3.19742533907322, 45.456964151011597 ], [ 3.19735436370615, 45.456830196720901 ], [ 3.19678884353244, 45.456905568392401 ], [ 3.19680469677657, 45.456974336069003 ], [ 3.19685251295983, 45.457180728686502 ], [ 3.19683158143534, 45.457195442979597 ], [ 3.19682174887246, 45.457200953061701 ], [ 3.19681332979825, 45.457208171546 ], [ 3.19681410354741, 45.4572098810713 ], [ 3.19703048005498, 45.457647037011903 ], [ 3.19704220901082, 45.4576711488642 ], [ 3.19717146646144, 45.457642917345098 ], [ 3.19716375499917, 45.457633205879297 ], [ 3.1971335508396, 45.457594899162203 ], [ 3.19742442346683, 45.457498758393697 ], [ 3.19766704847977, 45.457399910440898 ] ] ], [ [ [ 3.21180473223326, 45.4603266478845 ], [ 3.21176114943805, 45.459970506074299 ], [ 3.2116470539477, 45.459712467911203 ], [ 3.21161191729473, 45.459759448421501 ], [ 3.21155947437264, 45.459865171887301 ], [ 3.2115129322437, 45.4599748462538 ], [ 3.21145156468971, 45.460156405671398 ], [ 3.21140059435521, 45.460346679984603 ], [ 3.21145983685241, 45.460312710857799 ], [ 3.21180473223326, 45.4603266478845 ] ] ], [ [ [ 3.2139768404275, 45.460937544568502 ], [ 3.21350589773605, 45.460922413376402 ], [ 3.21268807695413, 45.4607774608141 ], [ 3.21259701961186, 45.460923868959597 ], [ 3.21269774147914, 45.461530591799402 ], [ 3.21272457965914, 45.462524654907298 ], [ 3.21293986137755, 45.4631389044456 ], [ 3.21321193139233, 45.463177738168902 ], [ 3.21345096197597, 45.463209970640101 ], [ 3.21373530201564, 45.463278134938797 ], [ 3.21380837766393, 45.463213882562101 ], [ 3.21397947682435, 45.463150703908603 ], [ 3.21386651791829, 45.4616297626388 ], [ 3.21380688756446, 45.461629426044396 ], [ 3.2139768404275, 45.460937544568502 ] ] ], [ [ [ 3.21500984157849, 45.4670880030841 ], [ 3.21497467566419, 45.466995592569603 ], [ 3.21491946022009, 45.466847841771198 ], [ 3.21484478718592, 45.466665370206897 ], [ 3.21482152360146, 45.466473795533901 ], [ 3.2147979266108, 45.466262141104103 ], [ 3.21483517353041, 45.466098635194697 ], [ 3.21485084475325, 45.466014591700301 ], [ 3.21477754864893, 45.465625190368897 ], [ 3.21474303784533, 45.465437059006199 ], [ 3.21470093896339, 45.4652390370305 ], [ 3.21464768804758, 45.464936672367799 ], [ 3.21416947207247, 45.464404600299297 ], [ 3.21375389326726, 45.464019453022502 ], [ 3.21338040100502, 45.463695906122503 ], [ 3.21336116604406, 45.463718724482398 ], [ 3.21321942528776, 45.463930153131997 ], [ 3.21308699563782, 45.464167317249199 ], [ 3.212807216372, 45.464288600656701 ], [ 3.21236686390165, 45.464483395244002 ], [ 3.21141981248016, 45.464826099934498 ], [ 3.21094571577088, 45.464999881611803 ], [ 3.21083442890554, 45.4650790616164 ], [ 3.21079588315478, 45.465105517681899 ], [ 3.21089082663711, 45.465204480587303 ], [ 3.21094178961679, 45.465280294076102 ], [ 3.21084556333866, 45.465349180470497 ], [ 3.211011902776, 45.465445307709302 ], [ 3.2108151222612, 45.4655893018844 ], [ 3.21079062013111, 45.4656071771387 ], [ 3.2107656054316, 45.465624873257298 ], [ 3.21054430190492, 45.465781609585598 ], [ 3.2106842187916, 45.465827720980002 ], [ 3.21069664330659, 45.465830759236901 ], [ 3.21088112132204, 45.465749280725802 ], [ 3.2113674754524, 45.465532884187802 ], [ 3.21160587132625, 45.465664893444398 ], [ 3.21156886034895, 45.465892781130002 ], [ 3.21151281609814, 45.4659952697669 ], [ 3.21160094505779, 45.466085060179601 ], [ 3.21186763249293, 45.466010907868203 ], [ 3.21198084663685, 45.466208697543401 ], [ 3.2120729655016, 45.466371237713602 ], [ 3.21213055053452, 45.466571932815903 ], [ 3.21207223101675, 45.466581137752499 ], [ 3.2121257382276, 45.466719258172603 ], [ 3.21212609077061, 45.466744560604901 ], [ 3.2120723601203, 45.466950238583102 ], [ 3.21209389219201, 45.466958842364797 ], [ 3.21213767535992, 45.466963261936897 ], [ 3.212398327589, 45.466956465636002 ], [ 3.21269158401023, 45.4669422231159 ], [ 3.21292314187828, 45.466923774674797 ], [ 3.21374806529887, 45.466862145342397 ], [ 3.21403259084127, 45.4669070765773 ], [ 3.21416577901475, 45.466998850120603 ], [ 3.21433432603715, 45.467133688313403 ], [ 3.21479500914269, 45.467493624328498 ], [ 3.21496477898547, 45.467513739837202 ], [ 3.21500984157849, 45.4670880030841 ] ] ], [ [ [ 3.21765512742739, 45.467115050234703 ], [ 3.21765391839429, 45.4670350911668 ], [ 3.21764884766982, 45.466949376604902 ], [ 3.21761597727621, 45.466561969694801 ], [ 3.21754489874921, 45.465802780343601 ], [ 3.21492375840551, 45.465917787036297 ], [ 3.21493952170442, 45.466013071185003 ], [ 3.21488904686341, 45.4662635874909 ], [ 3.21492338333928, 45.466604888468197 ], [ 3.21494238928661, 45.466655098080999 ], [ 3.21511431961138, 45.467068622925602 ], [ 3.21510721105107, 45.4671496785177 ], [ 3.21591645911158, 45.467137498892001 ], [ 3.2162390686192, 45.467135436962302 ], [ 3.21765512742739, 45.467115050234703 ] ] ], [ [ [ 3.21521832912982, 45.4678533600039 ], [ 3.21495463005214, 45.467635952560201 ], [ 3.21480138155548, 45.467553042908897 ], [ 3.21468983355428, 45.467465190761999 ], [ 3.21412226070066, 45.467029999250698 ], [ 3.21403144297143, 45.466974523687298 ], [ 3.21397810138107, 45.4669471611912 ], [ 3.21391467166031, 45.466925400791297 ], [ 3.21387509026703, 45.466915481060397 ], [ 3.21381209963035, 45.466908037178797 ], [ 3.21372227883678, 45.466911990237897 ], [ 3.21357167615356, 45.4669171394793 ], [ 3.21339190894022, 45.466925675705802 ], [ 3.21287360588927, 45.4669543044105 ], [ 3.21261068678019, 45.466970651052002 ], [ 3.2123484190711, 45.466990057429499 ], [ 3.21230250853218, 45.466998248490903 ], [ 3.21224982825451, 45.467009784062803 ], [ 3.21220829311113, 45.467024360119801 ], [ 3.21275940066101, 45.467341091141797 ], [ 3.21309106398615, 45.467563867525797 ], [ 3.21317625407184, 45.467620164964998 ], [ 3.21339921725255, 45.467795602267401 ], [ 3.213901025105, 45.468333576027298 ], [ 3.21418989579794, 45.468640534337602 ], [ 3.21441552613383, 45.468742486504702 ], [ 3.21449162698704, 45.468730905154203 ], [ 3.21511596613262, 45.468055801022501 ], [ 3.21521832912982, 45.4678533600039 ] ] ], [ [ [ 3.21172099522143, 45.457458014054502 ], [ 3.21153056632373, 45.456842545285802 ], [ 3.21151334848064, 45.456789810505001 ], [ 3.21142776941868, 45.456646644814498 ], [ 3.20989184164668, 45.456242671630697 ], [ 3.21003138761875, 45.456400261960603 ], [ 3.21020536307949, 45.456594526586102 ], [ 3.21038922681072, 45.456798047195797 ], [ 3.21051075035016, 45.456925955400699 ], [ 3.21060099542307, 45.457004396625202 ], [ 3.21083064420111, 45.457201707418399 ], [ 3.2109092181607, 45.457272606424901 ], [ 3.21106567423039, 45.457434215805897 ], [ 3.21131190561207, 45.457684531823197 ], [ 3.21138938823845, 45.457770920553699 ], [ 3.21145923592429, 45.457868309294597 ], [ 3.21168360863085, 45.458190342729402 ], [ 3.21165611087315, 45.4577903179987 ], [ 3.21172099522143, 45.457458014054502 ] ] ], [ [ [ 3.2090454810857, 45.455020430278303 ], [ 3.20896256491149, 45.454882093293897 ], [ 3.20874211444379, 45.454676837572201 ], [ 3.20860574407154, 45.454545083118802 ], [ 3.20834255125663, 45.454302446770598 ], [ 3.20783455479348, 45.453850608456399 ], [ 3.20746081817468, 45.454109220181998 ], [ 3.20734543290713, 45.454011282869402 ], [ 3.207169852486, 45.453896437833698 ], [ 3.20704376445358, 45.453810135968297 ], [ 3.20664734090257, 45.453587191507097 ], [ 3.20563020104821, 45.453408013030497 ], [ 3.20566374106093, 45.4530710518696 ], [ 3.20540908152493, 45.453020281999201 ], [ 3.2053192330119, 45.453010811499098 ], [ 3.20500464492789, 45.453014898591903 ], [ 3.20485600846623, 45.453022824039699 ], [ 3.20461052173653, 45.453030745872098 ], [ 3.2045004749428, 45.453025633779603 ], [ 3.20440960935967, 45.453017875287003 ], [ 3.20439471362212, 45.4530725605999 ], [ 3.20387348287466, 45.453071257830103 ], [ 3.20386996632339, 45.453089183456797 ], [ 3.20365928898326, 45.4530649834239 ], [ 3.20354538920666, 45.453055825300197 ], [ 3.20322058411417, 45.452995002462998 ], [ 3.20318728417433, 45.453895076715497 ], [ 3.20274413730289, 45.453801509754797 ], [ 3.20264209325617, 45.453780983436403 ], [ 3.20257678818566, 45.453765883526501 ], [ 3.20242272998458, 45.453726090934701 ], [ 3.202192724527, 45.453664733843098 ], [ 3.20215138948116, 45.454048856308198 ], [ 3.20218589308142, 45.454072836528397 ], [ 3.20218583626562, 45.454408889887098 ], [ 3.20162851756215, 45.454373514098499 ], [ 3.20168697124228, 45.454580605859903 ], [ 3.20153779745174, 45.454582764899598 ], [ 3.20096517387983, 45.454596488605901 ], [ 3.20097260583213, 45.454493462183301 ], [ 3.20068976828489, 45.454576541043501 ], [ 3.20070499267084, 45.4546825884984 ], [ 3.20040236356125, 45.454777047886999 ], [ 3.2003434361466, 45.454827669173199 ], [ 3.2002257896338, 45.454880286210702 ], [ 3.20016141926006, 45.454911737225999 ], [ 3.20011428611029, 45.454933432446701 ], [ 3.20004032798047, 45.454967151653896 ], [ 3.19985574904523, 45.455050593453898 ], [ 3.19961137858488, 45.455051388676502 ], [ 3.19934142106621, 45.4550526790634 ], [ 3.19899780377013, 45.455135501442903 ], [ 3.19889409925546, 45.455187552075003 ], [ 3.19877405639374, 45.455250437129997 ], [ 3.19900779850794, 45.455782827508401 ], [ 3.19914682326965, 45.4558039218334 ], [ 3.19969645395196, 45.455868228570402 ], [ 3.19979451275019, 45.455882731564301 ], [ 3.19988793998277, 45.455890129055597 ], [ 3.20028267511492, 45.455896088543902 ], [ 3.20041804445802, 45.455896747278501 ], [ 3.20049660870221, 45.4558982277469 ], [ 3.20058438663565, 45.4559001419208 ], [ 3.20098853115987, 45.4558190972405 ], [ 3.2020406530472, 45.455614152810803 ], [ 3.2021677061689, 45.455579886389003 ], [ 3.20272205090044, 45.455603288724397 ], [ 3.20335463132838, 45.455608267118997 ], [ 3.20349768096896, 45.455610078819802 ], [ 3.20399543073385, 45.455621511276902 ], [ 3.20414083662225, 45.4556029673764 ], [ 3.20443103289756, 45.455572543568202 ], [ 3.20452079357794, 45.455591830013397 ], [ 3.20470861726437, 45.455626515543898 ], [ 3.20490500340079, 45.455693151613303 ], [ 3.20503802666259, 45.455786286764202 ], [ 3.20518095235325, 45.455893000665299 ], [ 3.20553871470754, 45.456211110294099 ], [ 3.20595718570201, 45.456613751058299 ], [ 3.20604515417951, 45.456701204756598 ], [ 3.20625643171338, 45.456779697266597 ], [ 3.20695504715838, 45.4563723912866 ], [ 3.20691428417696, 45.456008408615801 ], [ 3.20690953653284, 45.455936020016701 ], [ 3.2068197944234, 45.455681444048899 ], [ 3.20671721048134, 45.455379527247302 ], [ 3.20657277887843, 45.455040228102099 ], [ 3.20646370368559, 45.454781185160101 ], [ 3.20625913063229, 45.454542217992298 ], [ 3.20620464795467, 45.454478925447098 ], [ 3.20587616428554, 45.454187958334998 ], [ 3.20526171793354, 45.454065630510897 ], [ 3.20506223927272, 45.454026284812002 ], [ 3.20507433718943, 45.453976286930597 ], [ 3.20591369811556, 45.454131520385701 ], [ 3.20613292170767, 45.4543198551494 ], [ 3.20627602581067, 45.454440614546598 ], [ 3.20638966470975, 45.454550892538201 ], [ 3.20654239422379, 45.454748173371698 ], [ 3.20657877561977, 45.454829238236599 ], [ 3.20676325382134, 45.455271836894099 ], [ 3.20679799070464, 45.455357767234403 ], [ 3.20687714888808, 45.455587689993799 ], [ 3.20691846878887, 45.455723403853803 ], [ 3.20695130546192, 45.455814290212899 ], [ 3.2090454810857, 45.455020430278303 ] ] ], [ [ [ 3.21181798381337, 45.458835002226003 ], [ 3.21181238165621, 45.458808719220002 ], [ 3.21176499282219, 45.458561540950797 ], [ 3.21170615335195, 45.458432075061097 ], [ 3.21158330709174, 45.458193593498699 ], [ 3.21129853252619, 45.457801707501297 ], [ 3.21118240034593, 45.457679372861897 ], [ 3.21079267869089, 45.457278498360601 ], [ 3.21065537008684, 45.457172231246702 ], [ 3.21056177788694, 45.457088483602199 ], [ 3.21039692948861, 45.456940036055599 ], [ 3.20993371175287, 45.456420345036001 ], [ 3.20980714057475, 45.456276507433202 ], [ 3.20944241342573, 45.456018125176499 ], [ 3.20928111093015, 45.4558583235507 ], [ 3.20917831300286, 45.455707147145098 ], [ 3.20820603539763, 45.456146221272199 ], [ 3.20717230272595, 45.456612954685603 ], [ 3.20737002636523, 45.456933424999697 ], [ 3.20745174371578, 45.457059339003003 ], [ 3.20759106785711, 45.457158852808803 ], [ 3.20788921360082, 45.457336412721602 ], [ 3.20815758871931, 45.457490434906802 ], [ 3.2084362218122, 45.457615802617497 ], [ 3.20856835812086, 45.457674357424096 ], [ 3.20900055353521, 45.457770983488601 ], [ 3.20910735731742, 45.457795727367902 ], [ 3.20919635027466, 45.457847608349198 ], [ 3.20951201771552, 45.458020809081802 ], [ 3.20961997556001, 45.458079948081902 ], [ 3.2100887710678, 45.4583460591452 ], [ 3.21043856372593, 45.458541524925202 ], [ 3.21053779660001, 45.458593745832999 ], [ 3.21066995184924, 45.458689847539297 ], [ 3.21098567815388, 45.458909778192996 ], [ 3.21121158931737, 45.459131227771799 ], [ 3.21146075877964, 45.459378116240401 ], [ 3.21162284616781, 45.459538093456999 ], [ 3.21172226808107, 45.459336922064601 ], [ 3.21179415478176, 45.458961472513302 ], [ 3.21181798381337, 45.458835002226003 ] ] ], [ [ [ 3.20877263727754, 45.458782990146297 ], [ 3.20870908408798, 45.4586912609481 ], [ 3.20846187547278, 45.458417258783001 ], [ 3.20835262076469, 45.458114455260798 ], [ 3.20841115613418, 45.457789728947702 ], [ 3.20841729593589, 45.457721012072099 ], [ 3.20840627506157, 45.457716440172497 ], [ 3.20807793185499, 45.457573695566403 ], [ 3.20778529579305, 45.457398737290099 ], [ 3.2074707098001, 45.4572043688093 ], [ 3.20704868348624, 45.457087907882901 ], [ 3.2064229061395, 45.456921214302 ], [ 3.20628094699579, 45.456869428527803 ], [ 3.20625674472899, 45.456860585435201 ], [ 3.20625046589407, 45.456868404006499 ], [ 3.20577985611537, 45.457168222407297 ], [ 3.20585216659417, 45.457277045996001 ], [ 3.20608781966514, 45.457648595396101 ], [ 3.20618407865863, 45.457797445474498 ], [ 3.20624006979692, 45.457783655503697 ], [ 3.20625338958866, 45.457787142832103 ], [ 3.20699369878947, 45.457955607183301 ], [ 3.20685582038847, 45.458244730597997 ], [ 3.20707557049453, 45.458328788857898 ], [ 3.20708799850464, 45.458333268245099 ], [ 3.2073920497205, 45.458343422185301 ], [ 3.20745217306088, 45.458305401464401 ], [ 3.20743442565618, 45.458246994103099 ], [ 3.20773423954121, 45.458321718284601 ], [ 3.20790586781752, 45.458367954431999 ], [ 3.20813507108737, 45.458652346563497 ], [ 3.20864388190742, 45.458910015121198 ], [ 3.20877263727754, 45.458782990146297 ] ] ], [ [ [ 3.21102765532759, 45.4591141948816 ], [ 3.21088415950709, 45.458963546716603 ], [ 3.21074883585296, 45.458875735486998 ], [ 3.21048468807777, 45.458692896631 ], [ 3.21029911400503, 45.458580146192098 ], [ 3.20961375928578, 45.458195849536999 ], [ 3.20921768748038, 45.457975434584299 ], [ 3.20901767664702, 45.4578671212439 ], [ 3.20855721644618, 45.457773969551099 ], [ 3.20851174977175, 45.458103173980199 ], [ 3.20857993898775, 45.458373546910202 ], [ 3.20884483539551, 45.458689567609099 ], [ 3.20899458052693, 45.458904499928899 ], [ 3.20901102892127, 45.458957236542297 ], [ 3.20913789286502, 45.459483772230101 ], [ 3.20996634476045, 45.4589957037064 ], [ 3.21011051424226, 45.459088271780203 ], [ 3.21049027268921, 45.459356528941903 ], [ 3.21102765532759, 45.4591141948816 ] ] ], [ [ [ 3.21593595285962, 45.4582281812338 ], [ 3.21583912845891, 45.4581021043089 ], [ 3.2154332036346, 45.457557652820299 ], [ 3.2153352561764, 45.457428426005798 ], [ 3.2153302967899, 45.457429732193503 ], [ 3.21428216264897, 45.457716159731703 ], [ 3.21415616233994, 45.457564779994101 ], [ 3.21397220083994, 45.457426513385101 ], [ 3.21465695664728, 45.457100533757298 ], [ 3.21430566176773, 45.456663021042097 ], [ 3.21321792058218, 45.455968151641898 ], [ 3.21299786008954, 45.456103549300899 ], [ 3.21264224352786, 45.456089726365498 ], [ 3.21131254639896, 45.456237933802001 ], [ 3.2115053555502, 45.456437833870197 ], [ 3.2116094650241, 45.456561811662603 ], [ 3.21164470141878, 45.456642336802602 ], [ 3.21165769057152, 45.456693368656403 ], [ 3.21166780348425, 45.456795462292703 ], [ 3.21165695638392, 45.456870131293002 ], [ 3.21164923112483, 45.456924623990801 ], [ 3.21176947215718, 45.457285933765 ], [ 3.2118098397508, 45.4574704528791 ], [ 3.21174134313704, 45.457794839601299 ], [ 3.21177273762936, 45.458176397424403 ], [ 3.21182939622917, 45.458405098641798 ], [ 3.2118879585475, 45.458663151406498 ], [ 3.21190877761605, 45.458754059065399 ], [ 3.21192214772047, 45.458837687023703 ], [ 3.21185207388733, 45.459184948669403 ], [ 3.21183675507971, 45.4592614270856 ], [ 3.2118142451834, 45.459364752938498 ], [ 3.21168692381148, 45.459631620967698 ], [ 3.21168950895827, 45.459638459626198 ], [ 3.21184567387799, 45.459956299263503 ], [ 3.21186636286753, 45.460113661531899 ], [ 3.2118730496989, 45.460189468083797 ], [ 3.21188216209225, 45.460230241955202 ], [ 3.21188493395917, 45.460252478214102 ], [ 3.21193078500996, 45.460297234793998 ], [ 3.21191391495246, 45.460336076711798 ], [ 3.21218751201813, 45.460745091302002 ], [ 3.21223797259176, 45.460723474744697 ], [ 3.21229331748196, 45.460707611902201 ], [ 3.21237867630904, 45.460677104688202 ], [ 3.21352453403168, 45.460877264595098 ], [ 3.21384749080633, 45.460875118766097 ], [ 3.21399629089688, 45.460871323263603 ], [ 3.21444031207296, 45.460840309971601 ], [ 3.21582295259279, 45.460746856119499 ], [ 3.21472732932004, 45.458610686164498 ], [ 3.21593595285962, 45.4582281812338 ] ] ] ] } },
{ "type": "Feature", "properties": { "Name": null, "id": "" }, "geometry": { "type": "MultiPolygon", "coordinates": [ [ [ [ 3.17386189278974, 45.4661850846162 ], [ 3.17374158397299, 45.466056774594399 ], [ 3.17356026764644, 45.465898123104701 ], [ 3.17339191506274, 45.465751607573701 ], [ 3.17333640238068, 45.465636794009903 ], [ 3.17327506548069, 45.465541889688801 ], [ 3.17309941844504, 45.465312542223003 ], [ 3.17297331384707, 45.465171093552101 ], [ 3.17277504412397, 45.464990945843297 ], [ 3.17228384508959, 45.465259859485201 ], [ 3.17206543634864, 45.465518087731397 ], [ 3.17178930703775, 45.465816204485698 ], [ 3.17167818083339, 45.465841677614598 ], [ 3.17143069071955, 45.466049613136001 ], [ 3.17082153054377, 45.466249274688003 ], [ 3.17067533069263, 45.466313610247397 ], [ 3.17042218333592, 45.466389634037 ], [ 3.17019439342699, 45.466472192194203 ], [ 3.1700987128669, 45.4664814859904 ], [ 3.17004925081535, 45.466506080614202 ], [ 3.17002533139461, 45.466551509296401 ], [ 3.16954102500731, 45.466823462087703 ], [ 3.16963520268598, 45.466946233235497 ], [ 3.16926848025193, 45.467044577489297 ], [ 3.16881100633831, 45.467195923398698 ], [ 3.16689670715071, 45.467829193286398 ], [ 3.16676019063155, 45.467839571488199 ], [ 3.16663957376208, 45.467860281263199 ], [ 3.16506041294612, 45.468086560740304 ], [ 3.16516156708326, 45.468191045950597 ], [ 3.16531013832118, 45.468403787181799 ], [ 3.16520168422796, 45.468598987628297 ], [ 3.16489159599259, 45.468899388608897 ], [ 3.16498650925985, 45.468970475903298 ], [ 3.16625850982833, 45.468985977619901 ], [ 3.16656112659273, 45.469055765169799 ], [ 3.16689502250033, 45.469057700362299 ], [ 3.16753127498331, 45.469212352734097 ], [ 3.16766600880062, 45.469288691063603 ], [ 3.16781634483059, 45.469318902081397 ], [ 3.16875367502528, 45.4689066142125 ], [ 3.16882101679936, 45.4688731957146 ], [ 3.16915542172907, 45.468706376231502 ], [ 3.17002085616064, 45.468267352269002 ], [ 3.17014172476742, 45.468203596240897 ], [ 3.17103612130905, 45.467741108448202 ], [ 3.1710896753054, 45.467719415650201 ], [ 3.17173015672163, 45.467463065441599 ], [ 3.17255601119912, 45.467024982972198 ], [ 3.17349600005815, 45.466422203068497 ], [ 3.17378677738099, 45.466226892499698 ], [ 3.17386189278974, 45.4661850846162 ] ] ] ] } }
]
}
